LL LFPGYYYX LFPNYYYX LFPNYYYX EGLLYYYX 051832 METAR LFPG 051832Z 30251KT 9999 FEW030 6/3 Q1004
DD EDDFYYYX EGLLYYYX 271351 METAR LFPG 271351Z 32139KT 9999 FEW030 29/19 Q1087
KK LFPBYYYX EDDFYYYX EGLLYYYX LFPOYYYX 201824 METAR LFPG 201824Z 18233KT 9999 FEW030 14/8 Q1062
FF LFPOYYYX LFPGYYYX EDDFYYYX LFPGYYYX 050220 METAR LFPG 050220Z 23919KT 9999 FEW030 23/4 Q1073
FF EGLLYYYX LFPNYYYX 170221 METAR LFPG 170221Z 35939KT 9999 FEW030 28/11 Q1040
FF LFPGYYYX EDDFYYYX LFPNYYYX 151755 METAR LFPG 151755Z 32554KT 9999 FEW030 15/18 Q1061
FF LFPOYYYX LFPOYYYX LFPBYYYX LFPBYYYX 031635 METAR LFPG 031635Z 01323KT 9999 FEW030 29/5 Q1097
SS LFPOYYYX EGLLYYYX LFPOYYYX LFPOYYYX 081707 METAR LFPG 081707Z 27816KT 9999 FEW030 14/9 Q1021
LL LFPBYYYX EGLLYYYX LFPNYYYX EGLLYYYX 141950 METAR LFPG 141950Z 08848KT 9999 FEW030 9/15 Q1096
KK LFPNYYYX EGLLYYYX LFPBYYYX LFPGYYYX 202112 METAR LFPG 202112Z 16210KT 9999 FEW030 5/9 Q1064
DD EGLLYYYX EDDFYYYX LFPNYYYX 220026 METAR LFPG 220026Z 35654KT 9999 FEW030 2/17 Q1089
LL LFPBYYYX LFPGYYYX 161012 METAR LFPG 161012Z 34240KT 9999 FEW030 23/9 Q1085
KK EGLLYYYX LFPBYYYX 200656 METAR LFPG 200656Z 02645KT 9999 FEW030 19/14 Q1034
SS LFPNYYYX LFPNYYYX LFPGYYYX EGLLYYYX 051025 METAR LFPG 051025Z 05553KT 9999 FEW030 22/18 Q1053
GG LFPYYYX LFPNYYYX 211453 METAR LFPG 211453Z 08311KT 9999 FEW030 3/7 Q1015
FF EGLLYYYX LFPNYYYX EGLLYYYX 030814 METAR LFPG 030814Z 29343KT 9999 FEW030 7/14 Q1077
GG LFPOYYYX EDDFYYYX LFPOYYYX LFPOYYYX 220018 METAR LFPG 220018Z 23656KT 9999 FEW030 15/7 Q1081
LL EDDFYYYX LFPGYYYX 170252 METAR LFPG 170252Z 14321KT 9999 FEW030 24/9 Q1001
DD LFPBYYYX LFPGYYYX LFPNYYYX LFPNYYYX 050205 METAR LFPG 050205Z 33555KT 9999 FEW030 18/2 Q1070
KK LFPOYYYX EDDFYYYX 211441 METAR LFPG 211441Z 13159KT 9999 FEW030 7/3 Q1014
SS LFPBYYYX LFPBYYYX 050240 METAR LFPG 050240Z 31049KT 9999 FEW030 11/5 Q1000
GG EDDFYYYX EDDFYYYX LFPOYYYX LFPOYYYX 030042 METAR LFPG 030042Z 02051KT 9999 FEW030 26/2 Q1029
DD LFPNYYYX LFPOYYYX EDDFYYYX 181541 METAR LFPG 181541Z 25210KT 9999 FEW030 29/15 Q1067
FF EGLLYYYX EDDFYYYX EGLLYYYX LFPNYYYX 251533 METAR LFPG 251533Z 01112KT 9999 FEW030 3/18 Q1046
FF LFPOYYYX LFPGYYYX LFPGYYYX LFPBYYYX 210205 METAR LFPG 210205Z 33533KT 9999 FEW030 17/3 Q1095
DD LFPBYYYX EDDFYYYX LFPOYYYX LFPOYYYX 231207 METAR LFPG 231207Z 34545KT 9999 FEW030 24/2 Q1014
SS LFPGYYYX LFPBYYYX 190003 METAR LFPG 190003Z 21311KT 9999 FEW030 2/17 Q1082
SS LFPGYYYX LFPOYYYX LFPNYYYX LFPBYYYX 110802 METAR LFPG 110802Z 10031KT 9999 FEW030 6/2 Q1035
FF LFPOYYYX LFPOYYYX LFPBYYYX 270531 METAR LFPG 270531Z 00110KT 9999 FEW030 18/15 Q1084
FF EDDFYYYX LFPOYYYX LFPOYYYX EGLLYYYX 041416 METAR LFPG 041416Z 34635KT 9999 FEW030 7/19 Q1023
DD EGLLYYYX EDDFYYYX LFPOYYYX 080928 METAR LFPG 080928Z 12626KT 9999 FEW030 1/12 Q1013
LL EGLLYYYX EGLLYYYX LFPBYYYX LFPBYYYX 161339 METAR LFPG 161339Z 13020KT 9999 FEW030 17/15 Q1085
SS EGLLYYYX LFPGYYYX 221530 METAR LFPG 221530Z 30058KT 9999 FEW030 20/7 Q1082
GG LFPYYYX LFPOYYYX 141522 METAR LFPG 141522Z 18030KT 9999 FEW030 25/12 Q1053
GG LFPYYYX LFPNYYYX LFPBYYYX 260006 METAR LFPG 260006Z 16455KT 9999 FEW030 21/6 Q1014
DD LFPBYYYX EDDFYYYX LFPNYYYX LFPOYYYX 251529 METAR LFPG 251529Z 05957KT 9999 FEW030 11/2 Q1042
KK EGLLYYYX LFPNYYYX 092252 METAR LFPG 092252Z 21131KT 9999 FEW030 25/15 Q1073
GG LFPBYYYX LFPBYYYX LFPOYYYX 261926 METAR LFPG 261926Z 29654KT 9999 FEW030 3/10 Q1030
GG LFPNYYYX EDDFYYYX 280232 METAR LFPG 280232Z 19021KT 9999 FEW030 21/11 Q1081
KK LFPOYYYX LFPBYYYX 152058 METAR LFPG 152058Z 32947KT 9999 FEW030 22/2 Q1013
FF LFPNYYYX LFPNYYYX 030531 METAR LFPG 030531Z 12150KT 9999 FEW030 29/19 Q1054
DD EDDFYYYX LFPOYYYX LFPOYYYX 182353 METAR LFPG 182353Z 21242KT 9999 FEW030 4/1 Q1008
LL LFPNYYYX LFPNYYYX 111238 METAR LFPG 111238Z 24947KT 9999 FEW030 2/3 Q1004
LL LFPNYYYX LFPGYYYX LFPNYYYX 062338 METAR LFPG 062338Z 18836KT 9999 FEW030 5/1 Q1079
DD EGLLYYYX EGLLYYYX LFPBYYYX 010205 METAR LFPG 010205Z 21523KT 9999 FEW030 15/13 Q1064
FF LFPBYYYX EGLLYYYX 042123 METAR LFPG 042123Z 11452KT 9999 FEW030 8/3 Q1076
FF LFPGYYYX EGLLYYYX LFPGYYYX 021546 METAR LFPG 021546Z 20444KT 9999 FEW030 13/14 Q1025
GG EDDFYYYX LFPOYYYX 180309 METAR LFPG 180309Z 04828KT 9999 FEW030 19/7 Q1075
FF LFPGYYYX LFPBYYYX LFPGYYYX EGLLYYYX 271619 METAR LFPG 271619Z 34947KT 9999 FEW030 3/11 Q1015
GG EGLLYYYX EDDFYYYX 150015 METAR LFPG 150015Z 28553KT 9999 FEW030 11/15 Q1007
GG EGLLYYYX LFPBYYYX LFPOYYYX LFPGYYYX 141510 METAR LFPG 141510Z 34048KT 9999 FEW030 10/5 Q1017
FF LFPGYYYX LFPOYYYX EDDFYYYX 031606 METAR LFPG 031606Z 15625KT 9999 FEW030 20/2 Q1056
LL EGLLYYYX EGLLYYYX EGLLYYYX LFPGYYYX 260318 METAR LFPG 260318Z 04826KT 9999 FEW030 5/19 Q1085
LL LFPOYYYX LFPOYYYX LFPBYYYX LFPBYYYX 171529 METAR LFPG 171529Z 05928KT 9999 FEW030 29/3 Q1026
SS LFPGYYYX EDDFYYYX LFPNYYYX 080507 METAR LFPG 080507Z 33846KT 9999 FEW030 20/4 Q1027
LL LFPYYYX LFPGYYYX LFPNYYYX LFPGYYYX 190055 METAR LFPG 190055Z 33333KT 9999 FEW030 20/0 Q1006
LL LFPNYYYX LFPBYYYX EGLLYYYX LFPBYYYX 230454 METAR LFPG 230454Z 14533KT 9999 FEW030 24/18 Q1059
KK LFPBYYYX LFPGYYYX LFPBYYYX 091529 METAR LFPG 091529Z 17920KT 9999 FEW030 3/11 Q1000
LL EGLLYYYX LFPNYYYX 171441 METAR LFPG 171441Z 25159KT 9999 FEW030 27/4 Q1022
LL EDDFYYYX EDDFYYYX LFPOYYYX LFPOYYYX 041307 METAR LFPG 041307Z 10636KT 9999 FEW030 6/18 Q1050
LL LFPBYYYX LFPGYYYX LFPOYYYX 102313 METAR LFPG 102313Z 04432KT 9999 FEW030 17/18 Q1088
KK LFPYYYX LFPOYYYX LFPBYYYX LFPGYYYX 041832 METAR LFPG 041832Z 30251KT 9999 FEW030 18/16 Q1053
LL EGLLYYYX LFPNYYYX 272046 METAR LFPG 272046Z 25645KT 9999 FEW030 7/2 Q1058
DD LFPOYYYX LFPNYYYX EGLLYYYX EGLLYYYX 172241 METAR LFPG 172241Z 13939KT 9999 FEW030 14/17 Q1019
KK EGLLYYYX EDDFYYYX LFPOYYYX LFPBYYYX 181506 METAR LFPG 181506Z 15634KT 9999 FEW030 13/7 Q1098
GG LFPOYYYX LFPNYYYX EGLLYYYX EDDFYYYX 222353 METAR LFPG 222353Z 09112KT 9999 FEW030 13/0 Q1089
KK LFPGYYYX EGLLYYYX 181230 METAR LFPG 181230Z 12858KT 9999 FEW030 2/6 Q1067
FF LFPGYYYX EGLLYYYX EDDFYYYX 182341 METAR LFPG 182341Z 01910KT 9999 FEW030 26/7 Q1075
KK EDDFYYYX LFPBYYYX LFPNYYYX 171024 METAR LFPG 171024Z 29553KT 9999 FEW030 6/5 Q1063
DD LFPOYYYX LFPOYYYX LFPBYYYX 241012 METAR LFPG 241012Z 34211KT 9999 FEW030 6/3 Q1098
SS LFPBYYYX EGLLYYYX EDDFYYYX LFPBYYYX 110835 METAR LFPG 110835Z 00523KT 9999 FEW030 3/19 Q1066
LL EGLLYYYX LFPGYYYX LFPGYYYX EGLLYYYX 150411 METAR LFPG 150411Z 28929KT 9999 FEW030 29/7 Q1063
GG EGLLYYYX EDDFYYYX 181510 METAR LFPG 181510Z 34838KT 9999 FEW030 3/13 Q1028
SS EDDFYYYX LFPGYYYX LFPGYYYX 200523 METAR LFPG 200523Z 24212KT 9999 FEW030 29/19 Q1037
KK LFPBYYYX LFPOYYYX LFPBYYYX 062010 METAR LFPG 062010Z 28028KT 9999 FEW030 20/5 Q1090
DD LFPBYYYX EDDFYYYX LFPGYYYX 151654 METAR LFPG 151654Z 32543KT 9999 FEW030 9/3 Q1010
KK EDDFYYYX EDDFYYYX LFPNYYYX 262038 METAR LFPG 262038Z 01627KT 9999 FEW030 5/8 Q1034
SS EGLLYYYX LFPGYYYX LFPOYYYX LFPGYYYX 120103 METAR LFPG 120103Z 33442KT 9999 FEW030 13/13 Q1091
GG LFPNYYYX LFPOYYYX LFPBYYYX LFPNYYYX 152111 METAR LFPG 152111Z 04121KT 9999 FEW030 25/12 Q1090
KK EDDFYYYX EGLLYYYX 182325 METAR LFPG 182325Z 11544KT 9999 FEW030 22/8 Q1040
KK LFPOYYYX LFPBYYYX LFPBYYYX 152103 METAR LFPG 152103Z 16112KT 9999 FEW030 12/16 Q1073
SS LFPOYYYX LFPGYYYX EGLLYYYX 250217 METAR LFPG 250217Z 04755KT 9999 FEW030 0/12 Q1053
DD LFPGYYYX EDDFYYYX 211028 METAR LFPG 211028Z 00617KT 9999 FEW030 24/0 Q1049
LL LFPNYYYX EDDFYYYX LFPNYYYX 092236 METAR LFPG 092236Z 30725KT 9999 FEW030 7/4 Q1062
FF LFPOYYYX LFPGYYYX LFPGYYYX EGLLYYYX 070811 METAR LFPG 070811Z 10139KT 9999 FEW030 16/13 Q1055
GG LFPGYYYX LFPBYYYX LFPNYYYX EGLLYYYX 112059 METAR LFPG 112059Z 32937KT 9999 FEW030 16/17 Q1013
LL LFPYYYX EGLLYYYX LFPBYYYX 140758 METAR LFPG 140758Z 14836KT 9999 FEW030 27/19 Q1072
SS LFPBYYYX LFPNYYYX EGLLYYYX LFPGYYYX 191643 METAR LFPG 191643Z 13311KT 9999 FEW030 17/10 Q1029
FF LFPYYYX LFPOYYYX LFPNYYYX LFPNYYYX 190858 METAR LFPG 190858Z 02917KT 9999 FEW030 15/6 Q1065
DD EGLLYYYX LFPOYYYX 241328 METAR LFPG 241328Z 05826KT 9999 FEW030 27/12 Q1077
FF LFPNYYYX EGLLYYYX EGLLYYYX 151218 METAR LFPG 151218Z 05757KT 9999 FEW030 22/14 Q1086
LL EGLLYYYX LFPBYYYX LFPGYYYX 051052 METAR LFPG 051052Z 03151KT 9999 FEW030 8/14 Q1099
GG EGLLYYYX EDDFYYYX LFPBYYYX 282240 METAR LFPG 282240Z 25858KT 9999 FEW030 8/5 Q1029
SS LFPGYYYX LFPGYYYX 142338 METAR LFPG 142338Z 18846KT 9999 FEW030 11/3 Q1011
FF LFPNYYYX LFPGYYYX LFPGYYYX 061646 METAR LFPG 061646Z 07624KT 9999 FEW030 1/1 Q1011
KK LFPOYYYX EGLLYYYX 091809 METAR LFPG 091809Z 15917KT 9999 FEW030 29/19 Q1029
DD LFPYYYX LFPNYYYX LFPBYYYX LFPBYYYX 141553 METAR LFPG 141553Z 20412KT 9999 FEW030 18/15 Q1050
FF LFPGYYYX LFPGYYYX EDDFYYYX LFPBYYYX 270430 METAR LFPG 270430Z 24139KT 9999 FEW030 7/16 Q1064
SS EGLLYYYX EGLLYYYX EDDFYYYX LFPBYYYX 261521 METAR LFPG 261521Z 30010KT 9999 FEW030 11/18 Q1052
SS LFPOYYYX EDDFYYYX LFPNYYYX LFPBYYYX 212225 METAR LFPG 212225Z 11513KT 9999 FEW030 18/11 Q1060
KK LFPGYYYX LFPGYYYX 252228 METAR LFPG 252228Z 30747KT 9999 FEW030 5/7 Q1039
KK LFPYYYX EGLLYYYX EGLLYYYX EDDFYYYX 232022 METAR LFPG 232022Z 11341KT 9999 FEW030 3/10 Q1004
GG LFPOYYYX LFPNYYYX LFPGYYYX LFPNYYYX 260341 METAR LFPG 260341Z 31230KT 9999 FEW030 5/11 Q1002
DD LFPOYYYX LFPOYYYX LFPGYYYX 150019 METAR LFPG 150019Z 35737KT 9999 FEW030 24/16 Q1058
LL LFPBYYYX EDDFYYYX 111206 METAR LFPG 111206Z 22455KT 9999 FEW030 24/12 Q1095
FF EGLLYYYX LFPBYYYX LFPOYYYX 081712 METAR LFPG 081712Z 35010KT 9999 FEW030 4/5 Q1000
LL LFPYYYX LFPBYYYX EGLLYYYX LFPBYYYX 091404 METAR LFPG 091404Z 15523KT 9999 FEW030 1/11 Q1074
FF LFPBYYYX LFPNYYYX LFPBYYYX LFPNYYYX 241332 METAR LFPG 241332Z 01010KT 9999 FEW030 11/7 Q1076
FF LFPGYYYX EDDFYYYX LFPNYYYX LFPBYYYX 231707 METAR LFPG 231707Z 03716KT 9999 FEW030 21/11 Q1040
LL LFPOYYYX LFPGYYYX 072058 METAR LFPG 072058Z 20847KT 9999 FEW030 25/15 Q1008
DD LFPBYYYX LFPBYYYX LFPGYYYX 200119 METAR LFPG 200119Z 23818KT 9999 FEW030 28/11 Q1019
LL EDDFYYYX LFPOYYYX EDDFYYYX 090745 METAR LFPG 090745Z 19524KT 9999 FEW030 28/9 Q1041
KK EDDFYYYX LFPOYYYX LFPGYYYX LFPGYYYX 190030 METAR LFPG 190030Z 18929KT 9999 FEW030 26/4 Q1018
SS LFPOYYYX EGLLYYYX LFPNYYYX LFPNYYYX 101925 METAR LFPG 101925Z 06454KT 9999 FEW030 4/9 Q1054
DD LFPGYYYX EGLLYYYX EDDFYYYX 061921 METAR LFPG 061921Z 23122KT 9999 FEW030 26/18 Q1068
LL LFPBYYYX LFPBYYYX EDDFYYYX EDDFYYYX 011017 METAR LFPG 011017Z 05535KT 9999 FEW030 12/1 Q1096
LL EDDFYYYX LFPOYYYX EDDFYYYX 191254 METAR LFPG 191254Z 27253KT 9999 FEW030 24/19 Q1033
DD LFPOYYYX LFPOYYYX LFPOYYYX EDDFYYYX 101957 METAR LFPG 101957Z 08846KT 9999 FEW030 2/1 Q1049
KK LFPNYYYX LFPGYYYX LFPBYYYX 201812 METAR LFPG 201812Z 23021KT 9999 FEW030 7/10 Q1037
LL EGLLYYYX LFPGYYYX LFPGYYYX LFPNYYYX 122228 METAR LFPG 122228Z 18647KT 9999 FEW030 27/17 Q1079
SS LFPOYYYX EGLLYYYX LFPBYYYX LFPOYYYX 271227 METAR LFPG 271227Z 05747KT 9999 FEW030 0/3 Q1054
LL LFPBYYYX LFPNYYYX 271214 METAR LFPG 271214Z 10423KT 9999 FEW030 22/18 Q1025
DD EDDFYYYX LFPBYYYX EDDFYYYX LFPOYYYX 130233 METAR LFPG 130233Z 31131KT 9999 FEW030 1/7 Q1052
LL LFPGYYYX LFPGYYYX EGLLYYYX 212237 METAR LFPG 212237Z 18725KT 9999 FEW030 10/10 Q1058
GG LFPGYYYX LFPGYYYX 061949 METAR LFPG 061949Z 08828KT 9999 FEW030 5/9 Q1010
GG LFPYYYX LFPBYYYX 030835 METAR LFPG 030835Z 00543KT 9999 FEW030 25/3 Q1035
KK LFPYYYX LFPNYYYX 282116 METAR LFPG 282116Z 35434KT 9999 FEW030 18/4 Q1075
SS LFPGYYYX LFPOYYYX LFPGYYYX EDDFYYYX 110851 METAR LFPG 110851Z 26929KT 9999 FEW030 28/2 Q1010
SS EGLLYYYX LFPBYYYX LFPNYYYX 020322 METAR LFPG 020322Z 00010KT 9999 FEW030 11/19 Q1053
FF LFPBYYYX LFPGYYYX 042111 METAR LFPG 042111Z 28250KT 9999 FEW030 5/4 Q1010
LL LFPBYYYX LFPOYYYX LFPNYYYX EGLLYYYX 022350 METAR LFPG 022350Z 14048KT 9999 FEW030 26/8 Q1048
DD EDDFYYYX LFPNYYYX 231634 METAR LFPG 231634Z 25243KT 9999 FEW030 23/16 Q1061
LL LFPNYYYX LFPNYYYX LFPNYYYX 130636 METAR LFPG 130636Z 07515KT 9999 FEW030 0/6 Q1004
SS LFPBYYYX LFPBYYYX LFPBYYYX 071654 METAR LFPG 071654Z 32513KT 9999 FEW030 22/13 Q1080
FF LFPYYYX LFPGYYYX LFPBYYYX 130725 METAR LFPG 130725Z 12333KT 9999 FEW030 5/19 Q1011
KK LFPGYYYX LFPBYYYX LFPBYYYX LFPNYYYX 140309 METAR LFPG 140309Z 04848KT 9999 FEW030 2/16 Q1075
FF LFPNYYYX LFPOYYYX 221921 METAR LFPG 221921Z 11210KT 9999 FEW030 19/17 Q1034
FF LFPOYYYX EGLLYYYX 281732 METAR LFPG 281732Z 06210KT 9999 FEW030 11/15 Q1078
DD LFPGYYYX LFPBYYYX 020018 METAR LFPG 020018Z 23647KT 9999 FEW030 10/2 Q1081
DD LFPYYYX EDDFYYYX LFPGYYYX 022353 METAR LFPG 022353Z 21232KT 9999 FEW030 28/3 Q1058
GG LFPOYYYX EDDFYYYX LFPNYYYX 131004 METAR LFPG 131004Z 34313KT 9999 FEW030 13/15 Q1031
SS EGLLYYYX LFPGYYYX 221958 METAR LFPG 221958Z 32856KT 9999 FEW030 11/1 Q1041
SS LFPNYYYX LFPOYYYX LFPBYYYX LFPOYYYX 090341 METAR LFPG 090341Z 31140KT 9999 FEW030 7/12 Q1086
GG LFPOYYYX LFPNYYYX EDDFYYYX LFPGYYYX 131432 METAR LFPG 131432Z 25141KT 9999 FEW030 11/4 Q1049
KK EDDFYYYX EDDFYYYX LFPNYYYX LFPNYYYX 220006 METAR LFPG 220006Z 04434KT 9999 FEW030 19/12 Q1061
LL LFPGYYYX EGLLYYYX LFPOYYYX LFPNYYYX 220826 METAR LFPG 220826Z 24415KT 9999 FEW030 21/0 Q1085
DD EGLLYYYX EGLLYYYX 231655 METAR LFPG 231655Z 20523KT 9999 FEW030 25/19 Q1072
DD LFPBYYYX LFPNYYYX 151351 METAR LFPG 151351Z 20140KT 9999 FEW030 25/15 Q1047
LL EDDFYYYX LFPBYYYX EGLLYYYX EGLLYYYX 182329 METAR LFPG 182329Z 30818KT 9999 FEW030 16/12 Q1062
SS LFPOYYYX LFPBYYYX 110859 METAR LFPG 110859Z 26957KT 9999 FEW030 28/3 Q1048
KK LFPOYYYX LFPBYYYX LFPOYYYX LFPGYYYX 211013 METAR LFPG 211013Z 34331KT 9999 FEW030 17/15 Q1010
GG LFPGYYYX LFPBYYYX 231619 METAR LFPG 231619Z 34937KT 9999 FEW030 5/8 Q1077
GG LFPYYYX LFPNYYYX 190447 METAR LFPG 190447Z 26555KT 9999 FEW030 15/8 Q1059
KK LFPNYYYX EGLLYYYX LFPBYYYX LFPGYYYX 180042 METAR LFPG 180042Z 26041KT 9999 FEW030 15/16 Q1064
KK EDDFYYYX LFPGYYYX LFPGYYYX 132200 METAR LFPG 132200Z 33159KT 9999 FEW030 16/2 Q1089
KK LFPNYYYX LFPGYYYX LFPNYYYX 160132 METAR LFPG 160132Z 19040KT 9999 FEW030 0/6 Q1048
SS EDDFYYYX EGLLYYYX LFPOYYYX 240507 METAR LFPG 240507Z 21826KT 9999 FEW030 2/15 Q1079
SS LFPBYYYX LFPBYYYX LFPGYYYX 110859 METAR LFPG 110859Z 02937KT 9999 FEW030 6/17 Q1036
GG LFPNYYYX LFPNYYYX 161040 METAR LFPG 161040Z 07829KT 9999 FEW030 29/19 Q1009
LL LFPGYYYX LFPOYYYX EGLLYYYX LFPOYYYX 061634 METAR LFPG 061634Z 13213KT 9999 FEW030 6/1 Q1016
LL LFPNYYYX LFPNYYYX EDDFYYYX 090657 METAR LFPG 090657Z 02755KT 9999 FEW030 3/3 Q1091
KK LFPYYYX EDDFYYYX LFPGYYYX 130252 METAR LFPG 130252Z 26341KT 9999 FEW030 11/5 Q1013
DD LFPBYYYX EDDFYYYX 050233 METAR LFPG 050233Z 07151KT 9999 FEW030 4/0 Q1035
FF LFPBYYYX EDDFYYYX LFPNYYYX 162111 METAR LFPG 162111Z 28220KT 9999 FEW030 17/13 Q1082
GG EGLLYYYX LFPBYYYX LFPNYYYX EGLLYYYX 170305 METAR LFPG 170305Z 21556KT 9999 FEW030 15/14 Q1089
SS LFPBYYYX LFPGYYYX 162152 METAR LFPG 162152Z 21050KT 9999 FEW030 14/4 Q1041
LL EDDFYYYX LFPGYYYX LFPGYYYX LFPOYYYX 121432 METAR LFPG 121432Z 25051KT 9999 FEW030 7/17 Q1097
DD LFPGYYYX LFPOYYYX LFPNYYYX 220446 METAR LFPG 220446Z 02415KT 9999 FEW030 26/1 Q1025
KK EGLLYYYX LFPNYYYX LFPBYYYX EGLLYYYX 181658 METAR LFPG 181658Z 03647KT 9999 FEW030 20/10 Q1073
LL LFPNYYYX LFPNYYYX LFPOYYYX 132237 METAR LFPG 132237Z 18725KT 9999 FEW030 3/10 Q1023
KK EDDFYYYX EGLLYYYX 031254 METAR LFPG 031254Z 27253KT 9999 FEW030 3/6 Q1002
FF EDDFYYYX EGLLYYYX EDDFYYYX 121732 METAR LFPG 121732Z 30210KT 9999 FEW030 15/0 Q1011
DD LFPYYYX LFPBYYYX EDDFYYYX 201355 METAR LFPG 201355Z 03454KT 9999 FEW030 22/18 Q1050
SS LFPYYYX LFPGYYYX LFPNYYYX LFPNYYYX 071610 METAR LFPG 071610Z 22929KT 9999 FEW030 19/1 Q1058
GG LFPBYYYX LFPBYYYX 160936 METAR LFPG 160936Z 12634KT 9999 FEW030 19/15 Q1047
GG LFPNYYYX EGLLYYYX 281303 METAR LFPG 281303Z 03452KT 9999 FEW030 21/8 Q1030
LL EGLLYYYX LFPNYYYX EDDFYYYX 040648 METAR LFPG 040648Z 26647KT 9999 FEW030 26/7 Q1055
GG LFPGYYYX EDDFYYYX 092325 METAR LFPG 092325Z 11524KT 9999 FEW030 7/15 Q1002
KK LFPOYYYX EGLLYYYX EGLLYYYX LFPNYYYX 070822 METAR LFPG 070822Z 05321KT 9999 FEW030 9/19 Q1047
LL LFPNYYYX EGLLYYYX 160903 METAR LFPG 160903Z 10142KT 9999 FEW030 2/1 Q1086
KK EGLLYYYX LFPNYYYX 251440 METAR LFPG 251440Z 13029KT 9999 FEW030 14/19 Q1024
FF LFPGYYYX EGLLYYYX 071250 METAR LFPG 071250Z 32159KT 9999 FEW030 6/8 Q1071
KK LFPNYYYX LFPGYYYX 261517 METAR LFPG 261517Z 10816KT 9999 FEW030 8/17 Q1070
GG LFPGYYYX LFPOYYYX 141533 METAR LFPG 141533Z 13212KT 9999 FEW030 7/3 Q1055
DD LFPBYYYX EGLLYYYX LFPGYYYX LFPOYYYX 271242 METAR LFPG 271242Z 20151KT 9999 FEW030 28/11 Q1002
KK EDDFYYYX EDDFYYYX 111203 METAR LFPG 111203Z 15341KT 9999 FEW030 23/12 Q1013
GG EGLLYYYX LFPNYYYX LFPNYYYX EDDFYYYX 200204 METAR LFPG 200204Z 33413KT 9999 FEW030 7/18 Q1003
LL LFPBYYYX LFPGYYYX LFPGYYYX 071635 METAR LFPG 071635Z 13353KT 9999 FEW030 20/2 Q1055
DD LFPYYYX LFPNYYYX LFPGYYYX 261541 METAR LFPG 261541Z 01240KT 9999 FEW030 1/3 Q1021
KK LFPGYYYX LFPNYYYX LFPBYYYX LFPOYYYX 272002 METAR LFPG 272002Z 16131KT 9999 FEW030 4/14 Q1003
DD LFPGYYYX LFPOYYYX LFPOYYYX 182325 METAR LFPG 182325Z 23656KT 9999 FEW030 2/13 Q1072
KK LFPNYYYX LFPBYYYX 091848 METAR LFPG 091848Z 08757KT 9999 FEW030 7/19 Q1020
KK LFPGYYYX LFPGYYYX 050209 METAR LFPG 050209Z 04737KT 9999 FEW030 10/16 Q1086
KK EDDFYYYX LFPGYYYX 261113 METAR LFPG 261113Z 34452KT 9999 FEW030 19/4 Q1034
GG LFPNYYYX LFPNYYYX EGLLYYYX 202116 METAR LFPG 202116Z 34654KT 9999 FEW030 26/15 Q1052
FF LFPBYYYX LFPBYYYX LFPBYYYX 152023 METAR LFPG 152023Z 35341KT 9999 FEW030 16/7 Q1034
KK LFPYYYX EDDFYYYX 191607 METAR LFPG 191607Z 15725KT 9999 FEW030 4/18 Q1004
DD LFPNYYYX EDDFYYYX LFPNYYYX 031759 METAR LFPG 031759Z 03737KT 9999 FEW030 9/10 Q1056
FF LFPBYYYX LFPNYYYX LFPNYYYX 142326 METAR LFPG 142326Z 11654KT 9999 FEW030 10/10 Q1086
SS LFPYYYX EDDFYYYX LFPGYYYX 231634 METAR LFPG 231634Z 13353KT 9999 FEW030 9/7 Q1023
GG LFPYYYX LFPNYYYX LFPBYYYX 211037 METAR LFPG 211037Z 12715KT 9999 FEW030 16/7 Q1087
DD EGLLYYYX LFPGYYYX LFPNYYYX LFPNYYYX 030050 METAR LFPG 030050Z 14019KT 9999 FEW030 4/19 Q1059
DD LFPYYYX LFPBYYYX LFPGYYYX 141958 METAR LFPG 141958Z 20836KT 9999 FEW030 24/14 Q1013
GG EDDFYYYX EGLLYYYX LFPBYYYX 011149 METAR LFPG 011149Z 07928KT 9999 FEW030 20/18 Q1050
LL LFPOYYYX LFPBYYYX 161808 METAR LFPG 161808Z 03827KT 9999 FEW030 21/19 Q1026
DD EDDFYYYX LFPNYYYX LFPNYYYX 252204 METAR LFPG 252204Z 28333KT 9999 FEW030 0/17 Q1024
DD LFPBYYYX EDDFYYYX EDDFYYYX LFPNYYYX 231759 METAR LFPG 231759Z 27718KT 9999 FEW030 7/18 Q1028
DD LFPOYYYX EGLLYYYX LFPOYYYX EDDFYYYX 031319 METAR LFPG 031319Z 17718KT 9999 FEW030 1/18 Q1057
SS LFPOYYYX EGLLYYYX EGLLYYYX EDDFYYYX 120108 METAR LFPG 120108Z 27826KT 9999 FEW030 25/2 Q1021
LL LFPYYYX LFPNYYYX 070434 METAR LFPG 070434Z 19343KT 9999 FEW030 4/4 Q1036
GG EGLLYYYX EDDFYYYX EGLLYYYX 181114 METAR LFPG 181114Z 22442KT 9999 FEW030 18/10 Q1006
SS LFPGYYYX LFPOYYYX 052341 METAR LFPG 052341Z 01920KT 9999 FEW030 27/8 Q1098
DD LFPOYYYX LFPBYYYX EGLLYYYX 192127 METAR LFPG 192127Z 18515KT 9999 FEW030 26/18 Q1083
FF LFPNYYYX EGLLYYYX 070850 METAR LFPG 070850Z 02119KT 9999 FEW030 24/6 Q1030
FF EGLLYYYX EDDFYYYX LFPOYYYX 081315 METAR LFPG 081315Z 22644KT 9999 FEW030 23/9 Q1090
LL EGLLYYYX LFPOYYYX 010612 METAR LFPG 010612Z 17141KT 9999 FEW030 10/17 Q1026
DD LFPYYYX LFPOYYYX 280939 METAR LFPG 280939Z 19818KT 9999 FEW030 12/15 Q1022
LL LFPGYYYX LFPGYYYX EDDFYYYX LFPGYYYX 100838 METAR LFPG 100838Z 30816KT 9999 FEW030 23/5 Q1046
KK LFPOYYYX LFPNYYYX 220322 METAR LFPG 220322Z 00030KT 9999 FEW030 11/6 Q1091
DD EGLLYYYX EGLLYYYX LFPGYYYX 221901 METAR LFPG 221901Z 28030KT 9999 FEW030 3/10 Q1087
DD LFPGYYYX LFPOYYYX LFPNYYYX LFPGYYYX 161000 METAR LFPG 161000Z 03058KT 9999 FEW030 6/0 Q1022
GG EGLLYYYX LFPOYYYX LFPGYYYX LFPGYYYX 062313 METAR LFPG 062313Z 16442KT 9999 FEW030 2/1 Q1067
GG LFPNYYYX LFPOYYYX LFPGYYYX LFPBYYYX 260422 METAR LFPG 260422Z 12011KT 9999 FEW030 15/4 Q1061
LL EDDFYYYX LFPNYYYX 211809 METAR LFPG 211809Z 03957KT 9999 FEW030 15/15 Q1028
DD EDDFYYYX LFPBYYYX LFPOYYYX 030430 METAR LFPG 030430Z 24159KT 9999 FEW030 11/9 Q1080
FF EGLLYYYX LFPBYYYX 201755 METAR LFPG 201755Z 32534KT 9999 FEW030 18/11 Q1020
FF LFPBYYYX EGLLYYYX EDDFYYYX 270055 METAR LFPG 270055Z 09353KT 9999 FEW030 0/8 Q1032
FF LFPOYYYX LFPOYYYX 151227 METAR LFPG 151227Z 17735KT 9999 FEW030 6/19 Q1001
FF LFPYYYX LFPBYYYX LFPNYYYX 211857 METAR LFPG 211857Z 08745KT 9999 FEW030 11/2 Q1011
LL LFPOYYYX LFPBYYYX 250721 METAR LFPG 250721Z 17130KT 9999 FEW030 18/10 Q1081
GG LFPBYYYX EDDFYYYX LFPGYYYX 030851 METAR LFPG 030851Z 26919KT 9999 FEW030 0/10 Q1023
SS LFPYYYX LFPOYYYX 281356 METAR LFPG 281356Z 03434KT 9999 FEW030 17/12 Q1094
GG EDDFYYYX EGLLYYYX LFPNYYYX 180050 METAR LFPG 180050Z 26059KT 9999 FEW030 16/10 Q1073
FF LFPOYYYX EDDFYYYX LFPGYYYX EGLLYYYX 151255 METAR LFPG 151255Z 27313KT 9999 FEW030 3/13 Q1001
KK LFPBYYYX LFPBYYYX LFPOYYYX 180410 METAR LFPG 180410Z 04059KT 9999 FEW030 23/7 Q1065
DD LFPBYYYX LFPGYYYX LFPNYYYX 061554 METAR LFPG 061554Z 20432KT 9999 FEW030 19/12 Q1084
GG LFPBYYYX EDDFYYYX LFPGYYYX 280543 METAR LFPG 280543Z 31322KT 9999 FEW030 13/12 Q1041
LL LFPOYYYX LFPBYYYX LFPNYYYX 132229 METAR LFPG 132229Z 30727KT 9999 FEW030 11/11 Q1090
GG LFPBYYYX LFPGYYYX LFPGYYYX 081048 METAR LFPG 081048Z 07827KT 9999 FEW030 5/18 Q1084
DD LFPYYYX LFPOYYYX LFPOYYYX 190939 METAR LFPG 190939Z 07737KT 9999 FEW030 8/1 Q1083
SS LFPBYYYX EGLLYYYX 231635 METAR LFPG 231635Z 25313KT 9999 FEW030 17/15 Q1093
LL LFPYYYX LFPNYYYX LFPOYYYX LFPOYYYX 040507 METAR LFPG 040507Z 21756KT 9999 FEW030 24/13 Q1057
SS LFPYYYX LFPBYYYX EGLLYYYX LFPBYYYX 232026 METAR LFPG 232026Z 06545KT 9999 FEW030 25/2 Q1014
DD LFPNYYYX LFPBYYYX LFPNYYYX 181113 METAR LFPG 181113Z 34332KT 9999 FEW030 16/4 Q1016
KK LFPBYYYX LFPNYYYX LFPOYYYX EDDFYYYX 151610 METAR LFPG 151610Z 34919KT 9999 FEW030 26/8 Q1003
FF EDDFYYYX EDDFYYYX LFPGYYYX LFPBYYYX 150019 METAR LFPG 150019Z 35727KT 9999 FEW030 17/4 Q1023
KK LFPBYYYX LFPNYYYX 021206 METAR LFPG 021206Z 21625KT 9999 FEW030 9/3 Q1048
GG LFPYYYX EDDFYYYX 081832 METAR LFPG 081832Z 06243KT 9999 FEW030 9/3 Q1093
GG EDDFYYYX LFPNYYYX 270523 METAR LFPG 270523Z 24121KT 9999 FEW030 13/0 Q1003
KK LFPNYYYX LFPBYYYX 021129 METAR LFPG 021129Z 00848KT 9999 FEW030 2/10 Q1081
FF LFPNYYYX LFPNYYYX LFPBYYYX 201344 METAR LFPG 201344Z 08232KT 9999 FEW030 20/13 Q1062
LL LFPNYYYX LFPNYYYX 182318 METAR LFPG 182318Z 11646KT 9999 FEW030 7/5 Q1082
FF LFPGYYYX EDDFYYYX EDDFYYYX EDDFYYYX 170624 METAR LFPG 170624Z 12323KT 9999 FEW030 26/16 Q1046
SS EGLLYYYX EGLLYYYX LFPOYYYX 261118 METAR LFPG 261118Z 17626KT 9999 FEW030 24/15 Q1066
SS LFPNYYYX EDDFYYYX LFPOYYYX EDDFYYYX 241848 METAR LFPG 241848Z 20647KT 9999 FEW030 6/0 Q1077
GG LFPNYYYX EGLLYYYX LFPOYYYX LFPGYYYX 011521 METAR LFPG 011521Z 29959KT 9999 FEW030 14/0 Q1092
KK LFPGYYYX LFPNYYYX LFPNYYYX 270411 METAR LFPG 270411Z 16959KT 9999 FEW030 16/2 Q1086
SS EDDFYYYX EDDFYYYX LFPGYYYX LFPBYYYX 091800 METAR LFPG 091800Z 27919KT 9999 FEW030 10/18 Q1048
FF LFPGYYYX LFPNYYYX LFPOYYYX LFPNYYYX 101558 METAR LFPG 101558Z 27636KT 9999 FEW030 20/5 Q1069
FF LFPBYYYX EDDFYYYX 060430 METAR LFPG 060430Z 12059KT 9999 FEW030 27/6 Q1014
KK EDDFYYYX EDDFYYYX 091409 METAR LFPG 091409Z 10737KT 9999 FEW030 18/13 Q1048
KK LFPNYYYX LFPBYYYX LFPOYYYX 092216 METAR LFPG 092216Z 11535KT 9999 FEW030 8/7 Q1061
FF LFPOYYYX LFPBYYYX LFPBYYYX LFPGYYYX 101250 METAR LFPG 101250Z 20021KT 9999 FEW030 8/5 Q1048
SS LFPNYYYX LFPOYYYX 110835 METAR LFPG 110835Z 24553KT 9999 FEW030 5/11 Q1075
DD LFPGYYYX LFPBYYYX LFPOYYYX 220030 METAR LFPG 220030Z 18039KT 9999 FEW030 13/8 Q1071
LL LFPBYYYX LFPNYYYX 101554 METAR LFPG 101554Z 20434KT 9999 FEW030 11/12 Q1078
SS LFPOYYYX EGLLYYYX LFPGYYYX EDDFYYYX 230826 METAR LFPG 230826Z 00425KT 9999 FEW030 26/8 Q1024
DD LFPYYYX LFPOYYYX EGLLYYYX 120608 METAR LFPG 120608Z 09837KT 9999 FEW030 12/16 Q1060
FF LFPYYYX LFPGYYYX 070043 METAR LFPG 070043Z 14151KT 9999 FEW030 29/8 Q1060
DD LFPBYYYX LFPBYYYX 041331 METAR LFPG 041331Z 13030KT 9999 FEW030 1/6 Q1008
KK LFPOYYYX LFPNYYYX 091801 METAR LFPG 091801Z 27959KT 9999 FEW030 4/14 Q1073
SS EDDFYYYX LFPGYYYX LFPBYYYX LFPBYYYX 281340 METAR LFPG 281340Z 13048KT 9999 FEW030 26/15 Q1049
LL LFPBYYYX LFPBYYYX EGLLYYYX 160108 METAR LFPG 160108Z 16626KT 9999 FEW030 6/15 Q1034
DD EDDFYYYX LFPOYYYX 110054 METAR LFPG 110054Z 21353KT 9999 FEW030 27/6 Q1070
KK LFPYYYX LFPGYYYX 101558 METAR LFPG 101558Z 27646KT 9999 FEW030 13/14 Q1077
SS LFPNYYYX EDDFYYYX 011028 METAR LFPG 011028Z 12717KT 9999 FEW030 18/2 Q1052
GG LFPNYYYX LFPOYYYX 282248 METAR LFPG 282248Z 13847KT 9999 FEW030 12/0 Q1041
KK LFPNYYYX LFPNYYYX 150027 METAR LFPG 150027Z 35745KT 9999 FEW030 3/3 Q1024
GG LFPOYYYX EDDFYYYX 242224 METAR LFPG 242224Z 11453KT 9999 FEW030 13/10 Q1036
DD LFPNYYYX LFPOYYYX EGLLYYYX 121723 METAR LFPG 121723Z 30242KT 9999 FEW030 17/6 Q1094
LL LFPNYYYX LFPNYYYX LFPOYYYX 101130 METAR LFPG 101130Z 12828KT 9999 FEW030 6/14 Q1085
KK LFPGYYYX LFPBYYYX LFPGYYYX 041332 METAR LFPG 041332Z 01050KT 9999 FEW030 20/4 Q1042
LL EGLLYYYX LFPGYYYX LFPGYYYX EDDFYYYX 120947 METAR LFPG 120947Z 31836KT 9999 FEW030 11/15 Q1077
LL LFPGYYYX LFPGYYYX LFPBYYYX 140458 METAR LFPG 140458Z 21617KT 9999 FEW030 4/6 Q1022
FF EDDFYYYX LFPNYYYX LFPNYYYX LFPBYYYX 080536 METAR LFPG 080536Z 19424KT 9999 FEW030 24/19 Q1083
FF LFPGYYYX LFPNYYYX 092213 METAR LFPG 092213Z 16311KT 9999 FEW030 27/19 Q1023
LL LFPBYYYX LFPOYYYX EGLLYYYX 101242 METAR LFPG 101242Z 32011KT 9999 FEW030 17/17 Q1024
KK LFPNYYYX LFPOYYYX LFPNYYYX 100442 METAR LFPG 100442Z 07241KT 9999 FEW030 22/14 Q1045
LL LFPBYYYX LFPOYYYX LFPNYYYX 141114 METAR LFPG 141114Z 22452KT 9999 FEW030 28/19 Q1056
GG LFPNYYYX EGLLYYYX LFPGYYYX 140305 METAR LFPG 140305Z 09624KT 9999 FEW030 2/5 Q1012
LL LFPGYYYX EDDFYYYX LFPOYYYX 190019 METAR LFPG 190019Z 35757KT 9999 FEW030 28/10 Q1045
DD LFPNYYYX LFPOYYYX EGLLYYYX 102002 METAR LFPG 102002Z 28030KT 9999 FEW030 15/0 Q1003
KK LFPGYYYX EGLLYYYX LFPBYYYX 091824 METAR LFPG 091824Z 30253KT 9999 FEW030 20/18 Q1009
FF LFPOYYYX LFPGYYYX EDDFYYYX 071250 METAR LFPG 071250Z 08159KT 9999 FEW030 21/9 Q1087
KK LFPBYYYX LFPNYYYX 071723 METAR LFPG 071723Z 18132KT 9999 FEW030 6/0 Q1038
GG LFPBYYYX LFPGYYYX 170217 METAR LFPG 170217Z 04737KT 9999 FEW030 4/4 Q1089
DD LFPYYYX LFPGYYYX LFPNYYYX LFPNYYYX 160216 METAR LFPG 160216Z 28625KT 9999 FEW030 16/12 Q1037
FF EGLLYYYX LFPGYYYX LFPGYYYX 130649 METAR LFPG 130649Z 02757KT 9999 FEW030 1/19 Q1073
KK LFPBYYYX LFPGYYYX LFPGYYYX LFPNYYYX 260738 METAR LFPG 260738Z 07646KT 9999 FEW030 24/6 Q1011
LL EGLLYYYX EDDFYYYX LFPBYYYX LFPBYYYX 221505 METAR LFPG 221505Z 03614KT 9999 FEW030 27/5 Q1058
SS LFPBYYYX EGLLYYYX 281735 METAR LFPG 281735Z 12524KT 9999 FEW030 9/19 Q1064
FF EDDFYYYX LFPNYYYX LFPGYYYX 241700 METAR LFPG 241700Z 27838KT 9999 FEW030 16/19 Q1065
GG LFPYYYX LFPOYYYX 190459 METAR LFPG 190459Z 33717KT 9999 FEW030 27/19 Q1036
SS LFPOYYYX LFPBYYYX LFPBYYYX LFPGYYYX 011933 METAR LFPG 011933Z 18352KT 9999 FEW030 6/4 Q1015
LL LFPBYYYX LFPNYYYX LFPBYYYX LFPBYYYX 130725 METAR LFPG 130725Z 24354KT 9999 FEW030 11/2 Q1098
GG LFPGYYYX EGLLYYYX 010600 METAR LFPG 010600Z 21939KT 9999 FEW030 20/18 Q1061
DD LFPBYYYX LFPGYYYX EDDFYYYX 091452 METAR LFPG 091452Z 20331KT 9999 FEW030 17/10 Q1034
LL LFPGYYYX LFPNYYYX LFPGYYYX 171825 METAR LFPG 171825Z 18353KT 9999 FEW030 10/18 Q1018
SS LFPBYYYX EGLLYYYX LFPGYYYX 180834 METAR LFPG 180834Z 24413KT 9999 FEW030 23/5 Q1028
SS LFPYYYX EDDFYYYX EGLLYYYX LFPBYYYX 281724 METAR LFPG 281724Z 06212KT 9999 FEW030 26/17 Q1084
FF LFPBYYYX EGLLYYYX 071243 METAR LFPG 071243Z 20151KT 9999 FEW030 19/7 Q1049
FF EDDFYYYX EDDFYYYX LFPGYYYX 211844 METAR LFPG 211844Z 01543KT 9999 FEW030 25/14 Q1050
LL LFPNYYYX LFPNYYYX 021937 METAR LFPG 021937Z 13656KT 9999 FEW030 9/9 Q1049
FF LFPBYYYX LFPGYYYX 170636 METAR LFPG 170636Z 07545KT 9999 FEW030 12/12 Q1097
SS EGLLYYYX LFPGYYYX 121331 METAR LFPG 121331Z 01040KT 9999 FEW030 20/13 Q1072
LL LFPGYYYX LFPNYYYX LFPGYYYX LFPGYYYX 021517 METAR LFPG 021517Z 10846KT 9999 FEW030 10/16 Q1020
SS LFPBYYYX LFPGYYYX 200924 METAR LFPG 200924Z 29422KT 9999 FEW030 21/1 Q1000
GG LFPYYYX LFPGYYYX LFPNYYYX LFPOYYYX 191227 METAR LFPG 191227Z 17755KT 9999 FEW030 6/18 Q1092
DD LFPYYYX EDDFYYYX 191659 METAR LFPG 191659Z 27727KT 9999 FEW030 21/18 Q1024
SS LFPOYYYX LFPOYYYX EGLLYYYX 120935 METAR LFPG 120935Z 24614KT 9999 FEW030 2/7 Q1061
KK LFPYYYX LFPNYYYX EDDFYYYX 122228 METAR LFPG 122228Z 06637KT 9999 FEW030 7/5 Q1003
FF LFPBYYYX LFPGYYYX LFPGYYYX LFPGYYYX 121708 METAR LFPG 121708Z 03846KT 9999 FEW030 21/4 Q1054
DD EDDFYYYX EDDFYYYX 271230 METAR LFPG 271230Z 24149KT 9999 FEW030 26/11 Q1080
LL LFPOYYYX LFPBYYYX EGLLYYYX 231255 METAR LFPG 231255Z 26523KT 9999 FEW030 25/17 Q1019
SS EGLLYYYX EGLLYYYX LFPNYYYX 250625 METAR LFPG 250625Z 12323KT 9999 FEW030 8/5 Q1002
FF LFPYYYX LFPGYYYX LFPNYYYX 221105 METAR LFPG 221105Z 34424KT 9999 FEW030 1/16 Q1089
FF LFPYYYX LFPBYYYX LFPOYYYX 061606 METAR LFPG 061606Z 27635KT 9999 FEW030 6/16 Q1068
LL LFPBYYYX EGLLYYYX 190018 METAR LFPG 190018Z 11757KT 9999 FEW030 1/7 Q1059
KK LFPOYYYX LFPOYYYX LFPNYYYX 010645 METAR LFPG 010645Z 07523KT 9999 FEW030 1/8 Q1002
DD LFPGYYYX LFPOYYYX 200132 METAR LFPG 200132Z 19020KT 9999 FEW030 1/10 Q1014
KK LFPBYYYX LFPGYYYX LFPOYYYX LFPNYYYX 192022 METAR LFPG 192022Z 23351KT 9999 FEW030 26/6 Q1002
DD LFPNYYYX EDDFYYYX 100309 METAR LFPG 100309Z 04858KT 9999 FEW030 25/8 Q1088
SS EGLLYYYX LFPOYYYX LFPOYYYX EDDFYYYX 091833 METAR LFPG 091833Z 18331KT 9999 FEW030 23/15 Q1055
LL EDDFYYYX LFPBYYYX LFPNYYYX 252337 METAR LFPG 252337Z 30736KT 9999 FEW030 10/0 Q1090
DD LFPYYYX LFPNYYYX LFPGYYYX EGLLYYYX 141642 METAR LFPG 141642Z 25231KT 9999 FEW030 20/9 Q1082
DD EDDFYYYX LFPGYYYX LFPOYYYX LFPNYYYX 070939 METAR LFPG 070939Z 31738KT 9999 FEW030 29/1 Q1026
SS EGLLYYYX LFPOYYYX 040928 METAR LFPG 040928Z 00636KT 9999 FEW030 0/17 Q1001
SS LFPGYYYX EGLLYYYX EDDFYYYX EDDFYYYX 040544 METAR LFPG 040544Z 07422KT 9999 FEW030 21/8 Q1062
SS LFPYYYX EDDFYYYX 150446 METAR LFPG 150446Z 26545KT 9999 FEW030 6/4 Q1045
LL LFPNYYYX LFPBYYYX EGLLYYYX LFPNYYYX 221230 METAR LFPG 221230Z 12848KT 9999 FEW030 2/11 Q1091
KK LFPNYYYX LFPOYYYX LFPBYYYX 270407 METAR LFPG 270407Z 09745KT 9999 FEW030 13/18 Q1015
DD LFPOYYYX LFPOYYYX 091553 METAR LFPG 091553Z 20311KT 9999 FEW030 4/18 Q1024
FF EGLLYYYX EDDFYYYX LFPOYYYX 231619 METAR LFPG 231619Z 10917KT 9999 FEW030 12/15 Q1007
FF LFPGYYYX EGLLYYYX 131025 METAR LFPG 131025Z 17513KT 9999 FEW030 0/14 Q1057
FF LFPNYYYX LFPBYYYX 221126 METAR LFPG 221126Z 05654KT 9999 FEW030 6/17 Q1093
FF LFPBYYYX LFPBYYYX LFPOYYYX 242148 METAR LFPG 242148Z 01856KT 9999 FEW030 2/5 Q1046
DD LFPBYYYX EGLLYYYX LFPNYYYX 181214 METAR LFPG 181214Z 34452KT 9999 FEW030 11/2 Q1035
DD LFPGYYYX EDDFYYYX LFPBYYYX 271647 METAR LFPG 271647Z 20515KT 9999 FEW030 4/13 Q1080
DD LFPBYYYX EDDFYYYX 151242 METAR LFPG 151242Z 32131KT 9999 FEW030 5/12 Q1055
DD EGLLYYYX LFPOYYYX 210632 METAR LFPG 210632Z 12311KT 9999 FEW030 29/14 Q1026
FF LFPOYYYX LFPBYYYX LFPOYYYX 140434 METAR LFPG 140434Z 07212KT 9999 FEW030 13/15 Q1033
GG LFPGYYYX EGLLYYYX 082200 METAR LFPG 082200Z 21049KT 9999 FEW030 14/1 Q1022
GG EDDFYYYX LFPBYYYX LFPBYYYX 081848 METAR LFPG 081848Z 32626KT 9999 FEW030 14/15 Q1069
KK LFPYYYX LFPOYYYX EGLLYYYX 240519 METAR LFPG 240519Z 16948KT 9999 FEW030 20/16 Q1014
KK LFPNYYYX LFPBYYYX LFPBYYYX LFPNYYYX 050329 METAR LFPG 050329Z 23948KT 9999 FEW030 12/8 Q1014
LL EDDFYYYX EGLLYYYX LFPGYYYX LFPBYYYX 150531 METAR LFPG 150531Z 00130KT 9999 FEW030 18/17 Q1062
GG LFPYYYX LFPGYYYX LFPOYYYX LFPNYYYX 042204 METAR LFPG 042204Z 28243KT 9999 FEW030 4/3 Q1084
GG LFPYYYX LFPGYYYX EGLLYYYX 130721 METAR LFPG 130721Z 17129KT 9999 FEW030 25/17 Q1052
GG EGLLYYYX LFPNYYYX LFPNYYYX LFPBYYYX 091036 METAR LFPG 091036Z 00755KT 9999 FEW030 23/19 Q1028
KK LFPBYYYX LFPOYYYX LFPOYYYX 220430 METAR LFPG 220430Z 12029KT 9999 FEW030 29/13 Q1094
SS LFPBYYYX LFPBYYYX LFPGYYYX 010232 METAR LFPG 010232Z 07031KT 9999 FEW030 14/1 Q1096
DD EGLLYYYX EDDFYYYX LFPGYYYX LFPOYYYX 152051 METAR LFPG 152051Z 32929KT 9999 FEW030 7/13 Q1045
LL LFPNYYYX LFPGYYYX LFPOYYYX 201016 METAR LFPG 201016Z 17445KT 9999 FEW030 15/2 Q1031
GG LFPGYYYX EDDFYYYX EDDFYYYX LFPOYYYX 110850 METAR LFPG 110850Z 14819KT 9999 FEW030 23/11 Q1056
DD LFPBYYYX LFPOYYYX 101141 METAR LFPG 101141Z 20020KT 9999 FEW030 27/13 Q1065
KK EDDFYYYX EGLLYYYX 281444 METAR LFPG 281444Z 32243KT 9999 FEW030 4/12 Q1074
DD LFPGYYYX LFPNYYYX EDDFYYYX 102342 METAR LFPG 102342Z 26040KT 9999 FEW030 14/6 Q1076
DD LFPYYYX EGLLYYYX 221126 METAR LFPG 221126Z 17634KT 9999 FEW030 3/1 Q1089
SS LFPNYYYX LFPBYYYX 221545 METAR LFPG 221545Z 20454KT 9999 FEW030 5/18 Q1016
LL LFPBYYYX LFPBYYYX LFPOYYYX LFPNYYYX 150042 METAR LFPG 150042Z 26141KT 9999 FEW030 14/17 Q1049
GG LFPOYYYX LFPNYYYX 020330 METAR LFPG 020330Z 24038KT 9999 FEW030 6/15 Q1031
FF LFPOYYYX EGLLYYYX EDDFYYYX 251836 METAR LFPG 251836Z 01545KT 9999 FEW030 25/18 Q1014
KK LFPBYYYX LFPBYYYX LFPBYYYX 182301 METAR LFPG 182301Z 33240KT 9999 FEW030 25/15 Q1043
GG LFPGYYYX LFPOYYYX LFPOYYYX 181137 METAR LFPG 181137Z 00856KT 9999 FEW030 13/12 Q1019
DD LFPNYYYX EDDFYYYX LFPBYYYX 201736 METAR LFPG 201736Z 13434KT 9999 FEW030 24/0 Q1039
KK EDDFYYYX LFPOYYYX EDDFYYYX EGLLYYYX 082123 METAR LFPG 082123Z 23412KT 9999 FEW030 16/7 Q1062
KK EDDFYYYX LFPGYYYX EDDFYYYX 161343 METAR LFPG 161343Z 08122KT 9999 FEW030 18/14 Q1079
GG LFPBYYYX LFPBYYYX 162248 METAR LFPG 162248Z 01859KT 9999 FEW030 28/2 Q1046
LL LFPNYYYX LFPBYYYX EGLLYYYX EGLLYYYX 110042 METAR LFPG 110042Z 14041KT 9999 FEW030 4/18 Q1018
GG LFPNYYYX EGLLYYYX LFPNYYYX EGLLYYYX 070531 METAR LFPG 070531Z 12159KT 9999 FEW030 28/10 Q1023
FF LFPYYYX LFPBYYYX LFPGYYYX 240204 METAR LFPG 240204Z 09433KT 9999 FEW030 13/12 Q1072
LL LFPBYYYX EDDFYYYX LFPBYYYX LFPNYYYX 230119 METAR LFPG 230119Z 35738KT 9999 FEW030 3/1 Q1065
KK LFPOYYYX EDDFYYYX LFPNYYYX LFPNYYYX 201052 METAR LFPG 201052Z 27020KT 9999 FEW030 18/14 Q1044
FF LFPYYYX EGLLYYYX LFPNYYYX EGLLYYYX 211105 METAR LFPG 211105Z 10334KT 9999 FEW030 14/18 Q1082
DD LFPBYYYX LFPNYYYX LFPBYYYX 140702 METAR LFPG 140702Z 34020KT 9999 FEW030 23/12 Q1007
SS EDDFYYYX LFPBYYYX LFPBYYYX 181949 METAR LFPG 181949Z 20728KT 9999 FEW030 15/10 Q1035
KK EGLLYYYX EDDFYYYX LFPOYYYX EGLLYYYX 150531 METAR LFPG 150531Z 12130KT 9999 FEW030 1/5 Q1039
DD LFPGYYYX LFPGYYYX 130229 METAR LFPG 130229Z 35917KT 9999 FEW030 3/6 Q1084
DD EGLLYYYX LFPGYYYX 200903 METAR LFPG 200903Z 10242KT 9999 FEW030 28/9 Q1019
FF EDDFYYYX EDDFYYYX EGLLYYYX LFPBYYYX 270455 METAR LFPG 270455Z 14513KT 9999 FEW030 24/19 Q1031
DD LFPGYYYX EGLLYYYX LFPBYYYX LFPOYYYX 121848 METAR LFPG 121848Z 08637KT 9999 FEW030 0/14 Q1015
SS LFPOYYYX LFPGYYYX EDDFYYYX EDDFYYYX 280139 METAR LFPG 280139Z 18938KT 9999 FEW030 25/4 Q1089
LL LFPOYYYX LFPOYYYX 110007 METAR LFPG 110007Z 16555KT 9999 FEW030 6/7 Q1002
SS EDDFYYYX EDDFYYYX LFPGYYYX LFPOYYYX 111723 METAR LFPG 111723Z 06111KT 9999 FEW030 26/16 Q1071
SS LFPGYYYX LFPOYYYX 070127 METAR LFPG 070127Z 35756KT 9999 FEW030 5/2 Q1026
LL EDDFYYYX LFPOYYYX 062337 METAR LFPG 062337Z 30828KT 9999 FEW030 28/11 Q1044
LL EGLLYYYX EGLLYYYX 202112 METAR LFPG 202112Z 28220KT 9999 FEW030 14/19 Q1062
KK LFPYYYX LFPNYYYX LFPNYYYX LFPBYYYX 190103 METAR LFPG 190103Z 09322KT 9999 FEW030 10/13 Q1086
KK LFPNYYYX LFPBYYYX 162147 METAR LFPG 162147Z 25846KT 9999 FEW030 7/16 Q1076
LL LFPOYYYX LFPGYYYX EDDFYYYX 260305 METAR LFPG 260305Z 33524KT 9999 FEW030 29/18 Q1059
GG LFPYYYX LFPOYYYX EGLLYYYX 230814 METAR LFPG 230814Z 05333KT 9999 FEW030 29/8 Q1023
LL LFPOYYYX LFPNYYYX 100434 METAR LFPG 100434Z 07223KT 9999 FEW030 23/6 Q1043
GG LFPGYYYX EDDFYYYX LFPGYYYX 010256 METAR LFPG 010256Z 33535KT 9999 FEW030 28/5 Q1070
FF EDDFYYYX LFPOYYYX 140321 METAR LFPG 140321Z 35920KT 9999 FEW030 27/15 Q1045
SS EGLLYYYX LFPOYYYX EDDFYYYX 100814 METAR LFPG 100814Z 29233KT 9999 FEW030 2/3 Q1044
DD EDDFYYYX LFPOYYYX EDDFYYYX EDDFYYYX 141913 METAR LFPG 141913Z 35242KT 9999 FEW030 14/8 Q1021
SS LFPBYYYX EGLLYYYX LFPNYYYX 161028 METAR LFPG 161028Z 24637KT 9999 FEW030 3/11 Q1059
LL LFPGYYYX EGLLYYYX EDDFYYYX LFPNYYYX 280903 METAR LFPG 280903Z 10232KT 9999 FEW030 21/5 Q1067
LL LFPNYYYX LFPNYYYX 101933 METAR LFPG 101933Z 06412KT 9999 FEW030 25/18 Q1085
LL LFPNYYYX LFPNYYYX 140709 METAR LFPG 140709Z 34018KT 9999 FEW030 6/19 Q1061
SS LFPYYYX LFPNYYYX LFPNYYYX LFPOYYYX 120108 METAR LFPG 120108Z 04636KT 9999 FEW030 17/2 Q1053
KK LFPOYYYX LFPOYYYX LFPNYYYX LFPBYYYX 221630 METAR LFPG 221630Z 30031KT 9999 FEW030 14/4 Q1054
FF EDDFYYYX EGLLYYYX LFPNYYYX 060357 METAR LFPG 060357Z 21636KT 9999 FEW030 24/5 Q1033
KK LFPNYYYX EGLLYYYX LFPBYYYX 210253 METAR LFPG 210253Z 26351KT 9999 FEW030 23/18 Q1061
DD LFPYYYX LFPOYYYX 040911 METAR LFPG 040911Z 34230KT 9999 FEW030 25/9 Q1073
GG EGLLYYYX LFPBYYYX LFPNYYYX 160559 METAR LFPG 160559Z 21858KT 9999 FEW030 25/11 Q1086
GG LFPYYYX LFPBYYYX LFPGYYYX EGLLYYYX 221610 METAR LFPG 221610Z 22839KT 9999 FEW030 18/9 Q1090
KK EDDFYYYX LFPNYYYX 081440 METAR LFPG 081440Z 13018KT 9999 FEW030 22/5 Q1002
FF LFPYYYX LFPNYYYX LFPOYYYX LFPNYYYX 280232 METAR LFPG 280232Z 31040KT 9999 FEW030 27/6 Q1003
DD LFPGYYYX LFPNYYYX LFPNYYYX 191219 METAR LFPG 191219Z 17717KT 9999 FEW030 18/17 Q1078
FF LFPGYYYX EDDFYYYX EDDFYYYX EGLLYYYX 180038 METAR LFPG 180038Z 18857KT 9999 FEW030 12/8 Q1092
GG LFPGYYYX EDDFYYYX LFPOYYYX LFPBYYYX 200648 METAR LFPG 200648Z 25857KT 9999 FEW030 4/16 Q1008
DD LFPYYYX LFPGYYYX LFPOYYYX EGLLYYYX 250204 METAR LFPG 250204Z 09533KT 9999 FEW030 3/15 Q1055
DD LFPYYYX LFPOYYYX 032014 METAR LFPG 032014Z 11323KT 9999 FEW030 18/1 Q1053
FF EDDFYYYX LFPNYYYX 041723 METAR LFPG 041723Z 06142KT 9999 FEW030 9/13 Q1005
KK LFPNYYYX EDDFYYYX LFPOYYYX 061913 METAR LFPG 061913Z 23232KT 9999 FEW030 11/11 Q1078
LL LFPNYYYX EGLLYYYX 090241 METAR LFPG 090241Z 31119KT 9999 FEW030 13/14 Q1010
DD LFPYYYX EDDFYYYX LFPNYYYX 061913 METAR LFPG 061913Z 11212KT 9999 FEW030 28/4 Q1013
DD EGLLYYYX LFPOYYYX 112151 METAR LFPG 112151Z 32940KT 9999 FEW030 19/8 Q1082
SS LFPOYYYX EDDFYYYX EDDFYYYX 071202 METAR LFPG 071202Z 27311KT 9999 FEW030 4/15 Q1022
GG LFPYYYX EDDFYYYX 121707 METAR LFPG 121707Z 03816KT 9999 FEW030 14/3 Q1038
DD LFPBYYYX LFPBYYYX LFPGYYYX 100714 METAR LFPG 100714Z 16412KT 9999 FEW030 3/11 Q1027
DD LFPGYYYX LFPBYYYX 140358 METAR LFPG 140358Z 21616KT 9999 FEW030 29/7 Q1040
GG LFPBYYYX LFPNYYYX LFPOYYYX LFPOYYYX 040208 METAR LFPG 040208Z 16637KT 9999 FEW030 14/9 Q1066
KK LFPGYYYX LFPOYYYX LFPNYYYX 262326 METAR LFPG 262326Z 23634KT 9999 FEW030 6/10 Q1060
DD LFPNYYYX EDDFYYYX 131029 METAR LFPG 131029Z 12717KT 9999 FEW030 0/0 Q1009
FF LFPBYYYX EGLLYYYX EDDFYYYX 040928 METAR LFPG 040928Z 24636KT 9999 FEW030 3/14 Q1008
GG EDDFYYYX LFPBYYYX LFPOYYYX 151747 METAR LFPG 151747Z 32546KT 9999 FEW030 27/17 Q1023
SS LFPGYYYX EGLLYYYX LFPOYYYX LFPBYYYX 270019 METAR LFPG 270019Z 11727KT 9999 FEW030 11/13 Q1033
LL EGLLYYYX LFPBYYYX 041416 METAR LFPG 041416Z 10615KT 9999 FEW030 13/13 Q1078
GG LFPBYYYX EDDFYYYX 271355 METAR LFPG 271355Z 27314KT 9999 FEW030 4/10 Q1015
KK LFPBYYYX LFPOYYYX LFPGYYYX 101902 METAR LFPG 101902Z 04030KT 9999 FEW030 23/6 Q1091
KK EGLLYYYX LFPBYYYX LFPNYYYX EDDFYYYX 111339 METAR LFPG 111339Z 00947KT 9999 FEW030 5/19 Q1092
GG LFPOYYYX LFPBYYYX LFPBYYYX LFPNYYYX 021129 METAR LFPG 021129Z 24818KT 9999 FEW030 8/13 Q1072
LL LFPOYYYX EDDFYYYX 221926 METAR LFPG 221926Z 30434KT 9999 FEW030 17/11 Q1044
LL LFPNYYYX EGLLYYYX LFPNYYYX 051025 METAR LFPG 051025Z 05543KT 9999 FEW030 12/9 Q1091
KK LFPYYYX EGLLYYYX 261202 METAR LFPG 261202Z 15221KT 9999 FEW030 2/0 Q1011
SS LFPYYYX EDDFYYYX 180725 METAR LFPG 180725Z 24454KT 9999 FEW030 8/13 Q1045
FF EDDFYYYX LFPNYYYX LFPOYYYX 051812 METAR LFPG 051812Z 11041KT 9999 FEW030 7/19 Q1009
KK LFPNYYYX LFPOYYYX 211012 METAR LFPG 211012Z 22321KT 9999 FEW030 12/1 Q1083
SS EDDFYYYX EDDFYYYX 050721 METAR LFPG 050721Z 29130KT 9999 FEW030 25/17 Q1090
DD LFPBYYYX LFPOYYYX LFPGYYYX 140018 METAR LFPG 140018Z 35647KT 9999 FEW030 12/12 Q1009
FF LFPNYYYX EGLLYYYX EDDFYYYX 181214 METAR LFPG 181214Z 22433KT 9999 FEW030 13/18 Q1032
GG LFPGYYYX LFPGYYYX LFPBYYYX 260834 METAR LFPG 260834Z 24412KT 9999 FEW030 7/14 Q1005
SS LFPNYYYX LFPBYYYX LFPNYYYX 220310 METAR LFPG 220310Z 04818KT 9999 FEW030 25/2 Q1061
DD EDDFYYYX LFPNYYYX LFPGYYYX 061902 METAR LFPG 061902Z 16030KT 9999 FEW030 0/18 Q1012
SS LFPNYYYX LFPOYYYX EGLLYYYX LFPGYYYX 140810 METAR LFPG 140810Z 22059KT 9999 FEW030 13/3 Q1078
KK LFPBYYYX LFPNYYYX LFPNYYYX LFPNYYYX 082236 METAR LFPG 082236Z 06644KT 9999 FEW030 13/14 Q1015
LL LFPOYYYX EDDFYYYX LFPOYYYX 101945 METAR LFPG 101945Z 25534KT 9999 FEW030 5/17 Q1077
LL LFPBYYYX EGLLYYYX 030042 METAR LFPG 030042Z 14041KT 9999 FEW030 14/7 Q1085
GG LFPNYYYX LFPGYYYX EGLLYYYX 121351 METAR LFPG 121351Z 08250KT 9999 FEW030 28/10 Q1076
GG LFPYYYX LFPGYYYX 191207 METAR LFPG 191207Z 34555KT 9999 FEW030 26/15 Q1025
DD LFPGYYYX LFPNYYYX 141938 METAR LFPG 141938Z 25656KT 9999 FEW030 9/5 Q1046
KK LFPGYYYX EDDFYYYX 162104 METAR LFPG 162104Z 16242KT 9999 FEW030 10/9 Q1030
KK LFPBYYYX LFPGYYYX EGLLYYYX 021921 METAR LFPG 021921Z 11140KT 9999 FEW030 2/13 Q1063
SS EDDFYYYX LFPGYYYX LFPBYYYX LFPGYYYX 260850 METAR LFPG 260850Z 02038KT 9999 FEW030 13/4 Q1051
LL LFPGYYYX LFPBYYYX 232103 METAR LFPG 232103Z 28142KT 9999 FEW030 8/14 Q1093
FF LFPGYYYX LFPNYYYX EGLLYYYX 221606 METAR LFPG 221606Z 15625KT 9999 FEW030 16/2 Q1071
KK LFPGYYYX LFPBYYYX 020357 METAR LFPG 020357Z 09556KT 9999 FEW030 19/12 Q1056
GG LFPYYYX LFPGYYYX EDDFYYYX 220814 METAR LFPG 220814Z 29222KT 9999 FEW030 19/1 Q1045
LL LFPNYYYX LFPOYYYX 261642 METAR LFPG 261642Z 25251KT 9999 FEW030 21/10 Q1058
SS LFPOYYYX EDDFYYYX EDDFYYYX LFPBYYYX 281844 METAR LFPG 281844Z 13423KT 9999 FEW030 6/18 Q1096
DD LFPNYYYX LFPGYYYX LFPNYYYX 241755 METAR LFPG 241755Z 32546KT 9999 FEW030 21/14 Q1025
SS EGLLYYYX LFPBYYYX EDDFYYYX EDDFYYYX 121343 METAR LFPG 121343Z 32212KT 9999 FEW030 22/9 Q1079
SS LFPBYYYX LFPOYYYX 080648 METAR LFPG 080648Z 02637KT 9999 FEW030 1/13 Q1066
SS LFPOYYYX LFPBYYYX 232015 METAR LFPG 232015Z 11343KT 9999 FEW030 10/19 Q1091
DD LFPBYYYX LFPGYYYX LFPGYYYX 051509 METAR LFPG 051509Z 10718KT 9999 FEW030 17/2 Q1094
DD LFPYYYX LFPNYYYX 121024 METAR LFPG 121024Z 17443KT 9999 FEW030 7/17 Q1079
GG EDDFYYYX EDDFYYYX LFPBYYYX LFPOYYYX 230431 METAR LFPG 230431Z 00149KT 9999 FEW030 26/5 Q1061
GG LFPNYYYX EDDFYYYX LFPNYYYX LFPNYYYX 142050 METAR LFPG 142050Z 32858KT 9999 FEW030 19/16 Q1020
LL LFPGYYYX LFPOYYYX 271315 METAR LFPG 271315Z 22554KT 9999 FEW030 27/16 Q1065
DD LFPOYYYX LFPOYYYX EGLLYYYX EDDFYYYX 280156 METAR LFPG 280156Z 09434KT 9999 FEW030 12/14 Q1044
FF LFPGYYYX LFPNYYYX LFPNYYYX 021130 METAR LFPG 021130Z 24038KT 9999 FEW030 29/0 Q1056
KK LFPOYYYX EGLLYYYX 040520 METAR LFPG 040520Z 17048KT 9999 FEW030 23/15 Q1073
KK LFPGYYYX EDDFYYYX 171957 METAR LFPG 171957Z 08756KT 9999 FEW030 13/12 Q1091
DD LFPGYYYX LFPBYYYX 211452 METAR LFPG 211452Z 32251KT 9999 FEW030 12/8 Q1044
GG LFPNYYYX EDDFYYYX 190434 METAR LFPG 190434Z 19323KT 9999 FEW030 7/17 Q1015
SS EDDFYYYX LFPBYYYX EDDFYYYX EGLLYYYX 091420 METAR LFPG 091420Z 05939KT 9999 FEW030 6/11 Q1018
SS EGLLYYYX EDDFYYYX LFPNYYYX EDDFYYYX 220353 METAR LFPG 220353Z 26322KT 9999 FEW030 13/13 Q1010
FF EDDFYYYX LFPOYYYX EDDFYYYX 131913 METAR LFPG 131913Z 23112KT 9999 FEW030 15/1 Q1012
KK LFPNYYYX LFPBYYYX EGLLYYYX LFPOYYYX 061606 METAR LFPG 061606Z 27655KT 9999 FEW030 13/6 Q1007
GG LFPYYYX EGLLYYYX LFPNYYYX EGLLYYYX 270803 METAR LFPG 270803Z 10141KT 9999 FEW030 22/3 Q1061
DD EDDFYYYX LFPNYYYX EGLLYYYX LFPGYYYX 020342 METAR LFPG 020342Z 19230KT 9999 FEW030 13/4 Q1078
SS LFPNYYYX LFPNYYYX LFPNYYYX LFPNYYYX 071631 METAR LFPG 071631Z 30149KT 9999 FEW030 7/18 Q1068
GG LFPGYYYX EDDFYYYX 251016 METAR LFPG 251016Z 05425KT 9999 FEW030 5/0 Q1057
FF EGLLYYYX LFPBYYYX EDDFYYYX 201307 METAR LFPG 201307Z 34636KT 9999 FEW030 0/9 Q1003
FF EDDFYYYX LFPOYYYX 030823 METAR LFPG 030823Z 29351KT 9999 FEW030 20/1 Q1031
DD LFPOYYYX LFPBYYYX LFPNYYYX 090232 METAR LFPG 090232Z 19111KT 9999 FEW030 20/7 Q1042
SS EDDFYYYX LFPNYYYX LFPOYYYX 011052 METAR LFPG 011052Z 15121KT 9999 FEW030 15/8 Q1054
KK EGLLYYYX LFPGYYYX LFPGYYYX 021654 METAR LFPG 021654Z 20432KT 9999 FEW030 21/6 Q1081
KK LFPNYYYX EDDFYYYX LFPBYYYX EGLLYYYX 190419 METAR LFPG 190419Z 16937KT 9999 FEW030 28/18 Q1074
FF EGLLYYYX EGLLYYYX LFPOYYYX 221946 METAR LFPG 221946Z 25624KT 9999 FEW030 29/9 Q1053
GG EDDFYYYX LFPNYYYX 191610 METAR LFPG 191610Z 10919KT 9999 FEW030 15/18 Q1058
SS EGLLYYYX LFPGYYYX 071630 METAR LFPG 071630Z 06049KT 9999 FEW030 9/11 Q1036
KK EGLLYYYX LFPBYYYX LFPGYYYX LFPGYYYX 091937 METAR LFPG 091937Z 24745KT 9999 FEW030 20/10 Q1070
SS EGLLYYYX LFPOYYYX LFPBYYYX 071606 METAR LFPG 071606Z 27755KT 9999 FEW030 2/0 Q1061
LL LFPYYYX LFPGYYYX LFPOYYYX EDDFYYYX 202127 METAR LFPG 202127Z 30516KT 9999 FEW030 5/9 Q1005
SS LFPGYYYX LFPNYYYX LFPGYYYX 080911 METAR LFPG 080911Z 34250KT 9999 FEW030 24/19 Q1097
GG EGLLYYYX LFPNYYYX EDDFYYYX 091404 METAR LFPG 091404Z 27553KT 9999 FEW030 22/5 Q1085
FF LFPGYYYX LFPBYYYX 242204 METAR LFPG 242204Z 16242KT 9999 FEW030 3/11 Q1026
FF LFPGYYYX EGLLYYYX EGLLYYYX LFPGYYYX 201355 METAR LFPG 201355Z 03454KT 9999 FEW030 7/10 Q1007
KK EDDFYYYX LFPBYYYX LFPGYYYX LFPNYYYX 211800 METAR LFPG 211800Z 15949KT 9999 FEW030 25/2 Q1065
GG EGLLYYYX EDDFYYYX LFPNYYYX EGLLYYYX 261622 METAR LFPG 261622Z 18041KT 9999 FEW030 21/7 Q1004
LL LFPOYYYX LFPBYYYX 060749 METAR LFPG 060749Z 02848KT 9999 FEW030 1/2 Q1028
DD LFPGYYYX EDDFYYYX EGLLYYYX LFPNYYYX 181129 METAR LFPG 181129Z 12858KT 9999 FEW030 23/17 Q1021
LL EDDFYYYX LFPBYYYX 212224 METAR LFPG 212224Z 11543KT 9999 FEW030 23/15 Q1000
GG EDDFYYYX EDDFYYYX 071719 METAR LFPG 071719Z 34948KT 9999 FEW030 22/11 Q1003
DD LFPYYYX LFPGYYYX 200532 METAR LFPG 200532Z 24210KT 9999 FEW030 17/6 Q1000
GG LFPYYYX EGLLYYYX LFPGYYYX LFPOYYYX 140430 METAR LFPG 140430Z 24031KT 9999 FEW030 20/4 Q1041
KK LFPOYYYX LFPOYYYX LFPBYYYX EGLLYYYX 101541 METAR LFPG 101541Z 13130KT 9999 FEW030 13/12 Q1041
DD LFPGYYYX LFPGYYYX LFPNYYYX LFPGYYYX 281327 METAR LFPG 281327Z 17836KT 9999 FEW030 4/15 Q1038
FF LFPYYYX LFPNYYYX LFPNYYYX 120612 METAR LFPG 120612Z 17051KT 9999 FEW030 9/0 Q1007
FF LFPBYYYX EDDFYYYX LFPBYYYX LFPOYYYX 100050 METAR LFPG 100050Z 14029KT 9999 FEW030 14/10 Q1091
FF LFPYYYX LFPOYYYX 230050 METAR LFPG 230050Z 02159KT 9999 FEW030 26/16 Q1021
KK EGLLYYYX EGLLYYYX 040916 METAR LFPG 040916Z 29444KT 9999 FEW030 4/15 Q1085
KK EGLLYYYX LFPNYYYX EDDFYYYX 052329 METAR LFPG 052329Z 30758KT 9999 FEW030 0/16 Q1005
FF EGLLYYYX EDDFYYYX 021937 METAR LFPG 021937Z 01636KT 9999 FEW030 13/8 Q1025
LL LFPOYYYX EDDFYYYX LFPOYYYX EGLLYYYX 082228 METAR LFPG 082228Z 18646KT 9999 FEW030 16/4 Q1037
GG LFPOYYYX LFPNYYYX LFPBYYYX LFPGYYYX 160939 METAR LFPG 160939Z 07828KT 9999 FEW030 10/3 Q1044
LL LFPNYYYX LFPNYYYX EGLLYYYX LFPBYYYX 071254 METAR LFPG 071254Z 27353KT 9999 FEW030 29/15 Q1072
DD EDDFYYYX EGLLYYYX 220442 METAR LFPG 220442Z 31230KT 9999 FEW030 21/18 Q1039
SS LFPYYYX LFPNYYYX 101102 METAR LFPG 101102Z 15230KT 9999 FEW030 24/16 Q1031
FF EDDFYYYX LFPOYYYX LFPOYYYX 171517 METAR LFPG 171517Z 22755KT 9999 FEW030 13/18 Q1005
LL LFPBYYYX LFPBYYYX LFPOYYYX LFPOYYYX 271735 METAR LFPG 271735Z 25324KT 9999 FEW030 14/16 Q1042
DD LFPNYYYX LFPGYYYX LFPGYYYX LFPBYYYX 060305 METAR LFPG 060305Z 09614KT 9999 FEW030 19/18 Q1094
DD LFPNYYYX LFPNYYYX 281352 METAR LFPG 281352Z 08230KT 9999 FEW030 17/12 Q1066
FF LFPOYYYX EDDFYYYX EGLLYYYX 060442 METAR LFPG 060442Z 19221KT 9999 FEW030 12/11 Q1047
LL LFPYYYX EGLLYYYX EGLLYYYX 161755 METAR LFPG 161755Z 32644KT 9999 FEW030 8/15 Q1044
LL LFPYYYX EDDFYYYX LFPNYYYX LFPGYYYX 070434 METAR LFPG 070434Z 19323KT 9999 FEW030 0/13 Q1073
LL LFPYYYX EGLLYYYX 170713 METAR LFPG 170713Z 05152KT 9999 FEW030 21/3 Q1017
FF LFPBYYYX LFPGYYYX EDDFYYYX LFPOYYYX 191743 METAR LFPG 191743Z 01322KT 9999 FEW030 25/15 Q1046
DD LFPBYYYX EGLLYYYX EDDFYYYX LFPGYYYX 120939 METAR LFPG 120939Z 31838KT 9999 FEW030 4/14 Q1035
DD EGLLYYYX LFPBYYYX LFPOYYYX EDDFYYYX 061114 METAR LFPG 061114Z 22432KT 9999 FEW030 13/14 Q1047
SS LFPYYYX LFPGYYYX LFPBYYYX LFPNYYYX 142002 METAR LFPG 142002Z 04031KT 9999 FEW030 13/19 Q1042
LL LFPBYYYX EGLLYYYX EGLLYYYX 282159 METAR LFPG 282159Z 21048KT 9999 FEW030 15/13 Q1084
KK LFPNYYYX LFPOYYYX LFPBYYYX LFPNYYYX 240103 METAR LFPG 240103Z 33342KT 9999 FEW030 2/7 Q1016
FF LFPBYYYX EDDFYYYX LFPOYYYX LFPBYYYX 282116 METAR LFPG 282116Z 23444KT 9999 FEW030 27/8 Q1068
GG EDDFYYYX EGLLYYYX LFPGYYYX EDDFYYYX 051529 METAR LFPG 051529Z 29928KT 9999 FEW030 14/13 Q1049
SS LFPBYYYX EDDFYYYX LFPGYYYX LFPNYYYX 120927 METAR LFPG 120927Z 00546KT 9999 FEW030 25/10 Q1046
GG LFPOYYYX LFPGYYYX 161743 METAR LFPG 161743Z 01432KT 9999 FEW030 16/1 Q1076
SS LFPNYYYX EDDFYYYX EGLLYYYX LFPNYYYX 120959 METAR LFPG 120959Z 15030KT 9999 FEW030 6/6 Q1040
SS LFPOYYYX EDDFYYYX LFPOYYYX EGLLYYYX 152159 METAR LFPG 152159Z 20928KT 9999 FEW030 18/12 Q1093
KK LFPYYYX LFPOYYYX 030050 METAR LFPG 030050Z 14149KT 9999 FEW030 14/13 Q1033
SS LFPYYYX LFPBYYYX 180354 METAR LFPG 180354Z 26432KT 9999 FEW030 0/10 Q1083
FF EDDFYYYX EDDFYYYX EGLLYYYX 282147 METAR LFPG 282147Z 01826KT 9999 FEW030 6/4 Q1029
GG EDDFYYYX LFPBYYYX LFPNYYYX LFPBYYYX 112123 METAR LFPG 112123Z 11351KT 9999 FEW030 16/16 Q1040
LL LFPGYYYX LFPOYYYX 081844 METAR LFPG 081844Z 25423KT 9999 FEW030 19/19 Q1049
SS LFPGYYYX LFPNYYYX EGLLYYYX 231238 METAR LFPG 231238Z 12927KT 9999 FEW030 18/8 Q1041
GG LFPNYYYX LFPGYYYX EGLLYYYX 091844 METAR LFPG 091844Z 01513KT 9999 FEW030 7/17 Q1013
FF LFPGYYYX EDDFYYYX LFPNYYYX 011048 METAR LFPG 011048Z 31917KT 9999 FEW030 23/18 Q1029
LL LFPGYYYX LFPNYYYX LFPBYYYX 090656 METAR LFPG 090656Z 26645KT 9999 FEW030 6/11 Q1007
FF EDDFYYYX LFPNYYYX LFPGYYYX LFPGYYYX 050636 METAR LFPG 050636Z 31545KT 9999 FEW030 28/8 Q1060
SS LFPGYYYX EDDFYYYX LFPNYYYX 191250 METAR LFPG 191250Z 20119KT 9999 FEW030 17/3 Q1088
SS LFPYYYX LFPGYYYX LFPBYYYX 261553 METAR LFPG 261553Z 08322KT 9999 FEW030 2/19 Q1079
GG EDDFYYYX LFPGYYYX LFPOYYYX EGLLYYYX 031242 METAR LFPG 031242Z 32131KT 9999 FEW030 4/17 Q1019
DD LFPOYYYX LFPBYYYX 011844 METAR LFPG 011844Z 01513KT 9999 FEW030 10/18 Q1012
LL LFPBYYYX LFPBYYYX 201808 METAR LFPG 201808Z 03817KT 9999 FEW030 16/11 Q1047
LL LFPBYYYX LFPGYYYX LFPOYYYX 020354 METAR LFPG 020354Z 14442KT 9999 FEW030 6/0 Q1016
DD LFPOYYYX LFPGYYYX 101922 METAR LFPG 101922Z 11240KT 9999 FEW030 17/1 Q1059
GG EGLLYYYX LFPNYYYX LFPGYYYX 151319 METAR LFPG 151319Z 05748KT 9999 FEW030 27/7 Q1066
GG LFPNYYYX EDDFYYYX 241848 METAR LFPG 241848Z 32627KT 9999 FEW030 0/16 Q1070
KK LFPGYYYX LFPOYYYX EGLLYYYX 151622 METAR LFPG 151622Z 18111KT 9999 FEW030 17/14 Q1014
SS EGLLYYYX LFPOYYYX LFPBYYYX 030459 METAR LFPG 030459Z 33757KT 9999 FEW030 28/7 Q1069
FF EGLLYYYX LFPOYYYX 230431 METAR LFPG 230431Z 00129KT 9999 FEW030 4/1 Q1028
LL EDDFYYYX LFPOYYYX EGLLYYYX 010357 METAR LFPG 010357Z 09525KT 9999 FEW030 21/15 Q1025
DD LFPOYYYX LFPGYYYX 202127 METAR LFPG 202127Z 17736KT 9999 FEW030 26/6 Q1055
DD LFPYYYX EGLLYYYX 071631 METAR LFPG 071631Z 18149KT 9999 FEW030 4/3 Q1099
SS LFPOYYYX EGLLYYYX LFPOYYYX LFPGYYYX 112127 METAR LFPG 112127Z 18545KT 9999 FEW030 12/1 Q1023
SS LFPBYYYX LFPBYYYX 280500 METAR LFPG 280500Z 09818KT 9999 FEW030 28/2 Q1018
LL LFPGYYYX LFPOYYYX LFPNYYYX LFPNYYYX 031214 METAR LFPG 031214Z 22543KT 9999 FEW030 17/1 Q1076
SS LFPYYYX EDDFYYYX 081456 METAR LFPG 081456Z 03415KT 9999 FEW030 11/16 Q1063
LL EGLLYYYX LFPNYYYX EDDFYYYX LFPBYYYX 251825 METAR LFPG 251825Z 06323KT 9999 FEW030 14/0 Q1010
GG EGLLYYYX LFPGYYYX EDDFYYYX 072023 METAR LFPG 072023Z 35331KT 9999 FEW030 24/6 Q1065
GG LFPGYYYX EDDFYYYX EGLLYYYX 211529 METAR LFPG 211529Z 29930KT 9999 FEW030 5/11 Q1038
GG LFPOYYYX EGLLYYYX LFPBYYYX EDDFYYYX 022014 METAR LFPG 022014Z 23253KT 9999 FEW030 3/8 Q1007
KK LFPNYYYX EGLLYYYX 150850 METAR LFPG 150850Z 14839KT 9999 FEW030 21/6 Q1001
SS EGLLYYYX EGLLYYYX LFPOYYYX 131013 METAR LFPG 131013Z 22331KT 9999 FEW030 18/7 Q1001
FF LFPGYYYX EGLLYYYX EDDFYYYX 041339 METAR LFPG 041339Z 12948KT 9999 FEW030 19/7 Q1033
GG LFPNYYYX LFPOYYYX EGLLYYYX LFPNYYYX 100446 METAR LFPG 100446Z 14425KT 9999 FEW030 17/18 Q1069
SS EGLLYYYX LFPBYYYX LFPNYYYX LFPGYYYX 250601 METAR LFPG 250601Z 33959KT 9999 FEW030 6/5 Q1065
FF EGLLYYYX LFPOYYYX LFPOYYYX 182318 METAR LFPG 182318Z 11616KT 9999 FEW030 5/0 Q1026
FF LFPBYYYX LFPGYYYX 090228 METAR LFPG 090228Z 11947KT 9999 FEW030 20/13 Q1043
FF LFPYYYX LFPBYYYX EGLLYYYX 230823 METAR LFPG 230823Z 17341KT 9999 FEW030 19/15 Q1001
DD LFPYYYX LFPGYYYX LFPOYYYX 121048 METAR LFPG 121048Z 07847KT 9999 FEW030 27/19 Q1005
LL EGLLYYYX LFPNYYYX EDDFYYYX 150434 METAR LFPG 150434Z 19343KT 9999 FEW030 26/9 Q1034
DD EGLLYYYX LFPOYYYX 061106 METAR LFPG 061106Z 34434KT 9999 FEW030 10/8 Q1086
LL EGLLYYYX LFPBYYYX 171545 METAR LFPG 171545Z 32354KT 9999 FEW030 23/9 Q1064
DD EGLLYYYX EDDFYYYX 070454 METAR LFPG 070454Z 26513KT 9999 FEW030 7/7 Q1048
LL LFPOYYYX LFPOYYYX 042104 METAR LFPG 042104Z 16242KT 9999 FEW030 29/4 Q1039
SS LFPGYYYX LFPGYYYX LFPOYYYX 260446 METAR LFPG 260446Z 26434KT 9999 FEW030 24/15 Q1052
GG LFPNYYYX LFPBYYYX EGLLYYYX 071343 METAR LFPG 071343Z 32151KT 9999 FEW030 25/9 Q1006
LL EGLLYYYX EGLLYYYX LFPGYYYX EDDFYYYX 222046 METAR LFPG 222046Z 01655KT 9999 FEW030 3/0 Q1049
KK LFPYYYX LFPBYYYX 270407 METAR LFPG 270407Z 21737KT 9999 FEW030 6/1 Q1026
FF LFPNYYYX EGLLYYYX LFPNYYYX 101642 METAR LFPG 101642Z 25211KT 9999 FEW030 16/12 Q1098
GG EGLLYYYX LFPNYYYX EGLLYYYX EDDFYYYX 070018 METAR LFPG 070018Z 23737KT 9999 FEW030 12/5 Q1075
LL EDDFYYYX LFPOYYYX EGLLYYYX LFPNYYYX 251848 METAR LFPG 251848Z 20737KT 9999 FEW030 17/17 Q1022
LL LFPOYYYX EDDFYYYX 270042 METAR LFPG 270042Z 02121KT 9999 FEW030 23/2 Q1073
KK LFPNYYYX LFPNYYYX 261610 METAR LFPG 261610Z 22829KT 9999 FEW030 25/0 Q1079
SS LFPNYYYX EDDFYYYX 020345 METAR LFPG 020345Z 26324KT 9999 FEW030 13/0 Q1055
KK LFPNYYYX EDDFYYYX 171036 METAR LFPG 171036Z 12715KT 9999 FEW030 9/16 Q1067
GG EDDFYYYX EDDFYYYX LFPNYYYX 080508 METAR LFPG 080508Z 33846KT 9999 FEW030 22/3 Q1077
SS LFPBYYYX LFPOYYYX LFPNYYYX LFPGYYYX 021534 METAR LFPG 021534Z 01252KT 9999 FEW030 23/1 Q1049
LL LFPNYYYX EGLLYYYX LFPGYYYX LFPNYYYX 211037 METAR LFPG 211037Z 12715KT 9999 FEW030 8/0 Q1049
FF LFPNYYYX LFPGYYYX 070519 METAR LFPG 070519Z 04918KT 9999 FEW030 25/15 Q1009
LL LFPOYYYX LFPBYYYX EGLLYYYX LFPNYYYX 181226 METAR LFPG 181226Z 29654KT 9999 FEW030 15/11 Q1077
FF LFPBYYYX EDDFYYYX EDDFYYYX EDDFYYYX 040140 METAR LFPG 040140Z 19038KT 9999 FEW030 3/15 Q1087
GG EGLLYYYX LFPOYYYX LFPOYYYX LFPGYYYX 091141 METAR LFPG 091141Z 19940KT 9999 FEW030 25/19 Q1083
LL EGLLYYYX LFPBYYYX EGLLYYYX 230947 METAR LFPG 230947Z 19725KT 9999 FEW030 27/19 Q1040
FF LFPNYYYX LFPOYYYX LFPNYYYX LFPBYYYX 252249 METAR LFPG 252249Z 01937KT 9999 FEW030 11/0 Q1051
LL LFPOYYYX LFPNYYYX 221618 METAR LFPG 221618Z 10857KT 9999 FEW030 23/15 Q1048
GG LFPYYYX EDDFYYYX LFPGYYYX 071226 METAR LFPG 071226Z 05745KT 9999 FEW030 6/14 Q1087
GG LFPBYYYX LFPGYYYX EDDFYYYX EDDFYYYX 260721 METAR LFPG 260721Z 17220KT 9999 FEW030 13/7 Q1028
DD LFPOYYYX LFPOYYYX EGLLYYYX 160531 METAR LFPG 160531Z 12250KT 9999 FEW030 28/11 Q1033
DD LFPOYYYX LFPBYYYX EGLLYYYX EDDFYYYX 082104 METAR LFPG 082104Z 04242KT 9999 FEW030 20/19 Q1012
FF LFPYYYX EDDFYYYX 020733 METAR LFPG 020733Z 12442KT 9999 FEW030 17/11 Q1053
GG LFPOYYYX LFPBYYYX EDDFYYYX 062353 METAR LFPG 062353Z 21142KT 9999 FEW030 27/8 Q1069
LL EGLLYYYX LFPGYYYX 092249 METAR LFPG 092249Z 25937KT 9999 FEW030 19/18 Q1014
GG LFPBYYYX LFPOYYYX 161040 METAR LFPG 161040Z 19829KT 9999 FEW030 1/12 Q1044
GG LFPOYYYX LFPNYYYX LFPNYYYX 070107 METAR LFPG 070107Z 28516KT 9999 FEW030 2/11 Q1069
GG LFPOYYYX LFPBYYYX 101254 METAR LFPG 101254Z 15212KT 9999 FEW030 2/19 Q1074
FF EDDFYYYX LFPNYYYX 240511 METAR LFPG 240511Z 16920KT 9999 FEW030 1/7 Q1037
KK LFPGYYYX EDDFYYYX EDDFYYYX 140442 METAR LFPG 140442Z 31250KT 9999 FEW030 29/8 Q1042
KK EDDFYYYX LFPGYYYX 170204 METAR LFPG 170204Z 21555KT 9999 FEW030 3/6 Q1018
LL LFPYYYX LFPBYYYX 050725 METAR LFPG 050725Z 00353KT 9999 FEW030 6/14 Q1089
FF LFPGYYYX EGLLYYYX 280600 METAR LFPG 280600Z 33848KT 9999 FEW030 24/17 Q1064
KK LFPBYYYX EDDFYYYX EGLLYYYX 251052 METAR LFPG 251052Z 03121KT 9999 FEW030 21/13 Q1034
FF LFPGYYYX EGLLYYYX EGLLYYYX 161700 METAR LFPG 161700Z 15828KT 9999 FEW030 11/7 Q1033
KK EDDFYYYX LFPOYYYX LFPBYYYX 200140 METAR LFPG 200140Z 07048KT 9999 FEW030 25/4 Q1051
FF LFPNYYYX EDDFYYYX 130221 METAR LFPG 130221Z 23959KT 9999 FEW030 19/19 Q1045
FF LFPOYYYX EDDFYYYX 042111 METAR LFPG 042111Z 16230KT 9999 FEW030 14/10 Q1024
DD EGLLYYYX EDDFYYYX 220341 METAR LFPG 220341Z 31250KT 9999 FEW030 18/9 Q1072
FF EDDFYYYX LFPBYYYX 280531 METAR LFPG 280531Z 00242KT 9999 FEW030 21/15 Q1043
DD LFPBYYYX EDDFYYYX EDDFYYYX LFPGYYYX 261618 METAR LFPG 261618Z 10847KT 9999 FEW030 20/15 Q1048
DD LFPGYYYX LFPBYYYX 101149 METAR LFPG 101149Z 20020KT 9999 FEW030 26/17 Q1042
KK LFPYYYX LFPBYYYX EDDFYYYX 112051 METAR LFPG 112051Z 32939KT 9999 FEW030 17/19 Q1075
GG LFPYYYX EGLLYYYX LFPBYYYX 150951 METAR LFPG 150951Z 26950KT 9999 FEW030 22/4 Q1081
LL EDDFYYYX EGLLYYYX 061206 METAR LFPG 061206Z 34455KT 9999 FEW030 20/19 Q1027
FF LFPNYYYX LFPOYYYX EDDFYYYX 221505 METAR LFPG 221505Z 03634KT 9999 FEW030 15/15 Q1070
KK EGLLYYYX LFPGYYYX LFPBYYYX 061949 METAR LFPG 061949Z 32858KT 9999 FEW030 20/0 Q1066
FF LFPBYYYX LFPNYYYX LFPOYYYX LFPGYYYX 092212 METAR LFPG 092212Z 28351KT 9999 FEW030 18/0 Q1052
KK EDDFYYYX LFPBYYYX LFPOYYYX 232023 METAR LFPG 232023Z 23341KT 9999 FEW030 2/16 Q1079
LL LFPBYYYX EGLLYYYX 061202 METAR LFPG 061202Z 03241KT 9999 FEW030 24/16 Q1055
LL LFPGYYYX LFPGYYYX EDDFYYYX EGLLYYYX 121800 METAR LFPG 121800Z 15838KT 9999 FEW030 4/11 Q1068
KK LFPBYYYX EDDFYYYX LFPOYYYX 041340 METAR LFPG 041340Z 25028KT 9999 FEW030 19/0 Q1073
LL LFPYYYX LFPBYYYX EDDFYYYX LFPGYYYX 200523 METAR LFPG 200523Z 12122KT 9999 FEW030 15/14 Q1051
KK LFPYYYX EGLLYYYX LFPGYYYX 131812 METAR LFPG 131812Z 35151KT 9999 FEW030 16/9 Q1062
DD EDDFYYYX EGLLYYYX EDDFYYYX 180353 METAR LFPG 180353Z 26452KT 9999 FEW030 2/11 Q1061
LL LFPNYYYX LFPNYYYX LFPBYYYX 030927 METAR LFPG 030927Z 12526KT 9999 FEW030 18/19 Q1075
GG LFPOYYYX EDDFYYYX 010345 METAR LFPG 010345Z 01514KT 9999 FEW030 10/11 Q1015
GG EGLLYYYX LFPOYYYX LFPGYYYX LFPOYYYX 120108 METAR LFPG 120108Z 04626KT 9999 FEW030 15/12 Q1052
GG EDDFYYYX EDDFYYYX LFPNYYYX 171024 METAR LFPG 171024Z 05533KT 9999 FEW030 7/1 Q1023
GG LFPOYYYX EGLLYYYX LFPNYYYX 131921 METAR LFPG 131921Z 35140KT 9999 FEW030 16/2 Q1084
LL LFPOYYYX LFPBYYYX EGLLYYYX 230107 METAR LFPG 230107Z 16526KT 9999 FEW030 14/12 Q1064
FF EGLLYYYX LFPBYYYX 111634 METAR LFPG 111634Z 13323KT 9999 FEW030 16/14 Q1045
SS LFPNYYYX LFPOYYYX EGLLYYYX 281735 METAR LFPG 281735Z 25414KT 9999 FEW030 0/17 Q1023
FF LFPNYYYX LFPBYYYX LFPOYYYX LFPOYYYX 040519 METAR LFPG 040519Z 04948KT 9999 FEW030 18/6 Q1047
GG EGLLYYYX LFPGYYYX EGLLYYYX 022354 METAR LFPG 022354Z 09242KT 9999 FEW030 5/12 Q1016
GG LFPOYYYX LFPGYYYX 131040 METAR LFPG 131040Z 07939KT 9999 FEW030 26/7 Q1079
FF LFPBYYYX EGLLYYYX LFPBYYYX LFPGYYYX 041452 METAR LFPG 041452Z 32230KT 9999 FEW030 12/12 Q1005
DD LFPBYYYX LFPNYYYX LFPNYYYX 262325 METAR LFPG 262325Z 23514KT 9999 FEW030 28/11 Q1004
DD LFPGYYYX LFPBYYYX 210636 METAR LFPG 210636Z 07455KT 9999 FEW030 21/13 Q1036
GG LFPBYYYX LFPOYYYX 270454 METAR LFPG 270454Z 26533KT 9999 FEW030 14/16 Q1020
FF LFPGYYYX EDDFYYYX 190547 METAR LFPG 190547Z 02526KT 9999 FEW030 27/11 Q1057
FF LFPYYYX LFPOYYYX LFPNYYYX 021934 METAR LFPG 021934Z 18412KT 9999 FEW030 10/7 Q1085
LL LFPBYYYX EDDFYYYX LFPOYYYX 091016 METAR LFPG 091016Z 17555KT 9999 FEW030 5/13 Q1027
KK LFPBYYYX EDDFYYYX LFPGYYYX 131856 METAR LFPG 131856Z 08755KT 9999 FEW030 28/19 Q1079
SS LFPNYYYX LFPGYYYX 211037 METAR LFPG 211037Z 00755KT 9999 FEW030 13/1 Q1050
FF LFPBYYYX LFPGYYYX LFPNYYYX EDDFYYYX 141558 METAR LFPG 141558Z 27636KT 9999 FEW030 16/9 Q1088
SS LFPGYYYX LFPBYYYX EDDFYYYX 140310 METAR LFPG 140310Z 04848KT 9999 FEW030 10/0 Q1074
KK EGLLYYYX EDDFYYYX EGLLYYYX 011408 METAR LFPG 011408Z 22717KT 9999 FEW030 14/19 Q1068
KK LFPGYYYX LFPGYYYX 180406 METAR LFPG 180406Z 21655KT 9999 FEW030 24/3 Q1050
GG EDDFYYYX LFPOYYYX EDDFYYYX 111226 METAR LFPG 111226Z 17735KT 9999 FEW030 18/16 Q1085
LL LFPGYYYX EGLLYYYX LFPNYYYX EDDFYYYX 230155 METAR LFPG 230155Z 21344KT 9999 FEW030 29/15 Q1081
LL EDDFYYYX EDDFYYYX EGLLYYYX EGLLYYYX 080232 METAR LFPG 080232Z 31041KT 9999 FEW030 19/15 Q1038
LL EGLLYYYX LFPNYYYX LFPBYYYX LFPGYYYX 091004 METAR LFPG 091004Z 34353KT 9999 FEW030 26/12 Q1059
KK LFPGYYYX EDDFYYYX EGLLYYYX EGLLYYYX 090632 METAR LFPG 090632Z 00341KT 9999 FEW030 28/16 Q1011
SS LFPBYYYX LFPBYYYX LFPNYYYX LFPGYYYX 071647 METAR LFPG 071647Z 32535KT 9999 FEW030 25/4 Q1086
FF LFPBYYYX EGLLYYYX LFPBYYYX LFPBYYYX 020702 METAR LFPG 020702Z 22040KT 9999 FEW030 22/0 Q1069
FF EDDFYYYX LFPOYYYX EGLLYYYX 251825 METAR LFPG 251825Z 30343KT 9999 FEW030 20/1 Q1063
FF LFPGYYYX LFPNYYYX LFPBYYYX EGLLYYYX 060802 METAR LFPG 060802Z 22051KT 9999 FEW030 10/4 Q1022
SS LFPNYYYX LFPNYYYX LFPBYYYX LFPOYYYX 080559 METAR LFPG 080559Z 33028KT 9999 FEW030 12/14 Q1021
DD EGLLYYYX EDDFYYYX LFPBYYYX 030002 METAR LFPG 030002Z 33353KT 9999 FEW030 19/10 Q1061
LL LFPYYYX LFPGYYYX 052252 METAR LFPG 052252Z 33151KT 9999 FEW030 21/14 Q1033
LL LFPYYYX LFPNYYYX 252216 METAR LFPG 252216Z 23535KT 9999 FEW030 28/2 Q1066
KK LFPYYYX LFPNYYYX 031707 METAR LFPG 031707Z 15715KT 9999 FEW030 23/17 Q1008
DD LFPOYYYX LFPBYYYX 241719 METAR LFPG 241719Z 23038KT 9999 FEW030 10/8 Q1044
GG LFPNYYYX EGLLYYYX 230007 METAR LFPG 230007Z 04545KT 9999 FEW030 10/12 Q1046
KK LFPGYYYX LFPGYYYX EGLLYYYX EGLLYYYX 041756 METAR LFPG 041756Z 08616KT 9999 FEW030 3/1 Q1042
GG EGLLYYYX LFPBYYYX 050656 METAR LFPG 050656Z 02615KT 9999 FEW030 16/18 Q1012
KK EGLLYYYX LFPGYYYX 040948 METAR LFPG 040948Z 31816KT 9999 FEW030 20/10 Q1024
DD EDDFYYYX EGLLYYYX EDDFYYYX 272014 METAR LFPG 272014Z 23313KT 9999 FEW030 29/2 Q1097
FF LFPYYYX EDDFYYYX LFPOYYYX EGLLYYYX 282135 METAR LFPG 282135Z 30644KT 9999 FEW030 24/0 Q1096
GG LFPYYYX EDDFYYYX EDDFYYYX EGLLYYYX 131456 METAR LFPG 131456Z 27515KT 9999 FEW030 28/17 Q1043
FF LFPYYYX LFPNYYYX 171957 METAR LFPG 171957Z 20716KT 9999 FEW030 3/12 Q1047
GG LFPYYYX LFPBYYYX LFPNYYYX LFPOYYYX 110454 METAR LFPG 110454Z 02443KT 9999 FEW030 5/10 Q1030
FF LFPBYYYX LFPGYYYX 131048 METAR LFPG 131048Z 07937KT 9999 FEW030 11/8 Q1064
LL LFPGYYYX EGLLYYYX 151747 METAR LFPG 151747Z 20525KT 9999 FEW030 22/4 Q1088
LL LFPOYYYX LFPBYYYX 080547 METAR LFPG 080547Z 26616KT 9999 FEW030 5/1 Q1026
DD EGLLYYYX LFPBYYYX 120507 METAR LFPG 120507Z 33856KT 9999 FEW030 0/3 Q1063
GG LFPNYYYX LFPGYYYX EDDFYYYX 072010 METAR LFPG 072010Z 28149KT 9999 FEW030 7/16 Q1044
FF LFPOYYYX EDDFYYYX LFPNYYYX 140038 METAR LFPG 140038Z 18837KT 9999 FEW030 17/11 Q1007
LL LFPOYYYX LFPNYYYX LFPOYYYX LFPNYYYX 211901 METAR LFPG 211901Z 27919KT 9999 FEW030 23/16 Q1084
DD LFPYYYX LFPGYYYX LFPGYYYX EDDFYYYX 070030 METAR LFPG 070030Z 30819KT 9999 FEW030 4/4 Q1061
KK LFPYYYX LFPGYYYX 212305 METAR LFPG 212305Z 04323KT 9999 FEW030 14/0 Q1084
GG LFPOYYYX LFPGYYYX LFPNYYYX LFPOYYYX 131824 METAR LFPG 131824Z 18223KT 9999 FEW030 15/14 Q1074
LL LFPOYYYX LFPGYYYX 090240 METAR LFPG 090240Z 19159KT 9999 FEW030 6/18 Q1053
DD LFPBYYYX EDDFYYYX LFPNYYYX 160208 METAR LFPG 160208Z 28627KT 9999 FEW030 16/6 Q1061
DD LFPGYYYX EDDFYYYX 280116 METAR LFPG 280116Z 16654KT 9999 FEW030 28/5 Q1073
FF LFPBYYYX EDDFYYYX LFPBYYYX 242127 METAR LFPG 242127Z 18636KT 9999 FEW030 22/13 Q1021
KK LFPOYYYX LFPOYYYX 060746 METAR LFPG 060746Z 31614KT 9999 FEW030 15/2 Q1006
GG LFPOYYYX EGLLYYYX 190847 METAR LFPG 190847Z 31745KT 9999 FEW030 29/3 Q1083
KK LFPBYYYX LFPOYYYX LFPBYYYX 071243 METAR LFPG 071243Z 32131KT 9999 FEW030 7/7 Q1076
DD LFPOYYYX LFPNYYYX 191755 METAR LFPG 191755Z 32523KT 9999 FEW030 24/19 Q1075
DD LFPNYYYX LFPOYYYX 262002 METAR LFPG 262002Z 28011KT 9999 FEW030 13/5 Q1010
DD LFPGYYYX LFPNYYYX EDDFYYYX 201711 METAR LFPG 201711Z 35040KT 9999 FEW030 5/3 Q1047
SS EDDFYYYX EDDFYYYX LFPBYYYX LFPNYYYX 270454 METAR LFPG 270454Z 02553KT 9999 FEW030 15/4 Q1071
LL LFPGYYYX LFPBYYYX LFPGYYYX LFPNYYYX 051824 METAR LFPG 051824Z 06343KT 9999 FEW030 5/17 Q1075
SS EGLLYYYX EGLLYYYX 260030 METAR LFPG 260030Z 06839KT 9999 FEW030 15/9 Q1003
KK EGLLYYYX EGLLYYYX 261945 METAR LFPG 261945Z 01644KT 9999 FEW030 5/3 Q1002
GG LFPYYYX LFPGYYYX LFPNYYYX LFPNYYYX 181545 METAR LFPG 181545Z 32344KT 9999 FEW030 17/16 Q1065
LL LFPYYYX EGLLYYYX 220333 METAR LFPG 220333Z 07212KT 9999 FEW030 18/1 Q1077
DD EDDFYYYX EGLLYYYX EGLLYYYX EGLLYYYX 041343 METAR LFPG 041343Z 20112KT 9999 FEW030 10/4 Q1038
DD LFPGYYYX LFPOYYYX LFPGYYYX 140734 METAR LFPG 140734Z 00432KT 9999 FEW030 5/9 Q1033
GG LFPYYYX LFPOYYYX LFPGYYYX 231351 METAR LFPG 231351Z 32150KT 9999 FEW030 27/8 Q1071
GG EDDFYYYX LFPBYYYX EGLLYYYX EGLLYYYX 061226 METAR LFPG 061226Z 05655KT 9999 FEW030 15/9 Q1032
KK LFPOYYYX LFPNYYYX EGLLYYYX EGLLYYYX 172240 METAR LFPG 172240Z 13929KT 9999 FEW030 11/5 Q1046
GG LFPGYYYX LFPGYYYX 152015 METAR LFPG 152015Z 23353KT 9999 FEW030 20/15 Q1010
KK LFPBYYYX EGLLYYYX LFPOYYYX 081315 METAR LFPG 081315Z 34614KT 9999 FEW030 25/11 Q1098
GG LFPBYYYX LFPNYYYX EGLLYYYX 131541 METAR LFPG 131541Z 13119KT 9999 FEW030 3/17 Q1099
FF LFPBYYYX LFPNYYYX LFPNYYYX LFPBYYYX 111623 METAR LFPG 111623Z 30111KT 9999 FEW030 28/12 Q1053
LL EDDFYYYX EDDFYYYX 120939 METAR LFPG 120939Z 07838KT 9999 FEW030 19/2 Q1045
LL LFPGYYYX EDDFYYYX LFPOYYYX LFPNYYYX 200535 METAR LFPG 200535Z 19424KT 9999 FEW030 27/16 Q1025
KK LFPBYYYX EGLLYYYX EDDFYYYX 111226 METAR LFPG 111226Z 17755KT 9999 FEW030 23/16 Q1010
SS EGLLYYYX LFPBYYYX LFPOYYYX EGLLYYYX 221154 METAR LFPG 221154Z 15232KT 9999 FEW030 2/18 Q1025
LL LFPGYYYX LFPBYYYX EGLLYYYX EGLLYYYX 070055 METAR LFPG 070055Z 33333KT 9999 FEW030 16/11 Q1018
GG LFPGYYYX LFPGYYYX 171416 METAR LFPG 171416Z 10615KT 9999 FEW030 12/12 Q1039
GG LFPGYYYX EGLLYYYX 260309 METAR LFPG 260309Z 04838KT 9999 FEW030 18/9 Q1056
SS LFPOYYYX LFPBYYYX 100826 METAR LFPG 100826Z 24415KT 9999 FEW030 9/16 Q1066
SS EGLLYYYX EDDFYYYX 090709 METAR LFPG 090709Z 33947KT 9999 FEW030 4/14 Q1005
GG LFPGYYYX LFPBYYYX LFPBYYYX EDDFYYYX 160928 METAR LFPG 160928Z 12656KT 9999 FEW030 5/11 Q1060
LL LFPBYYYX EDDFYYYX EDDFYYYX LFPOYYYX 052305 METAR LFPG 052305Z 04353KT 9999 FEW030 17/5 Q1002
KK EGLLYYYX EDDFYYYX 012248 METAR LFPG 012248Z 01947KT 9999 FEW030 13/13 Q1004
GG LFPNYYYX EDDFYYYX LFPBYYYX 100858 METAR LFPG 100858Z 26836KT 9999 FEW030 27/18 Q1076
DD LFPNYYYX EGLLYYYX 051004 METAR LFPG 051004Z 10213KT 9999 FEW030 16/10 Q1001
FF LFPGYYYX LFPOYYYX LFPNYYYX 130252 METAR LFPG 130252Z 26311KT 9999 FEW030 8/19 Q1049
DD EDDFYYYX LFPOYYYX 190923 METAR LFPG 190923Z 05312KT 9999 FEW030 21/14 Q1055
KK EDDFYYYX EDDFYYYX 071230 METAR LFPG 071230Z 00119KT 9999 FEW030 3/15 Q1048
LL EDDFYYYX EDDFYYYX EDDFYYYX 051012 METAR LFPG 051012Z 10341KT 9999 FEW030 28/18 Q1043
DD EGLLYYYX LFPBYYYX 092224 METAR LFPG 092224Z 35513KT 9999 FEW030 14/17 Q1093
KK LFPBYYYX EDDFYYYX EDDFYYYX 150434 METAR LFPG 150434Z 31313KT 9999 FEW030 7/7 Q1089
FF EGLLYYYX LFPOYYYX LFPGYYYX LFPBYYYX 280119 METAR LFPG 280119Z 11758KT 9999 FEW030 4/15 Q1053
DD EGLLYYYX EDDFYYYX LFPBYYYX 250624 METAR LFPG 250624Z 00353KT 9999 FEW030 14/11 Q1073
FF LFPNYYYX LFPGYYYX 190155 METAR LFPG 190155Z 09314KT 9999 FEW030 27/8 Q1059
GG EGLLYYYX LFPBYYYX LFPGYYYX EGLLYYYX 080935 METAR LFPG 080935Z 00624KT 9999 FEW030 11/16 Q1056
GG EDDFYYYX LFPGYYYX LFPBYYYX LFPOYYYX 022305 METAR LFPG 022305Z 04444KT 9999 FEW030 24/12 Q1030
GG LFPYYYX LFPNYYYX EGLLYYYX 050357 METAR LFPG 050357Z 21526KT 9999 FEW030 28/10 Q1090
DD EDDFYYYX LFPOYYYX EDDFYYYX EDDFYYYX 090205 METAR LFPG 090205Z 21543KT 9999 FEW030 10/11 Q1027
GG EDDFYYYX LFPNYYYX LFPBYYYX 110814 METAR LFPG 110814Z 05213KT 9999 FEW030 2/6 Q1077
LL EGLLYYYX EDDFYYYX EGLLYYYX 172217 METAR LFPG 172217Z 23515KT 9999 FEW030 9/15 Q1056
FF LFPOYYYX EDDFYYYX LFPBYYYX LFPNYYYX 181901 METAR LFPG 181901Z 16010KT 9999 FEW030 6/7 Q1009
LL EDDFYYYX EDDFYYYX LFPBYYYX 161824 METAR LFPG 161824Z 18242KT 9999 FEW030 11/16 Q1070
LL EDDFYYYX EDDFYYYX 281315 METAR LFPG 281315Z 22614KT 9999 FEW030 7/3 Q1067
GG EGLLYYYX LFPNYYYX LFPBYYYX EDDFYYYX 171808 METAR LFPG 171808Z 27827KT 9999 FEW030 5/12 Q1001
SS LFPOYYYX EDDFYYYX LFPOYYYX 061534 METAR LFPG 061534Z 13252KT 9999 FEW030 20/7 Q1072
DD LFPOYYYX LFPNYYYX 042204 METAR LFPG 042204Z 28213KT 9999 FEW030 25/17 Q1050
KK LFPNYYYX LFPOYYYX LFPBYYYX 080916 METAR LFPG 080916Z 17414KT 9999 FEW030 11/16 Q1099
DD LFPBYYYX LFPOYYYX 181505 METAR LFPG 181505Z 03634KT 9999 FEW030 14/17 Q1016
SS LFPOYYYX LFPGYYYX 221129 METAR LFPG 221129Z 12858KT 9999 FEW030 20/11 Q1049
FF EDDFYYYX LFPBYYYX LFPOYYYX EGLLYYYX 171101 METAR LFPG 171101Z 27140KT 9999 FEW030 26/7 Q1060
KK LFPNYYYX EGLLYYYX LFPGYYYX LFPNYYYX 161303 METAR LFPG 161303Z 03332KT 9999 FEW030 3/13 Q1014
GG LFPNYYYX LFPBYYYX LFPBYYYX LFPOYYYX 051825 METAR LFPG 051825Z 30333KT 9999 FEW030 7/10 Q1071
FF LFPYYYX LFPNYYYX LFPBYYYX 211028 METAR LFPG 211028Z 24757KT 9999 FEW030 23/15 Q1067
GG LFPNYYYX LFPNYYYX LFPBYYYX LFPBYYYX 020406 METAR LFPG 020406Z 21645KT 9999 FEW030 5/11 Q1036
SS LFPGYYYX LFPBYYYX 270459 METAR LFPG 270459Z 09747KT 9999 FEW030 10/8 Q1002
FF LFPBYYYX EDDFYYYX LFPBYYYX 060345 METAR LFPG 060345Z 14344KT 9999 FEW030 9/5 Q1054
DD LFPBYYYX LFPBYYYX 061153 METAR LFPG 061153Z 03212KT 9999 FEW030 22/1 Q1019
GG LFPNYYYX LFPGYYYX LFPOYYYX 261606 METAR LFPG 261606Z 27625KT 9999 FEW030 9/7 Q1039
LL LFPOYYYX EGLLYYYX LFPOYYYX 121708 METAR LFPG 121708Z 03856KT 9999 FEW030 23/3 Q1029
KK LFPGYYYX LFPNYYYX 050309 METAR LFPG 050309Z 28728KT 9999 FEW030 7/10 Q1011
GG EGLLYYYX EGLLYYYX EDDFYYYX LFPNYYYX 242248 METAR LFPG 242248Z 25817KT 9999 FEW030 20/5 Q1022
FF LFPBYYYX LFPBYYYX 181950 METAR LFPG 181950Z 08858KT 9999 FEW030 4/6 Q1026
DD EDDFYYYX LFPBYYYX LFPNYYYX LFPOYYYX 091937 METAR LFPG 091937Z 01555KT 9999 FEW030 4/14 Q1076
DD LFPYYYX LFPGYYYX 272050 METAR LFPG 272050Z 32819KT 9999 FEW030 22/12 Q1068
DD EDDFYYYX LFPBYYYX LFPOYYYX 121024 METAR LFPG 121024Z 05413KT 9999 FEW030 0/12 Q1021
GG EGLLYYYX LFPOYYYX LFPBYYYX EDDFYYYX 221505 METAR LFPG 221505Z 03624KT 9999 FEW030 24/15 Q1088
SS EGLLYYYX LFPNYYYX LFPGYYYX LFPOYYYX 172305 METAR LFPG 172305Z 04323KT 9999 FEW030 6/6 Q1092
SS EDDFYYYX LFPBYYYX 092240 METAR LFPG 092240Z 01949KT 9999 FEW030 24/15 Q1088
GG LFPGYYYX LFPBYYYX EGLLYYYX 151226 METAR LFPG 151226Z 17755KT 9999 FEW030 15/3 Q1032
GG EGLLYYYX EGLLYYYX LFPOYYYX 151215 METAR LFPG 151215Z 10553KT 9999 FEW030 7/18 Q1030
FF EGLLYYYX LFPNYYYX 150826 METAR LFPG 150826Z 24525KT 9999 FEW030 2/6 Q1097
GG LFPBYYYX EGLLYYYX LFPNYYYX 011040 METAR LFPG 011040Z 19839KT 9999 FEW030 28/1 Q1007
LL LFPOYYYX LFPBYYYX EGLLYYYX 160544 METAR LFPG 160544Z 19452KT 9999 FEW030 6/17 Q1017
LL LFPNYYYX EGLLYYYX LFPBYYYX LFPNYYYX 260317 METAR LFPG 260317Z 16856KT 9999 FEW030 22/17 Q1020
KK LFPYYYX LFPNYYYX LFPNYYYX EDDFYYYX 041327 METAR LFPG 041327Z 29856KT 9999 FEW030 6/10 Q1091
FF LFPNYYYX LFPNYYYX 080120 METAR LFPG 080120Z 11848KT 9999 FEW030 11/12 Q1034
GG LFPGYYYX LFPNYYYX EDDFYYYX 061658 METAR LFPG 061658Z 02846KT 9999 FEW030 24/7 Q1009
LL LFPYYYX LFPNYYYX 020305 METAR LFPG 020305Z 33616KT 9999 FEW030 6/10 Q1023
DD EDDFYYYX EDDFYYYX EGLLYYYX 060750 METAR LFPG 060750Z 14818KT 9999 FEW030 11/6 Q1031
DD EGLLYYYX LFPOYYYX 101521 METAR LFPG 101521Z 29910KT 9999 FEW030 24/11 Q1042
SS LFPOYYYX EGLLYYYX 021957 METAR LFPG 021957Z 32836KT 9999 FEW030 27/10 Q1040
GG LFPGYYYX LFPGYYYX LFPBYYYX LFPGYYYX 251432 METAR LFPG 251432Z 01121KT 9999 FEW030 15/11 Q1076
DD LFPNYYYX EGLLYYYX 250233 METAR LFPG 250233Z 19121KT 9999 FEW030 27/0 Q1053
SS LFPYYYX LFPBYYYX EDDFYYYX LFPOYYYX 240656 METAR LFPG 240656Z 02617KT 9999 FEW030 25/14 Q1047
FF EGLLYYYX LFPGYYYX 101610 METAR LFPG 101610Z 34839KT 9999 FEW030 22/8 Q1051
LL LFPOYYYX LFPBYYYX LFPBYYYX LFPBYYYX 150131 METAR LFPG 150131Z 30950KT 9999 FEW030 25/13 Q1020
DD LFPBYYYX EDDFYYYX LFPBYYYX 012224 METAR LFPG 012224Z 35533KT 9999 FEW030 23/1 Q1091
KK LFPYYYX EDDFYYYX 220306 METAR LFPG 220306Z 33634KT 9999 FEW030 9/5 Q1088
FF LFPNYYYX LFPOYYYX LFPNYYYX 271723 METAR LFPG 271723Z 18132KT 9999 FEW030 8/13 Q1055
FF LFPOYYYX EGLLYYYX LFPNYYYX 141646 METAR LFPG 141646Z 08415KT 9999 FEW030 14/1 Q1015
FF LFPBYYYX EDDFYYYX LFPNYYYX 130241 METAR LFPG 130241Z 31139KT 9999 FEW030 13/17 Q1024
FF EDDFYYYX LFPNYYYX LFPGYYYX 011533 METAR LFPG 011533Z 01151KT 9999 FEW030 18/13 Q1003
SS LFPGYYYX EDDFYYYX LFPNYYYX 130644 METAR LFPG 130644Z 31533KT 9999 FEW030 4/7 Q1045
GG EDDFYYYX LFPGYYYX LFPOYYYX EGLLYYYX 221933 METAR LFPG 221933Z 06422KT 9999 FEW030 5/12 Q1096
FF LFPNYYYX LFPBYYYX 100329 METAR LFPG 100329Z 24048KT 9999 FEW030 6/9 Q1024
SS LFPBYYYX LFPNYYYX 171809 METAR LFPG 171809Z 03947KT 9999 FEW030 27/15 Q1023
LL LFPBYYYX LFPGYYYX LFPBYYYX 261610 METAR LFPG 261610Z 10839KT 9999 FEW030 11/8 Q1020
KK LFPOYYYX LFPGYYYX LFPBYYYX 201759 METAR LFPG 201759Z 15738KT 9999 FEW030 13/17 Q1071
KK EGLLYYYX LFPOYYYX LFPNYYYX 140341 METAR LFPG 140341Z 07110KT 9999 FEW030 21/17 Q1037
FF LFPYYYX EDDFYYYX 020354 METAR LFPG 020354Z 02452KT 9999 FEW030 16/8 Q1001
SS LFPGYYYX EGLLYYYX 240624 METAR LFPG 240624Z 23432KT 9999 FEW030 29/19 Q1008
KK LFPOYYYX LFPGYYYX EGLLYYYX 121719 METAR LFPG 121719Z 11028KT 9999 FEW030 29/13 Q1022
SS EGLLYYYX LFPOYYYX EDDFYYYX LFPOYYYX 091000 METAR LFPG 091000Z 27119KT 9999 FEW030 22/17 Q1068
GG LFPBYYYX LFPBYYYX 280555 METAR LFPG 280555Z 02634KT 9999 FEW030 22/13 Q1057
SS LFPYYYX EGLLYYYX LFPBYYYX EGLLYYYX 210241 METAR LFPG 210241Z 07159KT 9999 FEW030 20/18 Q1089
GG LFPGYYYX LFPBYYYX LFPBYYYX LFPGYYYX 241319 METAR LFPG 241319Z 29848KT 9999 FEW030 11/7 Q1071
FF EGLLYYYX LFPGYYYX LFPOYYYX LFPNYYYX 070850 METAR LFPG 070850Z 14829KT 9999 FEW030 24/15 Q1072
DD LFPYYYX LFPBYYYX 142354 METAR LFPG 142354Z 09252KT 9999 FEW030 2/12 Q1071
KK EGLLYYYX EGLLYYYX EGLLYYYX LFPBYYYX 270951 METAR LFPG 270951Z 14939KT 9999 FEW030 12/12 Q1094
DD LFPNYYYX EDDFYYYX LFPOYYYX 240511 METAR LFPG 240511Z 16920KT 9999 FEW030 14/10 Q1061
FF EGLLYYYX LFPOYYYX EDDFYYYX 011845 METAR LFPG 011845Z 25543KT 9999 FEW030 14/2 Q1016
KK LFPYYYX LFPGYYYX LFPBYYYX 131545 METAR LFPG 131545Z 19544KT 9999 FEW030 27/19 Q1087
DD LFPBYYYX EDDFYYYX 282224 METAR LFPG 282224Z 35412KT 9999 FEW030 11/15 Q1008
FF LFPYYYX EDDFYYYX LFPNYYYX LFPGYYYX 030811 METAR LFPG 030811Z 34139KT 9999 FEW030 10/10 Q1087
FF LFPOYYYX EGLLYYYX 080535 METAR LFPG 080535Z 07434KT 9999 FEW030 17/17 Q1085
GG LFPYYYX EDDFYYYX 110543 METAR LFPG 110543Z 31331KT 9999 FEW030 7/5 Q1025
LL LFPNYYYX EDDFYYYX 072047 METAR LFPG 072047Z 13725KT 9999 FEW030 15/7 Q1066
SS LFPGYYYX EDDFYYYX 181553 METAR LFPG 181553Z 20312KT 9999 FEW030 26/1 Q1099
DD EGLLYYYX EDDFYYYX LFPNYYYX 111230 METAR LFPG 111230Z 12929KT 9999 FEW030 24/11 Q1039
KK LFPOYYYX LFPNYYYX 150430 METAR LFPG 150430Z 12149KT 9999 FEW030 28/15 Q1003
GG LFPBYYYX EGLLYYYX EGLLYYYX 041352 METAR LFPG 041352Z 08220KT 9999 FEW030 24/16 Q1058
KK LFPYYYX EDDFYYYX EGLLYYYX 080923 METAR LFPG 080923Z 29442KT 9999 FEW030 8/4 Q1056
SS EGLLYYYX LFPOYYYX EGLLYYYX LFPNYYYX 062301 METAR LFPG 062301Z 33210KT 9999 FEW030 21/18 Q1020
DD LFPYYYX LFPOYYYX 280939 METAR LFPG 280939Z 31848KT 9999 FEW030 11/5 Q1058
SS EDDFYYYX EGLLYYYX EGLLYYYX LFPBYYYX 041824 METAR LFPG 041824Z 06253KT 9999 FEW030 8/12 Q1055
FF LFPYYYX LFPGYYYX LFPOYYYX 282128 METAR LFPG 282128Z 18626KT 9999 FEW030 16/6 Q1092
SS LFPBYYYX LFPNYYYX LFPOYYYX LFPGYYYX 022314 METAR LFPG 022314Z 28422KT 9999 FEW030 15/16 Q1014
GG LFPGYYYX LFPGYYYX LFPGYYYX LFPGYYYX 220738 METAR LFPG 220738Z 31646KT 9999 FEW030 21/4 Q1094
GG LFPOYYYX LFPBYYYX 070839 METAR LFPG 070839Z 31717KT 9999 FEW030 27/16 Q1085
GG LFPYYYX EDDFYYYX 011004 METAR LFPG 011004Z 10233KT 9999 FEW030 5/10 Q1090
DD LFPOYYYX EGLLYYYX EGLLYYYX EGLLYYYX 120208 METAR LFPG 120208Z 28626KT 9999 FEW030 13/15 Q1070
LL EDDFYYYX LFPOYYYX LFPNYYYX 201040 METAR LFPG 201040Z 19859KT 9999 FEW030 28/13 Q1061
KK LFPBYYYX LFPBYYYX LFPOYYYX 210636 METAR LFPG 210636Z 19425KT 9999 FEW030 28/15 Q1043
KK EDDFYYYX EDDFYYYX LFPBYYYX 150927 METAR LFPG 150927Z 00526KT 9999 FEW030 2/9 Q1083
DD LFPNYYYX LFPNYYYX LFPGYYYX 271659 METAR LFPG 271659Z 15757KT 9999 FEW030 16/0 Q1089
KK LFPNYYYX LFPBYYYX EDDFYYYX 020726 METAR LFPG 020726Z 24434KT 9999 FEW030 17/17 Q1015
FF LFPYYYX LFPGYYYX EGLLYYYX LFPOYYYX 261137 METAR LFPG 261137Z 12836KT 9999 FEW030 3/10 Q1018
LL LFPBYYYX LFPOYYYX 150915 METAR LFPG 150915Z 05344KT 9999 FEW030 23/4 Q1032
FF EDDFYYYX EGLLYYYX EGLLYYYX LFPGYYYX 130624 METAR LFPG 130624Z 24343KT 9999 FEW030 15/5 Q1051
LL LFPOYYYX LFPOYYYX LFPBYYYX EDDFYYYX 030826 METAR LFPG 030826Z 35715KT 9999 FEW030 22/14 Q1050
FF LFPNYYYX EGLLYYYX 011441 METAR LFPG 011441Z 01139KT 9999 FEW030 19/13 Q1038
LL EDDFYYYX LFPNYYYX 102314 METAR LFPG 102314Z 16442KT 9999 FEW030 26/5 Q1098
KK LFPYYYX LFPNYYYX 192015 METAR LFPG 192015Z 35333KT 9999 FEW030 10/9 Q1045
LL LFPYYYX EDDFYYYX LFPGYYYX 251444 METAR LFPG 251444Z 32243KT 9999 FEW030 21/0 Q1000
DD LFPYYYX LFPNYYYX 131012 METAR LFPG 131012Z 22341KT 9999 FEW030 24/14 Q1016
DD LFPOYYYX EDDFYYYX LFPBYYYX LFPOYYYX 091428 METAR LFPG 091428Z 05827KT 9999 FEW030 14/11 Q1055
DD LFPNYYYX EDDFYYYX 191343 METAR LFPG 191343Z 20142KT 9999 FEW030 20/19 Q1024
LL LFPNYYYX EDDFYYYX LFPGYYYX 120544 METAR LFPG 120544Z 19442KT 9999 FEW030 17/14 Q1060
DD EGLLYYYX LFPGYYYX LFPNYYYX EGLLYYYX 080152 METAR LFPG 080152Z 14250KT 9999 FEW030 7/10 Q1078
SS LFPNYYYX LFPOYYYX LFPBYYYX 141150 METAR LFPG 141150Z 20018KT 9999 FEW030 18/1 Q1001
FF EDDFYYYX LFPNYYYX LFPGYYYX LFPNYYYX 171845 METAR LFPG 171845Z 13553KT 9999 FEW030 17/1 Q1058
FF EGLLYYYX EDDFYYYX LFPOYYYX 041707 METAR LFPG 041707Z 27846KT 9999 FEW030 22/7 Q1011
LL LFPYYYX LFPOYYYX 192046 METAR LFPG 192046Z 01715KT 9999 FEW030 6/5 Q1036
SS LFPBYYYX EDDFYYYX 210645 METAR LFPG 210645Z 07543KT 9999 FEW030 17/11 Q1014
SS LFPNYYYX EDDFYYYX 112003 METAR LFPG 112003Z 28141KT 9999 FEW030 17/3 Q1035
LL LFPOYYYX LFPBYYYX LFPGYYYX 231243 METAR LFPG 231243Z 08131KT 9999 FEW030 10/6 Q1074
DD LFPYYYX LFPGYYYX LFPOYYYX 180345 METAR LFPG 180345Z 02424KT 9999 FEW030 17/6 Q1064
DD LFPBYYYX LFPGYYYX EDDFYYYX 242139 METAR LFPG 242139Z 25858KT 9999 FEW030 23/9 Q1093
DD LFPBYYYX EDDFYYYX EGLLYYYX LFPBYYYX 101622 METAR LFPG 101622Z 17241KT 9999 FEW030 10/1 Q1052
SS EGLLYYYX LFPNYYYX EGLLYYYX 031759 METAR LFPG 031759Z 15728KT 9999 FEW030 0/3 Q1015
GG LFPGYYYX EDDFYYYX LFPOYYYX 260734 METAR LFPG 260734Z 00422KT 9999 FEW030 9/8 Q1045
SS EGLLYYYX LFPOYYYX EDDFYYYX LFPNYYYX 200127 METAR LFPG 200127Z 11826KT 9999 FEW030 7/3 Q1063
DD LFPGYYYX EDDFYYYX 231611 METAR LFPG 231611Z 10949KT 9999 FEW030 3/8 Q1030
LL LFPNYYYX LFPNYYYX LFPNYYYX LFPNYYYX 070927 METAR LFPG 070927Z 00536KT 9999 FEW030 2/5 Q1085
LL LFPOYYYX LFPOYYYX LFPGYYYX 240612 METAR LFPG 240612Z 29021KT 9999 FEW030 29/14 Q1039
FF LFPOYYYX EGLLYYYX LFPGYYYX 110435 METAR LFPG 110435Z 07333KT 9999 FEW030 26/8 Q1017
SS LFPNYYYX EDDFYYYX 091041 METAR LFPG 091041Z 07939KT 9999 FEW030 15/5 Q1048
KK LFPNYYYX EGLLYYYX 170637 METAR LFPG 170637Z 19555KT 9999 FEW030 23/10 Q1020
SS LFPBYYYX LFPNYYYX EGLLYYYX 282200 METAR LFPG 282200Z 33039KT 9999 FEW030 21/11 Q1020
DD LFPNYYYX EGLLYYYX LFPOYYYX 051921 METAR LFPG 051921Z 23122KT 9999 FEW030 16/3 Q1021
GG LFPGYYYX LFPNYYYX 240632 METAR LFPG 240632Z 24250KT 9999 FEW030 10/4 Q1068
SS LFPOYYYX EDDFYYYX EDDFYYYX 270859 METAR LFPG 270859Z 26937KT 9999 FEW030 11/12 Q1035
DD LFPOYYYX LFPBYYYX LFPOYYYX 160220 METAR LFPG 160220Z 35829KT 9999 FEW030 15/16 Q1065
GG LFPNYYYX LFPGYYYX LFPGYYYX EGLLYYYX 162228 METAR LFPG 162228Z 18647KT 9999 FEW030 5/1 Q1045
KK EDDFYYYX LFPOYYYX 242104 METAR LFPG 242104Z 16232KT 9999 FEW030 15/17 Q1042
LL LFPOYYYX LFPOYYYX 031339 METAR LFPG 031339Z 12948KT 9999 FEW030 3/9 Q1087
SS LFPOYYYX EGLLYYYX 250341 METAR LFPG 250341Z 19120KT 9999 FEW030 10/4 Q1052
LL LFPBYYYX EDDFYYYX LFPOYYYX LFPNYYYX 210228 METAR LFPG 210228Z 11927KT 9999 FEW030 10/16 Q1040
KK LFPBYYYX LFPNYYYX LFPBYYYX 112046 METAR LFPG 112046Z 13755KT 9999 FEW030 2/13 Q1029
LL EGLLYYYX LFPNYYYX EDDFYYYX 051529 METAR LFPG 051529Z 17958KT 9999 FEW030 27/2 Q1008
SS LFPYYYX LFPOYYYX EDDFYYYX EGLLYYYX 170321 METAR LFPG 170321Z 35950KT 9999 FEW030 1/2 Q1070
GG EDDFYYYX LFPOYYYX EGLLYYYX EDDFYYYX 051848 METAR LFPG 051848Z 08655KT 9999 FEW030 3/2 Q1083
FF EGLLYYYX EGLLYYYX EDDFYYYX 140014 METAR LFPG 140014Z 28452KT 9999 FEW030 3/14 Q1023
DD EGLLYYYX LFPGYYYX LFPOYYYX 281307 METAR LFPG 281307Z 22636KT 9999 FEW030 9/13 Q1046
FF LFPNYYYX LFPOYYYX 252252 METAR LFPG 252252Z 09141KT 9999 FEW030 6/0 Q1000
KK LFPOYYYX LFPBYYYX 021913 METAR LFPG 021913Z 23222KT 9999 FEW030 2/8 Q1036
SS LFPYYYX EGLLYYYX LFPGYYYX EDDFYYYX 201315 METAR LFPG 201315Z 34624KT 9999 FEW030 8/13 Q1023
LL LFPYYYX LFPBYYYX 170208 METAR LFPG 170208Z 28757KT 9999 FEW030 14/12 Q1060
LL LFPNYYYX EDDFYYYX 280144 METAR LFPG 280144Z 14232KT 9999 FEW030 2/15 Q1001
LL LFPOYYYX EGLLYYYX LFPOYYYX EGLLYYYX 180357 METAR LFPG 180357Z 33636KT 9999 FEW030 20/6 Q1073
DD LFPYYYX LFPNYYYX LFPBYYYX 071747 METAR LFPG 071747Z 20536KT 9999 FEW030 22/1 Q1037
GG LFPNYYYX LFPOYYYX 131000 METAR LFPG 131000Z 03149KT 9999 FEW030 10/15 Q1001
FF LFPBYYYX LFPNYYYX EGLLYYYX 270923 METAR LFPG 270923Z 17332KT 9999 FEW030 15/5 Q1027
KK LFPYYYX LFPGYYYX EGLLYYYX LFPNYYYX 180006 METAR LFPG 180006Z 04454KT 9999 FEW030 10/16 Q1039
DD LFPNYYYX LFPGYYYX EGLLYYYX LFPNYYYX 262022 METAR LFPG 262022Z 11221KT 9999 FEW030 1/13 Q1054
SS LFPNYYYX LFPOYYYX 040959 METAR LFPG 040959Z 03058KT 9999 FEW030 12/1 Q1059
GG EDDFYYYX EDDFYYYX LFPNYYYX EGLLYYYX 140733 METAR LFPG 140733Z 12432KT 9999 FEW030 29/6 Q1069
FF LFPOYYYX LFPBYYYX LFPGYYYX 150027 METAR LFPG 150027Z 23745KT 9999 FEW030 27/8 Q1050
GG LFPBYYYX EDDFYYYX LFPGYYYX 120656 METAR LFPG 120656Z 02655KT 9999 FEW030 9/5 Q1032
KK LFPNYYYX LFPGYYYX EDDFYYYX EGLLYYYX 230430 METAR LFPG 230430Z 12119KT 9999 FEW030 18/4 Q1087
GG LFPYYYX LFPOYYYX LFPBYYYX 122112 METAR LFPG 122112Z 16230KT 9999 FEW030 11/8 Q1056
GG LFPBYYYX LFPNYYYX 262341 METAR LFPG 262341Z 01210KT 9999 FEW030 24/19 Q1025
FF EGLLYYYX LFPBYYYX LFPOYYYX EDDFYYYX 241420 METAR LFPG 241420Z 17829KT 9999 FEW030 15/2 Q1097
KK EGLLYYYX LFPGYYYX LFPBYYYX 181137 METAR LFPG 181137Z 12756KT 9999 FEW030 6/6 Q1054
SS LFPNYYYX LFPNYYYX 032002 METAR LFPG 032002Z 16111KT 9999 FEW030 14/8 Q1004
LL EDDFYYYX LFPGYYYX 260726 METAR LFPG 260726Z 12444KT 9999 FEW030 12/18 Q1087
DD EGLLYYYX LFPNYYYX EGLLYYYX LFPGYYYX 052301 METAR LFPG 052301Z 21149KT 9999 FEW030 21/12 Q1054
SS LFPNYYYX LFPBYYYX 011405 METAR LFPG 011405Z 27543KT 9999 FEW030 8/16 Q1081
KK EGLLYYYX LFPNYYYX LFPBYYYX 220018 METAR LFPG 220018Z 11637KT 9999 FEW030 3/1 Q1033
GG LFPNYYYX LFPOYYYX LFPGYYYX EDDFYYYX 231646 METAR LFPG 231646Z 20545KT 9999 FEW030 14/2 Q1051
DD LFPNYYYX LFPBYYYX EGLLYYYX 242112 METAR LFPG 242112Z 04220KT 9999 FEW030 14/4 Q1031
SS EDDFYYYX EDDFYYYX LFPBYYYX EGLLYYYX 050228 METAR LFPG 050228Z 11947KT 9999 FEW030 13/5 Q1014
GG LFPOYYYX LFPBYYYX LFPNYYYX EGLLYYYX 192115 METAR LFPG 192115Z 23314KT 9999 FEW030 4/11 Q1093
KK LFPNYYYX EDDFYYYX LFPOYYYX 072035 METAR LFPG 072035Z 30553KT 9999 FEW030 6/15 Q1055
FF EDDFYYYX EGLLYYYX LFPNYYYX LFPBYYYX 021113 METAR LFPG 021113Z 34312KT 9999 FEW030 19/3 Q1041
DD LFPYYYX LFPGYYYX 031658 METAR LFPG 031658Z 26917KT 9999 FEW030 17/15 Q1005
DD LFPYYYX LFPNYYYX 191711 METAR LFPG 191711Z 10949KT 9999 FEW030 12/4 Q1038
SS LFPBYYYX EGLLYYYX LFPNYYYX EDDFYYYX 181142 METAR LFPG 181142Z 08030KT 9999 FEW030 25/1 Q1086
KK LFPYYYX EGLLYYYX 120523 METAR LFPG 120523Z 12142KT 9999 FEW030 11/16 Q1039
FF LFPBYYYX EGLLYYYX LFPOYYYX 041723 METAR LFPG 041723Z 18142KT 9999 FEW030 24/12 Q1080
DD LFPNYYYX LFPGYYYX LFPOYYYX 181950 METAR LFPG 181950Z 32828KT 9999 FEW030 24/17 Q1064
DD EDDFYYYX LFPGYYYX EGLLYYYX 030143 METAR LFPG 030143Z 26132KT 9999 FEW030 1/5 Q1014
SS LFPYYYX LFPGYYYX LFPGYYYX LFPGYYYX 070847 METAR LFPG 070847Z 31755KT 9999 FEW030 8/0 Q1070
SS LFPGYYYX LFPNYYYX LFPNYYYX EGLLYYYX 020321 METAR LFPG 020321Z 00050KT 9999 FEW030 26/0 Q1032
FF LFPOYYYX EGLLYYYX LFPGYYYX 041747 METAR LFPG 041747Z 07836KT 9999 FEW030 26/4 Q1034
SS LFPYYYX LFPGYYYX 010257 METAR LFPG 010257Z 09555KT 9999 FEW030 18/3 Q1006
FF LFPNYYYX LFPOYYYX EDDFYYYX LFPOYYYX 271646 METAR LFPG 271646Z 32555KT 9999 FEW030 20/15 Q1084
FF LFPOYYYX LFPOYYYX LFPOYYYX EGLLYYYX 141557 METAR LFPG 141557Z 15556KT 9999 FEW030 5/10 Q1095
KK EGLLYYYX LFPOYYYX LFPOYYYX LFPOYYYX 200523 METAR LFPG 200523Z 00232KT 9999 FEW030 14/17 Q1015
KK LFPGYYYX EGLLYYYX LFPNYYYX LFPGYYYX 070054 METAR LFPG 070054Z 09253KT 9999 FEW030 19/17 Q1006
SS LFPNYYYX LFPOYYYX 112115 METAR LFPG 112115Z 11354KT 9999 FEW030 23/5 Q1082
LL LFPGYYYX EDDFYYYX EGLLYYYX 190811 METAR LFPG 190811Z 34159KT 9999 FEW030 23/14 Q1031
GG LFPNYYYX LFPNYYYX LFPGYYYX LFPGYYYX 060317 METAR LFPG 060317Z 04736KT 9999 FEW030 12/9 Q1057
LL EDDFYYYX LFPOYYYX EDDFYYYX LFPNYYYX 052213 METAR LFPG 052213Z 04331KT 9999 FEW030 12/12 Q1037
SS EGLLYYYX EDDFYYYX LFPGYYYX LFPOYYYX 150143 METAR LFPG 150143Z 25352KT 9999 FEW030 25/4 Q1041
DD LFPYYYX LFPBYYYX 240519 METAR LFPG 240519Z 29038KT 9999 FEW030 5/7 Q1028
FF LFPGYYYX EGLLYYYX EGLLYYYX 082228 METAR LFPG 082228Z 06627KT 9999 FEW030 26/10 Q1025
KK EGLLYYYX LFPBYYYX 192039 METAR LFPG 192039Z 13757KT 9999 FEW030 20/13 Q1097
GG LFPYYYX EDDFYYYX LFPNYYYX 280612 METAR LFPG 280612Z 29031KT 9999 FEW030 27/18 Q1027
FF LFPGYYYX LFPOYYYX LFPGYYYX 171856 METAR LFPG 171856Z 20627KT 9999 FEW030 16/7 Q1062
GG LFPNYYYX LFPOYYYX 211153 METAR LFPG 211153Z 03142KT 9999 FEW030 3/3 Q1036
FF EDDFYYYX LFPBYYYX LFPBYYYX 172228 METAR LFPG 172228Z 05857KT 9999 FEW030 13/1 Q1004
LL LFPBYYYX LFPOYYYX 090204 METAR LFPG 090204Z 33513KT 9999 FEW030 24/7 Q1090
SS LFPOYYYX LFPGYYYX EDDFYYYX 270002 METAR LFPG 270002Z 33251KT 9999 FEW030 4/19 Q1048
FF LFPBYYYX EGLLYYYX LFPGYYYX 070442 METAR LFPG 070442Z 19241KT 9999 FEW030 18/13 Q1051
KK LFPGYYYX LFPBYYYX 261610 METAR LFPG 261610Z 22839KT 9999 FEW030 29/7 Q1064
LL LFPGYYYX LFPNYYYX 150055 METAR LFPG 150055Z 33343KT 9999 FEW030 26/16 Q1063
SS LFPBYYYX EDDFYYYX 070442 METAR LFPG 070442Z 31341KT 9999 FEW030 18/16 Q1092
DD LFPGYYYX LFPOYYYX LFPNYYYX 151254 METAR LFPG 151254Z 15353KT 9999 FEW030 12/12 Q1049
KK LFPBYYYX LFPOYYYX 120208 METAR LFPG 120208Z 28657KT 9999 FEW030 1/13 Q1045
GG LFPOYYYX LFPNYYYX EDDFYYYX LFPGYYYX 111642 METAR LFPG 111642Z 01351KT 9999 FEW030 9/5 Q1095
KK EGLLYYYX EDDFYYYX EDDFYYYX EDDFYYYX 262302 METAR LFPG 262302Z 09210KT 9999 FEW030 11/13 Q1082
LL LFPYYYX LFPGYYYX LFPOYYYX 221646 METAR LFPG 221646Z 20425KT 9999 FEW030 8/17 Q1070
DD LFPNYYYX LFPBYYYX 281856 METAR LFPG 281856Z 32644KT 9999 FEW030 22/19 Q1065
SS LFPGYYYX EGLLYYYX LFPGYYYX 240531 METAR LFPG 240531Z 00230KT 9999 FEW030 10/15 Q1087
DD LFPBYYYX LFPOYYYX EGLLYYYX 200656 METAR LFPG 200656Z 26637KT 9999 FEW030 9/5 Q1084
KK LFPYYYX LFPOYYYX LFPNYYYX EDDFYYYX 040508 METAR LFPG 040508Z 33856KT 9999 FEW030 3/16 Q1074
SS EDDFYYYX LFPNYYYX 080532 METAR LFPG 080532Z 24240KT 9999 FEW030 10/19 Q1057
LL LFPGYYYX LFPOYYYX EDDFYYYX 011837 METAR LFPG 011837Z 13555KT 9999 FEW030 27/2 Q1069
SS LFPOYYYX LFPOYYYX 081344 METAR LFPG 081344Z 08212KT 9999 FEW030 9/17 Q1096
LL LFPOYYYX LFPGYYYX LFPGYYYX 280544 METAR LFPG 280544Z 19422KT 9999 FEW030 21/4 Q1046
LL EDDFYYYX EDDFYYYX LFPOYYYX 161736 METAR LFPG 161736Z 25424KT 9999 FEW030 26/10 Q1003
DD EGLLYYYX LFPGYYYX LFPNYYYX 201720 METAR LFPG 201720Z 11018KT 9999 FEW030 6/18 Q1014
LL LFPOYYYX EDDFYYYX LFPBYYYX 171001 METAR LFPG 171001Z 15159KT 9999 FEW030 0/7 Q1027
KK LFPBYYYX LFPNYYYX 162147 METAR LFPG 162147Z 01856KT 9999 FEW030 21/4 Q1024
GG LFPGYYYX LFPBYYYX EDDFYYYX 171428 METAR LFPG 171428Z 29957KT 9999 FEW030 14/12 Q1079
KK EGLLYYYX EGLLYYYX LFPGYYYX LFPNYYYX 190054 METAR LFPG 190054Z 33333KT 9999 FEW030 23/13 Q1087
DD LFPOYYYX LFPNYYYX EGLLYYYX 062301 METAR LFPG 062301Z 21230KT 9999 FEW030 4/18 Q1008
GG LFPOYYYX LFPNYYYX EGLLYYYX EDDFYYYX 132252 METAR LFPG 132252Z 33141KT 9999 FEW030 8/3 Q1047
KK LFPYYYX LFPBYYYX EGLLYYYX LFPBYYYX 050624 METAR LFPG 050624Z 12223KT 9999 FEW030 22/11 Q1095
KK EGLLYYYX LFPBYYYX EDDFYYYX 260310 METAR LFPG 260310Z 16858KT 9999 FEW030 12/16 Q1041
