KK LFPGYYYX EGLLYYYX LFPNYYYX EGLLYYYX 110815 METAR LFPG 110815Z 05323KT 9999 FEW030 26/11 Q1017
DD EDDFYYYX LFPOYYYX 231251 METAR LFPG 231251Z 08129KT 9999 FEW030 28/8 Q1044
KK LFPNYYYX LFPGYYYX LFPNYYYX 222301 METAR LFPG 222301Z 33220KT 9999 FEW030 13/17 Q1053
FF LFPBYYYX EGLLYYYX LFPOYYYX 131801 METAR LFPG 131801Z 15959KT 9999 FEW030 3/0 Q1093
KK EGLLYYYX LFPNYYYX LFPOYYYX 230814 METAR LFPG 230814Z 17353KT 9999 FEW030 21/0 Q1020
SS LFPBYYYX EGLLYYYX 071251 METAR LFPG 071251Z 20131KT 9999 FEW030 2/11 Q1094
SS EGLLYYYX LFPGYYYX LFPNYYYX LFPGYYYX 031202 METAR LFPG 031202Z 15331KT 9999 FEW030 26/5 Q1082
SS LFPYYYX LFPBYYYX 022022 METAR LFPG 022022Z 23231KT 9999 FEW030 28/15 Q1090
GG LFPOYYYX LFPOYYYX 060353 METAR LFPG 060353Z 14422KT 9999 FEW030 4/7 Q1060
GG LFPNYYYX EGLLYYYX EDDFYYYX 171836 METAR LFPG 171836Z 25535KT 9999 FEW030 29/3 Q1002
LL LFPYYYX EDDFYYYX LFPBYYYX LFPBYYYX 241732 METAR LFPG 241732Z 30250KT 9999 FEW030 29/19 Q1011
SS LFPGYYYX LFPGYYYX 131844 METAR LFPG 131844Z 25533KT 9999 FEW030 17/6 Q1032
FF LFPGYYYX EDDFYYYX 102302 METAR LFPG 102302Z 09220KT 9999 FEW030 16/13 Q1014
DD EDDFYYYX LFPOYYYX EGLLYYYX 241732 METAR LFPG 241732Z 06220KT 9999 FEW030 29/7 Q1034
FF LFPOYYYX LFPGYYYX LFPGYYYX 192038 METAR LFPG 192038Z 25727KT 9999 FEW030 18/14 Q1081
FF LFPNYYYX EDDFYYYX LFPBYYYX 021958 METAR LFPG 021958Z 20836KT 9999 FEW030 12/13 Q1008
FF LFPBYYYX EDDFYYYX LFPGYYYX EDDFYYYX 061646 METAR LFPG 061646Z 32445KT 9999 FEW030 12/11 Q1061
KK LFPYYYX LFPBYYYX LFPGYYYX 240116 METAR LFPG 240116Z 16654KT 9999 FEW030 17/1 Q1089
KK EGLLYYYX EGLLYYYX EDDFYYYX EDDFYYYX 281319 METAR LFPG 281319Z 29828KT 9999 FEW030 3/4 Q1080
FF EDDFYYYX LFPNYYYX LFPOYYYX EGLLYYYX 271327 METAR LFPG 271327Z 17756KT 9999 FEW030 15/5 Q1057
KK EDDFYYYX LFPGYYYX 151642 METAR LFPG 151642Z 13211KT 9999 FEW030 13/10 Q1064
FF LFPNYYYX EGLLYYYX 211800 METAR LFPG 211800Z 15959KT 9999 FEW030 13/7 Q1089
KK EGLLYYYX EDDFYYYX LFPOYYYX 091505 METAR LFPG 091505Z 15523KT 9999 FEW030 22/14 Q1099
GG LFPNYYYX LFPGYYYX 200900 METAR LFPG 200900Z 27048KT 9999 FEW030 0/4 Q1049
GG LFPGYYYX LFPNYYYX EGLLYYYX 160636 METAR LFPG 160636Z 07425KT 9999 FEW030 18/13 Q1011
KK EDDFYYYX LFPNYYYX LFPNYYYX 240156 METAR LFPG 240156Z 09424KT 9999 FEW030 12/10 Q1079
DD EDDFYYYX EDDFYYYX 072151 METAR LFPG 072151Z 20919KT 9999 FEW030 20/12 Q1041
FF LFPNYYYX EDDFYYYX 060317 METAR LFPG 060317Z 04816KT 9999 FEW030 21/11 Q1079
LL EGLLYYYX EGLLYYYX 272015 METAR LFPG 272015Z 23333KT 9999 FEW030 1/5 Q1068
GG LFPYYYX LFPOYYYX LFPGYYYX 021949 METAR LFPG 021949Z 08048KT 9999 FEW030 10/10 Q1025
DD EGLLYYYX LFPGYYYX LFPBYYYX LFPNYYYX 030507 METAR LFPG 030507Z 33716KT 9999 FEW030 2/13 Q1085
DD EGLLYYYX EGLLYYYX LFPBYYYX LFPOYYYX 220702 METAR LFPG 220702Z 34030KT 9999 FEW030 9/3 Q1006
GG EDDFYYYX LFPOYYYX 160915 METAR LFPG 160915Z 17334KT 9999 FEW030 5/0 Q1024
LL LFPGYYYX EGLLYYYX LFPBYYYX 260758 METAR LFPG 260758Z 02856KT 9999 FEW030 22/8 Q1075
LL LFPYYYX LFPOYYYX LFPOYYYX 270031 METAR LFPG 270031Z 18929KT 9999 FEW030 8/18 Q1009
GG EGLLYYYX LFPNYYYX LFPOYYYX LFPGYYYX 190511 METAR LFPG 190511Z 04110KT 9999 FEW030 0/1 Q1080
SS LFPGYYYX EGLLYYYX LFPGYYYX 010333 METAR LFPG 010333Z 31132KT 9999 FEW030 27/15 Q1094
KK LFPNYYYX EDDFYYYX 120144 METAR LFPG 120144Z 02232KT 9999 FEW030 20/17 Q1079
GG LFPNYYYX LFPNYYYX LFPOYYYX EGLLYYYX 150959 METAR LFPG 150959Z 26928KT 9999 FEW030 10/5 Q1025
SS LFPGYYYX EGLLYYYX EDDFYYYX LFPGYYYX 130721 METAR LFPG 130721Z 05150KT 9999 FEW030 14/3 Q1007
DD EGLLYYYX LFPNYYYX 261926 METAR LFPG 261926Z 29654KT 9999 FEW030 23/13 Q1064
SS LFPGYYYX LFPBYYYX 220726 METAR LFPG 220726Z 23644KT 9999 FEW030 6/3 Q1008
FF LFPYYYX LFPOYYYX LFPNYYYX EGLLYYYX 282212 METAR LFPG 282212Z 04211KT 9999 FEW030 27/0 Q1057
SS EGLLYYYX LFPOYYYX LFPBYYYX 051949 METAR LFPG 051949Z 20748KT 9999 FEW030 16/17 Q1054
SS LFPGYYYX LFPBYYYX LFPNYYYX 261937 METAR LFPG 261937Z 13516KT 9999 FEW030 17/19 Q1024
GG EDDFYYYX LFPGYYYX 080155 METAR LFPG 080155Z 09444KT 9999 FEW030 18/10 Q1022
LL LFPNYYYX LFPBYYYX EDDFYYYX LFPOYYYX 092228 METAR LFPG 092228Z 06737KT 9999 FEW030 25/7 Q1016
KK LFPNYYYX LFPNYYYX LFPGYYYX 141202 METAR LFPG 141202Z 03230KT 9999 FEW030 3/19 Q1030
SS EGLLYYYX EGLLYYYX EGLLYYYX 240208 METAR LFPG 240208Z 03837KT 9999 FEW030 22/1 Q1095
GG LFPBYYYX LFPGYYYX 022313 METAR LFPG 022313Z 28412KT 9999 FEW030 1/2 Q1014
GG LFPYYYX LFPNYYYX LFPGYYYX EDDFYYYX 120132 METAR LFPG 120132Z 31030KT 9999 FEW030 2/17 Q1061
LL LFPGYYYX EDDFYYYX 120915 METAR LFPG 120915Z 17334KT 9999 FEW030 28/17 Q1003
LL LFPGYYYX LFPBYYYX LFPGYYYX LFPBYYYX 020802 METAR LFPG 020802Z 10041KT 9999 FEW030 27/1 Q1073
DD LFPGYYYX EGLLYYYX LFPBYYYX 060746 METAR LFPG 060746Z 31624KT 9999 FEW030 16/0 Q1000
SS LFPYYYX EDDFYYYX LFPBYYYX 150802 METAR LFPG 150802Z 22151KT 9999 FEW030 15/14 Q1033
GG LFPOYYYX LFPGYYYX LFPBYYYX LFPNYYYX 261105 METAR LFPG 261105Z 22444KT 9999 FEW030 22/16 Q1035
GG EGLLYYYX EDDFYYYX LFPBYYYX EDDFYYYX 262302 METAR LFPG 262302Z 33210KT 9999 FEW030 23/9 Q1062
FF EGLLYYYX LFPNYYYX EGLLYYYX EGLLYYYX 100345 METAR LFPG 100345Z 14354KT 9999 FEW030 19/4 Q1055
KK EDDFYYYX LFPGYYYX LFPNYYYX 221529 METAR LFPG 221529Z 18058KT 9999 FEW030 7/2 Q1060
GG LFPBYYYX LFPBYYYX LFPOYYYX LFPOYYYX 101557 METAR LFPG 101557Z 02836KT 9999 FEW030 18/0 Q1084
SS LFPNYYYX LFPOYYYX 230523 METAR LFPG 230523Z 24132KT 9999 FEW030 26/13 Q1018
SS LFPOYYYX LFPBYYYX LFPGYYYX 111630 METAR LFPG 111630Z 18149KT 9999 FEW030 8/13 Q1092
LL LFPGYYYX LFPBYYYX EGLLYYYX EDDFYYYX 181125 METAR LFPG 181125Z 17614KT 9999 FEW030 15/14 Q1005
GG EDDFYYYX LFPGYYYX 091456 METAR LFPG 091456Z 03555KT 9999 FEW030 29/17 Q1092
LL LFPBYYYX LFPOYYYX 111243 METAR LFPG 111243Z 32131KT 9999 FEW030 20/4 Q1091
SS LFPYYYX EGLLYYYX LFPBYYYX EGLLYYYX 030826 METAR LFPG 030826Z 00545KT 9999 FEW030 16/7 Q1080
FF EDDFYYYX EGLLYYYX LFPGYYYX LFPGYYYX 041331 METAR LFPG 041331Z 00950KT 9999 FEW030 3/15 Q1044
GG LFPOYYYX LFPGYYYX 150547 METAR LFPG 150547Z 26545KT 9999 FEW030 23/16 Q1056
GG LFPOYYYX EGLLYYYX 141933 METAR LFPG 141933Z 30312KT 9999 FEW030 14/17 Q1063
FF EDDFYYYX EGLLYYYX LFPOYYYX 270042 METAR LFPG 270042Z 26121KT 9999 FEW030 6/7 Q1005
GG LFPBYYYX EDDFYYYX 090633 METAR LFPG 090633Z 24321KT 9999 FEW030 0/12 Q1084
LL LFPNYYYX LFPGYYYX 080928 METAR LFPG 080928Z 24646KT 9999 FEW030 8/7 Q1081
SS EDDFYYYX EGLLYYYX EGLLYYYX 200220 METAR LFPG 200220Z 35849KT 9999 FEW030 13/5 Q1053
DD LFPYYYX EDDFYYYX 192159 METAR LFPG 192159Z 20918KT 9999 FEW030 26/13 Q1096
DD LFPGYYYX LFPGYYYX EGLLYYYX LFPGYYYX 022350 METAR LFPG 022350Z 14038KT 9999 FEW030 21/9 Q1037
LL LFPGYYYX EDDFYYYX LFPBYYYX 270923 METAR LFPG 270923Z 29352KT 9999 FEW030 7/15 Q1086
SS LFPNYYYX LFPBYYYX LFPNYYYX LFPOYYYX 080232 METAR LFPG 080232Z 31030KT 9999 FEW030 28/7 Q1009
LL LFPBYYYX EGLLYYYX LFPBYYYX LFPNYYYX 250233 METAR LFPG 250233Z 31131KT 9999 FEW030 3/13 Q1002
FF LFPBYYYX LFPGYYYX LFPBYYYX 261206 METAR LFPG 261206Z 34445KT 9999 FEW030 19/15 Q1063
KK LFPOYYYX EGLLYYYX LFPGYYYX 200127 METAR LFPG 200127Z 35846KT 9999 FEW030 15/14 Q1062
LL LFPNYYYX EDDFYYYX 270823 METAR LFPG 270823Z 29331KT 9999 FEW030 23/3 Q1057
LL LFPYYYX EGLLYYYX EGLLYYYX 092353 METAR LFPG 092353Z 33142KT 9999 FEW030 6/12 Q1023
DD LFPBYYYX LFPGYYYX LFPGYYYX EGLLYYYX 270511 METAR LFPG 270511Z 04940KT 9999 FEW030 28/10 Q1056
GG LFPGYYYX LFPNYYYX LFPOYYYX 241836 METAR LFPG 241836Z 01444KT 9999 FEW030 5/14 Q1061
KK EGLLYYYX LFPBYYYX LFPGYYYX 172236 METAR LFPG 172236Z 06725KT 9999 FEW030 11/18 Q1092
GG LFPYYYX EDDFYYYX 071218 METAR LFPG 071218Z 17727KT 9999 FEW030 27/14 Q1011
SS EGLLYYYX EDDFYYYX EGLLYYYX 010317 METAR LFPG 010317Z 16748KT 9999 FEW030 0/10 Q1066
GG EDDFYYYX LFPGYYYX EGLLYYYX LFPGYYYX 042147 METAR LFPG 042147Z 17636KT 9999 FEW030 12/5 Q1085
DD LFPOYYYX LFPOYYYX EGLLYYYX 092349 METAR LFPG 092349Z 01958KT 9999 FEW030 18/11 Q1070
SS EDDFYYYX EDDFYYYX LFPBYYYX 171832 METAR LFPG 171832Z 30321KT 9999 FEW030 14/11 Q1062
KK EDDFYYYX EGLLYYYX 220442 METAR LFPG 220442Z 31220KT 9999 FEW030 28/14 Q1051
DD EDDFYYYX LFPBYYYX 120632 METAR LFPG 120632Z 24240KT 9999 FEW030 1/7 Q1048
DD LFPOYYYX EDDFYYYX 051404 METAR LFPG 051404Z 15523KT 9999 FEW030 7/6 Q1042
DD EDDFYYYX LFPNYYYX LFPOYYYX 012224 METAR LFPG 012224Z 35543KT 9999 FEW030 10/3 Q1025
SS LFPNYYYX EDDFYYYX LFPBYYYX EDDFYYYX 150459 METAR LFPG 150459Z 21717KT 9999 FEW030 27/6 Q1049
LL LFPNYYYX LFPBYYYX 152047 METAR LFPG 152047Z 25745KT 9999 FEW030 19/18 Q1050
FF LFPGYYYX LFPOYYYX LFPBYYYX EDDFYYYX 100722 METAR LFPG 100722Z 05210KT 9999 FEW030 7/13 Q1092
SS LFPYYYX EDDFYYYX EGLLYYYX EDDFYYYX 030042 METAR LFPG 030042Z 14131KT 9999 FEW030 10/15 Q1035
LL EGLLYYYX LFPOYYYX 212228 METAR LFPG 212228Z 06747KT 9999 FEW030 0/9 Q1010
GG LFPGYYYX LFPBYYYX EGLLYYYX 080559 METAR LFPG 080559Z 21738KT 9999 FEW030 14/15 Q1057
FF EGLLYYYX EGLLYYYX EGLLYYYX LFPGYYYX 060758 METAR LFPG 060758Z 26826KT 9999 FEW030 17/14 Q1009
DD LFPNYYYX LFPOYYYX LFPOYYYX EDDFYYYX 100318 METAR LFPG 100318Z 04826KT 9999 FEW030 19/7 Q1000
LL LFPNYYYX LFPGYYYX LFPOYYYX 251013 METAR LFPG 251013Z 10331KT 9999 FEW030 18/4 Q1026
DD LFPNYYYX EGLLYYYX LFPBYYYX 071307 METAR LFPG 071307Z 10525KT 9999 FEW030 25/15 Q1063
GG LFPGYYYX LFPOYYYX 080912 METAR LFPG 080912Z 34230KT 9999 FEW030 4/7 Q1055
SS EGLLYYYX EGLLYYYX EGLLYYYX 282123 METAR LFPG 282123Z 11442KT 9999 FEW030 20/0 Q1034
GG LFPOYYYX LFPGYYYX 121744 METAR LFPG 121744Z 13422KT 9999 FEW030 23/6 Q1077
DD LFPYYYX EDDFYYYX 212341 METAR LFPG 212341Z 05018KT 9999 FEW030 3/15 Q1061
LL LFPBYYYX LFPOYYYX EGLLYYYX 161000 METAR LFPG 161000Z 03059KT 9999 FEW030 18/1 Q1045
KK LFPNYYYX LFPGYYYX EGLLYYYX LFPBYYYX 080208 METAR LFPG 080208Z 04657KT 9999 FEW030 9/10 Q1054
KK EGLLYYYX LFPGYYYX LFPNYYYX EDDFYYYX 270803 METAR LFPG 270803Z 10131KT 9999 FEW030 16/15 Q1086
FF LFPNYYYX EGLLYYYX EGLLYYYX LFPOYYYX 150811 METAR LFPG 150811Z 17018KT 9999 FEW030 28/13 Q1061
LL EGLLYYYX LFPBYYYX LFPGYYYX LFPNYYYX 071505 METAR LFPG 071505Z 03553KT 9999 FEW030 18/8 Q1066
FF LFPGYYYX EGLLYYYX 051833 METAR LFPG 051833Z 18341KT 9999 FEW030 28/18 Q1004
GG LFPNYYYX EGLLYYYX EGLLYYYX 121707 METAR LFPG 121707Z 03836KT 9999 FEW030 15/17 Q1029
DD LFPOYYYX EDDFYYYX LFPGYYYX 120916 METAR LFPG 120916Z 05444KT 9999 FEW030 6/5 Q1042
FF LFPBYYYX LFPBYYYX LFPGYYYX LFPNYYYX 270559 METAR LFPG 270559Z 09758KT 9999 FEW030 24/6 Q1070
DD LFPBYYYX EGLLYYYX EGLLYYYX EDDFYYYX 232111 METAR LFPG 232111Z 16120KT 9999 FEW030 10/3 Q1073
SS LFPNYYYX LFPNYYYX EDDFYYYX LFPNYYYX 081304 METAR LFPG 081304Z 27412KT 9999 FEW030 15/3 Q1040
KK LFPOYYYX LFPGYYYX EGLLYYYX LFPNYYYX 021921 METAR LFPG 021921Z 23230KT 9999 FEW030 8/11 Q1066
FF EGLLYYYX LFPOYYYX EGLLYYYX 131836 METAR LFPG 131836Z 01555KT 9999 FEW030 13/1 Q1070
SS EGLLYYYX LFPGYYYX LFPOYYYX EDDFYYYX 040208 METAR LFPG 040208Z 28626KT 9999 FEW030 19/9 Q1061
FF LFPYYYX EDDFYYYX LFPGYYYX LFPOYYYX 220757 METAR LFPG 220757Z 26856KT 9999 FEW030 13/7 Q1042
DD EDDFYYYX LFPOYYYX LFPOYYYX EGLLYYYX 071231 METAR LFPG 071231Z 12939KT 9999 FEW030 29/14 Q1023
DD LFPBYYYX EDDFYYYX LFPGYYYX LFPOYYYX 230055 METAR LFPG 230055Z 09343KT 9999 FEW030 5/15 Q1030
LL LFPGYYYX EGLLYYYX EGLLYYYX LFPNYYYX 140745 METAR LFPG 140745Z 31554KT 9999 FEW030 0/4 Q1033
LL EDDFYYYX LFPOYYYX EGLLYYYX 240120 METAR LFPG 240120Z 23838KT 9999 FEW030 17/14 Q1053
KK LFPYYYX LFPGYYYX 170252 METAR LFPG 170252Z 02311KT 9999 FEW030 25/2 Q1093
LL LFPYYYX LFPGYYYX LFPBYYYX EDDFYYYX 051125 METAR LFPG 051125Z 17524KT 9999 FEW030 1/2 Q1037
GG LFPBYYYX EGLLYYYX 011404 METAR LFPG 011404Z 03533KT 9999 FEW030 23/1 Q1011
SS EGLLYYYX EGLLYYYX LFPNYYYX 230050 METAR LFPG 230050Z 26139KT 9999 FEW030 22/0 Q1024
GG LFPNYYYX EGLLYYYX 232027 METAR LFPG 232027Z 18515KT 9999 FEW030 11/14 Q1090
KK LFPBYYYX LFPGYYYX LFPOYYYX 050621 METAR LFPG 050621Z 17139KT 9999 FEW030 9/2 Q1047
LL LFPYYYX EDDFYYYX 192151 METAR LFPG 192151Z 08930KT 9999 FEW030 22/2 Q1041
KK LFPGYYYX LFPNYYYX 050233 METAR LFPG 050233Z 07131KT 9999 FEW030 16/0 Q1016
LL LFPNYYYX LFPGYYYX LFPBYYYX 071214 METAR LFPG 071214Z 10453KT 9999 FEW030 24/14 Q1016
GG LFPNYYYX LFPNYYYX LFPOYYYX EGLLYYYX 141654 METAR LFPG 141654Z 08423KT 9999 FEW030 16/5 Q1053
KK EDDFYYYX LFPBYYYX LFPOYYYX EGLLYYYX 132253 METAR LFPG 132253Z 21141KT 9999 FEW030 27/6 Q1052
LL LFPYYYX EGLLYYYX EDDFYYYX LFPGYYYX 182354 METAR LFPG 182354Z 33242KT 9999 FEW030 11/4 Q1037
SS LFPNYYYX LFPOYYYX EDDFYYYX 062301 METAR LFPG 062301Z 33120KT 9999 FEW030 23/4 Q1076
KK LFPYYYX LFPNYYYX LFPOYYYX LFPOYYYX 240924 METAR LFPG 240924Z 29452KT 9999 FEW030 20/18 Q1079
LL EGLLYYYX EDDFYYYX EGLLYYYX EGLLYYYX 121755 METAR LFPG 121755Z 08644KT 9999 FEW030 4/11 Q1053
GG LFPNYYYX EGLLYYYX LFPOYYYX 271230 METAR LFPG 271230Z 24949KT 9999 FEW030 21/8 Q1065
GG LFPBYYYX EDDFYYYX 021137 METAR LFPG 021137Z 12816KT 9999 FEW030 3/17 Q1028
DD EGLLYYYX LFPOYYYX 220814 METAR LFPG 220814Z 17242KT 9999 FEW030 22/12 Q1088
KK LFPOYYYX EDDFYYYX EGLLYYYX EGLLYYYX 011545 METAR LFPG 011545Z 32314KT 9999 FEW030 6/19 Q1056
GG LFPNYYYX LFPNYYYX EGLLYYYX LFPBYYYX 272159 METAR LFPG 272159Z 32938KT 9999 FEW030 24/4 Q1012
GG EDDFYYYX LFPNYYYX LFPNYYYX 021957 METAR LFPG 021957Z 20816KT 9999 FEW030 27/15 Q1063
GG EDDFYYYX LFPOYYYX LFPNYYYX 262314 METAR LFPG 262314Z 04432KT 9999 FEW030 25/2 Q1076
GG LFPBYYYX EGLLYYYX 031618 METAR LFPG 031618Z 10937KT 9999 FEW030 5/17 Q1088
FF EGLLYYYX LFPNYYYX LFPNYYYX LFPGYYYX 201824 METAR LFPG 201824Z 30243KT 9999 FEW030 1/18 Q1086
FF LFPGYYYX LFPBYYYX LFPBYYYX LFPBYYYX 201036 METAR LFPG 201036Z 00655KT 9999 FEW030 9/15 Q1056
GG LFPNYYYX LFPNYYYX 260710 METAR LFPG 260710Z 34018KT 9999 FEW030 25/5 Q1067
SS LFPOYYYX LFPOYYYX 090220 METAR LFPG 090220Z 23919KT 9999 FEW030 19/17 Q1066
DD LFPOYYYX LFPGYYYX 212216 METAR LFPG 212216Z 11515KT 9999 FEW030 27/10 Q1064
DD LFPYYYX LFPNYYYX LFPNYYYX EGLLYYYX 181901 METAR LFPG 181901Z 16040KT 9999 FEW030 16/6 Q1070
FF LFPBYYYX EDDFYYYX LFPOYYYX LFPOYYYX 061618 METAR LFPG 061618Z 34817KT 9999 FEW030 8/8 Q1066
DD EDDFYYYX LFPOYYYX LFPOYYYX EGLLYYYX 111355 METAR LFPG 111355Z 27353KT 9999 FEW030 5/17 Q1009
KK LFPYYYX EDDFYYYX LFPGYYYX LFPBYYYX 092253 METAR LFPG 092253Z 09141KT 9999 FEW030 7/5 Q1082
SS EDDFYYYX LFPBYYYX LFPBYYYX LFPNYYYX 111231 METAR LFPG 111231Z 24939KT 9999 FEW030 28/4 Q1084
FF LFPBYYYX LFPBYYYX 150543 METAR LFPG 150543Z 07352KT 9999 FEW030 14/1 Q1055
GG LFPYYYX EGLLYYYX LFPOYYYX LFPOYYYX 280928 METAR LFPG 280928Z 12616KT 9999 FEW030 12/15 Q1097
KK LFPBYYYX LFPOYYYX LFPGYYYX 052216 METAR LFPG 052216Z 11555KT 9999 FEW030 5/7 Q1090
FF LFPOYYYX LFPOYYYX LFPBYYYX LFPOYYYX 240151 METAR LFPG 240151Z 14220KT 9999 FEW030 14/6 Q1014
GG LFPYYYX EGLLYYYX LFPOYYYX 181949 METAR LFPG 181949Z 08858KT 9999 FEW030 3/7 Q1072
GG EDDFYYYX LFPBYYYX 032023 METAR LFPG 032023Z 11341KT 9999 FEW030 3/13 Q1074
DD LFPYYYX LFPGYYYX EGLLYYYX 070454 METAR LFPG 070454Z 26413KT 9999 FEW030 17/19 Q1031
DD EDDFYYYX LFPNYYYX LFPBYYYX LFPGYYYX 181541 METAR LFPG 181541Z 25210KT 9999 FEW030 8/13 Q1078
FF LFPGYYYX EDDFYYYX LFPNYYYX 091444 METAR LFPG 091444Z 08313KT 9999 FEW030 24/16 Q1090
FF EGLLYYYX LFPBYYYX EGLLYYYX EGLLYYYX 080555 METAR LFPG 080555Z 14654KT 9999 FEW030 17/4 Q1008
KK LFPNYYYX LFPNYYYX 012205 METAR LFPG 012205Z 04353KT 9999 FEW030 9/7 Q1052
GG LFPOYYYX EDDFYYYX 230851 METAR LFPG 230851Z 02919KT 9999 FEW030 29/7 Q1009
FF LFPOYYYX LFPOYYYX 031239 METAR LFPG 031239Z 12927KT 9999 FEW030 22/12 Q1078
SS LFPYYYX LFPNYYYX LFPOYYYX EGLLYYYX 091036 METAR LFPG 091036Z 00715KT 9999 FEW030 2/1 Q1029
KK LFPGYYYX EDDFYYYX LFPNYYYX 080939 METAR LFPG 080939Z 31858KT 9999 FEW030 18/17 Q1070
SS LFPYYYX LFPBYYYX LFPNYYYX EGLLYYYX 130317 METAR LFPG 130317Z 04746KT 9999 FEW030 0/15 Q1052
DD LFPYYYX LFPGYYYX 101618 METAR LFPG 101618Z 10857KT 9999 FEW030 13/13 Q1005
FF LFPBYYYX LFPBYYYX LFPBYYYX 122147 METAR LFPG 122147Z 25856KT 9999 FEW030 17/19 Q1059
SS LFPOYYYX LFPOYYYX 150454 METAR LFPG 150454Z 14553KT 9999 FEW030 6/1 Q1007
SS LFPOYYYX LFPOYYYX LFPOYYYX 271215 METAR LFPG 271215Z 34523KT 9999 FEW030 9/13 Q1089
SS LFPNYYYX EDDFYYYX EDDFYYYX LFPNYYYX 220333 METAR LFPG 220333Z 07232KT 9999 FEW030 10/0 Q1097
FF LFPOYYYX LFPOYYYX EGLLYYYX EGLLYYYX 112103 METAR LFPG 112103Z 28121KT 9999 FEW030 14/2 Q1033
DD LFPNYYYX LFPNYYYX EDDFYYYX LFPNYYYX 041351 METAR LFPG 041351Z 08230KT 9999 FEW030 7/7 Q1001
SS EGLLYYYX EDDFYYYX 060309 METAR LFPG 060309Z 28838KT 9999 FEW030 8/16 Q1081
KK EGLLYYYX LFPNYYYX 070127 METAR LFPG 070127Z 35756KT 9999 FEW030 0/9 Q1031
KK EGLLYYYX LFPNYYYX LFPNYYYX 091013 METAR LFPG 091013Z 22351KT 9999 FEW030 28/6 Q1099
SS LFPBYYYX EDDFYYYX 180710 METAR LFPG 180710Z 22048KT 9999 FEW030 29/18 Q1001
LL LFPBYYYX LFPOYYYX 040947 METAR LFPG 040947Z 31826KT 9999 FEW030 20/14 Q1096
LL LFPGYYYX EGLLYYYX LFPOYYYX LFPNYYYX 020846 METAR LFPG 020846Z 31635KT 9999 FEW030 1/5 Q1034
GG LFPOYYYX LFPBYYYX EDDFYYYX LFPBYYYX 122147 METAR LFPG 122147Z 25836KT 9999 FEW030 6/0 Q1001
SS LFPNYYYX LFPNYYYX EGLLYYYX LFPBYYYX 090621 METAR LFPG 090621Z 17149KT 9999 FEW030 22/6 Q1027
FF LFPOYYYX EDDFYYYX 010357 METAR LFPG 010357Z 09516KT 9999 FEW030 11/7 Q1006
GG EGLLYYYX LFPBYYYX EDDFYYYX 080156 METAR LFPG 080156Z 33434KT 9999 FEW030 14/18 Q1040
FF LFPGYYYX LFPGYYYX 171856 METAR LFPG 171856Z 20755KT 9999 FEW030 19/3 Q1086
FF LFPBYYYX LFPBYYYX LFPOYYYX EGLLYYYX 010221 METAR LFPG 010221Z 23939KT 9999 FEW030 26/19 Q1098
GG LFPNYYYX EGLLYYYX LFPGYYYX 010257 METAR LFPG 010257Z 09545KT 9999 FEW030 14/19 Q1015
LL EDDFYYYX LFPOYYYX 101522 METAR LFPG 101522Z 06010KT 9999 FEW030 22/13 Q1013
SS EGLLYYYX LFPGYYYX 260709 METAR LFPG 260709Z 22028KT 9999 FEW030 14/4 Q1083
FF LFPYYYX LFPBYYYX LFPOYYYX 230531 METAR LFPG 230531Z 24140KT 9999 FEW030 10/0 Q1013
DD LFPBYYYX EDDFYYYX EGLLYYYX EDDFYYYX 092325 METAR LFPG 092325Z 23554KT 9999 FEW030 17/0 Q1056
SS LFPBYYYX LFPOYYYX EDDFYYYX 231351 METAR LFPG 231351Z 32120KT 9999 FEW030 25/16 Q1076
GG LFPNYYYX LFPBYYYX EDDFYYYX 072139 METAR LFPG 072139Z 01727KT 9999 FEW030 26/19 Q1027
LL LFPBYYYX LFPBYYYX EGLLYYYX 211837 METAR LFPG 211837Z 13535KT 9999 FEW030 28/10 Q1014
FF EGLLYYYX EGLLYYYX EDDFYYYX 212341 METAR LFPG 212341Z 25930KT 9999 FEW030 7/17 Q1083
LL LFPBYYYX LFPNYYYX 192046 METAR LFPG 192046Z 25615KT 9999 FEW030 24/10 Q1017
DD LFPNYYYX LFPOYYYX LFPGYYYX LFPOYYYX 150043 METAR LFPG 150043Z 02151KT 9999 FEW030 3/8 Q1021
DD LFPYYYX LFPBYYYX EDDFYYYX LFPNYYYX 182014 METAR LFPG 182014Z 11253KT 9999 FEW030 9/6 Q1028
LL LFPGYYYX LFPNYYYX LFPOYYYX 110019 METAR LFPG 110019Z 35717KT 9999 FEW030 26/10 Q1091
KK LFPNYYYX LFPGYYYX 211909 METAR LFPG 211909Z 03938KT 9999 FEW030 21/12 Q1038
DD LFPYYYX LFPBYYYX LFPNYYYX 242228 METAR LFPG 242228Z 18627KT 9999 FEW030 23/16 Q1001
KK EGLLYYYX EGLLYYYX 041327 METAR LFPG 041327Z 05836KT 9999 FEW030 26/1 Q1078
SS LFPGYYYX LFPGYYYX LFPNYYYX LFPGYYYX 061618 METAR LFPG 061618Z 34847KT 9999 FEW030 21/15 Q1083
KK LFPGYYYX LFPNYYYX LFPNYYYX LFPBYYYX 202123 METAR LFPG 202123Z 23412KT 9999 FEW030 9/10 Q1040
FF EGLLYYYX LFPGYYYX LFPOYYYX EDDFYYYX 030935 METAR LFPG 030935Z 12534KT 9999 FEW030 3/11 Q1061
GG LFPBYYYX EDDFYYYX 250612 METAR LFPG 250612Z 05111KT 9999 FEW030 15/4 Q1096
FF LFPGYYYX LFPNYYYX EDDFYYYX 040912 METAR LFPG 040912Z 10210KT 9999 FEW030 19/18 Q1014
DD LFPGYYYX LFPGYYYX LFPBYYYX 070823 METAR LFPG 070823Z 05311KT 9999 FEW030 12/1 Q1043
DD LFPOYYYX EDDFYYYX LFPOYYYX EDDFYYYX 061933 METAR LFPG 061933Z 06342KT 9999 FEW030 5/19 Q1082
DD EGLLYYYX EGLLYYYX LFPOYYYX LFPOYYYX 200519 METAR LFPG 200519Z 17048KT 9999 FEW030 26/1 Q1035
FF LFPOYYYX EDDFYYYX 101214 METAR LFPG 101214Z 10453KT 9999 FEW030 3/16 Q1068
SS LFPYYYX EGLLYYYX 220713 METAR LFPG 220713Z 29222KT 9999 FEW030 15/4 Q1024
SS LFPNYYYX LFPNYYYX 010721 METAR LFPG 010721Z 17111KT 9999 FEW030 27/12 Q1098
GG LFPGYYYX EGLLYYYX 181658 METAR LFPG 181658Z 27617KT 9999 FEW030 16/0 Q1060
LL LFPYYYX EGLLYYYX 110814 METAR LFPG 110814Z 17213KT 9999 FEW030 15/3 Q1077
FF LFPOYYYX LFPNYYYX 171001 METAR LFPG 171001Z 15121KT 9999 FEW030 28/7 Q1083
KK LFPOYYYX EDDFYYYX LFPBYYYX 142317 METAR LFPG 142317Z 35556KT 9999 FEW030 5/3 Q1000
LL LFPBYYYX LFPBYYYX LFPNYYYX 011000 METAR LFPG 011000Z 15059KT 9999 FEW030 22/7 Q1072
KK EGLLYYYX LFPNYYYX EDDFYYYX 012253 METAR LFPG 012253Z 09141KT 9999 FEW030 27/2 Q1064
SS EGLLYYYX LFPBYYYX LFPOYYYX 221945 METAR LFPG 221945Z 01654KT 9999 FEW030 24/5 Q1042
FF LFPBYYYX EDDFYYYX LFPGYYYX 170309 METAR LFPG 170309Z 04728KT 9999 FEW030 1/0 Q1017
KK LFPBYYYX EGLLYYYX 200927 METAR LFPG 200927Z 00536KT 9999 FEW030 23/15 Q1022
FF LFPBYYYX LFPOYYYX 221913 METAR LFPG 221913Z 23112KT 9999 FEW030 22/8 Q1094
FF EDDFYYYX LFPOYYYX 171521 METAR LFPG 171521Z 05930KT 9999 FEW030 12/9 Q1015
GG LFPYYYX EDDFYYYX 220725 METAR LFPG 220725Z 12414KT 9999 FEW030 21/14 Q1071
FF LFPOYYYX LFPNYYYX LFPOYYYX LFPOYYYX 242216 METAR LFPG 242216Z 23455KT 9999 FEW030 24/17 Q1044
DD LFPGYYYX LFPNYYYX 220746 METAR LFPG 220746Z 07614KT 9999 FEW030 28/5 Q1045
KK EGLLYYYX LFPNYYYX LFPOYYYX LFPGYYYX 162103 METAR LFPG 162103Z 28222KT 9999 FEW030 28/5 Q1039
KK EDDFYYYX LFPBYYYX 122228 METAR LFPG 122228Z 06656KT 9999 FEW030 27/5 Q1066
KK LFPGYYYX EGLLYYYX EGLLYYYX 160524 METAR LFPG 160524Z 00222KT 9999 FEW030 5/14 Q1056
SS EDDFYYYX LFPGYYYX LFPGYYYX 110014 METAR LFPG 110014Z 16513KT 9999 FEW030 1/18 Q1051
FF LFPYYYX EGLLYYYX LFPBYYYX 251505 METAR LFPG 251505Z 15554KT 9999 FEW030 4/3 Q1090
SS LFPGYYYX EGLLYYYX LFPGYYYX 090612 METAR LFPG 090612Z 17111KT 9999 FEW030 24/3 Q1093
KK LFPBYYYX LFPBYYYX 111230 METAR LFPG 111230Z 00159KT 9999 FEW030 16/7 Q1098
SS EGLLYYYX EGLLYYYX EDDFYYYX LFPNYYYX 130757 METAR LFPG 130757Z 14716KT 9999 FEW030 17/7 Q1009
KK LFPYYYX LFPNYYYX 031331 METAR LFPG 031331Z 12950KT 9999 FEW030 3/14 Q1070
FF LFPNYYYX LFPBYYYX EGLLYYYX 200144 METAR LFPG 200144Z 02212KT 9999 FEW030 29/2 Q1097
FF LFPGYYYX LFPGYYYX LFPOYYYX LFPNYYYX 241743 METAR LFPG 241743Z 25332KT 9999 FEW030 3/0 Q1047
SS LFPBYYYX LFPNYYYX LFPGYYYX LFPGYYYX 121331 METAR LFPG 121331Z 01040KT 9999 FEW030 3/10 Q1022
SS EGLLYYYX EDDFYYYX EGLLYYYX LFPGYYYX 120120 METAR LFPG 120120Z 23828KT 9999 FEW030 4/2 Q1080
LL LFPBYYYX EDDFYYYX LFPOYYYX EDDFYYYX 080644 METAR LFPG 080644Z 31453KT 9999 FEW030 3/16 Q1012
GG LFPNYYYX LFPOYYYX 021129 METAR LFPG 021129Z 00718KT 9999 FEW030 1/16 Q1011
KK LFPGYYYX EDDFYYYX 171921 METAR LFPG 171921Z 35129KT 9999 FEW030 27/18 Q1098
SS EDDFYYYX EDDFYYYX 101545 METAR LFPG 101545Z 08354KT 9999 FEW030 3/10 Q1005
SS LFPGYYYX EDDFYYYX LFPOYYYX LFPOYYYX 152035 METAR LFPG 152035Z 18523KT 9999 FEW030 28/19 Q1035
SS LFPNYYYX LFPGYYYX LFPNYYYX LFPOYYYX 210600 METAR LFPG 210600Z 33929KT 9999 FEW030 6/16 Q1001
FF LFPNYYYX LFPNYYYX LFPBYYYX 150923 METAR LFPG 150923Z 17351KT 9999 FEW030 3/8 Q1070
GG LFPGYYYX LFPOYYYX LFPOYYYX LFPNYYYX 082128 METAR LFPG 082128Z 06656KT 9999 FEW030 20/3 Q1093
FF LFPNYYYX LFPBYYYX LFPOYYYX 122136 METAR LFPG 122136Z 18654KT 9999 FEW030 10/0 Q1075
LL LFPYYYX LFPNYYYX EDDFYYYX 072147 METAR LFPG 072147Z 25726KT 9999 FEW030 26/15 Q1010
GG EDDFYYYX LFPGYYYX LFPNYYYX LFPOYYYX 021206 METAR LFPG 021206Z 22435KT 9999 FEW030 28/3 Q1035
LL LFPBYYYX LFPOYYYX 100714 METAR LFPG 100714Z 29252KT 9999 FEW030 18/1 Q1052
KK LFPYYYX EGLLYYYX LFPOYYYX 181933 METAR LFPG 181933Z 06442KT 9999 FEW030 4/5 Q1037
DD LFPNYYYX EDDFYYYX 191635 METAR LFPG 191635Z 13343KT 9999 FEW030 26/5 Q1039
KK LFPOYYYX LFPOYYYX LFPNYYYX EGLLYYYX 150054 METAR LFPG 150054Z 09313KT 9999 FEW030 20/14 Q1006
LL LFPNYYYX LFPNYYYX LFPOYYYX LFPOYYYX 141933 METAR LFPG 141933Z 06452KT 9999 FEW030 3/7 Q1002
SS LFPBYYYX EDDFYYYX LFPOYYYX EGLLYYYX 020822 METAR LFPG 020822Z 29211KT 9999 FEW030 4/4 Q1096
GG LFPBYYYX LFPBYYYX EDDFYYYX LFPNYYYX 270430 METAR LFPG 270430Z 12029KT 9999 FEW030 25/9 Q1070
GG LFPBYYYX EDDFYYYX LFPGYYYX LFPOYYYX 041748 METAR LFPG 041748Z 20616KT 9999 FEW030 25/1 Q1041
LL LFPYYYX LFPOYYYX 161028 METAR LFPG 161028Z 00626KT 9999 FEW030 10/3 Q1009
DD LFPGYYYX LFPOYYYX EDDFYYYX EGLLYYYX 030827 METAR LFPG 030827Z 24515KT 9999 FEW030 21/3 Q1038
FF LFPGYYYX LFPBYYYX 030859 METAR LFPG 030859Z 14937KT 9999 FEW030 27/18 Q1056
DD LFPBYYYX EGLLYYYX LFPOYYYX 181534 METAR LFPG 181534Z 25242KT 9999 FEW030 15/3 Q1085
FF LFPGYYYX EDDFYYYX LFPNYYYX LFPBYYYX 021957 METAR LFPG 021957Z 20826KT 9999 FEW030 13/3 Q1037
DD LFPBYYYX LFPGYYYX EDDFYYYX 161719 METAR LFPG 161719Z 10948KT 9999 FEW030 9/14 Q1000
FF LFPNYYYX LFPBYYYX LFPNYYYX LFPBYYYX 120939 METAR LFPG 120939Z 31818KT 9999 FEW030 20/13 Q1042
KK LFPGYYYX LFPOYYYX LFPNYYYX LFPGYYYX 110115 METAR LFPG 110115Z 28554KT 9999 FEW030 0/11 Q1022
SS LFPOYYYX LFPOYYYX 020305 METAR LFPG 020305Z 21554KT 9999 FEW030 25/8 Q1027
GG LFPNYYYX LFPOYYYX 061141 METAR LFPG 061141Z 08030KT 9999 FEW030 13/17 Q1032
FF LFPYYYX LFPOYYYX 131129 METAR LFPG 131129Z 12717KT 9999 FEW030 13/7 Q1074
DD LFPOYYYX LFPGYYYX EGLLYYYX 122128 METAR LFPG 122128Z 30616KT 9999 FEW030 16/9 Q1093
LL LFPOYYYX LFPNYYYX LFPOYYYX LFPOYYYX 241456 METAR LFPG 241456Z 27445KT 9999 FEW030 27/13 Q1098
SS LFPBYYYX EDDFYYYX LFPNYYYX 140757 METAR LFPG 140757Z 26746KT 9999 FEW030 3/0 Q1032
LL EDDFYYYX LFPGYYYX LFPGYYYX 230430 METAR LFPG 230430Z 12139KT 9999 FEW030 19/2 Q1000
SS EGLLYYYX LFPGYYYX EGLLYYYX LFPGYYYX 171845 METAR LFPG 171845Z 01513KT 9999 FEW030 7/4 Q1019
LL LFPBYYYX LFPNYYYX 191635 METAR LFPG 191635Z 25323KT 9999 FEW030 10/16 Q1099
GG LFPYYYX EDDFYYYX LFPGYYYX EDDFYYYX 140750 METAR LFPG 140750Z 02828KT 9999 FEW030 7/2 Q1011
SS EGLLYYYX EGLLYYYX EDDFYYYX 141545 METAR LFPG 141545Z 32334KT 9999 FEW030 15/8 Q1091
DD LFPYYYX LFPOYYYX EDDFYYYX 031231 METAR LFPG 031231Z 00959KT 9999 FEW030 5/3 Q1077
GG LFPGYYYX LFPNYYYX EDDFYYYX EDDFYYYX 091833 METAR LFPG 091833Z 06341KT 9999 FEW030 12/18 Q1065
KK LFPNYYYX LFPBYYYX LFPOYYYX 261958 METAR LFPG 261958Z 32848KT 9999 FEW030 11/17 Q1045
LL LFPNYYYX LFPOYYYX LFPGYYYX 072003 METAR LFPG 072003Z 04141KT 9999 FEW030 7/6 Q1090
GG EDDFYYYX EGLLYYYX 011029 METAR LFPG 011029Z 24757KT 9999 FEW030 7/12 Q1033
DD LFPNYYYX EGLLYYYX 120128 METAR LFPG 120128Z 11816KT 9999 FEW030 11/6 Q1048
GG EGLLYYYX EGLLYYYX EDDFYYYX 150455 METAR LFPG 150455Z 26543KT 9999 FEW030 20/9 Q1058
FF EGLLYYYX EGLLYYYX 110435 METAR LFPG 110435Z 19323KT 9999 FEW030 13/5 Q1037
SS LFPGYYYX LFPNYYYX LFPNYYYX 211421 METAR LFPG 211421Z 05939KT 9999 FEW030 11/2 Q1001
GG LFPNYYYX LFPGYYYX EGLLYYYX 251457 METAR LFPG 251457Z 03545KT 9999 FEW030 22/4 Q1015
LL EDDFYYYX LFPGYYYX LFPBYYYX 011821 METAR LFPG 011821Z 11119KT 9999 FEW030 20/9 Q1012
DD LFPYYYX LFPNYYYX EGLLYYYX EDDFYYYX 040959 METAR LFPG 040959Z 03038KT 9999 FEW030 11/8 Q1067
KK LFPOYYYX LFPOYYYX LFPBYYYX 282100 METAR LFPG 282100Z 21018KT 9999 FEW030 16/1 Q1081
GG LFPBYYYX LFPNYYYX 181102 METAR LFPG 181102Z 15210KT 9999 FEW030 0/16 Q1043
SS LFPGYYYX EGLLYYYX LFPNYYYX 201719 METAR LFPG 201719Z 23048KT 9999 FEW030 22/11 Q1031
FF LFPNYYYX LFPOYYYX 282112 METAR LFPG 282112Z 04220KT 9999 FEW030 27/16 Q1093
KK EGLLYYYX LFPBYYYX LFPOYYYX LFPBYYYX 080244 METAR LFPG 080244Z 26253KT 9999 FEW030 12/16 Q1084
SS LFPGYYYX EGLLYYYX LFPGYYYX EGLLYYYX 172204 METAR LFPG 172204Z 28353KT 9999 FEW030 15/12 Q1046
FF LFPNYYYX LFPGYYYX EGLLYYYX EGLLYYYX 032022 METAR LFPG 032022Z 11351KT 9999 FEW030 7/2 Q1003
DD LFPOYYYX EDDFYYYX LFPBYYYX LFPBYYYX 080936 METAR LFPG 080936Z 00636KT 9999 FEW030 25/8 Q1032
SS LFPYYYX LFPOYYYX LFPNYYYX 271230 METAR LFPG 271230Z 24919KT 9999 FEW030 2/18 Q1039
GG EDDFYYYX EDDFYYYX LFPGYYYX LFPNYYYX 070447 METAR LFPG 070447Z 26555KT 9999 FEW030 1/10 Q1098
GG LFPGYYYX EDDFYYYX LFPBYYYX LFPNYYYX 120600 METAR LFPG 120600Z 21828KT 9999 FEW030 27/16 Q1094
SS LFPOYYYX LFPNYYYX LFPBYYYX LFPGYYYX 240511 METAR LFPG 240511Z 17030KT 9999 FEW030 13/11 Q1083
LL LFPBYYYX EGLLYYYX LFPNYYYX 140322 METAR LFPG 140322Z 00040KT 9999 FEW030 6/8 Q1069
GG LFPOYYYX EDDFYYYX 191619 METAR LFPG 191619Z 34937KT 9999 FEW030 7/11 Q1069
DD LFPGYYYX LFPGYYYX LFPGYYYX 242240 METAR LFPG 242240Z 13049KT 9999 FEW030 3/18 Q1068
KK LFPBYYYX EGLLYYYX 011137 METAR LFPG 011137Z 24755KT 9999 FEW030 12/4 Q1012
DD LFPNYYYX LFPBYYYX EGLLYYYX 130721 METAR LFPG 130721Z 05120KT 9999 FEW030 1/13 Q1051
GG EDDFYYYX EDDFYYYX 251417 METAR LFPG 251417Z 22755KT 9999 FEW030 9/4 Q1063
KK EGLLYYYX LFPNYYYX 252252 METAR LFPG 252252Z 33111KT 9999 FEW030 27/4 Q1062
FF LFPGYYYX LFPGYYYX EDDFYYYX LFPGYYYX 131945 METAR LFPG 131945Z 13514KT 9999 FEW030 24/3 Q1057
FF EDDFYYYX EGLLYYYX LFPGYYYX 131444 METAR LFPG 131444Z 08353KT 9999 FEW030 6/15 Q1051
GG EGLLYYYX LFPBYYYX 230939 METAR LFPG 230939Z 19758KT 9999 FEW030 13/7 Q1036
DD LFPNYYYX LFPGYYYX 130244 METAR LFPG 130244Z 02333KT 9999 FEW030 1/19 Q1097
KK LFPBYYYX LFPNYYYX EDDFYYYX 100725 METAR LFPG 100725Z 24454KT 9999 FEW030 16/6 Q1035
KK LFPBYYYX LFPNYYYX 170601 METAR LFPG 170601Z 33949KT 9999 FEW030 26/13 Q1018
GG EDDFYYYX EGLLYYYX 061938 METAR LFPG 061938Z 24856KT 9999 FEW030 16/11 Q1094
FF LFPOYYYX LFPGYYYX EGLLYYYX 161800 METAR LFPG 161800Z 27838KT 9999 FEW030 20/2 Q1087
GG LFPGYYYX LFPBYYYX 272026 METAR LFPG 272026Z 30555KT 9999 FEW030 21/1 Q1000
SS LFPGYYYX LFPNYYYX EGLLYYYX LFPNYYYX 131845 METAR LFPG 131845Z 13543KT 9999 FEW030 14/5 Q1015
LL LFPNYYYX LFPOYYYX LFPBYYYX 182050 METAR LFPG 182050Z 32819KT 9999 FEW030 2/9 Q1055
DD LFPGYYYX EGLLYYYX EGLLYYYX LFPOYYYX 101934 METAR LFPG 101934Z 06452KT 9999 FEW030 20/1 Q1036
KK LFPYYYX EDDFYYYX EGLLYYYX 221658 METAR LFPG 221658Z 15657KT 9999 FEW030 27/1 Q1014
FF EDDFYYYX LFPGYYYX LFPNYYYX 222022 METAR LFPG 222022Z 23231KT 9999 FEW030 25/7 Q1005
FF EDDFYYYX LFPNYYYX EDDFYYYX EGLLYYYX 051809 METAR LFPG 051809Z 27917KT 9999 FEW030 24/8 Q1064
KK EGLLYYYX EGLLYYYX LFPNYYYX 171029 METAR LFPG 171029Z 24747KT 9999 FEW030 27/14 Q1026
LL LFPBYYYX EDDFYYYX LFPNYYYX 121016 METAR LFPG 121016Z 05425KT 9999 FEW030 27/15 Q1008
KK LFPBYYYX EDDFYYYX 270846 METAR LFPG 270846Z 07755KT 9999 FEW030 1/1 Q1036
FF LFPYYYX EGLLYYYX EGLLYYYX 122252 METAR LFPG 122252Z 33051KT 9999 FEW030 20/17 Q1097
LL LFPNYYYX EDDFYYYX 051105 METAR LFPG 051105Z 34323KT 9999 FEW030 7/2 Q1046
KK LFPYYYX EDDFYYYX 091848 METAR LFPG 091848Z 32737KT 9999 FEW030 3/8 Q1016
FF LFPYYYX EDDFYYYX LFPOYYYX LFPGYYYX 180442 METAR LFPG 180442Z 31241KT 9999 FEW030 1/8 Q1092
DD LFPOYYYX LFPOYYYX EDDFYYYX LFPOYYYX 090733 METAR LFPG 090733Z 24342KT 9999 FEW030 5/5 Q1040
DD EGLLYYYX LFPOYYYX LFPBYYYX 120915 METAR LFPG 120915Z 16614KT 9999 FEW030 21/1 Q1075
FF LFPGYYYX LFPNYYYX LFPNYYYX 101126 METAR LFPG 101126Z 17624KT 9999 FEW030 14/7 Q1079
KK EDDFYYYX LFPGYYYX LFPNYYYX EGLLYYYX 160204 METAR LFPG 160204Z 33422KT 9999 FEW030 27/2 Q1077
SS EDDFYYYX LFPBYYYX LFPOYYYX 081432 METAR LFPG 081432Z 01051KT 9999 FEW030 7/1 Q1026
DD EDDFYYYX EDDFYYYX 131849 METAR LFPG 131849Z 20757KT 9999 FEW030 7/14 Q1069
LL LFPOYYYX LFPOYYYX 220713 METAR LFPG 220713Z 05222KT 9999 FEW030 6/1 Q1074
FF EGLLYYYX LFPOYYYX LFPBYYYX 021530 METAR LFPG 021530Z 06058KT 9999 FEW030 4/9 Q1015
SS LFPYYYX LFPNYYYX EDDFYYYX 270803 METAR LFPG 270803Z 34141KT 9999 FEW030 12/8 Q1073
FF LFPOYYYX LFPOYYYX 230507 METAR LFPG 230507Z 09736KT 9999 FEW030 29/1 Q1000
KK LFPNYYYX EDDFYYYX 210241 METAR LFPG 210241Z 07119KT 9999 FEW030 7/13 Q1092
GG LFPBYYYX LFPGYYYX LFPNYYYX 030143 METAR LFPG 030143Z 14122KT 9999 FEW030 22/17 Q1056
LL LFPNYYYX LFPBYYYX EDDFYYYX 241824 METAR LFPG 241824Z 06223KT 9999 FEW030 15/9 Q1061
FF EDDFYYYX LFPOYYYX 011029 METAR LFPG 011029Z 24727KT 9999 FEW030 2/0 Q1062
KK LFPYYYX EGLLYYYX LFPNYYYX LFPBYYYX 280116 METAR LFPG 280116Z 04644KT 9999 FEW030 24/13 Q1056
DD LFPBYYYX LFPGYYYX LFPNYYYX 111755 METAR LFPG 111755Z 32514KT 9999 FEW030 8/17 Q1009
SS EGLLYYYX EDDFYYYX 200911 METAR LFPG 200911Z 10220KT 9999 FEW030 6/6 Q1030
SS LFPGYYYX EGLLYYYX EGLLYYYX 061957 METAR LFPG 061957Z 32826KT 9999 FEW030 27/4 Q1033
GG LFPBYYYX LFPNYYYX LFPNYYYX EGLLYYYX 162148 METAR LFPG 162148Z 01846KT 9999 FEW030 29/15 Q1093
LL EGLLYYYX EDDFYYYX 070411 METAR LFPG 070411Z 16959KT 9999 FEW030 5/14 Q1014
FF LFPNYYYX EDDFYYYX EGLLYYYX 140750 METAR LFPG 140750Z 14818KT 9999 FEW030 26/19 Q1037
FF LFPBYYYX LFPOYYYX 061958 METAR LFPG 061958Z 08856KT 9999 FEW030 9/7 Q1071
FF LFPBYYYX EGLLYYYX LFPOYYYX 072014 METAR LFPG 072014Z 11343KT 9999 FEW030 8/5 Q1086
SS LFPGYYYX EGLLYYYX LFPOYYYX 271646 METAR LFPG 271646Z 08525KT 9999 FEW030 15/8 Q1097
KK LFPGYYYX LFPNYYYX EGLLYYYX LFPBYYYX 020353 METAR LFPG 020353Z 14432KT 9999 FEW030 4/0 Q1087
KK LFPOYYYX LFPOYYYX LFPOYYYX LFPGYYYX 100721 METAR LFPG 100721Z 17230KT 9999 FEW030 7/16 Q1031
KK EGLLYYYX LFPOYYYX 032047 METAR LFPG 032047Z 01725KT 9999 FEW030 6/13 Q1074
SS LFPNYYYX LFPGYYYX 052228 METAR LFPG 052228Z 06717KT 9999 FEW030 8/8 Q1035
KK EGLLYYYX LFPBYYYX 031647 METAR LFPG 031647Z 08525KT 9999 FEW030 1/15 Q1055
LL LFPOYYYX EDDFYYYX 100018 METAR LFPG 100018Z 11657KT 9999 FEW030 15/11 Q1088
GG EDDFYYYX LFPGYYYX LFPBYYYX 082248 METAR LFPG 082248Z 25847KT 9999 FEW030 19/16 Q1073
SS LFPBYYYX LFPOYYYX LFPNYYYX 030107 METAR LFPG 030107Z 28526KT 9999 FEW030 21/15 Q1067
GG LFPYYYX LFPNYYYX LFPBYYYX LFPOYYYX 082135 METAR LFPG 082135Z 18654KT 9999 FEW030 24/3 Q1023
KK LFPBYYYX LFPOYYYX LFPBYYYX 180810 METAR LFPG 180810Z 10029KT 9999 FEW030 3/0 Q1014
KK LFPGYYYX EDDFYYYX LFPOYYYX 060042 METAR LFPG 060042Z 14020KT 9999 FEW030 17/5 Q1009
LL LFPYYYX EDDFYYYX 141922 METAR LFPG 141922Z 23230KT 9999 FEW030 2/7 Q1009
DD LFPOYYYX LFPOYYYX 191343 METAR LFPG 191343Z 20122KT 9999 FEW030 5/4 Q1077
DD EGLLYYYX LFPGYYYX EGLLYYYX 071618 METAR LFPG 071618Z 22947KT 9999 FEW030 23/10 Q1045
LL LFPYYYX EGLLYYYX 261606 METAR LFPG 261606Z 15655KT 9999 FEW030 15/5 Q1024
SS EDDFYYYX LFPNYYYX LFPGYYYX LFPGYYYX 281416 METAR LFPG 281416Z 10627KT 9999 FEW030 8/14 Q1002
SS EDDFYYYX LFPBYYYX LFPNYYYX 110018 METAR LFPG 110018Z 10957KT 9999 FEW030 22/12 Q1087
FF LFPOYYYX EGLLYYYX EDDFYYYX 280508 METAR LFPG 280508Z 09856KT 9999 FEW030 16/8 Q1092
FF LFPBYYYX LFPOYYYX EDDFYYYX 110419 METAR LFPG 110419Z 16947KT 9999 FEW030 10/16 Q1096
GG LFPBYYYX LFPOYYYX 181505 METAR LFPG 181505Z 27514KT 9999 FEW030 1/8 Q1014
GG LFPBYYYX LFPNYYYX LFPOYYYX LFPGYYYX 080140 METAR LFPG 080140Z 19058KT 9999 FEW030 10/18 Q1018
GG LFPBYYYX EDDFYYYX LFPBYYYX 062318 METAR LFPG 062318Z 11656KT 9999 FEW030 8/13 Q1064
KK EDDFYYYX LFPOYYYX 101937 METAR LFPG 101937Z 01616KT 9999 FEW030 10/6 Q1086
GG EGLLYYYX LFPNYYYX LFPGYYYX 181141 METAR LFPG 181141Z 08020KT 9999 FEW030 19/7 Q1086
FF LFPOYYYX LFPOYYYX 240115 METAR LFPG 240115Z 16624KT 9999 FEW030 27/17 Q1094
KK EGLLYYYX EGLLYYYX LFPGYYYX 082148 METAR LFPG 082148Z 25836KT 9999 FEW030 4/0 Q1055
LL EGLLYYYX EGLLYYYX LFPGYYYX 070027 METAR LFPG 070027Z 23735KT 9999 FEW030 26/19 Q1024
DD LFPOYYYX LFPNYYYX 272046 METAR LFPG 272046Z 01615KT 9999 FEW030 28/15 Q1037
LL LFPOYYYX LFPNYYYX 112015 METAR LFPG 112015Z 35343KT 9999 FEW030 8/4 Q1030
GG LFPBYYYX EDDFYYYX LFPGYYYX 151202 METAR LFPG 151202Z 27341KT 9999 FEW030 1/15 Q1081
LL EDDFYYYX LFPOYYYX LFPBYYYX EDDFYYYX 152058 METAR LFPG 152058Z 20947KT 9999 FEW030 1/10 Q1086
KK LFPYYYX EGLLYYYX LFPBYYYX 050252 METAR LFPG 050252Z 02221KT 9999 FEW030 7/13 Q1075
SS LFPYYYX LFPNYYYX LFPBYYYX LFPNYYYX 231226 METAR LFPG 231226Z 29735KT 9999 FEW030 24/5 Q1081
DD LFPBYYYX EDDFYYYX LFPGYYYX EDDFYYYX 172228 METAR LFPG 172228Z 05957KT 9999 FEW030 0/4 Q1021
FF LFPYYYX LFPOYYYX LFPGYYYX LFPGYYYX 171028 METAR LFPG 171028Z 12737KT 9999 FEW030 13/1 Q1034
KK LFPNYYYX LFPBYYYX LFPOYYYX EGLLYYYX 051440 METAR LFPG 051440Z 25059KT 9999 FEW030 29/14 Q1025
SS EGLLYYYX LFPGYYYX 230802 METAR LFPG 230802Z 34121KT 9999 FEW030 4/14 Q1015
FF LFPBYYYX EGLLYYYX EDDFYYYX EDDFYYYX 011557 METAR LFPG 011557Z 03536KT 9999 FEW030 11/16 Q1030
KK EGLLYYYX LFPGYYYX 120612 METAR LFPG 120612Z 29031KT 9999 FEW030 1/17 Q1059
FF EDDFYYYX LFPNYYYX LFPOYYYX LFPOYYYX 210657 METAR LFPG 210657Z 26735KT 9999 FEW030 28/8 Q1085
KK LFPGYYYX LFPNYYYX 251024 METAR LFPG 251024Z 17433KT 9999 FEW030 0/16 Q1053
GG LFPOYYYX LFPBYYYX 202228 METAR LFPG 202228Z 17836KT 9999 FEW030 16/8 Q1056
GG LFPOYYYX LFPBYYYX 141610 METAR LFPG 141610Z 10849KT 9999 FEW030 10/4 Q1020
DD LFPBYYYX LFPGYYYX LFPBYYYX LFPNYYYX 250624 METAR LFPG 250624Z 00343KT 9999 FEW030 29/13 Q1068
GG LFPOYYYX EGLLYYYX EGLLYYYX LFPOYYYX 011800 METAR LFPG 011800Z 27929KT 9999 FEW030 18/8 Q1023
LL LFPBYYYX LFPGYYYX EDDFYYYX 231659 METAR LFPG 231659Z 03737KT 9999 FEW030 20/15 Q1078
LL EDDFYYYX LFPNYYYX LFPOYYYX LFPBYYYX 032010 METAR LFPG 032010Z 28139KT 9999 FEW030 7/17 Q1031
LL EGLLYYYX LFPNYYYX LFPGYYYX LFPNYYYX 050321 METAR LFPG 050321Z 35950KT 9999 FEW030 0/4 Q1043
FF LFPBYYYX LFPOYYYX LFPNYYYX 160532 METAR LFPG 160532Z 00230KT 9999 FEW030 23/5 Q1038
FF LFPGYYYX EGLLYYYX 092224 METAR LFPG 092224Z 23543KT 9999 FEW030 20/11 Q1018
FF EDDFYYYX EDDFYYYX LFPBYYYX EDDFYYYX 200156 METAR LFPG 200156Z 33414KT 9999 FEW030 4/15 Q1049
LL LFPBYYYX LFPGYYYX LFPBYYYX EGLLYYYX 032115 METAR LFPG 032115Z 23344KT 9999 FEW030 6/12 Q1013
DD LFPNYYYX EGLLYYYX LFPBYYYX EGLLYYYX 281711 METAR LFPG 281711Z 22930KT 9999 FEW030 14/17 Q1099
GG EGLLYYYX EGLLYYYX LFPBYYYX 230531 METAR LFPG 230531Z 24112KT 9999 FEW030 0/18 Q1015
GG LFPBYYYX LFPGYYYX 042116 METAR LFPG 042116Z 11424KT 9999 FEW030 28/17 Q1047
FF LFPOYYYX LFPBYYYX 031227 METAR LFPG 031227Z 05725KT 9999 FEW030 21/19 Q1069
SS LFPBYYYX LFPGYYYX LFPOYYYX LFPBYYYX 250220 METAR LFPG 250220Z 23959KT 9999 FEW030 27/0 Q1052
KK EGLLYYYX EGLLYYYX 121315 METAR LFPG 121315Z 22654KT 9999 FEW030 27/19 Q1012
LL EGLLYYYX EDDFYYYX LFPOYYYX EDDFYYYX 081444 METAR LFPG 081444Z 32253KT 9999 FEW030 8/14 Q1000
FF EGLLYYYX LFPNYYYX LFPBYYYX 011029 METAR LFPG 011029Z 24757KT 9999 FEW030 27/18 Q1033
FF EDDFYYYX LFPNYYYX 080916 METAR LFPG 080916Z 29444KT 9999 FEW030 27/9 Q1099
FF EGLLYYYX EDDFYYYX LFPNYYYX LFPOYYYX 170620 METAR LFPG 170620Z 17029KT 9999 FEW030 5/17 Q1047
KK LFPGYYYX EDDFYYYX EGLLYYYX LFPBYYYX 141125 METAR LFPG 141125Z 17644KT 9999 FEW030 15/9 Q1040
KK LFPOYYYX EDDFYYYX LFPBYYYX 020702 METAR LFPG 020702Z 10010KT 9999 FEW030 12/7 Q1035
LL EGLLYYYX LFPNYYYX 061913 METAR LFPG 061913Z 35212KT 9999 FEW030 28/11 Q1013
KK LFPBYYYX LFPOYYYX 051845 METAR LFPG 051845Z 01523KT 9999 FEW030 4/4 Q1090
FF EGLLYYYX LFPGYYYX 210613 METAR LFPG 210613Z 29141KT 9999 FEW030 14/5 Q1038
DD LFPOYYYX EDDFYYYX 200951 METAR LFPG 200951Z 03040KT 9999 FEW030 5/15 Q1056
DD EDDFYYYX LFPOYYYX 181149 METAR LFPG 181149Z 20028KT 9999 FEW030 8/3 Q1031
FF LFPGYYYX LFPOYYYX EDDFYYYX 171409 METAR LFPG 171409Z 10757KT 9999 FEW030 10/14 Q1011
DD LFPOYYYX EGLLYYYX EDDFYYYX EGLLYYYX 161832 METAR LFPG 161832Z 18211KT 9999 FEW030 8/8 Q1094
GG EDDFYYYX LFPBYYYX LFPGYYYX LFPNYYYX 190027 METAR LFPG 190027Z 11745KT 9999 FEW030 15/17 Q1055
KK LFPBYYYX LFPGYYYX LFPNYYYX LFPNYYYX 041711 METAR LFPG 041711Z 11030KT 9999 FEW030 12/4 Q1017
FF LFPGYYYX EDDFYYYX EDDFYYYX 180738 METAR LFPG 180738Z 19626KT 9999 FEW030 13/17 Q1038
SS EDDFYYYX LFPGYYYX LFPOYYYX LFPBYYYX 141126 METAR LFPG 141126Z 17646KT 9999 FEW030 5/18 Q1093
FF EGLLYYYX LFPOYYYX LFPGYYYX LFPNYYYX 052240 METAR LFPG 052240Z 13859KT 9999 FEW030 2/18 Q1033
KK LFPOYYYX LFPGYYYX EGLLYYYX 200903 METAR LFPG 200903Z 22222KT 9999 FEW030 8/7 Q1099
KK LFPGYYYX LFPOYYYX 011004 METAR LFPG 011004Z 10323KT 9999 FEW030 21/0 Q1058
KK LFPOYYYX LFPGYYYX EGLLYYYX 240240 METAR LFPG 240240Z 07059KT 9999 FEW030 1/3 Q1013
LL EDDFYYYX LFPOYYYX LFPNYYYX EGLLYYYX 241028 METAR LFPG 241028Z 00637KT 9999 FEW030 2/3 Q1014
LL EDDFYYYX LFPGYYYX LFPNYYYX 200104 METAR LFPG 200104Z 33432KT 9999 FEW030 12/11 Q1084
FF LFPGYYYX LFPBYYYX 120119 METAR LFPG 120119Z 11838KT 9999 FEW030 10/7 Q1013
KK LFPBYYYX LFPOYYYX LFPNYYYX 120108 METAR LFPG 120108Z 28616KT 9999 FEW030 3/16 Q1026
GG LFPNYYYX EGLLYYYX 200531 METAR LFPG 200531Z 00210KT 9999 FEW030 9/8 Q1053
SS LFPBYYYX LFPNYYYX 061125 METAR LFPG 061125Z 29634KT 9999 FEW030 7/4 Q1097
KK LFPGYYYX LFPOYYYX LFPBYYYX LFPGYYYX 200216 METAR LFPG 200216Z 16624KT 9999 FEW030 10/16 Q1037
DD EDDFYYYX EDDFYYYX EDDFYYYX 011553 METAR LFPG 011553Z 08332KT 9999 FEW030 22/19 Q1036
GG EDDFYYYX LFPGYYYX LFPGYYYX LFPOYYYX 162159 METAR LFPG 162159Z 33038KT 9999 FEW030 11/5 Q1065
KK LFPBYYYX LFPNYYYX LFPNYYYX 141118 METAR LFPG 141118Z 05616KT 9999 FEW030 12/5 Q1064
DD LFPNYYYX EDDFYYYX 270927 METAR LFPG 270927Z 12516KT 9999 FEW030 3/19 Q1030
FF EGLLYYYX LFPGYYYX LFPGYYYX 040559 METAR LFPG 040559Z 09848KT 9999 FEW030 10/11 Q1061
GG LFPYYYX LFPNYYYX 170204 METAR LFPG 170204Z 33523KT 9999 FEW030 20/1 Q1041
DD EDDFYYYX LFPGYYYX LFPBYYYX 091812 METAR LFPG 091812Z 35021KT 9999 FEW030 10/3 Q1055
LL LFPOYYYX EDDFYYYX EDDFYYYX 220341 METAR LFPG 220341Z 07140KT 9999 FEW030 13/11 Q1038
FF LFPNYYYX LFPNYYYX EDDFYYYX 040636 METAR LFPG 040636Z 31414KT 9999 FEW030 21/9 Q1056
DD EGLLYYYX LFPOYYYX LFPGYYYX LFPOYYYX 270127 METAR LFPG 270127Z 23756KT 9999 FEW030 24/2 Q1073
KK EGLLYYYX LFPNYYYX 281408 METAR LFPG 281408Z 10617KT 9999 FEW030 18/4 Q1010
DD EGLLYYYX LFPNYYYX LFPNYYYX 150850 METAR LFPG 150850Z 26929KT 9999 FEW030 4/0 Q1063
DD EGLLYYYX EDDFYYYX EDDFYYYX 241352 METAR LFPG 241352Z 32230KT 9999 FEW030 10/9 Q1086
LL EGLLYYYX EGLLYYYX LFPNYYYX EDDFYYYX 130632 METAR LFPG 130632Z 24251KT 9999 FEW030 3/14 Q1095
SS LFPYYYX LFPBYYYX LFPGYYYX 280240 METAR LFPG 280240Z 31059KT 9999 FEW030 16/17 Q1061
KK LFPBYYYX LFPOYYYX 231759 METAR LFPG 231759Z 03758KT 9999 FEW030 25/10 Q1024
GG EDDFYYYX LFPBYYYX LFPBYYYX LFPNYYYX 150055 METAR LFPG 150055Z 21343KT 9999 FEW030 25/14 Q1052
GG LFPNYYYX EDDFYYYX LFPGYYYX LFPNYYYX 150810 METAR LFPG 150810Z 10119KT 9999 FEW030 15/2 Q1014
LL LFPBYYYX LFPOYYYX LFPBYYYX 271655 METAR LFPG 271655Z 32553KT 9999 FEW030 12/0 Q1050
LL EGLLYYYX EGLLYYYX EGLLYYYX LFPOYYYX 060737 METAR LFPG 060737Z 19616KT 9999 FEW030 7/6 Q1097
SS EGLLYYYX LFPGYYYX 260714 METAR LFPG 260714Z 05212KT 9999 FEW030 18/18 Q1005
GG LFPYYYX EDDFYYYX LFPGYYYX 190903 METAR LFPG 190903Z 34112KT 9999 FEW030 12/19 Q1042
LL EGLLYYYX LFPBYYYX LFPOYYYX EDDFYYYX 190407 METAR LFPG 190407Z 33745KT 9999 FEW030 28/14 Q1037
DD LFPGYYYX LFPNYYYX LFPBYYYX LFPOYYYX 190458 METAR LFPG 190458Z 21737KT 9999 FEW030 2/12 Q1054
LL LFPGYYYX LFPOYYYX 092248 METAR LFPG 092248Z 01957KT 9999 FEW030 27/11 Q1006
LL LFPNYYYX LFPNYYYX LFPNYYYX EGLLYYYX 221130 METAR LFPG 221130Z 00818KT 9999 FEW030 20/7 Q1015
FF EDDFYYYX LFPOYYYX LFPOYYYX 200548 METAR LFPG 200548Z 14636KT 9999 FEW030 21/1 Q1022
LL LFPOYYYX LFPNYYYX 101808 METAR LFPG 101808Z 03837KT 9999 FEW030 7/5 Q1024
LL LFPGYYYX EGLLYYYX LFPBYYYX 150026 METAR LFPG 150026Z 35655KT 9999 FEW030 8/17 Q1049
DD LFPBYYYX EGLLYYYX 210656 METAR LFPG 210656Z 26737KT 9999 FEW030 13/13 Q1085
GG LFPOYYYX LFPOYYYX 270523 METAR LFPG 270523Z 24122KT 9999 FEW030 0/4 Q1041
SS EDDFYYYX LFPGYYYX EGLLYYYX 110006 METAR LFPG 110006Z 16555KT 9999 FEW030 18/19 Q1019
LL LFPOYYYX EGLLYYYX LFPNYYYX 060737 METAR LFPG 060737Z 19656KT 9999 FEW030 1/7 Q1015
KK EDDFYYYX LFPBYYYX LFPNYYYX LFPGYYYX 190447 METAR LFPG 190447Z 26535KT 9999 FEW030 15/13 Q1013
DD EGLLYYYX LFPOYYYX LFPGYYYX 141517 METAR LFPG 141517Z 34826KT 9999 FEW030 20/5 Q1003
LL LFPBYYYX LFPNYYYX 221545 METAR LFPG 221545Z 08334KT 9999 FEW030 0/4 Q1071
SS LFPGYYYX LFPGYYYX EDDFYYYX 040535 METAR LFPG 040535Z 19424KT 9999 FEW030 3/0 Q1055
KK LFPGYYYX LFPGYYYX EDDFYYYX 022342 METAR LFPG 022342Z 02050KT 9999 FEW030 14/2 Q1025
FF LFPYYYX LFPBYYYX LFPOYYYX LFPBYYYX 111214 METAR LFPG 111214Z 22553KT 9999 FEW030 21/3 Q1002
KK LFPGYYYX EDDFYYYX LFPGYYYX EDDFYYYX 130625 METAR LFPG 130625Z 12353KT 9999 FEW030 22/8 Q1045
DD EGLLYYYX LFPGYYYX LFPBYYYX 061934 METAR LFPG 061934Z 06442KT 9999 FEW030 5/4 Q1015
DD EDDFYYYX LFPOYYYX EGLLYYYX EGLLYYYX 260737 METAR LFPG 260737Z 31626KT 9999 FEW030 13/10 Q1012
KK LFPGYYYX LFPGYYYX 111203 METAR LFPG 111203Z 03341KT 9999 FEW030 21/10 Q1000
DD LFPNYYYX EGLLYYYX 192014 METAR LFPG 192014Z 35223KT 9999 FEW030 15/11 Q1039
LL LFPBYYYX EDDFYYYX EGLLYYYX LFPOYYYX 070559 METAR LFPG 070559Z 33718KT 9999 FEW030 4/9 Q1014
GG LFPYYYX LFPBYYYX EDDFYYYX 241420 METAR LFPG 241420Z 29859KT 9999 FEW030 8/5 Q1083
KK LFPBYYYX LFPGYYYX 121456 METAR LFPG 121456Z 15415KT 9999 FEW030 26/16 Q1090
FF EGLLYYYX LFPGYYYX LFPOYYYX EGLLYYYX 082128 METAR LFPG 082128Z 06656KT 9999 FEW030 2/2 Q1037
SS LFPBYYYX LFPOYYYX 241428 METAR LFPG 241428Z 05837KT 9999 FEW030 7/13 Q1091
FF LFPNYYYX EDDFYYYX EGLLYYYX 240536 METAR LFPG 240536Z 31444KT 9999 FEW030 27/4 Q1048
FF EGLLYYYX LFPGYYYX LFPNYYYX EGLLYYYX 230054 METAR LFPG 230054Z 09223KT 9999 FEW030 28/15 Q1058
SS LFPNYYYX EDDFYYYX EGLLYYYX 211024 METAR LFPG 211024Z 17433KT 9999 FEW030 3/3 Q1099
DD LFPGYYYX LFPNYYYX LFPGYYYX 261214 METAR LFPG 261214Z 10425KT 9999 FEW030 27/13 Q1000
SS EGLLYYYX EDDFYYYX EGLLYYYX 201307 METAR LFPG 201307Z 22636KT 9999 FEW030 11/17 Q1045
KK LFPBYYYX LFPOYYYX 032014 METAR LFPG 032014Z 23343KT 9999 FEW030 22/14 Q1077
LL EDDFYYYX LFPNYYYX 240600 METAR LFPG 240600Z 09839KT 9999 FEW030 20/8 Q1031
FF EDDFYYYX LFPBYYYX 151631 METAR LFPG 151631Z 18111KT 9999 FEW030 18/11 Q1076
SS EGLLYYYX LFPOYYYX EGLLYYYX 181530 METAR LFPG 181530Z 18038KT 9999 FEW030 29/10 Q1007
LL LFPGYYYX LFPGYYYX LFPNYYYX 171517 METAR LFPG 171517Z 34726KT 9999 FEW030 29/15 Q1005
DD LFPGYYYX LFPOYYYX 171113 METAR LFPG 171113Z 10342KT 9999 FEW030 7/18 Q1031
DD LFPGYYYX LFPGYYYX LFPGYYYX 200535 METAR LFPG 200535Z 07414KT 9999 FEW030 4/16 Q1011
SS LFPNYYYX EDDFYYYX 030411 METAR LFPG 030411Z 16949KT 9999 FEW030 22/18 Q1047
GG EDDFYYYX LFPOYYYX 281732 METAR LFPG 281732Z 18220KT 9999 FEW030 17/11 Q1025
DD LFPNYYYX LFPNYYYX LFPNYYYX 202159 METAR LFPG 202159Z 21018KT 9999 FEW030 28/5 Q1043
LL EDDFYYYX LFPBYYYX 240519 METAR LFPG 240519Z 16958KT 9999 FEW030 22/13 Q1002
KK LFPYYYX LFPGYYYX EDDFYYYX 222326 METAR LFPG 222326Z 35624KT 9999 FEW030 11/16 Q1060
DD EGLLYYYX LFPBYYYX LFPGYYYX EGLLYYYX 041320 METAR LFPG 041320Z 29818KT 9999 FEW030 17/16 Q1061
FF EGLLYYYX EDDFYYYX LFPOYYYX LFPBYYYX 242228 METAR LFPG 242228Z 06636KT 9999 FEW030 8/17 Q1039
SS LFPNYYYX LFPNYYYX LFPBYYYX LFPBYYYX 061557 METAR LFPG 061557Z 03656KT 9999 FEW030 12/12 Q1042
DD EDDFYYYX EDDFYYYX 112139 METAR LFPG 112139Z 24948KT 9999 FEW030 28/1 Q1094
GG LFPYYYX LFPGYYYX 012205 METAR LFPG 012205Z 28353KT 9999 FEW030 6/3 Q1099
LL LFPOYYYX LFPNYYYX LFPGYYYX EDDFYYYX 221553 METAR LFPG 221553Z 32442KT 9999 FEW030 29/0 Q1069
SS LFPOYYYX LFPNYYYX LFPGYYYX 240547 METAR LFPG 240547Z 02616KT 9999 FEW030 6/0 Q1063
LL LFPBYYYX LFPOYYYX LFPBYYYX 261553 METAR LFPG 261553Z 08452KT 9999 FEW030 16/14 Q1079
FF LFPGYYYX EDDFYYYX 112058 METAR LFPG 112058Z 32947KT 9999 FEW030 4/12 Q1052
GG EDDFYYYX EGLLYYYX 122248 METAR LFPG 122248Z 25847KT 9999 FEW030 6/16 Q1047
DD EDDFYYYX EGLLYYYX EDDFYYYX 250657 METAR LFPG 250657Z 26755KT 9999 FEW030 19/8 Q1069
SS LFPOYYYX LFPOYYYX LFPOYYYX LFPOYYYX 010608 METAR LFPG 010608Z 09937KT 9999 FEW030 13/17 Q1081
FF LFPGYYYX LFPOYYYX LFPOYYYX 222353 METAR LFPG 222353Z 33212KT 9999 FEW030 10/7 Q1051
DD LFPYYYX LFPBYYYX 161440 METAR LFPG 161440Z 25059KT 9999 FEW030 2/2 Q1082
LL EGLLYYYX LFPGYYYX 210216 METAR LFPG 210216Z 16725KT 9999 FEW030 12/1 Q1064
GG LFPOYYYX LFPGYYYX 071646 METAR LFPG 071646Z 20445KT 9999 FEW030 3/2 Q1069
FF EGLLYYYX EGLLYYYX 060745 METAR LFPG 060745Z 07554KT 9999 FEW030 28/17 Q1021
KK LFPYYYX EGLLYYYX LFPBYYYX 212305 METAR LFPG 212305Z 28334KT 9999 FEW030 8/11 Q1061
KK LFPOYYYX EGLLYYYX LFPNYYYX 092337 METAR LFPG 092337Z 18746KT 9999 FEW030 7/10 Q1068
DD LFPNYYYX LFPGYYYX 140834 METAR LFPG 140834Z 00433KT 9999 FEW030 16/11 Q1036
SS LFPBYYYX EDDFYYYX 222010 METAR LFPG 222010Z 16038KT 9999 FEW030 5/1 Q1042
DD LFPBYYYX EGLLYYYX LFPGYYYX 282136 METAR LFPG 282136Z 18614KT 9999 FEW030 5/11 Q1041
KK EGLLYYYX LFPGYYYX EDDFYYYX LFPGYYYX 260342 METAR LFPG 260342Z 19250KT 9999 FEW030 23/3 Q1060
KK LFPGYYYX LFPNYYYX LFPBYYYX 100738 METAR LFPG 100738Z 31646KT 9999 FEW030 2/2 Q1077
DD LFPNYYYX LFPOYYYX LFPNYYYX 101610 METAR LFPG 101610Z 22849KT 9999 FEW030 17/2 Q1004
GG LFPNYYYX LFPOYYYX EGLLYYYX 151219 METAR LFPG 151219Z 17757KT 9999 FEW030 0/13 Q1030
SS EGLLYYYX LFPNYYYX 250600 METAR LFPG 250600Z 09839KT 9999 FEW030 24/16 Q1026
DD LFPNYYYX LFPNYYYX EDDFYYYX 020725 METAR LFPG 020725Z 24444KT 9999 FEW030 24/15 Q1005
DD LFPGYYYX LFPBYYYX LFPGYYYX EGLLYYYX 160508 METAR LFPG 160508Z 33826KT 9999 FEW030 10/0 Q1027
KK LFPYYYX LFPBYYYX LFPNYYYX LFPBYYYX 281343 METAR LFPG 281343Z 32242KT 9999 FEW030 7/6 Q1015
FF LFPGYYYX LFPGYYYX EGLLYYYX 271227 METAR LFPG 271227Z 29725KT 9999 FEW030 16/2 Q1067
SS LFPBYYYX EGLLYYYX LFPGYYYX EGLLYYYX 080632 METAR LFPG 080632Z 12221KT 9999 FEW030 4/13 Q1041
FF LFPGYYYX EDDFYYYX LFPGYYYX LFPBYYYX 110406 METAR LFPG 110406Z 33715KT 9999 FEW030 21/13 Q1096
DD LFPYYYX LFPOYYYX LFPGYYYX LFPGYYYX 270030 METAR LFPG 270030Z 06939KT 9999 FEW030 27/4 Q1091
DD EDDFYYYX EGLLYYYX LFPBYYYX 210637 METAR LFPG 210637Z 31535KT 9999 FEW030 8/7 Q1014
GG LFPNYYYX EDDFYYYX 131432 METAR LFPG 131432Z 13141KT 9999 FEW030 16/12 Q1024
GG LFPBYYYX LFPGYYYX 131849 METAR LFPG 131849Z 20737KT 9999 FEW030 7/15 Q1087
GG EGLLYYYX LFPGYYYX EDDFYYYX LFPGYYYX 190947 METAR LFPG 190947Z 31756KT 9999 FEW030 10/8 Q1068
KK LFPBYYYX EGLLYYYX LFPOYYYX EDDFYYYX 152027 METAR LFPG 152027Z 18545KT 9999 FEW030 10/1 Q1033
KK LFPYYYX LFPOYYYX LFPGYYYX 220345 METAR LFPG 220345Z 02434KT 9999 FEW030 3/7 Q1030
LL LFPOYYYX LFPBYYYX 150519 METAR LFPG 150519Z 04958KT 9999 FEW030 11/3 Q1013
KK LFPYYYX LFPNYYYX 090245 METAR LFPG 090245Z 26333KT 9999 FEW030 20/6 Q1038
DD LFPYYYX LFPNYYYX EGLLYYYX LFPNYYYX 101153 METAR LFPG 101153Z 27252KT 9999 FEW030 10/3 Q1083
SS LFPNYYYX EDDFYYYX EGLLYYYX 280543 METAR LFPG 280543Z 19422KT 9999 FEW030 5/11 Q1016
FF EDDFYYYX LFPNYYYX 110127 METAR LFPG 110127Z 11756KT 9999 FEW030 1/19 Q1014
SS LFPYYYX LFPBYYYX 112151 METAR LFPG 112151Z 20910KT 9999 FEW030 0/4 Q1038
GG LFPBYYYX LFPGYYYX 061230 METAR LFPG 061230Z 24839KT 9999 FEW030 21/10 Q1008
LL LFPBYYYX LFPNYYYX EDDFYYYX 251800 METAR LFPG 251800Z 03859KT 9999 FEW030 4/3 Q1042
DD EGLLYYYX LFPOYYYX 120155 METAR LFPG 120155Z 21414KT 9999 FEW030 4/14 Q1021
SS LFPNYYYX LFPOYYYX LFPNYYYX EDDFYYYX 170608 METAR LFPG 170608Z 33937KT 9999 FEW030 21/11 Q1037
KK LFPBYYYX EGLLYYYX LFPOYYYX LFPNYYYX 191203 METAR LFPG 191203Z 27321KT 9999 FEW030 28/8 Q1008
FF EDDFYYYX LFPGYYYX LFPGYYYX LFPGYYYX 080220 METAR LFPG 080220Z 11859KT 9999 FEW030 27/4 Q1089
KK EGLLYYYX LFPGYYYX LFPGYYYX EDDFYYYX 242112 METAR LFPG 242112Z 16210KT 9999 FEW030 24/16 Q1053
SS LFPOYYYX EGLLYYYX 241720 METAR LFPG 241720Z 23038KT 9999 FEW030 6/11 Q1094
KK EDDFYYYX LFPNYYYX LFPBYYYX 190555 METAR LFPG 190555Z 02524KT 9999 FEW030 24/5 Q1023
SS LFPBYYYX LFPOYYYX LFPNYYYX 171432 METAR LFPG 171432Z 13121KT 9999 FEW030 14/10 Q1004
LL LFPBYYYX LFPBYYYX EDDFYYYX EGLLYYYX 141521 METAR LFPG 141521Z 18030KT 9999 FEW030 15/7 Q1003
FF LFPYYYX EDDFYYYX LFPNYYYX 091833 METAR LFPG 091833Z 06341KT 9999 FEW030 1/12 Q1077
GG LFPBYYYX EDDFYYYX 041832 METAR LFPG 041832Z 30241KT 9999 FEW030 5/17 Q1004
SS EGLLYYYX EGLLYYYX LFPOYYYX 222058 METAR LFPG 222058Z 20847KT 9999 FEW030 13/18 Q1062
FF LFPGYYYX LFPOYYYX EGLLYYYX 191206 METAR LFPG 191206Z 22535KT 9999 FEW030 4/2 Q1065
DD LFPYYYX EDDFYYYX EDDFYYYX LFPGYYYX 131432 METAR LFPG 131432Z 01141KT 9999 FEW030 4/2 Q1075
GG LFPYYYX EGLLYYYX EGLLYYYX 092228 METAR LFPG 092228Z 05927KT 9999 FEW030 13/8 Q1011
KK LFPGYYYX LFPGYYYX LFPOYYYX EDDFYYYX 051445 METAR LFPG 051445Z 08353KT 9999 FEW030 12/17 Q1008
DD LFPYYYX LFPGYYYX LFPBYYYX 120948 METAR LFPG 120948Z 31848KT 9999 FEW030 19/4 Q1093
DD EDDFYYYX EGLLYYYX 221558 METAR LFPG 221558Z 15626KT 9999 FEW030 12/13 Q1076
GG EDDFYYYX LFPBYYYX LFPNYYYX LFPOYYYX 171012 METAR LFPG 171012Z 22341KT 9999 FEW030 1/19 Q1048
SS LFPOYYYX EDDFYYYX 161332 METAR LFPG 161332Z 01050KT 9999 FEW030 3/10 Q1080
GG LFPYYYX EGLLYYYX LFPNYYYX LFPGYYYX 051137 METAR LFPG 051137Z 00735KT 9999 FEW030 12/6 Q1019
GG LFPGYYYX LFPOYYYX 212236 METAR LFPG 212236Z 30715KT 9999 FEW030 24/8 Q1076
KK LFPYYYX LFPNYYYX LFPGYYYX 151239 METAR LFPG 151239Z 00917KT 9999 FEW030 1/4 Q1036
KK LFPBYYYX LFPGYYYX EGLLYYYX LFPGYYYX 100838 METAR LFPG 100838Z 19627KT 9999 FEW030 13/10 Q1027
GG EDDFYYYX LFPNYYYX EDDFYYYX EDDFYYYX 240143 METAR LFPG 240143Z 26242KT 9999 FEW030 1/11 Q1068
KK LFPOYYYX EDDFYYYX 270823 METAR LFPG 270823Z 05333KT 9999 FEW030 15/2 Q1039
KK LFPGYYYX EDDFYYYX EGLLYYYX LFPOYYYX 131808 METAR LFPG 131808Z 03817KT 9999 FEW030 4/18 Q1096
FF LFPBYYYX LFPGYYYX 220334 METAR LFPG 220334Z 19242KT 9999 FEW030 20/3 Q1050
FF EDDFYYYX LFPOYYYX LFPGYYYX 242151 METAR LFPG 242151Z 21050KT 9999 FEW030 13/4 Q1030
KK LFPGYYYX EGLLYYYX LFPNYYYX 021902 METAR LFPG 021902Z 04020KT 9999 FEW030 5/16 Q1001
LL LFPGYYYX LFPGYYYX 070007 METAR LFPG 070007Z 04535KT 9999 FEW030 15/7 Q1078
FF EGLLYYYX EDDFYYYX LFPNYYYX LFPOYYYX 021202 METAR LFPG 021202Z 15251KT 9999 FEW030 15/8 Q1030
SS LFPYYYX EGLLYYYX EGLLYYYX LFPNYYYX 241824 METAR LFPG 241824Z 06243KT 9999 FEW030 19/10 Q1075
LL LFPYYYX LFPOYYYX LFPGYYYX 080119 METAR LFPG 080119Z 35748KT 9999 FEW030 27/8 Q1098
SS EDDFYYYX EDDFYYYX 070003 METAR LFPG 070003Z 33311KT 9999 FEW030 15/2 Q1065
FF LFPOYYYX EGLLYYYX 180014 METAR LFPG 180014Z 28413KT 9999 FEW030 8/14 Q1099
GG LFPGYYYX EGLLYYYX LFPOYYYX 142022 METAR LFPG 142022Z 35231KT 9999 FEW030 21/16 Q1094
LL EDDFYYYX LFPGYYYX LFPNYYYX LFPGYYYX 062034 METAR LFPG 062034Z 18432KT 9999 FEW030 15/16 Q1079
DD EDDFYYYX LFPNYYYX LFPOYYYX LFPBYYYX 151659 METAR LFPG 151659Z 27757KT 9999 FEW030 23/6 Q1003
DD LFPOYYYX EDDFYYYX LFPBYYYX LFPGYYYX 220726 METAR LFPG 220726Z 00414KT 9999 FEW030 2/4 Q1088
FF LFPNYYYX LFPNYYYX LFPBYYYX 250329 METAR LFPG 250329Z 23948KT 9999 FEW030 2/19 Q1040
GG EGLLYYYX LFPOYYYX 180749 METAR LFPG 180749Z 26018KT 9999 FEW030 5/10 Q1009
LL EGLLYYYX LFPNYYYX 101242 METAR LFPG 101242Z 08051KT 9999 FEW030 10/17 Q1029
DD EDDFYYYX LFPGYYYX EDDFYYYX 080103 METAR LFPG 080103Z 21432KT 9999 FEW030 5/1 Q1098
DD LFPBYYYX LFPNYYYX EGLLYYYX 130245 METAR LFPG 130245Z 14323KT 9999 FEW030 29/4 Q1053
SS EGLLYYYX EDDFYYYX 110031 METAR LFPG 110031Z 06929KT 9999 FEW030 28/12 Q1076
KK LFPNYYYX LFPGYYYX EDDFYYYX LFPGYYYX 061522 METAR LFPG 061522Z 30030KT 9999 FEW030 23/15 Q1030
SS LFPOYYYX LFPBYYYX LFPGYYYX 111238 METAR LFPG 111238Z 00947KT 9999 FEW030 14/5 Q1031
DD LFPOYYYX LFPBYYYX 040252 METAR LFPG 040252Z 14223KT 9999 FEW030 11/17 Q1009
GG LFPGYYYX EDDFYYYX EGLLYYYX LFPOYYYX 121327 METAR LFPG 121327Z 17736KT 9999 FEW030 20/4 Q1053
FF LFPYYYX EGLLYYYX EDDFYYYX LFPOYYYX 102338 METAR LFPG 102338Z 06836KT 9999 FEW030 13/17 Q1060
SS LFPYYYX EGLLYYYX EDDFYYYX 150838 METAR LFPG 150838Z 31637KT 9999 FEW030 26/15 Q1075
DD LFPGYYYX LFPNYYYX LFPOYYYX 201328 METAR LFPG 201328Z 29816KT 9999 FEW030 20/10 Q1034
FF LFPGYYYX EDDFYYYX 031238 METAR LFPG 031238Z 24917KT 9999 FEW030 13/4 Q1093
FF LFPNYYYX EGLLYYYX EDDFYYYX 180329 METAR LFPG 180329Z 00018KT 9999 FEW030 9/4 Q1039
SS LFPGYYYX EGLLYYYX LFPBYYYX LFPOYYYX 060410 METAR LFPG 060410Z 28839KT 9999 FEW030 2/0 Q1071
LL LFPBYYYX EGLLYYYX LFPBYYYX LFPNYYYX 230555 METAR LFPG 230555Z 26553KT 9999 FEW030 21/5 Q1059
GG LFPBYYYX LFPBYYYX 212301 METAR LFPG 212301Z 09130KT 9999 FEW030 10/5 Q1029
LL LFPYYYX EDDFYYYX 010341 METAR LFPG 010341Z 19120KT 9999 FEW030 2/6 Q1078
KK EGLLYYYX EGLLYYYX 172237 METAR LFPG 172237Z 06725KT 9999 FEW030 2/9 Q1051
LL EDDFYYYX LFPGYYYX LFPOYYYX LFPBYYYX 251117 METAR LFPG 251117Z 05515KT 9999 FEW030 25/19 Q1031
DD LFPBYYYX EDDFYYYX EGLLYYYX LFPBYYYX 251048 METAR LFPG 251048Z 07947KT 9999 FEW030 1/9 Q1055
SS EGLLYYYX EGLLYYYX LFPNYYYX EDDFYYYX 250305 METAR LFPG 250305Z 21554KT 9999 FEW030 0/14 Q1093
DD LFPNYYYX EGLLYYYX 111635 METAR LFPG 111635Z 01353KT 9999 FEW030 12/2 Q1061
SS LFPNYYYX LFPGYYYX LFPNYYYX 161735 METAR LFPG 161735Z 01454KT 9999 FEW030 25/17 Q1079
SS LFPYYYX LFPGYYYX EDDFYYYX 270007 METAR LFPG 270007Z 28525KT 9999 FEW030 1/17 Q1022
LL LFPOYYYX LFPBYYYX EGLLYYYX 111505 METAR LFPG 111505Z 15544KT 9999 FEW030 4/0 Q1014
LL LFPNYYYX LFPGYYYX LFPOYYYX 101506 METAR LFPG 101506Z 03614KT 9999 FEW030 17/8 Q1055
FF EGLLYYYX LFPNYYYX LFPBYYYX 091913 METAR LFPG 091913Z 11121KT 9999 FEW030 28/1 Q1022
LL LFPNYYYX LFPGYYYX 121420 METAR LFPG 121420Z 29839KT 9999 FEW030 18/2 Q1010
LL LFPYYYX LFPOYYYX 230851 METAR LFPG 230851Z 26929KT 9999 FEW030 1/11 Q1008
LL LFPYYYX EDDFYYYX 260430 METAR LFPG 260430Z 24059KT 9999 FEW030 15/6 Q1007
GG EGLLYYYX EDDFYYYX 170636 METAR LFPG 170636Z 31545KT 9999 FEW030 4/10 Q1097
SS LFPOYYYX LFPGYYYX 240548 METAR LFPG 240548Z 14656KT 9999 FEW030 20/2 Q1098
FF EDDFYYYX LFPNYYYX EDDFYYYX 182317 METAR LFPG 182317Z 11636KT 9999 FEW030 2/6 Q1090
DD LFPBYYYX LFPGYYYX 122123 METAR LFPG 122123Z 23432KT 9999 FEW030 12/15 Q1094
DD EDDFYYYX EGLLYYYX 121708 METAR LFPG 121708Z 03836KT 9999 FEW030 9/16 Q1044
KK EDDFYYYX EDDFYYYX LFPBYYYX 011404 METAR LFPG 011404Z 03513KT 9999 FEW030 10/2 Q1071
LL LFPBYYYX LFPNYYYX EGLLYYYX LFPGYYYX 201319 METAR LFPG 201319Z 17858KT 9999 FEW030 8/17 Q1082
DD LFPYYYX LFPOYYYX LFPOYYYX 181925 METAR LFPG 181925Z 30424KT 9999 FEW030 26/5 Q1007
DD LFPOYYYX LFPOYYYX LFPGYYYX 221902 METAR LFPG 221902Z 28050KT 9999 FEW030 7/4 Q1040
LL LFPBYYYX EGLLYYYX LFPBYYYX 032027 METAR LFPG 032027Z 30515KT 9999 FEW030 14/19 Q1035
GG LFPYYYX EGLLYYYX LFPOYYYX LFPNYYYX 230935 METAR LFPG 230935Z 24526KT 9999 FEW030 27/16 Q1032
KK LFPGYYYX LFPOYYYX LFPOYYYX LFPNYYYX 100746 METAR LFPG 100746Z 19614KT 9999 FEW030 12/6 Q1012
GG LFPBYYYX LFPOYYYX EGLLYYYX 220757 METAR LFPG 220757Z 14816KT 9999 FEW030 6/1 Q1077
SS LFPOYYYX EGLLYYYX LFPOYYYX LFPBYYYX 110019 METAR LFPG 110019Z 35737KT 9999 FEW030 10/1 Q1014
LL LFPYYYX LFPGYYYX LFPNYYYX 230535 METAR LFPG 230535Z 18554KT 9999 FEW030 1/9 Q1009
KK LFPBYYYX LFPGYYYX 051909 METAR LFPG 051909Z 15958KT 9999 FEW030 18/16 Q1027
KK LFPBYYYX EDDFYYYX 021554 METAR LFPG 021554Z 08452KT 9999 FEW030 7/14 Q1067
GG LFPNYYYX EGLLYYYX 020042 METAR LFPG 020042Z 26030KT 9999 FEW030 7/7 Q1088
KK LFPNYYYX LFPBYYYX EGLLYYYX LFPOYYYX 200156 METAR LFPG 200156Z 21454KT 9999 FEW030 3/2 Q1014
GG LFPOYYYX LFPGYYYX LFPOYYYX 100745 METAR LFPG 100745Z 31646KT 9999 FEW030 28/3 Q1091
GG LFPNYYYX LFPOYYYX LFPGYYYX LFPGYYYX 282104 METAR LFPG 282104Z 28242KT 9999 FEW030 28/1 Q1074
DD LFPOYYYX EDDFYYYX EGLLYYYX 192035 METAR LFPG 192035Z 30513KT 9999 FEW030 4/10 Q1064
SS EGLLYYYX LFPBYYYX LFPGYYYX EDDFYYYX 080936 METAR LFPG 080936Z 24624KT 9999 FEW030 17/11 Q1082
DD EGLLYYYX EDDFYYYX LFPNYYYX 230127 METAR LFPG 230127Z 35726KT 9999 FEW030 13/6 Q1084
SS LFPYYYX LFPOYYYX LFPOYYYX 131000 METAR LFPG 131000Z 03159KT 9999 FEW030 29/13 Q1046
KK LFPOYYYX LFPBYYYX 032151 METAR LFPG 032151Z 32939KT 9999 FEW030 2/0 Q1012
GG EGLLYYYX LFPGYYYX 150103 METAR LFPG 150103Z 21351KT 9999 FEW030 18/8 Q1028
LL LFPOYYYX EDDFYYYX LFPGYYYX LFPNYYYX 032151 METAR LFPG 032151Z 20920KT 9999 FEW030 19/1 Q1005
GG LFPGYYYX EGLLYYYX EDDFYYYX LFPOYYYX 141226 METAR LFPG 141226Z 05625KT 9999 FEW030 29/16 Q1014
KK LFPBYYYX LFPGYYYX LFPOYYYX 131444 METAR LFPG 131444Z 20333KT 9999 FEW030 0/5 Q1099
KK LFPNYYYX LFPOYYYX LFPOYYYX LFPGYYYX 191203 METAR LFPG 191203Z 15331KT 9999 FEW030 22/1 Q1094
DD LFPBYYYX EDDFYYYX 241756 METAR LFPG 241756Z 20624KT 9999 FEW030 28/2 Q1032
KK LFPGYYYX EDDFYYYX LFPOYYYX LFPBYYYX 142317 METAR LFPG 142317Z 35656KT 9999 FEW030 2/18 Q1092
SS LFPBYYYX LFPNYYYX LFPNYYYX 150915 METAR LFPG 150915Z 05314KT 9999 FEW030 12/5 Q1005
FF LFPNYYYX LFPOYYYX EDDFYYYX 280144 METAR LFPG 280144Z 02232KT 9999 FEW030 15/11 Q1055
SS LFPNYYYX EGLLYYYX LFPGYYYX EGLLYYYX 060342 METAR LFPG 060342Z 07230KT 9999 FEW030 18/0 Q1084
FF EGLLYYYX LFPGYYYX EGLLYYYX 142010 METAR LFPG 142010Z 16018KT 9999 FEW030 28/2 Q1059
GG EDDFYYYX LFPGYYYX EDDFYYYX EGLLYYYX 271315 METAR LFPG 271315Z 10514KT 9999 FEW030 8/17 Q1050
DD EDDFYYYX EGLLYYYX 092225 METAR LFPG 092225Z 11523KT 9999 FEW030 0/17 Q1010
SS EGLLYYYX EGLLYYYX LFPBYYYX 080900 METAR LFPG 080900Z 15048KT 9999 FEW030 10/15 Q1043
LL LFPYYYX LFPGYYYX EDDFYYYX LFPBYYYX 261101 METAR LFPG 261101Z 27250KT 9999 FEW030 24/7 Q1071
DD LFPYYYX LFPOYYYX LFPBYYYX LFPGYYYX 071202 METAR LFPG 071202Z 03311KT 9999 FEW030 7/18 Q1019
SS LFPGYYYX EGLLYYYX 031202 METAR LFPG 031202Z 27321KT 9999 FEW030 12/12 Q1081
LL LFPBYYYX LFPOYYYX LFPNYYYX 231255 METAR LFPG 231255Z 15323KT 9999 FEW030 16/15 Q1022
FF LFPOYYYX LFPGYYYX LFPGYYYX 081848 METAR LFPG 081848Z 08646KT 9999 FEW030 22/6 Q1071
DD LFPGYYYX LFPBYYYX LFPGYYYX LFPGYYYX 241355 METAR LFPG 241355Z 15434KT 9999 FEW030 4/6 Q1061
FF LFPYYYX EGLLYYYX 010252 METAR LFPG 010252Z 14333KT 9999 FEW030 5/4 Q1037
DD LFPOYYYX EGLLYYYX LFPOYYYX EGLLYYYX 120947 METAR LFPG 120947Z 19826KT 9999 FEW030 13/9 Q1008
FF LFPBYYYX LFPBYYYX LFPBYYYX 150039 METAR LFPG 150039Z 18937KT 9999 FEW030 8/13 Q1030
KK EDDFYYYX EGLLYYYX EGLLYYYX LFPBYYYX 021254 METAR LFPG 021254Z 15243KT 9999 FEW030 6/18 Q1020
LL EDDFYYYX LFPOYYYX 071242 METAR LFPG 071242Z 20131KT 9999 FEW030 7/3 Q1081
KK LFPBYYYX LFPOYYYX 200127 METAR LFPG 200127Z 35846KT 9999 FEW030 27/11 Q1069
DD LFPGYYYX LFPNYYYX LFPNYYYX LFPBYYYX 281707 METAR LFPG 281707Z 15856KT 9999 FEW030 19/14 Q1076
SS LFPBYYYX EGLLYYYX 110434 METAR LFPG 110434Z 07343KT 9999 FEW030 29/16 Q1008
SS LFPGYYYX LFPBYYYX EGLLYYYX 230103 METAR LFPG 230103Z 09322KT 9999 FEW030 2/16 Q1032
LL LFPYYYX LFPBYYYX EDDFYYYX 161824 METAR LFPG 161824Z 06243KT 9999 FEW030 5/7 Q1069
SS LFPBYYYX LFPGYYYX EDDFYYYX 130217 METAR LFPG 130217Z 28755KT 9999 FEW030 2/10 Q1057
SS LFPGYYYX LFPGYYYX LFPGYYYX LFPOYYYX 111723 METAR LFPG 111723Z 30132KT 9999 FEW030 21/17 Q1084
SS EDDFYYYX EGLLYYYX LFPOYYYX 150814 METAR LFPG 150814Z 29313KT 9999 FEW030 25/19 Q1099
KK LFPBYYYX EDDFYYYX 040120 METAR LFPG 040120Z 35858KT 9999 FEW030 5/19 Q1046
FF LFPBYYYX EGLLYYYX LFPNYYYX LFPNYYYX 041800 METAR LFPG 041800Z 15838KT 9999 FEW030 27/3 Q1065
SS LFPNYYYX LFPNYYYX LFPOYYYX EGLLYYYX 050321 METAR LFPG 050321Z 23930KT 9999 FEW030 23/5 Q1092
DD LFPNYYYX EDDFYYYX LFPNYYYX 231227 METAR LFPG 231227Z 29755KT 9999 FEW030 11/0 Q1012
GG LFPOYYYX LFPGYYYX LFPOYYYX LFPGYYYX 251445 METAR LFPG 251445Z 32313KT 9999 FEW030 4/10 Q1052
LL EGLLYYYX LFPGYYYX LFPGYYYX EDDFYYYX 071659 METAR LFPG 071659Z 03737KT 9999 FEW030 0/5 Q1026
LL LFPGYYYX LFPGYYYX EGLLYYYX 142349 METAR LFPG 142349Z 02038KT 9999 FEW030 25/14 Q1036
LL EGLLYYYX EGLLYYYX LFPBYYYX 211808 METAR LFPG 211808Z 15937KT 9999 FEW030 27/10 Q1060
LL EGLLYYYX LFPGYYYX LFPGYYYX 172228 METAR LFPG 172228Z 30737KT 9999 FEW030 29/4 Q1064
DD LFPBYYYX LFPGYYYX LFPGYYYX 032002 METAR LFPG 032002Z 28111KT 9999 FEW030 16/8 Q1033
LL LFPBYYYX LFPOYYYX LFPGYYYX 110027 METAR LFPG 110027Z 35715KT 9999 FEW030 15/10 Q1046
DD LFPGYYYX EDDFYYYX 261137 METAR LFPG 261137Z 12856KT 9999 FEW030 0/13 Q1056
FF LFPBYYYX EDDFYYYX LFPBYYYX EGLLYYYX 040548 METAR LFPG 040548Z 26626KT 9999 FEW030 22/15 Q1028
DD LFPNYYYX LFPNYYYX LFPGYYYX 101154 METAR LFPG 101154Z 15242KT 9999 FEW030 3/4 Q1059
KK EDDFYYYX EGLLYYYX LFPOYYYX 221230 METAR LFPG 221230Z 24829KT 9999 FEW030 22/1 Q1007
GG LFPYYYX EGLLYYYX 180322 METAR LFPG 180322Z 00010KT 9999 FEW030 26/10 Q1088
LL LFPOYYYX EGLLYYYX LFPGYYYX LFPOYYYX 091933 METAR LFPG 091933Z 18351KT 9999 FEW030 11/8 Q1040
GG LFPGYYYX EGLLYYYX 100458 METAR LFPG 100458Z 33617KT 9999 FEW030 19/14 Q1034
LL LFPNYYYX LFPNYYYX EGLLYYYX 260050 METAR LFPG 260050Z 14029KT 9999 FEW030 16/1 Q1056
SS LFPOYYYX LFPBYYYX 112027 METAR LFPG 112027Z 05715KT 9999 FEW030 5/6 Q1094
DD LFPYYYX EGLLYYYX LFPNYYYX 261914 METAR LFPG 261914Z 35222KT 9999 FEW030 4/2 Q1083
DD EDDFYYYX LFPBYYYX LFPNYYYX 120244 METAR LFPG 120244Z 26243KT 9999 FEW030 9/9 Q1092
FF LFPNYYYX LFPNYYYX EGLLYYYX 240152 METAR LFPG 240152Z 14220KT 9999 FEW030 21/2 Q1086
DD EDDFYYYX LFPBYYYX EDDFYYYX 270131 METAR LFPG 270131Z 18919KT 9999 FEW030 13/19 Q1002
LL LFPGYYYX LFPOYYYX LFPNYYYX EGLLYYYX 080128 METAR LFPG 080128Z 35856KT 9999 FEW030 14/1 Q1002
GG LFPBYYYX EDDFYYYX 230846 METAR LFPG 230846Z 31725KT 9999 FEW030 15/12 Q1073
KK LFPNYYYX LFPBYYYX LFPGYYYX 030042 METAR LFPG 030042Z 14151KT 9999 FEW030 24/5 Q1085
KK LFPBYYYX LFPOYYYX 251016 METAR LFPG 251016Z 05445KT 9999 FEW030 2/19 Q1071
GG LFPGYYYX LFPBYYYX 280144 METAR LFPG 280144Z 02242KT 9999 FEW030 12/3 Q1047
DD LFPYYYX EGLLYYYX 190959 METAR LFPG 190959Z 02957KT 9999 FEW030 2/7 Q1085
FF EDDFYYYX LFPGYYYX 270026 METAR LFPG 270026Z 11745KT 9999 FEW030 11/0 Q1038
FF LFPNYYYX LFPOYYYX LFPNYYYX LFPOYYYX 242240 METAR LFPG 242240Z 25829KT 9999 FEW030 8/10 Q1003
GG LFPGYYYX LFPBYYYX EDDFYYYX LFPOYYYX 150947 METAR LFPG 150947Z 19755KT 9999 FEW030 19/1 Q1039
LL EGLLYYYX LFPOYYYX 011041 METAR LFPG 011041Z 31929KT 9999 FEW030 25/18 Q1042
LL LFPBYYYX LFPGYYYX 211049 METAR LFPG 211049Z 31937KT 9999 FEW030 8/17 Q1012
DD LFPYYYX LFPOYYYX 200140 METAR LFPG 200140Z 31018KT 9999 FEW030 11/13 Q1082
SS LFPOYYYX EDDFYYYX LFPOYYYX 150811 METAR LFPG 150811Z 10141KT 9999 FEW030 17/14 Q1071
DD LFPYYYX EGLLYYYX LFPOYYYX 192135 METAR LFPG 192135Z 30514KT 9999 FEW030 23/16 Q1020
LL LFPNYYYX EGLLYYYX 210329 METAR LFPG 210329Z 11918KT 9999 FEW030 22/7 Q1012
SS LFPGYYYX LFPOYYYX EGLLYYYX LFPBYYYX 092204 METAR LFPG 092204Z 07331KT 9999 FEW030 9/10 Q1095
