DD LFPYYYX LFPGYYYX LFPBYYYX 270422 METAR LFPG 270422Z 35211KT 9999 FEW030 10/4 Q1094
FF EDDFYYYX EDDFYYYX 150927 METAR LFPG 150927Z 00536KT 9999 FEW030 19/13 Q1002
GG LFPGYYYX LFPNYYYX EGLLYYYX LFPNYYYX 081016 METAR LFPG 081016Z 29455KT 9999 FEW030 20/1 Q1068
SS LFPBYYYX LFPNYYYX EDDFYYYX LFPNYYYX 211416 METAR LFPG 211416Z 10647KT 9999 FEW030 25/4 Q1049
FF LFPBYYYX LFPOYYYX 090656 METAR LFPG 090656Z 14725KT 9999 FEW030 18/7 Q1081
SS EDDFYYYX LFPNYYYX EGLLYYYX 031215 METAR LFPG 031215Z 22543KT 9999 FEW030 11/14 Q1088
KK EDDFYYYX EGLLYYYX LFPOYYYX LFPNYYYX 020701 METAR LFPG 020701Z 10020KT 9999 FEW030 18/5 Q1057
DD LFPYYYX LFPNYYYX LFPOYYYX LFPNYYYX 121319 METAR LFPG 121319Z 29748KT 9999 FEW030 10/7 Q1075
DD LFPGYYYX LFPNYYYX LFPOYYYX LFPOYYYX 070951 METAR LFPG 070951Z 02939KT 9999 FEW030 24/17 Q1017
FF EDDFYYYX LFPOYYYX LFPBYYYX EDDFYYYX 141254 METAR LFPG 141254Z 03242KT 9999 FEW030 2/11 Q1020
DD LFPNYYYX EDDFYYYX LFPGYYYX 200511 METAR LFPG 200511Z 05050KT 9999 FEW030 2/19 Q1014
DD LFPNYYYX LFPNYYYX LFPNYYYX 120152 METAR LFPG 120152Z 26240KT 9999 FEW030 16/5 Q1071
FF LFPOYYYX LFPGYYYX LFPGYYYX 271654 METAR LFPG 271654Z 32413KT 9999 FEW030 23/12 Q1068
GG LFPOYYYX LFPOYYYX EDDFYYYX 271254 METAR LFPG 271254Z 15353KT 9999 FEW030 6/6 Q1041
KK LFPNYYYX LFPNYYYX LFPGYYYX EGLLYYYX 242252 METAR LFPG 242252Z 33011KT 9999 FEW030 16/16 Q1004
FF LFPGYYYX LFPNYYYX LFPGYYYX 081759 METAR LFPG 081759Z 15848KT 9999 FEW030 28/3 Q1010
SS LFPGYYYX LFPOYYYX 102306 METAR LFPG 102306Z 04454KT 9999 FEW030 17/1 Q1040
FF LFPNYYYX LFPBYYYX LFPBYYYX 061254 METAR LFPG 061254Z 27243KT 9999 FEW030 9/19 Q1078
LL EGLLYYYX LFPGYYYX 232023 METAR LFPG 232023Z 11351KT 9999 FEW030 21/3 Q1099
SS LFPYYYX LFPGYYYX LFPBYYYX 012353 METAR LFPG 012353Z 09122KT 9999 FEW030 4/19 Q1007
LL LFPBYYYX LFPNYYYX EGLLYYYX 181530 METAR LFPG 181530Z 06018KT 9999 FEW030 15/2 Q1091
KK EDDFYYYX LFPOYYYX LFPGYYYX 061901 METAR LFPG 061901Z 03920KT 9999 FEW030 29/12 Q1081
SS EDDFYYYX LFPOYYYX 030015 METAR LFPG 030015Z 28553KT 9999 FEW030 17/12 Q1087
SS LFPNYYYX EDDFYYYX 020342 METAR LFPG 020342Z 19212KT 9999 FEW030 18/11 Q1049
SS LFPOYYYX LFPBYYYX 122103 METAR LFPG 122103Z 16242KT 9999 FEW030 0/5 Q1051
DD LFPGYYYX LFPNYYYX 240103 METAR LFPG 240103Z 09452KT 9999 FEW030 5/12 Q1057
SS LFPGYYYX LFPNYYYX 010232 METAR LFPG 010232Z 19111KT 9999 FEW030 16/4 Q1000
SS LFPGYYYX EDDFYYYX LFPOYYYX LFPOYYYX 202252 METAR LFPG 202252Z 33010KT 9999 FEW030 10/13 Q1061
SS EDDFYYYX LFPNYYYX LFPBYYYX 110418 METAR LFPG 110418Z 04957KT 9999 FEW030 11/9 Q1042
DD LFPNYYYX LFPNYYYX LFPOYYYX 170329 METAR LFPG 170329Z 35948KT 9999 FEW030 4/10 Q1063
LL LFPYYYX LFPOYYYX LFPGYYYX 270455 METAR LFPG 270455Z 14543KT 9999 FEW030 12/9 Q1038
GG LFPOYYYX LFPGYYYX EGLLYYYX 180802 METAR LFPG 180802Z 22041KT 9999 FEW030 2/14 Q1057
GG EDDFYYYX LFPGYYYX LFPGYYYX EGLLYYYX 040252 METAR LFPG 040252Z 02241KT 9999 FEW030 27/6 Q1016
FF EGLLYYYX EDDFYYYX EGLLYYYX EGLLYYYX 021554 METAR LFPG 021554Z 08442KT 9999 FEW030 3/16 Q1057
LL LFPNYYYX LFPBYYYX LFPNYYYX EDDFYYYX 240939 METAR LFPG 240939Z 19718KT 9999 FEW030 1/19 Q1055
SS LFPBYYYX LFPNYYYX LFPOYYYX EDDFYYYX 270959 METAR LFPG 270959Z 26948KT 9999 FEW030 25/16 Q1039
LL EGLLYYYX LFPNYYYX LFPGYYYX 210216 METAR LFPG 210216Z 04755KT 9999 FEW030 25/0 Q1063
LL EDDFYYYX EDDFYYYX LFPBYYYX LFPOYYYX 242216 METAR LFPG 242216Z 35425KT 9999 FEW030 7/4 Q1031
SS LFPOYYYX EGLLYYYX LFPBYYYX EDDFYYYX 221117 METAR LFPG 221117Z 29646KT 9999 FEW030 21/14 Q1059
FF LFPBYYYX LFPNYYYX 260846 METAR LFPG 260846Z 19645KT 9999 FEW030 24/11 Q1023
FF EDDFYYYX LFPGYYYX 252329 METAR LFPG 252329Z 30738KT 9999 FEW030 19/1 Q1052
FF EGLLYYYX LFPOYYYX LFPNYYYX 252228 METAR LFPG 252228Z 06757KT 9999 FEW030 23/8 Q1031
KK LFPBYYYX LFPOYYYX LFPOYYYX EDDFYYYX 051409 METAR LFPG 051409Z 21927KT 9999 FEW030 16/8 Q1033
GG EGLLYYYX EDDFYYYX LFPBYYYX 060357 METAR LFPG 060357Z 33636KT 9999 FEW030 9/14 Q1037
LL LFPNYYYX LFPNYYYX LFPNYYYX LFPOYYYX 052249 METAR LFPG 052249Z 01937KT 9999 FEW030 13/6 Q1072
KK LFPYYYX LFPOYYYX LFPBYYYX EGLLYYYX 011404 METAR LFPG 011404Z 03433KT 9999 FEW030 3/0 Q1079
DD LFPOYYYX LFPBYYYX 181125 METAR LFPG 181125Z 17634KT 9999 FEW030 6/9 Q1095
GG LFPBYYYX LFPNYYYX LFPNYYYX 021530 METAR LFPG 021530Z 30028KT 9999 FEW030 15/7 Q1018
FF LFPGYYYX EDDFYYYX LFPGYYYX LFPBYYYX 201327 METAR LFPG 201327Z 17826KT 9999 FEW030 25/6 Q1049
FF EDDFYYYX EDDFYYYX LFPNYYYX LFPGYYYX 140454 METAR LFPG 140454Z 14453KT 9999 FEW030 26/3 Q1053
FF LFPGYYYX LFPNYYYX LFPBYYYX EDDFYYYX 240928 METAR LFPG 240928Z 24626KT 9999 FEW030 13/0 Q1064
SS LFPNYYYX LFPBYYYX 190015 METAR LFPG 190015Z 04513KT 9999 FEW030 12/10 Q1010
SS LFPNYYYX LFPBYYYX 110915 METAR LFPG 110915Z 16514KT 9999 FEW030 17/7 Q1068
LL LFPYYYX LFPGYYYX 052229 METAR LFPG 052229Z 30717KT 9999 FEW030 13/1 Q1034
KK LFPOYYYX LFPOYYYX 211029 METAR LFPG 211029Z 12747KT 9999 FEW030 26/10 Q1090
GG LFPGYYYX LFPBYYYX EDDFYYYX LFPOYYYX 260322 METAR LFPG 260322Z 24050KT 9999 FEW030 23/2 Q1039
GG LFPYYYX EDDFYYYX 161319 METAR LFPG 161319Z 17728KT 9999 FEW030 3/8 Q1003
LL EGLLYYYX LFPNYYYX LFPGYYYX 181922 METAR LFPG 181922Z 23240KT 9999 FEW030 10/11 Q1032
DD EGLLYYYX LFPOYYYX 150014 METAR LFPG 150014Z 16533KT 9999 FEW030 7/15 Q1059
LL LFPOYYYX LFPBYYYX 080544 METAR LFPG 080544Z 07432KT 9999 FEW030 19/9 Q1024
FF EDDFYYYX EGLLYYYX 240139 METAR LFPG 240139Z 31028KT 9999 FEW030 27/14 Q1040
FF LFPGYYYX EDDFYYYX LFPOYYYX EGLLYYYX 071759 METAR LFPG 071759Z 03747KT 9999 FEW030 29/18 Q1067
SS LFPNYYYX LFPBYYYX EGLLYYYX LFPBYYYX 082111 METAR LFPG 082111Z 16220KT 9999 FEW030 16/7 Q1097
KK LFPNYYYX EGLLYYYX 261226 METAR LFPG 261226Z 17644KT 9999 FEW030 5/18 Q1009
FF EGLLYYYX EDDFYYYX EDDFYYYX LFPOYYYX 070155 METAR LFPG 070155Z 09334KT 9999 FEW030 25/9 Q1079
GG EDDFYYYX LFPGYYYX 240220 METAR LFPG 240220Z 35828KT 9999 FEW030 24/1 Q1046
GG LFPNYYYX LFPNYYYX LFPNYYYX 220709 METAR LFPG 220709Z 10058KT 9999 FEW030 18/1 Q1016
SS LFPGYYYX LFPOYYYX EDDFYYYX 080536 METAR LFPG 080536Z 07424KT 9999 FEW030 27/9 Q1054
KK LFPGYYYX EGLLYYYX EDDFYYYX LFPGYYYX 241307 METAR LFPG 241307Z 09756KT 9999 FEW030 3/2 Q1066
KK LFPNYYYX EGLLYYYX 011041 METAR LFPG 011041Z 31939KT 9999 FEW030 18/13 Q1033
DD LFPOYYYX LFPGYYYX EDDFYYYX LFPOYYYX 101922 METAR LFPG 101922Z 35220KT 9999 FEW030 4/3 Q1006
KK LFPOYYYX LFPGYYYX EDDFYYYX 150423 METAR LFPG 150423Z 24131KT 9999 FEW030 17/9 Q1001
FF LFPBYYYX EDDFYYYX 141130 METAR LFPG 141130Z 12818KT 9999 FEW030 7/2 Q1036
SS LFPGYYYX LFPGYYYX LFPOYYYX LFPGYYYX 131428 METAR LFPG 131428Z 29917KT 9999 FEW030 10/12 Q1007
FF LFPBYYYX LFPGYYYX LFPOYYYX LFPBYYYX 142026 METAR LFPG 142026Z 06435KT 9999 FEW030 20/9 Q1065
GG LFPGYYYX LFPBYYYX 281759 METAR LFPG 281759Z 15838KT 9999 FEW030 6/12 Q1024
GG LFPYYYX EGLLYYYX LFPBYYYX EDDFYYYX 190006 METAR LFPG 190006Z 28515KT 9999 FEW030 18/17 Q1080
KK LFPOYYYX LFPGYYYX 112123 METAR LFPG 112123Z 23332KT 9999 FEW030 9/9 Q1092
KK LFPGYYYX EGLLYYYX EDDFYYYX 280948 METAR LFPG 280948Z 19816KT 9999 FEW030 16/3 Q1045
FF LFPNYYYX EGLLYYYX 080951 METAR LFPG 080951Z 15040KT 9999 FEW030 2/5 Q1018
GG LFPOYYYX EGLLYYYX EDDFYYYX LFPNYYYX 110127 METAR LFPG 110127Z 23726KT 9999 FEW030 12/12 Q1057
LL LFPNYYYX EDDFYYYX LFPOYYYX 240152 METAR LFPG 240152Z 26240KT 9999 FEW030 19/9 Q1009
LL LFPGYYYX LFPBYYYX LFPBYYYX 130217 METAR LFPG 130217Z 28745KT 9999 FEW030 19/1 Q1082
DD LFPBYYYX EDDFYYYX LFPOYYYX LFPBYYYX 231254 METAR LFPG 231254Z 27353KT 9999 FEW030 9/16 Q1001
LL EGLLYYYX EGLLYYYX LFPNYYYX 171541 METAR LFPG 171541Z 01149KT 9999 FEW030 0/10 Q1018
FF EDDFYYYX LFPOYYYX 192058 METAR LFPG 192058Z 08927KT 9999 FEW030 0/9 Q1081
LL LFPOYYYX EDDFYYYX 261642 METAR LFPG 261642Z 13241KT 9999 FEW030 26/19 Q1052
DD LFPGYYYX LFPBYYYX EDDFYYYX 131444 METAR LFPG 131444Z 32343KT 9999 FEW030 3/16 Q1083
LL LFPOYYYX EDDFYYYX LFPGYYYX EDDFYYYX 031659 METAR LFPG 031659Z 27737KT 9999 FEW030 0/1 Q1009
KK LFPGYYYX LFPGYYYX LFPGYYYX 150447 METAR LFPG 150447Z 02535KT 9999 FEW030 0/8 Q1097
KK LFPGYYYX LFPBYYYX 171949 METAR LFPG 171949Z 08757KT 9999 FEW030 7/6 Q1069
LL LFPYYYX EGLLYYYX LFPGYYYX LFPOYYYX 140734 METAR LFPG 140734Z 00442KT 9999 FEW030 26/19 Q1097
KK LFPOYYYX LFPBYYYX LFPOYYYX LFPGYYYX 120204 METAR LFPG 120204Z 33453KT 9999 FEW030 9/17 Q1026
FF LFPBYYYX LFPGYYYX EDDFYYYX 211125 METAR LFPG 211125Z 17534KT 9999 FEW030 4/0 Q1049
KK LFPYYYX EGLLYYYX EDDFYYYX 011557 METAR LFPG 011557Z 27546KT 9999 FEW030 27/19 Q1000
KK LFPOYYYX EDDFYYYX LFPOYYYX 081755 METAR LFPG 081755Z 20646KT 9999 FEW030 21/13 Q1022
FF EDDFYYYX LFPBYYYX LFPBYYYX LFPNYYYX 172228 METAR LFPG 172228Z 06647KT 9999 FEW030 15/3 Q1062
LL EGLLYYYX LFPGYYYX EGLLYYYX LFPBYYYX 011052 METAR LFPG 011052Z 15151KT 9999 FEW030 13/16 Q1083
KK LFPOYYYX LFPBYYYX LFPNYYYX 261945 METAR LFPG 261945Z 01654KT 9999 FEW030 11/4 Q1032
SS LFPYYYX LFPBYYYX LFPGYYYX 020430 METAR LFPG 020430Z 00039KT 9999 FEW030 8/11 Q1087
KK LFPOYYYX EDDFYYYX LFPNYYYX LFPGYYYX 102014 METAR LFPG 102014Z 35242KT 9999 FEW030 4/9 Q1091
FF LFPYYYX LFPBYYYX EDDFYYYX LFPGYYYX 280131 METAR LFPG 280131Z 06930KT 9999 FEW030 4/12 Q1017
LL EDDFYYYX EDDFYYYX 242103 METAR LFPG 242103Z 28232KT 9999 FEW030 11/9 Q1059
KK LFPBYYYX LFPOYYYX 042127 METAR LFPG 042127Z 30646KT 9999 FEW030 17/2 Q1018
LL LFPBYYYX LFPOYYYX LFPNYYYX 140333 METAR LFPG 140333Z 07122KT 9999 FEW030 27/10 Q1071
KK EDDFYYYX LFPOYYYX LFPBYYYX 051141 METAR LFPG 051141Z 19959KT 9999 FEW030 18/11 Q1087
SS LFPGYYYX LFPGYYYX EGLLYYYX 131005 METAR LFPG 131005Z 22343KT 9999 FEW030 24/12 Q1022
SS LFPBYYYX EGLLYYYX EDDFYYYX 070519 METAR LFPG 070519Z 04918KT 9999 FEW030 13/1 Q1066
DD LFPNYYYX LFPBYYYX LFPOYYYX 231610 METAR LFPG 231610Z 34949KT 9999 FEW030 17/8 Q1033
DD LFPBYYYX LFPNYYYX EDDFYYYX 252329 METAR LFPG 252329Z 06738KT 9999 FEW030 10/12 Q1060
KK LFPGYYYX LFPBYYYX 040948 METAR LFPG 040948Z 19856KT 9999 FEW030 3/2 Q1011
LL LFPNYYYX LFPBYYYX EDDFYYYX 260014 METAR LFPG 260014Z 04452KT 9999 FEW030 11/11 Q1081
LL LFPOYYYX LFPNYYYX EGLLYYYX LFPBYYYX 211040 METAR LFPG 211040Z 07959KT 9999 FEW030 20/9 Q1027
SS EDDFYYYX LFPNYYYX EDDFYYYX LFPNYYYX 110143 METAR LFPG 110143Z 26151KT 9999 FEW030 27/11 Q1016
KK EGLLYYYX LFPNYYYX 070423 METAR LFPG 070423Z 24141KT 9999 FEW030 20/1 Q1021
SS EDDFYYYX LFPBYYYX LFPGYYYX 070903 METAR LFPG 070903Z 10142KT 9999 FEW030 4/19 Q1027
SS EGLLYYYX EDDFYYYX 162212 METAR LFPG 162212Z 16231KT 9999 FEW030 26/7 Q1081
KK LFPBYYYX LFPGYYYX EDDFYYYX LFPNYYYX 140702 METAR LFPG 140702Z 10030KT 9999 FEW030 28/4 Q1020
FF LFPOYYYX EGLLYYYX LFPNYYYX 010233 METAR LFPG 010233Z 31111KT 9999 FEW030 3/17 Q1014
SS LFPNYYYX LFPNYYYX LFPGYYYX EDDFYYYX 281339 METAR LFPG 281339Z 25028KT 9999 FEW030 15/18 Q1066
SS LFPNYYYX LFPOYYYX LFPNYYYX 031203 METAR LFPG 031203Z 27351KT 9999 FEW030 20/13 Q1030
LL LFPOYYYX LFPGYYYX 100434 METAR LFPG 100434Z 19212KT 9999 FEW030 4/12 Q1056
DD EGLLYYYX LFPBYYYX 021945 METAR LFPG 021945Z 01634KT 9999 FEW030 20/18 Q1081
FF LFPYYYX LFPGYYYX 111218 METAR LFPG 111218Z 05757KT 9999 FEW030 5/13 Q1001
KK LFPBYYYX LFPBYYYX EDDFYYYX EDDFYYYX 060858 METAR LFPG 060858Z 26817KT 9999 FEW030 20/10 Q1058
FF EGLLYYYX EGLLYYYX LFPNYYYX LFPOYYYX 171053 METAR LFPG 171053Z 15141KT 9999 FEW030 27/16 Q1029
SS LFPYYYX LFPOYYYX EGLLYYYX EGLLYYYX 111315 METAR LFPG 111315Z 22554KT 9999 FEW030 24/10 Q1067
SS EGLLYYYX LFPOYYYX EDDFYYYX LFPOYYYX 112038 METAR LFPG 112038Z 13747KT 9999 FEW030 29/0 Q1075
LL LFPNYYYX EGLLYYYX EGLLYYYX 131517 METAR LFPG 131517Z 34736KT 9999 FEW030 13/13 Q1047
SS EDDFYYYX LFPNYYYX LFPOYYYX 082111 METAR LFPG 082111Z 28110KT 9999 FEW030 19/4 Q1076
SS LFPYYYX LFPBYYYX 191607 METAR LFPG 191607Z 27725KT 9999 FEW030 27/16 Q1058
KK EGLLYYYX LFPGYYYX 191635 METAR LFPG 191635Z 13333KT 9999 FEW030 8/13 Q1021
DD EGLLYYYX LFPOYYYX 020714 METAR LFPG 020714Z 05252KT 9999 FEW030 21/0 Q1087
GG LFPYYYX LFPOYYYX 230827 METAR LFPG 230827Z 00515KT 9999 FEW030 16/18 Q1087
FF LFPYYYX LFPBYYYX 032003 METAR LFPG 032003Z 16131KT 9999 FEW030 27/8 Q1016
FF LFPBYYYX LFPBYYYX 040911 METAR LFPG 040911Z 34230KT 9999 FEW030 10/8 Q1028
GG EDDFYYYX EGLLYYYX 191707 METAR LFPG 191707Z 27716KT 9999 FEW030 18/8 Q1013
DD LFPYYYX LFPNYYYX LFPBYYYX 011812 METAR LFPG 011812Z 23151KT 9999 FEW030 6/10 Q1030
KK LFPNYYYX EGLLYYYX LFPGYYYX 260014 METAR LFPG 260014Z 28453KT 9999 FEW030 12/0 Q1053
LL LFPOYYYX EGLLYYYX EGLLYYYX LFPBYYYX 281328 METAR LFPG 281328Z 17836KT 9999 FEW030 8/2 Q1097
DD LFPYYYX LFPNYYYX EDDFYYYX 260721 METAR LFPG 260721Z 17250KT 9999 FEW030 6/18 Q1078
FF LFPGYYYX LFPGYYYX 261921 METAR LFPG 261921Z 23240KT 9999 FEW030 19/7 Q1014
GG EGLLYYYX LFPOYYYX LFPNYYYX 080656 METAR LFPG 080656Z 26625KT 9999 FEW030 28/15 Q1011
SS EGLLYYYX LFPBYYYX 280547 METAR LFPG 280547Z 26646KT 9999 FEW030 2/13 Q1028
LL LFPGYYYX LFPBYYYX LFPGYYYX LFPOYYYX 250329 METAR LFPG 250329Z 23937KT 9999 FEW030 26/15 Q1022
SS LFPOYYYX LFPBYYYX LFPGYYYX 232123 METAR LFPG 232123Z 35321KT 9999 FEW030 24/16 Q1039
SS LFPYYYX EGLLYYYX EDDFYYYX LFPNYYYX 262349 METAR LFPG 262349Z 14030KT 9999 FEW030 25/12 Q1060
FF LFPNYYYX LFPBYYYX 282147 METAR LFPG 282147Z 13818KT 9999 FEW030 6/5 Q1043
KK LFPGYYYX LFPOYYYX LFPGYYYX 181149 METAR LFPG 181149Z 08058KT 9999 FEW030 20/7 Q1019
GG LFPOYYYX LFPOYYYX LFPBYYYX LFPNYYYX 251405 METAR LFPG 251405Z 15523KT 9999 FEW030 10/7 Q1034
FF EGLLYYYX LFPGYYYX LFPGYYYX LFPGYYYX 230434 METAR LFPG 230434Z 07333KT 9999 FEW030 22/6 Q1000
DD LFPNYYYX LFPBYYYX LFPGYYYX EDDFYYYX 140357 METAR LFPG 140357Z 33636KT 9999 FEW030 28/5 Q1067
DD LFPBYYYX EGLLYYYX LFPOYYYX 270555 METAR LFPG 270555Z 14544KT 9999 FEW030 0/7 Q1047
LL LFPYYYX LFPNYYYX LFPOYYYX LFPOYYYX 280544 METAR LFPG 280544Z 07422KT 9999 FEW030 1/10 Q1030
GG LFPNYYYX EDDFYYYX LFPNYYYX 142313 METAR LFPG 142313Z 04434KT 9999 FEW030 5/7 Q1087
LL LFPYYYX EGLLYYYX 061646 METAR LFPG 061646Z 32445KT 9999 FEW030 20/9 Q1069
FF LFPNYYYX LFPNYYYX LFPNYYYX LFPGYYYX 160116 METAR LFPG 160116Z 04634KT 9999 FEW030 2/10 Q1049
SS LFPYYYX EGLLYYYX EGLLYYYX 092236 METAR LFPG 092236Z 06615KT 9999 FEW030 27/16 Q1074
LL LFPBYYYX LFPGYYYX LFPOYYYX 050600 METAR LFPG 050600Z 21859KT 9999 FEW030 4/18 Q1057
LL LFPGYYYX LFPGYYYX LFPNYYYX LFPNYYYX 062022 METAR LFPG 062022Z 23251KT 9999 FEW030 0/13 Q1016
FF LFPGYYYX LFPBYYYX 150418 METAR LFPG 150418Z 28857KT 9999 FEW030 9/18 Q1017
GG LFPYYYX EGLLYYYX EGLLYYYX LFPBYYYX 051800 METAR LFPG 051800Z 15919KT 9999 FEW030 3/3 Q1091
FF EDDFYYYX LFPOYYYX LFPOYYYX 171024 METAR LFPG 171024Z 29423KT 9999 FEW030 2/10 Q1000
LL LFPYYYX EGLLYYYX 241004 METAR LFPG 241004Z 34213KT 9999 FEW030 24/1 Q1006
KK EGLLYYYX LFPGYYYX 271238 METAR LFPG 271238Z 24827KT 9999 FEW030 2/9 Q1099
KK LFPOYYYX EDDFYYYX EDDFYYYX LFPBYYYX 030531 METAR LFPG 030531Z 24140KT 9999 FEW030 0/13 Q1065
FF LFPBYYYX LFPNYYYX LFPGYYYX EDDFYYYX 070826 METAR LFPG 070826Z 35755KT 9999 FEW030 8/10 Q1036
DD LFPYYYX EGLLYYYX LFPOYYYX EGLLYYYX 080107 METAR LFPG 080107Z 04636KT 9999 FEW030 1/5 Q1041
SS LFPBYYYX LFPNYYYX LFPBYYYX LFPBYYYX 241719 METAR LFPG 241719Z 23038KT 9999 FEW030 18/6 Q1037
LL LFPNYYYX LFPBYYYX 110555 METAR LFPG 110555Z 26524KT 9999 FEW030 6/0 Q1039
KK LFPGYYYX LFPGYYYX LFPBYYYX 241420 METAR LFPG 241420Z 05849KT 9999 FEW030 13/4 Q1035
KK LFPOYYYX EGLLYYYX 190007 METAR LFPG 190007Z 28515KT 9999 FEW030 4/2 Q1073
GG EGLLYYYX EGLLYYYX 110443 METAR LFPG 110443Z 07311KT 9999 FEW030 15/11 Q1056
LL LFPNYYYX EDDFYYYX 271255 METAR LFPG 271255Z 03333KT 9999 FEW030 17/14 Q1013
KK LFPOYYYX LFPOYYYX EGLLYYYX 020354 METAR LFPG 020354Z 02422KT 9999 FEW030 13/5 Q1000
LL LFPYYYX LFPBYYYX LFPGYYYX EDDFYYYX 270030 METAR LFPG 270030Z 30839KT 9999 FEW030 10/4 Q1049
SS LFPNYYYX LFPGYYYX LFPOYYYX LFPGYYYX 180750 METAR LFPG 180750Z 02828KT 9999 FEW030 4/0 Q1094
LL LFPBYYYX EDDFYYYX LFPNYYYX LFPNYYYX 040612 METAR LFPG 040612Z 29040KT 9999 FEW030 8/14 Q1044
FF LFPNYYYX LFPBYYYX LFPNYYYX EDDFYYYX 082224 METAR LFPG 082224Z 11422KT 9999 FEW030 25/18 Q1002
FF EDDFYYYX LFPNYYYX 201720 METAR LFPG 201720Z 35048KT 9999 FEW030 25/15 Q1072
SS LFPNYYYX LFPBYYYX LFPBYYYX EGLLYYYX 060322 METAR LFPG 060322Z 24010KT 9999 FEW030 10/3 Q1007
GG LFPNYYYX LFPBYYYX EDDFYYYX EDDFYYYX 220406 METAR LFPG 220406Z 33635KT 9999 FEW030 6/14 Q1029
SS LFPGYYYX LFPBYYYX 190835 METAR LFPG 190835Z 00533KT 9999 FEW030 9/15 Q1049
DD LFPYYYX LFPGYYYX LFPOYYYX LFPOYYYX 131529 METAR LFPG 131529Z 29958KT 9999 FEW030 16/16 Q1071
DD LFPYYYX LFPNYYYX EGLLYYYX 110407 METAR LFPG 110407Z 33735KT 9999 FEW030 28/13 Q1057
FF LFPGYYYX LFPBYYYX LFPBYYYX 110055 METAR LFPG 110055Z 09313KT 9999 FEW030 29/3 Q1047
GG EDDFYYYX LFPOYYYX 141118 METAR LFPG 141118Z 05626KT 9999 FEW030 4/0 Q1051
FF EDDFYYYX LFPOYYYX 230947 METAR LFPG 230947Z 07756KT 9999 FEW030 8/18 Q1019
LL EDDFYYYX LFPGYYYX LFPNYYYX 130733 METAR LFPG 130733Z 12312KT 9999 FEW030 7/3 Q1043
GG LFPBYYYX LFPBYYYX 020722 METAR LFPG 020722Z 05210KT 9999 FEW030 0/16 Q1006
KK LFPYYYX LFPOYYYX 280103 METAR LFPG 280103Z 09412KT 9999 FEW030 24/9 Q1071
LL EGLLYYYX LFPGYYYX LFPNYYYX 160508 METAR LFPG 160508Z 09826KT 9999 FEW030 3/0 Q1087
SS LFPOYYYX LFPGYYYX LFPOYYYX 040547 METAR LFPG 040547Z 26636KT 9999 FEW030 25/16 Q1087
SS EGLLYYYX EGLLYYYX 030042 METAR LFPG 030042Z 14131KT 9999 FEW030 2/6 Q1074
GG LFPBYYYX EDDFYYYX LFPBYYYX LFPBYYYX 240107 METAR LFPG 240107Z 03836KT 9999 FEW030 2/2 Q1044
GG EGLLYYYX EDDFYYYX LFPNYYYX LFPGYYYX 050608 METAR LFPG 050608Z 09957KT 9999 FEW030 15/7 Q1062
GG EDDFYYYX LFPGYYYX 070423 METAR LFPG 070423Z 00151KT 9999 FEW030 4/18 Q1078
LL LFPNYYYX EGLLYYYX 140346 METAR LFPG 140346Z 14414KT 9999 FEW030 9/2 Q1092
KK EGLLYYYX EGLLYYYX 122159 METAR LFPG 122159Z 09028KT 9999 FEW030 28/18 Q1047
FF EDDFYYYX LFPNYYYX LFPOYYYX 162152 METAR LFPG 162152Z 09030KT 9999 FEW030 3/6 Q1054
LL LFPGYYYX LFPNYYYX LFPOYYYX LFPGYYYX 081723 METAR LFPG 081723Z 06232KT 9999 FEW030 17/19 Q1077
SS EGLLYYYX LFPOYYYX EDDFYYYX 240536 METAR LFPG 240536Z 19414KT 9999 FEW030 3/6 Q1047
KK EGLLYYYX LFPBYYYX 190430 METAR LFPG 190430Z 00119KT 9999 FEW030 3/4 Q1040
GG LFPOYYYX EDDFYYYX LFPGYYYX EGLLYYYX 270002 METAR LFPG 270002Z 33251KT 9999 FEW030 17/3 Q1039
GG LFPOYYYX EDDFYYYX LFPBYYYX 071711 METAR LFPG 071711Z 22910KT 9999 FEW030 8/11 Q1065
KK LFPGYYYX EDDFYYYX 021901 METAR LFPG 021901Z 03930KT 9999 FEW030 11/15 Q1038
KK LFPNYYYX EGLLYYYX LFPOYYYX 181541 METAR LFPG 181541Z 13250KT 9999 FEW030 25/3 Q1038
SS LFPOYYYX LFPBYYYX 080155 METAR LFPG 080155Z 21454KT 9999 FEW030 22/14 Q1035
SS EGLLYYYX LFPNYYYX LFPOYYYX LFPOYYYX 081328 METAR LFPG 081328Z 29816KT 9999 FEW030 29/2 Q1097
DD LFPYYYX LFPNYYYX LFPBYYYX LFPBYYYX 181606 METAR LFPG 181606Z 03625KT 9999 FEW030 11/5 Q1023
GG EDDFYYYX LFPGYYYX 211428 METAR LFPG 211428Z 05957KT 9999 FEW030 16/3 Q1049
SS LFPYYYX LFPBYYYX 060026 METAR LFPG 060026Z 23635KT 9999 FEW030 18/10 Q1018
KK EDDFYYYX LFPNYYYX 150019 METAR LFPG 150019Z 11747KT 9999 FEW030 1/19 Q1018
GG EDDFYYYX EGLLYYYX LFPNYYYX EGLLYYYX 261901 METAR LFPG 261901Z 04050KT 9999 FEW030 19/18 Q1043
LL LFPYYYX LFPOYYYX LFPOYYYX LFPOYYYX 270947 METAR LFPG 270947Z 31736KT 9999 FEW030 9/12 Q1050
SS EDDFYYYX LFPBYYYX 090208 METAR LFPG 090208Z 27937KT 9999 FEW030 13/13 Q1092
SS LFPGYYYX EDDFYYYX LFPBYYYX LFPNYYYX 080119 METAR LFPG 080119Z 35818KT 9999 FEW030 6/15 Q1001
KK LFPNYYYX LFPNYYYX 150838 METAR LFPG 150838Z 31737KT 9999 FEW030 8/14 Q1052
SS LFPNYYYX LFPNYYYX LFPNYYYX 180757 METAR LFPG 180757Z 26848KT 9999 FEW030 23/1 Q1022
KK LFPOYYYX LFPBYYYX 282147 METAR LFPG 282147Z 13816KT 9999 FEW030 26/6 Q1009
KK LFPBYYYX EDDFYYYX LFPOYYYX EDDFYYYX 220345 METAR LFPG 220345Z 26434KT 9999 FEW030 6/10 Q1017
LL EGLLYYYX LFPBYYYX 030531 METAR LFPG 030531Z 00150KT 9999 FEW030 26/0 Q1012
KK LFPGYYYX LFPOYYYX 091048 METAR LFPG 091048Z 07917KT 9999 FEW030 26/12 Q1029
GG EDDFYYYX EDDFYYYX LFPGYYYX LFPNYYYX 270815 METAR LFPG 270815Z 29313KT 9999 FEW030 5/14 Q1019
KK LFPYYYX LFPGYYYX LFPNYYYX LFPGYYYX 121736 METAR LFPG 121736Z 13444KT 9999 FEW030 8/17 Q1012
DD LFPGYYYX LFPOYYYX LFPNYYYX 240144 METAR LFPG 240144Z 26252KT 9999 FEW030 21/9 Q1031
LL LFPGYYYX EDDFYYYX 120208 METAR LFPG 120208Z 16617KT 9999 FEW030 27/19 Q1043
DD EGLLYYYX EGLLYYYX 171812 METAR LFPG 171812Z 11121KT 9999 FEW030 6/14 Q1013
FF LFPOYYYX LFPGYYYX LFPNYYYX 251416 METAR LFPG 251416Z 22725KT 9999 FEW030 15/2 Q1068
SS LFPOYYYX EGLLYYYX EGLLYYYX 121343 METAR LFPG 121343Z 08252KT 9999 FEW030 2/1 Q1061
SS LFPGYYYX LFPNYYYX 100306 METAR LFPG 100306Z 33614KT 9999 FEW030 29/9 Q1021
SS LFPNYYYX LFPOYYYX LFPGYYYX LFPOYYYX 222305 METAR LFPG 222305Z 04444KT 9999 FEW030 3/16 Q1028
GG EGLLYYYX LFPNYYYX 190030 METAR LFPG 190030Z 18929KT 9999 FEW030 11/9 Q1035
KK LFPBYYYX LFPOYYYX 190155 METAR LFPG 190155Z 21344KT 9999 FEW030 18/8 Q1020
FF EDDFYYYX EGLLYYYX 150115 METAR LFPG 150115Z 28554KT 9999 FEW030 12/7 Q1029
LL LFPNYYYX LFPGYYYX EDDFYYYX EDDFYYYX 181938 METAR LFPG 181938Z 01646KT 9999 FEW030 17/10 Q1042
KK EGLLYYYX LFPBYYYX EDDFYYYX 101114 METAR LFPG 101114Z 10432KT 9999 FEW030 28/6 Q1076
GG EGLLYYYX EGLLYYYX LFPOYYYX LFPGYYYX 200140 METAR LFPG 200140Z 07038KT 9999 FEW030 28/8 Q1071
GG LFPOYYYX LFPGYYYX EGLLYYYX LFPGYYYX 041755 METAR LFPG 041755Z 20644KT 9999 FEW030 26/15 Q1028
FF EGLLYYYX EDDFYYYX 010725 METAR LFPG 010725Z 00344KT 9999 FEW030 9/9 Q1061
SS LFPYYYX LFPOYYYX 021658 METAR LFPG 021658Z 03657KT 9999 FEW030 24/8 Q1049
FF LFPBYYYX EGLLYYYX EGLLYYYX LFPBYYYX 211921 METAR LFPG 211921Z 23130KT 9999 FEW030 21/17 Q1085
SS LFPYYYX LFPNYYYX LFPNYYYX 211808 METAR LFPG 211808Z 15939KT 9999 FEW030 13/1 Q1004
LL LFPNYYYX EGLLYYYX 161748 METAR LFPG 161748Z 08626KT 9999 FEW030 5/14 Q1077
GG EGLLYYYX LFPNYYYX EGLLYYYX LFPGYYYX 162140 METAR LFPG 162140Z 25838KT 9999 FEW030 9/0 Q1015
LL EGLLYYYX LFPNYYYX 271711 METAR LFPG 271711Z 22930KT 9999 FEW030 23/2 Q1029
SS LFPYYYX LFPOYYYX LFPBYYYX 032111 METAR LFPG 032111Z 16150KT 9999 FEW030 20/0 Q1061
SS EGLLYYYX LFPBYYYX EGLLYYYX LFPBYYYX 282104 METAR LFPG 282104Z 16242KT 9999 FEW030 3/0 Q1039
LL LFPOYYYX EDDFYYYX EGLLYYYX EDDFYYYX 281004 METAR LFPG 281004Z 34213KT 9999 FEW030 8/18 Q1059
DD EGLLYYYX EDDFYYYX LFPBYYYX LFPNYYYX 161404 METAR LFPG 161404Z 15435KT 9999 FEW030 12/10 Q1079
FF LFPBYYYX LFPBYYYX EDDFYYYX 101646 METAR LFPG 101646Z 08425KT 9999 FEW030 7/3 Q1056
LL LFPYYYX EDDFYYYX 141125 METAR LFPG 141125Z 29534KT 9999 FEW030 28/11 Q1006
KK LFPBYYYX LFPBYYYX LFPGYYYX LFPBYYYX 130241 METAR LFPG 130241Z 07149KT 9999 FEW030 18/15 Q1092
KK LFPYYYX LFPGYYYX LFPBYYYX 220321 METAR LFPG 220321Z 24010KT 9999 FEW030 11/3 Q1021
KK LFPNYYYX LFPNYYYX EDDFYYYX 131052 METAR LFPG 131052Z 15021KT 9999 FEW030 25/9 Q1044
GG LFPNYYYX LFPGYYYX EDDFYYYX 230055 METAR LFPG 230055Z 33323KT 9999 FEW030 2/11 Q1096
LL LFPBYYYX LFPBYYYX 261946 METAR LFPG 261946Z 25654KT 9999 FEW030 27/9 Q1001
SS LFPGYYYX EGLLYYYX LFPOYYYX 220834 METAR LFPG 220834Z 12412KT 9999 FEW030 28/5 Q1086
LL EDDFYYYX EDDFYYYX LFPGYYYX LFPOYYYX 090233 METAR LFPG 090233Z 31141KT 9999 FEW030 9/5 Q1040
KK LFPBYYYX LFPOYYYX 021506 METAR LFPG 021506Z 27614KT 9999 FEW030 16/17 Q1096
LL LFPYYYX LFPNYYYX LFPNYYYX 281708 METAR LFPG 281708Z 03846KT 9999 FEW030 23/11 Q1064
FF EGLLYYYX LFPNYYYX EDDFYYYX LFPBYYYX 022317 METAR LFPG 022317Z 35656KT 9999 FEW030 23/6 Q1011
KK EGLLYYYX LFPNYYYX 201356 METAR LFPG 201356Z 03434KT 9999 FEW030 6/4 Q1022
FF LFPOYYYX LFPGYYYX 081432 METAR LFPG 081432Z 13051KT 9999 FEW030 25/13 Q1014
KK LFPBYYYX LFPOYYYX LFPBYYYX 051428 METAR LFPG 051428Z 29947KT 9999 FEW030 25/5 Q1036
SS LFPGYYYX LFPBYYYX EDDFYYYX LFPBYYYX 050353 METAR LFPG 050353Z 02341KT 9999 FEW030 24/14 Q1025
GG EGLLYYYX EGLLYYYX 031331 METAR LFPG 031331Z 00910KT 9999 FEW030 23/14 Q1071
LL LFPOYYYX EGLLYYYX LFPBYYYX 040532 METAR LFPG 040532Z 24220KT 9999 FEW030 20/9 Q1036
GG LFPGYYYX LFPOYYYX LFPNYYYX 040923 METAR LFPG 040923Z 05342KT 9999 FEW030 24/17 Q1096
FF LFPBYYYX EDDFYYYX 221553 METAR LFPG 221553Z 32444KT 9999 FEW030 29/12 Q1056
DD LFPGYYYX LFPOYYYX LFPOYYYX 211141 METAR LFPG 211141Z 31950KT 9999 FEW030 29/7 Q1042
SS EGLLYYYX EDDFYYYX LFPNYYYX 061250 METAR LFPG 061250Z 20031KT 9999 FEW030 21/10 Q1026
GG LFPOYYYX LFPGYYYX LFPBYYYX 161355 METAR LFPG 161355Z 27454KT 9999 FEW030 8/0 Q1016
FF LFPOYYYX EDDFYYYX 281304 METAR LFPG 281304Z 15422KT 9999 FEW030 21/4 Q1003
KK LFPYYYX EGLLYYYX LFPGYYYX 170253 METAR LFPG 170253Z 02321KT 9999 FEW030 22/13 Q1051
LL LFPBYYYX LFPNYYYX LFPGYYYX 032010 METAR LFPG 032010Z 28119KT 9999 FEW030 15/9 Q1010
DD LFPNYYYX EDDFYYYX LFPGYYYX 211129 METAR LFPG 211129Z 12747KT 9999 FEW030 16/3 Q1031
LL LFPBYYYX LFPOYYYX EDDFYYYX LFPGYYYX 212317 METAR LFPG 212317Z 11516KT 9999 FEW030 16/1 Q1064
KK LFPGYYYX LFPOYYYX LFPNYYYX LFPOYYYX 191719 METAR LFPG 191719Z 10938KT 9999 FEW030 23/10 Q1076
KK EDDFYYYX LFPBYYYX 052224 METAR LFPG 052224Z 35553KT 9999 FEW030 3/8 Q1088
DD EDDFYYYX LFPBYYYX LFPNYYYX EDDFYYYX 261522 METAR LFPG 261522Z 30020KT 9999 FEW030 20/8 Q1029
FF EDDFYYYX LFPGYYYX LFPGYYYX LFPBYYYX 091957 METAR LFPG 091957Z 32746KT 9999 FEW030 22/4 Q1067
GG LFPBYYYX LFPOYYYX 190418 METAR LFPG 190418Z 04927KT 9999 FEW030 26/17 Q1093
LL LFPYYYX EDDFYYYX LFPGYYYX 231655 METAR LFPG 231655Z 08533KT 9999 FEW030 15/13 Q1059
SS EDDFYYYX EGLLYYYX LFPOYYYX LFPBYYYX 150858 METAR LFPG 150858Z 26847KT 9999 FEW030 23/7 Q1080
SS LFPGYYYX LFPNYYYX LFPGYYYX 021521 METAR LFPG 021521Z 30020KT 9999 FEW030 29/15 Q1005
KK EDDFYYYX EDDFYYYX 071206 METAR LFPG 071206Z 34525KT 9999 FEW030 26/6 Q1073
DD LFPNYYYX LFPGYYYX EGLLYYYX 172317 METAR LFPG 172317Z 11555KT 9999 FEW030 11/7 Q1003
KK LFPNYYYX LFPNYYYX LFPBYYYX LFPNYYYX 120916 METAR LFPG 120916Z 16614KT 9999 FEW030 22/15 Q1079
FF LFPBYYYX LFPBYYYX EGLLYYYX 070002 METAR LFPG 070002Z 09231KT 9999 FEW030 13/2 Q1042
SS LFPOYYYX LFPBYYYX LFPGYYYX LFPBYYYX 182330 METAR LFPG 182330Z 30818KT 9999 FEW030 23/18 Q1046
KK LFPOYYYX EDDFYYYX EDDFYYYX 021129 METAR LFPG 021129Z 00828KT 9999 FEW030 5/10 Q1007
FF LFPYYYX LFPGYYYX LFPGYYYX LFPGYYYX 101530 METAR LFPG 101530Z 18020KT 9999 FEW030 2/16 Q1069
SS LFPNYYYX LFPNYYYX 270127 METAR LFPG 270127Z 35725KT 9999 FEW030 20/15 Q1058
LL EGLLYYYX LFPBYYYX 202112 METAR LFPG 202112Z 04230KT 9999 FEW030 9/19 Q1088
FF LFPGYYYX LFPBYYYX LFPOYYYX EDDFYYYX 010632 METAR LFPG 010632Z 12331KT 9999 FEW030 12/4 Q1024
FF EGLLYYYX EDDFYYYX LFPGYYYX 261141 METAR LFPG 261141Z 08050KT 9999 FEW030 4/2 Q1027
GG LFPNYYYX LFPBYYYX LFPGYYYX 211949 METAR LFPG 211949Z 20738KT 9999 FEW030 16/16 Q1097
SS LFPBYYYX LFPOYYYX EGLLYYYX EDDFYYYX 241824 METAR LFPG 241824Z 18212KT 9999 FEW030 3/13 Q1093
GG LFPGYYYX LFPNYYYX LFPBYYYX 250656 METAR LFPG 250656Z 14655KT 9999 FEW030 10/7 Q1029
LL LFPNYYYX LFPBYYYX 111631 METAR LFPG 111631Z 18121KT 9999 FEW030 19/7 Q1073
SS LFPBYYYX LFPNYYYX LFPOYYYX EDDFYYYX 102026 METAR LFPG 102026Z 30425KT 9999 FEW030 26/2 Q1063
KK LFPNYYYX EGLLYYYX LFPOYYYX EGLLYYYX 180358 METAR LFPG 180358Z 09646KT 9999 FEW030 11/4 Q1042
DD LFPBYYYX EGLLYYYX 240140 METAR LFPG 240140Z 19048KT 9999 FEW030 27/17 Q1057
GG LFPOYYYX LFPBYYYX LFPOYYYX 091025 METAR LFPG 091025Z 29533KT 9999 FEW030 25/15 Q1026
LL LFPBYYYX LFPBYYYX 030859 METAR LFPG 030859Z 14947KT 9999 FEW030 3/9 Q1041
KK EDDFYYYX EDDFYYYX 041856 METAR LFPG 041856Z 32635KT 9999 FEW030 13/7 Q1095
GG EGLLYYYX EDDFYYYX 080904 METAR LFPG 080904Z 10212KT 9999 FEW030 3/5 Q1001
KK LFPNYYYX LFPOYYYX 111243 METAR LFPG 111243Z 20111KT 9999 FEW030 17/6 Q1097
KK LFPNYYYX LFPNYYYX 151623 METAR LFPG 151623Z 18111KT 9999 FEW030 9/9 Q1096
SS LFPOYYYX LFPNYYYX LFPNYYYX LFPOYYYX 141242 METAR LFPG 141242Z 08040KT 9999 FEW030 11/6 Q1095
GG LFPBYYYX LFPOYYYX 011837 METAR LFPG 011837Z 25545KT 9999 FEW030 10/4 Q1075
GG LFPYYYX LFPGYYYX LFPNYYYX LFPNYYYX 040904 METAR LFPG 040904Z 34222KT 9999 FEW030 19/1 Q1058
LL EGLLYYYX LFPOYYYX 240244 METAR LFPG 240244Z 26223KT 9999 FEW030 4/12 Q1000
FF LFPOYYYX EGLLYYYX EDDFYYYX 060306 METAR LFPG 060306Z 33624KT 9999 FEW030 0/12 Q1014
KK LFPYYYX LFPNYYYX LFPGYYYX 040536 METAR LFPG 040536Z 19414KT 9999 FEW030 13/10 Q1091
FF LFPNYYYX LFPGYYYX EDDFYYYX LFPGYYYX 201355 METAR LFPG 201355Z 15454KT 9999 FEW030 15/1 Q1040
SS LFPNYYYX LFPNYYYX 151203 METAR LFPG 151203Z 31152KT 9999 FEW030 27/3 Q1027
GG LFPGYYYX LFPOYYYX EDDFYYYX LFPOYYYX 140749 METAR LFPG 140749Z 26838KT 9999 FEW030 18/12 Q1014
SS EGLLYYYX EDDFYYYX 032010 METAR LFPG 032010Z 28149KT 9999 FEW030 21/8 Q1055
LL EGLLYYYX LFPNYYYX LFPGYYYX LFPGYYYX 080636 METAR LFPG 080636Z 07455KT 9999 FEW030 29/2 Q1009
LL LFPGYYYX LFPOYYYX LFPGYYYX 051037 METAR LFPG 051037Z 24735KT 9999 FEW030 4/13 Q1062
SS LFPOYYYX LFPOYYYX LFPGYYYX 240256 METAR LFPG 240256Z 33425KT 9999 FEW030 6/18 Q1007
LL LFPOYYYX LFPGYYYX EGLLYYYX LFPBYYYX 230043 METAR LFPG 230043Z 14141KT 9999 FEW030 5/16 Q1018
LL LFPNYYYX EGLLYYYX LFPOYYYX EDDFYYYX 131957 METAR LFPG 131957Z 32715KT 9999 FEW030 24/10 Q1052
KK LFPYYYX LFPNYYYX LFPOYYYX 240115 METAR LFPG 240115Z 04544KT 9999 FEW030 17/14 Q1000
FF LFPOYYYX EGLLYYYX LFPNYYYX 111622 METAR LFPG 111622Z 06111KT 9999 FEW030 6/11 Q1071
DD EDDFYYYX EGLLYYYX LFPOYYYX 042135 METAR LFPG 042135Z 18624KT 9999 FEW030 24/18 Q1048
GG EDDFYYYX LFPBYYYX EGLLYYYX EGLLYYYX 021542 METAR LFPG 021542Z 01230KT 9999 FEW030 13/0 Q1096
DD EGLLYYYX LFPNYYYX LFPBYYYX 250244 METAR LFPG 250244Z 02333KT 9999 FEW030 28/3 Q1060
DD EDDFYYYX LFPNYYYX EGLLYYYX 080155 METAR LFPG 080155Z 33434KT 9999 FEW030 13/1 Q1094
LL LFPOYYYX LFPGYYYX 050701 METAR LFPG 050701Z 33940KT 9999 FEW030 1/11 Q1059
FF LFPNYYYX EDDFYYYX LFPGYYYX 222342 METAR LFPG 222342Z 14030KT 9999 FEW030 24/1 Q1042
KK EGLLYYYX LFPGYYYX EGLLYYYX 251053 METAR LFPG 251053Z 03131KT 9999 FEW030 10/18 Q1069
LL EGLLYYYX EDDFYYYX LFPBYYYX LFPBYYYX 072038 METAR LFPG 072038Z 01727KT 9999 FEW030 8/5 Q1021
FF EDDFYYYX LFPNYYYX LFPBYYYX 241452 METAR LFPG 241452Z 32241KT 9999 FEW030 26/2 Q1035
FF LFPOYYYX LFPGYYYX 220309 METAR LFPG 220309Z 16818KT 9999 FEW030 26/14 Q1029
DD LFPNYYYX LFPBYYYX 221149 METAR LFPG 221149Z 32058KT 9999 FEW030 10/13 Q1058
FF EDDFYYYX EDDFYYYX 260734 METAR LFPG 260734Z 12422KT 9999 FEW030 29/10 Q1072
LL EDDFYYYX LFPOYYYX LFPOYYYX LFPNYYYX 071646 METAR LFPG 071646Z 08535KT 9999 FEW030 24/7 Q1070
FF EDDFYYYX LFPGYYYX 161328 METAR LFPG 161328Z 17856KT 9999 FEW030 18/1 Q1074
GG LFPGYYYX EGLLYYYX EDDFYYYX 161356 METAR LFPG 161356Z 03434KT 9999 FEW030 28/11 Q1070
LL LFPNYYYX EGLLYYYX LFPOYYYX 061522 METAR LFPG 061522Z 30010KT 9999 FEW030 29/9 Q1004
SS LFPNYYYX LFPGYYYX LFPBYYYX 131012 METAR LFPG 131012Z 22321KT 9999 FEW030 24/1 Q1031
GG LFPNYYYX LFPGYYYX 060310 METAR LFPG 060310Z 04848KT 9999 FEW030 4/11 Q1032
DD LFPBYYYX LFPBYYYX LFPBYYYX EGLLYYYX 102317 METAR LFPG 102317Z 11656KT 9999 FEW030 24/3 Q1099
KK LFPOYYYX LFPNYYYX 110139 METAR LFPG 110139Z 18938KT 9999 FEW030 20/14 Q1025
FF LFPOYYYX EGLLYYYX LFPOYYYX 141506 METAR LFPG 141506Z 15654KT 9999 FEW030 29/15 Q1029
SS EGLLYYYX LFPOYYYX 111642 METAR LFPG 111642Z 25331KT 9999 FEW030 11/2 Q1070
DD LFPNYYYX LFPOYYYX EDDFYYYX 191623 METAR LFPG 191623Z 18131KT 9999 FEW030 3/5 Q1023
LL LFPGYYYX EGLLYYYX LFPBYYYX LFPOYYYX 052252 METAR LFPG 052252Z 21111KT 9999 FEW030 15/1 Q1018
GG EGLLYYYX LFPNYYYX LFPGYYYX 181142 METAR LFPG 181142Z 08030KT 9999 FEW030 17/3 Q1036
FF LFPBYYYX LFPNYYYX 040119 METAR LFPG 040119Z 10928KT 9999 FEW030 29/18 Q1031
FF EDDFYYYX LFPOYYYX 222301 METAR LFPG 222301Z 21210KT 9999 FEW030 16/11 Q1023
GG EGLLYYYX LFPOYYYX LFPNYYYX 080612 METAR LFPG 080612Z 29040KT 9999 FEW030 9/11 Q1090
LL EGLLYYYX LFPGYYYX 230859 METAR LFPG 230859Z 26937KT 9999 FEW030 0/18 Q1060
FF EGLLYYYX LFPGYYYX 151255 METAR LFPG 151255Z 27323KT 9999 FEW030 9/15 Q1091
SS LFPOYYYX EGLLYYYX LFPOYYYX 142302 METAR LFPG 142302Z 21220KT 9999 FEW030 20/4 Q1011
LL LFPOYYYX EGLLYYYX LFPBYYYX EDDFYYYX 111307 METAR LFPG 111307Z 10545KT 9999 FEW030 8/9 Q1092
GG LFPYYYX LFPGYYYX 110435 METAR LFPG 110435Z 31353KT 9999 FEW030 18/14 Q1029
KK LFPGYYYX LFPBYYYX EGLLYYYX LFPOYYYX 210216 METAR LFPG 210216Z 04735KT 9999 FEW030 4/19 Q1026
GG EGLLYYYX LFPBYYYX LFPOYYYX EGLLYYYX 050609 METAR LFPG 050609Z 33937KT 9999 FEW030 9/5 Q1006
FF EGLLYYYX LFPGYYYX 211441 METAR LFPG 211441Z 01149KT 9999 FEW030 15/7 Q1011
FF LFPGYYYX LFPNYYYX 072003 METAR LFPG 072003Z 16131KT 9999 FEW030 20/1 Q1035
LL EGLLYYYX LFPBYYYX LFPOYYYX 110519 METAR LFPG 110519Z 16928KT 9999 FEW030 11/13 Q1069
GG LFPGYYYX LFPGYYYX 240954 METAR LFPG 240954Z 09213KT 9999 FEW030 28/6 Q1025
GG EDDFYYYX LFPBYYYX LFPBYYYX EGLLYYYX 251421 METAR LFPG 251421Z 05959KT 9999 FEW030 7/1 Q1051
GG LFPYYYX LFPGYYYX LFPBYYYX LFPNYYYX 181542 METAR LFPG 181542Z 13250KT 9999 FEW030 24/5 Q1076
LL LFPGYYYX LFPOYYYX 241452 METAR LFPG 241452Z 20211KT 9999 FEW030 17/5 Q1033
KK LFPOYYYX LFPBYYYX LFPBYYYX 211025 METAR LFPG 211025Z 29523KT 9999 FEW030 2/1 Q1099
SS LFPNYYYX LFPOYYYX LFPNYYYX LFPGYYYX 020038 METAR LFPG 020038Z 18856KT 9999 FEW030 20/9 Q1004
DD LFPBYYYX EDDFYYYX 051428 METAR LFPG 051428Z 05937KT 9999 FEW030 23/17 Q1048
SS LFPBYYYX EDDFYYYX LFPBYYYX EDDFYYYX 180430 METAR LFPG 180430Z 12018KT 9999 FEW030 29/19 Q1008
DD LFPBYYYX EDDFYYYX LFPGYYYX 251049 METAR LFPG 251049Z 31937KT 9999 FEW030 0/17 Q1007
KK LFPGYYYX LFPOYYYX LFPGYYYX 150007 METAR LFPG 150007Z 04545KT 9999 FEW030 1/13 Q1061
DD LFPBYYYX LFPBYYYX 160120 METAR LFPG 160120Z 35838KT 9999 FEW030 18/18 Q1002
GG EDDFYYYX LFPOYYYX 101142 METAR LFPG 101142Z 20050KT 9999 FEW030 23/0 Q1045
SS EDDFYYYX LFPNYYYX 091529 METAR LFPG 091529Z 17920KT 9999 FEW030 14/9 Q1063
GG LFPGYYYX EDDFYYYX 152151 METAR LFPG 152151Z 08949KT 9999 FEW030 19/13 Q1071
FF EDDFYYYX LFPOYYYX LFPOYYYX 180709 METAR LFPG 180709Z 22018KT 9999 FEW030 12/19 Q1005
FF LFPBYYYX LFPNYYYX 081331 METAR LFPG 081331Z 13010KT 9999 FEW030 16/5 Q1044
KK LFPNYYYX LFPBYYYX 242212 METAR LFPG 242212Z 16251KT 9999 FEW030 1/6 Q1006
SS EDDFYYYX EDDFYYYX EGLLYYYX 131809 METAR LFPG 131809Z 15957KT 9999 FEW030 11/10 Q1031
DD LFPYYYX EDDFYYYX LFPBYYYX 181517 METAR LFPG 181517Z 22726KT 9999 FEW030 23/5 Q1020
KK LFPGYYYX LFPOYYYX LFPOYYYX LFPGYYYX 032059 METAR LFPG 032059Z 08947KT 9999 FEW030 17/18 Q1010
FF LFPGYYYX LFPGYYYX LFPGYYYX LFPBYYYX 091416 METAR LFPG 091416Z 10625KT 9999 FEW030 17/1 Q1043
DD LFPBYYYX EGLLYYYX LFPGYYYX 041756 METAR LFPG 041756Z 08654KT 9999 FEW030 1/0 Q1093
SS EDDFYYYX LFPOYYYX LFPBYYYX EDDFYYYX 240903 METAR LFPG 240903Z 09342KT 9999 FEW030 21/10 Q1098
DD LFPNYYYX LFPOYYYX 062325 METAR LFPG 062325Z 35614KT 9999 FEW030 18/0 Q1013
DD LFPYYYX LFPGYYYX LFPOYYYX LFPBYYYX 200923 METAR LFPG 200923Z 29422KT 9999 FEW030 28/9 Q1078
FF LFPNYYYX LFPGYYYX LFPBYYYX EDDFYYYX 092205 METAR LFPG 092205Z 04313KT 9999 FEW030 22/7 Q1027
DD LFPNYYYX EDDFYYYX EDDFYYYX 131016 METAR LFPG 131016Z 16715KT 9999 FEW030 8/17 Q1040
KK LFPYYYX LFPOYYYX LFPOYYYX LFPGYYYX 141226 METAR LFPG 141226Z 29645KT 9999 FEW030 1/12 Q1022
DD EGLLYYYX EDDFYYYX LFPBYYYX 121340 METAR LFPG 121340Z 25028KT 9999 FEW030 19/19 Q1050
GG EDDFYYYX EGLLYYYX 232010 METAR LFPG 232010Z 16129KT 9999 FEW030 2/17 Q1044
GG LFPGYYYX LFPGYYYX 102313 METAR LFPG 102313Z 16322KT 9999 FEW030 9/13 Q1067
SS LFPBYYYX EDDFYYYX LFPOYYYX LFPGYYYX 150119 METAR LFPG 150119Z 23738KT 9999 FEW030 5/6 Q1042
FF EGLLYYYX LFPGYYYX LFPGYYYX 251440 METAR LFPG 251440Z 13151KT 9999 FEW030 23/6 Q1083
DD EDDFYYYX EGLLYYYX EGLLYYYX 161432 METAR LFPG 161432Z 13031KT 9999 FEW030 5/8 Q1073
KK LFPOYYYX EGLLYYYX 280928 METAR LFPG 280928Z 00636KT 9999 FEW030 5/11 Q1091
FF LFPYYYX LFPBYYYX LFPOYYYX 022301 METAR LFPG 022301Z 09210KT 9999 FEW030 14/12 Q1039
KK EGLLYYYX LFPGYYYX LFPBYYYX 060446 METAR LFPG 060446Z 26435KT 9999 FEW030 11/8 Q1046
KK LFPBYYYX LFPGYYYX EGLLYYYX 212216 METAR LFPG 212216Z 23535KT 9999 FEW030 23/15 Q1012
KK EDDFYYYX EDDFYYYX EGLLYYYX LFPBYYYX 231250 METAR LFPG 231250Z 32029KT 9999 FEW030 2/5 Q1052
GG LFPOYYYX LFPBYYYX LFPBYYYX 051137 METAR LFPG 051137Z 00736KT 9999 FEW030 1/15 Q1002
SS EGLLYYYX LFPOYYYX LFPBYYYX LFPOYYYX 070430 METAR LFPG 070430Z 12159KT 9999 FEW030 29/14 Q1036
DD LFPYYYX EGLLYYYX 241456 METAR LFPG 241456Z 27445KT 9999 FEW030 7/16 Q1086
LL EGLLYYYX LFPOYYYX EGLLYYYX LFPGYYYX 220442 METAR LFPG 220442Z 19241KT 9999 FEW030 27/14 Q1089
SS LFPGYYYX LFPBYYYX LFPNYYYX LFPNYYYX 230411 METAR LFPG 230411Z 16919KT 9999 FEW030 9/8 Q1019
KK LFPOYYYX LFPGYYYX EDDFYYYX LFPOYYYX 170209 METAR LFPG 170209Z 28727KT 9999 FEW030 19/1 Q1087
LL LFPNYYYX LFPOYYYX LFPOYYYX 161747 METAR LFPG 161747Z 20656KT 9999 FEW030 2/4 Q1052
KK LFPYYYX LFPBYYYX LFPNYYYX 101533 METAR LFPG 101533Z 25232KT 9999 FEW030 1/9 Q1041
GG LFPNYYYX EDDFYYYX LFPNYYYX 281028 METAR LFPG 281028Z 24626KT 9999 FEW030 8/10 Q1086
LL EGLLYYYX LFPGYYYX EGLLYYYX 041711 METAR LFPG 041711Z 11010KT 9999 FEW030 26/8 Q1086
LL LFPGYYYX LFPGYYYX 230939 METAR LFPG 230939Z 19758KT 9999 FEW030 6/4 Q1025
KK LFPGYYYX LFPGYYYX LFPNYYYX LFPBYYYX 102349 METAR LFPG 102349Z 01948KT 9999 FEW030 20/9 Q1082
LL LFPYYYX EDDFYYYX LFPNYYYX LFPBYYYX 241456 METAR LFPG 241456Z 27435KT 9999 FEW030 10/17 Q1024
DD EGLLYYYX LFPGYYYX 100802 METAR LFPG 100802Z 34011KT 9999 FEW030 28/16 Q1099
SS LFPOYYYX LFPNYYYX EGLLYYYX 170216 METAR LFPG 170216Z 28715KT 9999 FEW030 9/5 Q1076
SS EDDFYYYX EDDFYYYX 060709 METAR LFPG 060709Z 21938KT 9999 FEW030 14/14 Q1091
KK EDDFYYYX LFPBYYYX 050632 METAR LFPG 050632Z 12351KT 9999 FEW030 20/12 Q1042
LL EGLLYYYX EDDFYYYX 051141 METAR LFPG 051141Z 07910KT 9999 FEW030 3/11 Q1095
DD LFPGYYYX LFPOYYYX 150051 METAR LFPG 150051Z 26129KT 9999 FEW030 25/1 Q1031
KK LFPOYYYX LFPGYYYX 220318 METAR LFPG 220318Z 28846KT 9999 FEW030 27/9 Q1040
SS LFPBYYYX LFPOYYYX LFPOYYYX LFPOYYYX 062353 METAR LFPG 062353Z 09242KT 9999 FEW030 15/12 Q1037
GG LFPYYYX EGLLYYYX EGLLYYYX LFPBYYYX 131453 METAR LFPG 131453Z 32311KT 9999 FEW030 27/2 Q1000
LL LFPGYYYX LFPBYYYX LFPNYYYX LFPOYYYX 091153 METAR LFPG 091153Z 27112KT 9999 FEW030 1/7 Q1037
LL EDDFYYYX LFPBYYYX LFPBYYYX LFPGYYYX 051821 METAR LFPG 051821Z 23119KT 9999 FEW030 11/5 Q1042
LL LFPBYYYX LFPOYYYX EDDFYYYX 112058 METAR LFPG 112058Z 32937KT 9999 FEW030 24/3 Q1028
KK LFPNYYYX LFPBYYYX 051909 METAR LFPG 051909Z 15938KT 9999 FEW030 17/10 Q1040
FF EGLLYYYX LFPBYYYX LFPBYYYX LFPOYYYX 242159 METAR LFPG 242159Z 20918KT 9999 FEW030 11/16 Q1077
SS EDDFYYYX LFPBYYYX 181254 METAR LFPG 181254Z 03253KT 9999 FEW030 27/6 Q1086
KK LFPOYYYX LFPOYYYX 020333 METAR LFPG 020333Z 07222KT 9999 FEW030 11/12 Q1015
KK LFPYYYX LFPGYYYX EGLLYYYX 110959 METAR LFPG 110959Z 02938KT 9999 FEW030 11/18 Q1018
FF LFPNYYYX EDDFYYYX EGLLYYYX 090252 METAR LFPG 090252Z 02321KT 9999 FEW030 8/19 Q1000
LL EGLLYYYX EDDFYYYX EDDFYYYX EGLLYYYX 180006 METAR LFPG 180006Z 16445KT 9999 FEW030 13/11 Q1059
KK LFPYYYX LFPOYYYX LFPGYYYX 271219 METAR LFPG 271219Z 17757KT 9999 FEW030 0/6 Q1015
FF LFPOYYYX LFPBYYYX EGLLYYYX LFPOYYYX 151214 METAR LFPG 151214Z 34533KT 9999 FEW030 0/8 Q1043
LL LFPYYYX EDDFYYYX LFPNYYYX 161319 METAR LFPG 161319Z 29828KT 9999 FEW030 17/12 Q1086
FF EDDFYYYX LFPNYYYX LFPBYYYX EGLLYYYX 270042 METAR LFPG 270042Z 14041KT 9999 FEW030 23/14 Q1005
FF EDDFYYYX LFPOYYYX 101910 METAR LFPG 101910Z 04058KT 9999 FEW030 25/6 Q1009
KK LFPYYYX LFPGYYYX EGLLYYYX 241316 METAR LFPG 241316Z 10634KT 9999 FEW030 13/4 Q1086
FF LFPOYYYX LFPNYYYX LFPNYYYX 230131 METAR LFPG 230131Z 06930KT 9999 FEW030 11/17 Q1054
GG EGLLYYYX EDDFYYYX EGLLYYYX 120500 METAR LFPG 120500Z 33818KT 9999 FEW030 14/18 Q1099
GG EDDFYYYX LFPBYYYX LFPBYYYX LFPBYYYX 141938 METAR LFPG 141938Z 13646KT 9999 FEW030 4/17 Q1029
GG LFPOYYYX EDDFYYYX 270911 METAR LFPG 270911Z 22140KT 9999 FEW030 12/4 Q1035
DD LFPNYYYX EGLLYYYX LFPNYYYX 031206 METAR LFPG 031206Z 34545KT 9999 FEW030 20/16 Q1024
GG LFPBYYYX LFPGYYYX LFPOYYYX LFPGYYYX 131837 METAR LFPG 131837Z 01535KT 9999 FEW030 25/9 Q1016
FF LFPOYYYX EGLLYYYX LFPBYYYX LFPGYYYX 261541 METAR LFPG 261541Z 25140KT 9999 FEW030 4/8 Q1042
DD LFPNYYYX LFPGYYYX LFPNYYYX EGLLYYYX 240935 METAR LFPG 240935Z 12654KT 9999 FEW030 11/0 Q1087
FF LFPNYYYX LFPBYYYX LFPOYYYX 131101 METAR LFPG 131101Z 15130KT 9999 FEW030 19/10 Q1032
KK LFPNYYYX LFPNYYYX LFPNYYYX LFPOYYYX 052200 METAR LFPG 052200Z 09119KT 9999 FEW030 23/10 Q1033
LL EGLLYYYX LFPNYYYX EDDFYYYX EGLLYYYX 091040 METAR LFPG 091040Z 31929KT 9999 FEW030 15/6 Q1041
DD LFPBYYYX EDDFYYYX 021114 METAR LFPG 021114Z 34452KT 9999 FEW030 23/2 Q1082
KK LFPNYYYX LFPGYYYX 200940 METAR LFPG 200940Z 19818KT 9999 FEW030 1/15 Q1046
SS LFPNYYYX EGLLYYYX LFPGYYYX 231351 METAR LFPG 231351Z 08121KT 9999 FEW030 17/2 Q1038
GG LFPBYYYX LFPBYYYX EDDFYYYX LFPBYYYX 161344 METAR LFPG 161344Z 08212KT 9999 FEW030 0/10 Q1065
SS EGLLYYYX LFPOYYYX 161832 METAR LFPG 161832Z 06231KT 9999 FEW030 23/6 Q1028
GG LFPNYYYX LFPOYYYX 081824 METAR LFPG 081824Z 06233KT 9999 FEW030 27/9 Q1019
FF LFPOYYYX LFPOYYYX EDDFYYYX 110823 METAR LFPG 110823Z 17311KT 9999 FEW030 1/2 Q1060
KK LFPOYYYX EGLLYYYX 091949 METAR LFPG 091949Z 20728KT 9999 FEW030 9/5 Q1036
GG EGLLYYYX EGLLYYYX EGLLYYYX 281315 METAR LFPG 281315Z 22654KT 9999 FEW030 10/13 Q1083
SS LFPOYYYX LFPGYYYX LFPOYYYX 220346 METAR LFPG 220346Z 26454KT 9999 FEW030 23/3 Q1077
FF EDDFYYYX EGLLYYYX LFPBYYYX 211529 METAR LFPG 211529Z 05917KT 9999 FEW030 11/13 Q1028
SS LFPYYYX EGLLYYYX 282224 METAR LFPG 282224Z 35432KT 9999 FEW030 10/8 Q1037
GG LFPNYYYX LFPNYYYX EDDFYYYX 081856 METAR LFPG 081856Z 08645KT 9999 FEW030 25/8 Q1051
SS EGLLYYYX LFPNYYYX LFPNYYYX 030814 METAR LFPG 030814Z 17223KT 9999 FEW030 25/11 Q1089
KK LFPGYYYX LFPGYYYX 130613 METAR LFPG 130613Z 29141KT 9999 FEW030 6/7 Q1059
GG LFPOYYYX LFPNYYYX EGLLYYYX EGLLYYYX 230002 METAR LFPG 230002Z 09311KT 9999 FEW030 1/4 Q1012
LL LFPNYYYX EGLLYYYX EDDFYYYX LFPOYYYX 240951 METAR LFPG 240951Z 26110KT 9999 FEW030 2/15 Q1056
SS LFPGYYYX LFPNYYYX LFPBYYYX 131529 METAR LFPG 131529Z 29948KT 9999 FEW030 14/19 Q1058
SS LFPYYYX LFPNYYYX 061646 METAR LFPG 061646Z 07625KT 9999 FEW030 13/16 Q1099
FF LFPBYYYX EGLLYYYX 110447 METAR LFPG 110447Z 02545KT 9999 FEW030 27/15 Q1059
KK LFPYYYX LFPGYYYX EGLLYYYX LFPNYYYX 090636 METAR LFPG 090636Z 19415KT 9999 FEW030 21/11 Q1036
LL LFPBYYYX EDDFYYYX LFPNYYYX EDDFYYYX 041707 METAR LFPG 041707Z 03846KT 9999 FEW030 26/4 Q1024
SS LFPGYYYX LFPOYYYX 152035 METAR LFPG 152035Z 30523KT 9999 FEW030 6/1 Q1021
GG LFPBYYYX EDDFYYYX 220737 METAR LFPG 220737Z 19646KT 9999 FEW030 21/3 Q1047
SS LFPGYYYX LFPNYYYX LFPGYYYX 181642 METAR LFPG 181642Z 13210KT 9999 FEW030 0/1 Q1051
KK LFPGYYYX LFPBYYYX 190050 METAR LFPG 190050Z 02159KT 9999 FEW030 21/15 Q1054
SS LFPOYYYX LFPGYYYX LFPOYYYX LFPBYYYX 100358 METAR LFPG 100358Z 09646KT 9999 FEW030 11/19 Q1061
LL LFPYYYX LFPNYYYX LFPOYYYX LFPOYYYX 051408 METAR LFPG 051408Z 10737KT 9999 FEW030 26/2 Q1060
LL LFPYYYX LFPBYYYX EGLLYYYX 040131 METAR LFPG 040131Z 18910KT 9999 FEW030 1/15 Q1045
SS EGLLYYYX LFPBYYYX 011945 METAR LFPG 011945Z 25514KT 9999 FEW030 20/1 Q1065
DD EGLLYYYX LFPOYYYX 250644 METAR LFPG 250644Z 19513KT 9999 FEW030 23/2 Q1053
KK LFPOYYYX EGLLYYYX LFPNYYYX 090701 METAR LFPG 090701Z 33930KT 9999 FEW030 1/15 Q1045
KK LFPYYYX EDDFYYYX LFPNYYYX 282200 METAR LFPG 282200Z 09019KT 9999 FEW030 4/2 Q1087
FF LFPBYYYX EDDFYYYX LFPBYYYX 100042 METAR LFPG 100042Z 26011KT 9999 FEW030 29/4 Q1019
DD EDDFYYYX LFPNYYYX LFPGYYYX 251509 METAR LFPG 251509Z 34758KT 9999 FEW030 0/15 Q1076
GG EDDFYYYX EDDFYYYX LFPGYYYX 260038 METAR LFPG 260038Z 06847KT 9999 FEW030 4/13 Q1064
KK LFPBYYYX LFPBYYYX LFPNYYYX 070407 METAR LFPG 070407Z 21735KT 9999 FEW030 15/12 Q1011
DD LFPYYYX LFPOYYYX 071658 METAR LFPG 071658Z 03737KT 9999 FEW030 19/19 Q1025
SS LFPGYYYX LFPBYYYX LFPBYYYX 061934 METAR LFPG 061934Z 18432KT 9999 FEW030 28/19 Q1087
KK EDDFYYYX LFPNYYYX LFPOYYYX 021113 METAR LFPG 021113Z 34332KT 9999 FEW030 20/7 Q1039
SS LFPGYYYX LFPGYYYX 202103 METAR LFPG 202103Z 04232KT 9999 FEW030 23/4 Q1051
FF LFPNYYYX LFPOYYYX LFPNYYYX EGLLYYYX 210609 METAR LFPG 210609Z 21957KT 9999 FEW030 3/7 Q1019
GG LFPBYYYX LFPNYYYX EGLLYYYX 072002 METAR LFPG 072002Z 16131KT 9999 FEW030 9/10 Q1021
LL EGLLYYYX LFPNYYYX 270947 METAR LFPG 270947Z 31726KT 9999 FEW030 28/1 Q1050
KK LFPOYYYX EGLLYYYX 281307 METAR LFPG 281307Z 10526KT 9999 FEW030 1/2 Q1058
GG LFPYYYX LFPNYYYX 081736 METAR LFPG 081736Z 13414KT 9999 FEW030 4/15 Q1029
GG EDDFYYYX LFPGYYYX 271303 METAR LFPG 271303Z 27341KT 9999 FEW030 5/0 Q1022
GG LFPYYYX LFPNYYYX LFPOYYYX 212200 METAR LFPG 212200Z 09049KT 9999 FEW030 15/1 Q1027
DD LFPYYYX EGLLYYYX 280924 METAR LFPG 280924Z 05412KT 9999 FEW030 21/10 Q1095
FF LFPGYYYX LFPNYYYX LFPBYYYX 122124 METAR LFPG 122124Z 35422KT 9999 FEW030 26/15 Q1019
GG LFPBYYYX LFPGYYYX 271658 METAR LFPG 271658Z 27737KT 9999 FEW030 13/16 Q1071
SS LFPBYYYX LFPNYYYX 022329 METAR LFPG 022329Z 30718KT 9999 FEW030 26/5 Q1052
LL LFPYYYX LFPGYYYX EDDFYYYX LFPBYYYX 041351 METAR LFPG 041351Z 08220KT 9999 FEW030 23/17 Q1028
LL EGLLYYYX EGLLYYYX EGLLYYYX LFPBYYYX 011052 METAR LFPG 011052Z 27021KT 9999 FEW030 6/11 Q1021
KK EDDFYYYX EDDFYYYX LFPOYYYX 141654 METAR LFPG 141654Z 32423KT 9999 FEW030 12/19 Q1034
KK LFPGYYYX EDDFYYYX LFPBYYYX 222329 METAR LFPG 222329Z 18858KT 9999 FEW030 0/16 Q1056
LL LFPOYYYX LFPBYYYX EGLLYYYX 151203 METAR LFPG 151203Z 15321KT 9999 FEW030 8/8 Q1046
SS LFPGYYYX EGLLYYYX EGLLYYYX LFPNYYYX 101642 METAR LFPG 101642Z 01220KT 9999 FEW030 0/9 Q1056
DD LFPGYYYX EGLLYYYX LFPBYYYX EGLLYYYX 201735 METAR LFPG 201735Z 01324KT 9999 FEW030 5/10 Q1010
KK EGLLYYYX LFPNYYYX 190511 METAR LFPG 190511Z 16910KT 9999 FEW030 16/13 Q1000
DD LFPGYYYX LFPGYYYX 260030 METAR LFPG 260030Z 30829KT 9999 FEW030 17/10 Q1048
KK LFPBYYYX LFPNYYYX LFPBYYYX EDDFYYYX 070555 METAR LFPG 070555Z 14554KT 9999 FEW030 17/14 Q1039
KK EGLLYYYX LFPBYYYX 072050 METAR LFPG 072050Z 32939KT 9999 FEW030 24/13 Q1020
FF EDDFYYYX EGLLYYYX EDDFYYYX 081351 METAR LFPG 081351Z 08110KT 9999 FEW030 0/12 Q1007
DD LFPOYYYX LFPGYYYX EDDFYYYX 012201 METAR LFPG 012201Z 21149KT 9999 FEW030 22/2 Q1062
LL LFPNYYYX EDDFYYYX LFPNYYYX 120144 METAR LFPG 120144Z 02232KT 9999 FEW030 17/0 Q1084
LL LFPGYYYX EGLLYYYX EGLLYYYX LFPOYYYX 192059 METAR LFPG 192059Z 20929KT 9999 FEW030 7/0 Q1046
KK LFPOYYYX LFPBYYYX LFPGYYYX LFPOYYYX 221214 METAR LFPG 221214Z 22423KT 9999 FEW030 27/7 Q1022
LL LFPOYYYX LFPOYYYX LFPGYYYX LFPNYYYX 231610 METAR LFPG 231610Z 22839KT 9999 FEW030 13/5 Q1031
DD LFPGYYYX EGLLYYYX 140757 METAR LFPG 140757Z 14846KT 9999 FEW030 5/13 Q1083
SS EDDFYYYX LFPBYYYX EDDFYYYX 140709 METAR LFPG 140709Z 34018KT 9999 FEW030 21/1 Q1059
LL LFPNYYYX EDDFYYYX 141521 METAR LFPG 141521Z 18020KT 9999 FEW030 16/15 Q1083
DD LFPOYYYX LFPBYYYX LFPNYYYX LFPGYYYX 161747 METAR LFPG 161747Z 08656KT 9999 FEW030 24/19 Q1066
KK LFPOYYYX EGLLYYYX 270418 METAR LFPG 270418Z 16937KT 9999 FEW030 29/7 Q1056
FF EDDFYYYX LFPOYYYX LFPOYYYX 052236 METAR LFPG 052236Z 06755KT 9999 FEW030 0/6 Q1003
FF LFPOYYYX LFPNYYYX 070838 METAR LFPG 070838Z 07747KT 9999 FEW030 14/11 Q1029
GG LFPBYYYX LFPOYYYX 032015 METAR LFPG 032015Z 11343KT 9999 FEW030 25/8 Q1049
DD LFPOYYYX EDDFYYYX EGLLYYYX 181945 METAR LFPG 181945Z 01634KT 9999 FEW030 1/19 Q1036
DD LFPGYYYX LFPOYYYX LFPOYYYX 060826 METAR LFPG 060826Z 00425KT 9999 FEW030 24/9 Q1024
LL LFPYYYX LFPOYYYX EDDFYYYX LFPNYYYX 230407 METAR LFPG 230407Z 33745KT 9999 FEW030 9/11 Q1036
DD EDDFYYYX LFPBYYYX LFPNYYYX EDDFYYYX 062349 METAR LFPG 062349Z 02048KT 9999 FEW030 4/19 Q1085
FF LFPOYYYX EGLLYYYX LFPOYYYX EGLLYYYX 130656 METAR LFPG 130656Z 14735KT 9999 FEW030 23/19 Q1013
SS LFPBYYYX LFPBYYYX 061554 METAR LFPG 061554Z 32442KT 9999 FEW030 25/8 Q1015
FF LFPBYYYX LFPBYYYX EGLLYYYX EGLLYYYX 250613 METAR LFPG 250613Z 17111KT 9999 FEW030 26/2 Q1051
FF LFPBYYYX LFPGYYYX 211901 METAR LFPG 211901Z 27930KT 9999 FEW030 27/12 Q1031
KK LFPYYYX LFPOYYYX LFPGYYYX LFPOYYYX 150026 METAR LFPG 150026Z 23617KT 9999 FEW030 27/7 Q1038
FF LFPNYYYX EGLLYYYX 071759 METAR LFPG 071759Z 15718KT 9999 FEW030 12/0 Q1055
SS LFPOYYYX EDDFYYYX EDDFYYYX 091405 METAR LFPG 091405Z 27523KT 9999 FEW030 22/14 Q1096
DD LFPGYYYX EDDFYYYX LFPOYYYX LFPBYYYX 150847 METAR LFPG 150847Z 19715KT 9999 FEW030 9/4 Q1070
DD EDDFYYYX LFPGYYYX LFPOYYYX LFPOYYYX 100709 METAR LFPG 100709Z 22038KT 9999 FEW030 14/19 Q1014
DD EGLLYYYX LFPNYYYX LFPBYYYX LFPOYYYX 152047 METAR LFPG 152047Z 01725KT 9999 FEW030 4/6 Q1015
SS EGLLYYYX LFPBYYYX 190947 METAR LFPG 190947Z 31756KT 9999 FEW030 9/4 Q1019
DD LFPYYYX LFPNYYYX LFPGYYYX LFPBYYYX 170648 METAR LFPG 170648Z 26757KT 9999 FEW030 22/10 Q1043
LL LFPYYYX LFPOYYYX 221214 METAR LFPG 221214Z 34453KT 9999 FEW030 23/17 Q1092
LL EDDFYYYX LFPGYYYX LFPBYYYX 110018 METAR LFPG 110018Z 23717KT 9999 FEW030 9/5 Q1009
LL LFPGYYYX LFPNYYYX 110547 METAR LFPG 110547Z 14535KT 9999 FEW030 20/19 Q1033
GG EGLLYYYX LFPOYYYX LFPGYYYX LFPBYYYX 120131 METAR LFPG 120131Z 31010KT 9999 FEW030 17/10 Q1016
SS LFPYYYX LFPGYYYX LFPNYYYX 281856 METAR LFPG 281856Z 08625KT 9999 FEW030 9/4 Q1026
GG LFPBYYYX EDDFYYYX EGLLYYYX LFPOYYYX 160904 METAR LFPG 160904Z 22242KT 9999 FEW030 6/17 Q1016
FF EDDFYYYX LFPGYYYX 181921 METAR LFPG 181921Z 23130KT 9999 FEW030 29/0 Q1016
LL LFPOYYYX EGLLYYYX EDDFYYYX LFPGYYYX 100446 METAR LFPG 100446Z 14435KT 9999 FEW030 6/0 Q1088
FF LFPOYYYX EDDFYYYX 280140 METAR LFPG 280140Z 19018KT 9999 FEW030 4/19 Q1042
LL LFPNYYYX LFPGYYYX LFPBYYYX LFPGYYYX 021646 METAR LFPG 021646Z 20445KT 9999 FEW030 23/9 Q1004
LL LFPOYYYX EDDFYYYX LFPOYYYX EDDFYYYX 081040 METAR LFPG 081040Z 07828KT 9999 FEW030 21/17 Q1031
KK LFPOYYYX LFPNYYYX 110823 METAR LFPG 110823Z 05331KT 9999 FEW030 17/0 Q1070
LL EDDFYYYX EDDFYYYX EGLLYYYX 021949 METAR LFPG 021949Z 08828KT 9999 FEW030 26/1 Q1042
FF LFPNYYYX EGLLYYYX EGLLYYYX 041719 METAR LFPG 041719Z 23018KT 9999 FEW030 0/15 Q1066
FF EGLLYYYX EGLLYYYX LFPOYYYX 070851 METAR LFPG 070851Z 02939KT 9999 FEW030 14/17 Q1015
GG LFPOYYYX LFPBYYYX EGLLYYYX 192046 METAR LFPG 192046Z 01747KT 9999 FEW030 14/13 Q1058
DD LFPBYYYX LFPGYYYX LFPBYYYX 251052 METAR LFPG 251052Z 15121KT 9999 FEW030 2/19 Q1026
FF EGLLYYYX LFPOYYYX 160924 METAR LFPG 160924Z 05412KT 9999 FEW030 8/0 Q1006
KK LFPNYYYX LFPGYYYX 150043 METAR LFPG 150043Z 14151KT 9999 FEW030 10/10 Q1034
FF LFPYYYX LFPNYYYX 010240 METAR LFPG 010240Z 07149KT 9999 FEW030 12/19 Q1041
KK EDDFYYYX EGLLYYYX EGLLYYYX LFPBYYYX 260713 METAR LFPG 260713Z 17252KT 9999 FEW030 27/17 Q1094
DD EGLLYYYX LFPOYYYX 081004 METAR LFPG 081004Z 10213KT 9999 FEW030 1/0 Q1057
GG LFPGYYYX LFPOYYYX LFPGYYYX 080903 METAR LFPG 080903Z 33442KT 9999 FEW030 4/17 Q1042
LL LFPGYYYX LFPGYYYX LFPGYYYX 041319 METAR LFPG 041319Z 17828KT 9999 FEW030 3/10 Q1099
DD LFPGYYYX EGLLYYYX 172353 METAR LFPG 172353Z 21152KT 9999 FEW030 19/1 Q1057
GG LFPOYYYX EGLLYYYX LFPNYYYX EDDFYYYX 211957 METAR LFPG 211957Z 08726KT 9999 FEW030 19/2 Q1053
DD LFPNYYYX LFPBYYYX LFPGYYYX 251025 METAR LFPG 251025Z 05533KT 9999 FEW030 29/0 Q1051
DD LFPBYYYX EDDFYYYX LFPBYYYX LFPNYYYX 190834 METAR LFPG 190834Z 24543KT 9999 FEW030 22/16 Q1010
DD LFPYYYX EDDFYYYX 101113 METAR LFPG 101113Z 10412KT 9999 FEW030 5/11 Q1041
SS LFPGYYYX EDDFYYYX 231723 METAR LFPG 231723Z 18122KT 9999 FEW030 27/14 Q1046
DD LFPOYYYX EDDFYYYX EDDFYYYX EGLLYYYX 140822 METAR LFPG 140822Z 29210KT 9999 FEW030 8/12 Q1001
DD LFPGYYYX LFPOYYYX EGLLYYYX 200903 METAR LFPG 200903Z 34212KT 9999 FEW030 24/17 Q1052
SS EDDFYYYX LFPBYYYX 091129 METAR LFPG 091129Z 12748KT 9999 FEW030 3/1 Q1071
LL EDDFYYYX EGLLYYYX EDDFYYYX 200228 METAR LFPG 200228Z 23837KT 9999 FEW030 6/5 Q1026
KK LFPBYYYX EDDFYYYX LFPGYYYX EDDFYYYX 231707 METAR LFPG 231707Z 03756KT 9999 FEW030 27/18 Q1065
GG LFPGYYYX LFPBYYYX EGLLYYYX 171856 METAR LFPG 171856Z 32625KT 9999 FEW030 21/17 Q1084
DD LFPNYYYX LFPGYYYX 062329 METAR LFPG 062329Z 30828KT 9999 FEW030 15/3 Q1076
KK LFPOYYYX EGLLYYYX LFPOYYYX EGLLYYYX 281052 METAR LFPG 281052Z 27040KT 9999 FEW030 12/1 Q1023
DD EGLLYYYX EGLLYYYX EDDFYYYX EDDFYYYX 020038 METAR LFPG 020038Z 30838KT 9999 FEW030 2/6 Q1001
SS LFPBYYYX LFPOYYYX 191331 METAR LFPG 191331Z 24950KT 9999 FEW030 8/1 Q1063
DD LFPBYYYX LFPBYYYX 081344 METAR LFPG 081344Z 08242KT 9999 FEW030 25/13 Q1066
LL LFPGYYYX LFPGYYYX EGLLYYYX 091909 METAR LFPG 091909Z 15948KT 9999 FEW030 3/12 Q1011
DD LFPGYYYX LFPGYYYX EDDFYYYX EDDFYYYX 210733 METAR LFPG 210733Z 24342KT 9999 FEW030 1/4 Q1084
KK LFPNYYYX LFPOYYYX EGLLYYYX LFPNYYYX 030007 METAR LFPG 030007Z 28525KT 9999 FEW030 18/2 Q1087
FF EDDFYYYX EGLLYYYX EGLLYYYX 121456 METAR LFPG 121456Z 03425KT 9999 FEW030 19/1 Q1050
LL LFPNYYYX LFPBYYYX EGLLYYYX 230947 METAR LFPG 230947Z 31736KT 9999 FEW030 15/2 Q1019
SS EGLLYYYX EDDFYYYX 222014 METAR LFPG 222014Z 23243KT 9999 FEW030 24/5 Q1057
SS LFPYYYX LFPOYYYX 280531 METAR LFPG 280531Z 24220KT 9999 FEW030 16/13 Q1021
GG LFPNYYYX LFPGYYYX LFPBYYYX LFPOYYYX 222353 METAR LFPG 222353Z 33222KT 9999 FEW030 21/10 Q1017
KK LFPBYYYX LFPGYYYX EDDFYYYX 201456 METAR LFPG 201456Z 15425KT 9999 FEW030 6/17 Q1051
LL LFPGYYYX LFPOYYYX LFPBYYYX LFPBYYYX 031731 METAR LFPG 031731Z 18140KT 9999 FEW030 15/18 Q1000
SS EGLLYYYX LFPBYYYX EDDFYYYX 022058 METAR LFPG 022058Z 20837KT 9999 FEW030 25/10 Q1000
DD EDDFYYYX LFPBYYYX LFPNYYYX 230458 METAR LFPG 230458Z 33737KT 9999 FEW030 7/6 Q1071
KK LFPOYYYX LFPOYYYX LFPNYYYX LFPBYYYX 100434 METAR LFPG 100434Z 31223KT 9999 FEW030 17/13 Q1076
FF EDDFYYYX EDDFYYYX LFPNYYYX EGLLYYYX 210749 METAR LFPG 210749Z 02728KT 9999 FEW030 7/4 Q1099
LL LFPNYYYX EGLLYYYX LFPBYYYX 220722 METAR LFPG 220722Z 05240KT 9999 FEW030 22/13 Q1011
GG EGLLYYYX LFPNYYYX EGLLYYYX 121856 METAR LFPG 121856Z 20615KT 9999 FEW030 1/19 Q1073
SS EDDFYYYX EDDFYYYX 202200 METAR LFPG 202200Z 09059KT 9999 FEW030 17/5 Q1033
GG LFPOYYYX LFPOYYYX 151735 METAR LFPG 151735Z 01333KT 9999 FEW030 5/9 Q1098
KK LFPNYYYX LFPBYYYX LFPNYYYX 191254 METAR LFPG 191254Z 15213KT 9999 FEW030 6/19 Q1003
LL LFPYYYX EGLLYYYX 011913 METAR LFPG 011913Z 35121KT 9999 FEW030 0/2 Q1061
LL LFPNYYYX EGLLYYYX EGLLYYYX EGLLYYYX 131421 METAR LFPG 131421Z 05959KT 9999 FEW030 20/6 Q1013
KK LFPYYYX LFPBYYYX EGLLYYYX EDDFYYYX 061118 METAR LFPG 061118Z 29616KT 9999 FEW030 21/2 Q1011
KK LFPNYYYX LFPGYYYX EGLLYYYX LFPBYYYX 191619 METAR LFPG 191619Z 34919KT 9999 FEW030 27/1 Q1001
DD EDDFYYYX EDDFYYYX LFPBYYYX 061958 METAR LFPG 061958Z 08818KT 9999 FEW030 18/3 Q1056
SS EDDFYYYX LFPGYYYX 140810 METAR LFPG 140810Z 10019KT 9999 FEW030 5/7 Q1076
KK LFPOYYYX LFPGYYYX LFPBYYYX 150139 METAR LFPG 150139Z 18958KT 9999 FEW030 16/6 Q1049
DD LFPGYYYX EGLLYYYX 071743 METAR LFPG 071743Z 01312KT 9999 FEW030 3/15 Q1001
LL LFPBYYYX EGLLYYYX LFPGYYYX LFPNYYYX 061505 METAR LFPG 061505Z 27554KT 9999 FEW030 0/2 Q1000
KK EDDFYYYX LFPGYYYX 232003 METAR LFPG 232003Z 16141KT 9999 FEW030 10/3 Q1003
KK LFPOYYYX EGLLYYYX LFPNYYYX 141546 METAR LFPG 141546Z 08424KT 9999 FEW030 5/3 Q1095
KK LFPNYYYX LFPOYYYX LFPBYYYX LFPNYYYX 280108 METAR LFPG 280108Z 16616KT 9999 FEW030 1/8 Q1085
FF LFPOYYYX EDDFYYYX LFPNYYYX LFPNYYYX 071630 METAR LFPG 071630Z 06159KT 9999 FEW030 7/11 Q1028
LL EGLLYYYX LFPBYYYX LFPGYYYX 241428 METAR LFPG 241428Z 29817KT 9999 FEW030 9/10 Q1037
FF LFPBYYYX EDDFYYYX LFPBYYYX EGLLYYYX 271611 METAR LFPG 271611Z 10919KT 9999 FEW030 4/3 Q1046
DD LFPYYYX LFPNYYYX LFPNYYYX LFPBYYYX 221957 METAR LFPG 221957Z 20816KT 9999 FEW030 25/6 Q1080
DD LFPOYYYX EDDFYYYX 181909 METAR LFPG 181909Z 03928KT 9999 FEW030 19/14 Q1072
SS EGLLYYYX LFPNYYYX EGLLYYYX 270850 METAR LFPG 270850Z 26939KT 9999 FEW030 13/18 Q1011
DD LFPYYYX LFPGYYYX LFPOYYYX 082147 METAR LFPG 082147Z 01856KT 9999 FEW030 15/8 Q1031
DD LFPOYYYX LFPBYYYX LFPNYYYX EGLLYYYX 032015 METAR LFPG 032015Z 35353KT 9999 FEW030 24/19 Q1025
SS LFPGYYYX LFPOYYYX LFPGYYYX LFPOYYYX 191630 METAR LFPG 191630Z 18149KT 9999 FEW030 14/14 Q1026
KK LFPNYYYX LFPGYYYX 230131 METAR LFPG 230131Z 30920KT 9999 FEW030 27/1 Q1066
LL EGLLYYYX LFPGYYYX 080543 METAR LFPG 080543Z 31444KT 9999 FEW030 14/17 Q1040
DD EDDFYYYX EDDFYYYX LFPNYYYX EDDFYYYX 182026 METAR LFPG 182026Z 06454KT 9999 FEW030 9/10 Q1099
FF LFPGYYYX EDDFYYYX EGLLYYYX LFPBYYYX 131445 METAR LFPG 131445Z 32343KT 9999 FEW030 11/5 Q1002
SS EDDFYYYX EGLLYYYX 230042 METAR LFPG 230042Z 14151KT 9999 FEW030 13/15 Q1087
DD LFPOYYYX LFPBYYYX LFPGYYYX 181646 METAR LFPG 181646Z 20415KT 9999 FEW030 29/17 Q1041
SS LFPYYYX LFPGYYYX LFPNYYYX 160951 METAR LFPG 160951Z 03010KT 9999 FEW030 9/3 Q1056
LL LFPGYYYX EGLLYYYX LFPOYYYX 280152 METAR LFPG 280152Z 14240KT 9999 FEW030 13/13 Q1087
LL LFPNYYYX EGLLYYYX LFPBYYYX EDDFYYYX 081004 METAR LFPG 081004Z 10253KT 9999 FEW030 16/9 Q1019
SS LFPOYYYX LFPOYYYX 220822 METAR LFPG 220822Z 17231KT 9999 FEW030 1/3 Q1024
DD EGLLYYYX LFPNYYYX LFPGYYYX 230507 METAR LFPG 230507Z 21716KT 9999 FEW030 28/15 Q1078
KK LFPYYYX EGLLYYYX EDDFYYYX EDDFYYYX 070531 METAR LFPG 070531Z 12130KT 9999 FEW030 5/10 Q1059
DD LFPNYYYX EDDFYYYX LFPNYYYX LFPNYYYX 251025 METAR LFPG 251025Z 17523KT 9999 FEW030 3/17 Q1096
LL LFPOYYYX LFPGYYYX LFPOYYYX LFPGYYYX 151654 METAR LFPG 151654Z 32553KT 9999 FEW030 15/1 Q1094
DD LFPYYYX LFPGYYYX LFPBYYYX 051048 METAR LFPG 051048Z 31927KT 9999 FEW030 13/16 Q1091
KK LFPGYYYX EDDFYYYX LFPOYYYX 080512 METAR LFPG 080512Z 05020KT 9999 FEW030 19/12 Q1010
KK EDDFYYYX LFPBYYYX LFPNYYYX 100345 METAR LFPG 100345Z 02444KT 9999 FEW030 5/0 Q1096
FF EDDFYYYX EGLLYYYX 081331 METAR LFPG 081331Z 01020KT 9999 FEW030 4/13 Q1065
DD LFPYYYX LFPOYYYX LFPOYYYX 201344 METAR LFPG 201344Z 08232KT 9999 FEW030 21/10 Q1084
SS LFPOYYYX LFPBYYYX 231355 METAR LFPG 231355Z 15354KT 9999 FEW030 14/13 Q1065
KK EDDFYYYX LFPBYYYX 181254 METAR LFPG 181254Z 27253KT 9999 FEW030 18/4 Q1065
LL LFPGYYYX EGLLYYYX EGLLYYYX 150903 METAR LFPG 150903Z 22131KT 9999 FEW030 9/12 Q1048
GG LFPNYYYX EGLLYYYX LFPOYYYX 201303 METAR LFPG 201303Z 27432KT 9999 FEW030 14/13 Q1062
SS LFPGYYYX LFPBYYYX 232050 METAR LFPG 232050Z 32129KT 9999 FEW030 14/18 Q1029
GG LFPGYYYX LFPOYYYX LFPBYYYX 131113 METAR LFPG 131113Z 10352KT 9999 FEW030 11/14 Q1013
GG LFPYYYX EDDFYYYX LFPOYYYX LFPNYYYX 281756 METAR LFPG 281756Z 20624KT 9999 FEW030 6/16 Q1058
GG EDDFYYYX LFPGYYYX 062058 METAR LFPG 062058Z 08847KT 9999 FEW030 13/15 Q1023
SS LFPYYYX LFPOYYYX 110803 METAR LFPG 110803Z 34141KT 9999 FEW030 0/5 Q1038
KK LFPGYYYX EDDFYYYX 141105 METAR LFPG 141105Z 34414KT 9999 FEW030 15/14 Q1019
DD LFPBYYYX LFPGYYYX LFPBYYYX 131949 METAR LFPG 131949Z 19958KT 9999 FEW030 3/12 Q1024
DD EGLLYYYX LFPOYYYX LFPOYYYX EDDFYYYX 260810 METAR LFPG 260810Z 34049KT 9999 FEW030 7/17 Q1067
DD LFPNYYYX LFPBYYYX EGLLYYYX EGLLYYYX 211113 METAR LFPG 211113Z 34312KT 9999 FEW030 14/13 Q1043
GG LFPBYYYX EGLLYYYX LFPBYYYX 271243 METAR LFPG 271243Z 20121KT 9999 FEW030 26/5 Q1043
DD EGLLYYYX EDDFYYYX LFPBYYYX LFPNYYYX 261141 METAR LFPG 261141Z 20050KT 9999 FEW030 7/1 Q1054
LL EDDFYYYX LFPGYYYX LFPGYYYX EDDFYYYX 270139 METAR LFPG 270139Z 30947KT 9999 FEW030 9/13 Q1098
GG LFPOYYYX EDDFYYYX EGLLYYYX EGLLYYYX 222349 METAR LFPG 222349Z 14048KT 9999 FEW030 24/3 Q1062
FF LFPNYYYX LFPNYYYX 010613 METAR LFPG 010613Z 17121KT 9999 FEW030 0/19 Q1096
KK LFPYYYX LFPNYYYX LFPGYYYX EDDFYYYX 150531 METAR LFPG 150531Z 24130KT 9999 FEW030 1/3 Q1037
DD LFPYYYX EGLLYYYX LFPOYYYX LFPBYYYX 100430 METAR LFPG 100430Z 24039KT 9999 FEW030 4/5 Q1035
FF LFPBYYYX LFPBYYYX LFPNYYYX LFPBYYYX 030139 METAR LFPG 030139Z 30957KT 9999 FEW030 26/19 Q1049
SS LFPGYYYX EGLLYYYX EDDFYYYX 020406 METAR LFPG 020406Z 21645KT 9999 FEW030 27/11 Q1069
DD LFPBYYYX LFPOYYYX LFPOYYYX EDDFYYYX 050341 METAR LFPG 050341Z 31141KT 9999 FEW030 15/13 Q1081
FF LFPYYYX LFPGYYYX LFPBYYYX 080600 METAR LFPG 080600Z 09838KT 9999 FEW030 16/3 Q1026
GG LFPYYYX LFPOYYYX LFPBYYYX 110014 METAR LFPG 110014Z 16513KT 9999 FEW030 5/0 Q1074
FF LFPYYYX LFPOYYYX 250709 METAR LFPG 250709Z 21947KT 9999 FEW030 12/4 Q1027
LL EDDFYYYX LFPOYYYX 160556 METAR LFPG 160556Z 26654KT 9999 FEW030 3/14 Q1034
DD EDDFYYYX LFPGYYYX EDDFYYYX EGLLYYYX 250609 METAR LFPG 250609Z 21947KT 9999 FEW030 29/7 Q1071
GG EDDFYYYX EGLLYYYX LFPGYYYX 051433 METAR LFPG 051433Z 25121KT 9999 FEW030 5/15 Q1093
GG LFPNYYYX EGLLYYYX 130228 METAR LFPG 130228Z 11827KT 9999 FEW030 5/14 Q1066
DD LFPNYYYX EGLLYYYX 191723 METAR LFPG 191723Z 06131KT 9999 FEW030 12/1 Q1090
GG LFPBYYYX LFPNYYYX 181126 METAR LFPG 181126Z 17614KT 9999 FEW030 20/15 Q1032
KK LFPNYYYX LFPNYYYX 131517 METAR LFPG 131517Z 22736KT 9999 FEW030 15/11 Q1010
KK LFPNYYYX EDDFYYYX LFPNYYYX LFPBYYYX 090228 METAR LFPG 090228Z 11857KT 9999 FEW030 9/12 Q1043
SS LFPGYYYX EDDFYYYX EGLLYYYX 151755 METAR LFPG 151755Z 20534KT 9999 FEW030 18/16 Q1088
FF LFPYYYX EGLLYYYX 171408 METAR LFPG 171408Z 34737KT 9999 FEW030 14/18 Q1087
GG EDDFYYYX LFPOYYYX EDDFYYYX 081040 METAR LFPG 081040Z 07849KT 9999 FEW030 28/17 Q1097
FF LFPBYYYX LFPBYYYX 150054 METAR LFPG 150054Z 33333KT 9999 FEW030 17/15 Q1008
SS LFPNYYYX LFPBYYYX 231635 METAR LFPG 231635Z 13323KT 9999 FEW030 2/3 Q1009
GG LFPNYYYX EDDFYYYX LFPBYYYX 061558 METAR LFPG 061558Z 15636KT 9999 FEW030 7/13 Q1096
DD LFPOYYYX EGLLYYYX LFPGYYYX LFPNYYYX 120119 METAR LFPG 120119Z 35838KT 9999 FEW030 12/13 Q1099
GG LFPBYYYX LFPNYYYX EDDFYYYX EGLLYYYX 121408 METAR LFPG 121408Z 22657KT 9999 FEW030 5/7 Q1095
DD EGLLYYYX EGLLYYYX 181105 METAR LFPG 181105Z 22354KT 9999 FEW030 14/9 Q1001
DD LFPNYYYX LFPNYYYX EGLLYYYX 171801 METAR LFPG 171801Z 03929KT 9999 FEW030 14/6 Q1063
DD EDDFYYYX LFPGYYYX LFPGYYYX 101926 METAR LFPG 101926Z 18444KT 9999 FEW030 22/15 Q1018
FF LFPNYYYX LFPNYYYX LFPNYYYX LFPNYYYX 211456 METAR LFPG 211456Z 15545KT 9999 FEW030 5/13 Q1012
SS EGLLYYYX EGLLYYYX 201820 METAR LFPG 201820Z 11029KT 9999 FEW030 3/17 Q1077
FF LFPOYYYX LFPOYYYX EGLLYYYX 030923 METAR LFPG 030923Z 05322KT 9999 FEW030 10/2 Q1017
SS LFPGYYYX LFPGYYYX 130648 METAR LFPG 130648Z 02757KT 9999 FEW030 18/9 Q1056
FF EDDFYYYX LFPNYYYX LFPGYYYX 041736 METAR LFPG 041736Z 13414KT 9999 FEW030 10/13 Q1041
LL LFPOYYYX EGLLYYYX EGLLYYYX LFPNYYYX 180354 METAR LFPG 180354Z 14422KT 9999 FEW030 11/14 Q1086
DD LFPNYYYX EGLLYYYX EDDFYYYX LFPNYYYX 221949 METAR LFPG 221949Z 08818KT 9999 FEW030 19/9 Q1094
DD LFPBYYYX LFPGYYYX 200559 METAR LFPG 200559Z 33818KT 9999 FEW030 3/14 Q1013
SS LFPBYYYX LFPBYYYX LFPGYYYX LFPOYYYX 242151 METAR LFPG 242151Z 09030KT 9999 FEW030 8/4 Q1081
DD LFPOYYYX LFPOYYYX EGLLYYYX 031642 METAR LFPG 031642Z 01211KT 9999 FEW030 3/19 Q1007
SS LFPBYYYX LFPBYYYX LFPOYYYX 040204 METAR LFPG 040204Z 21433KT 9999 FEW030 7/4 Q1043
KK EGLLYYYX LFPBYYYX 111230 METAR LFPG 111230Z 12929KT 9999 FEW030 8/16 Q1074
FF LFPGYYYX EGLLYYYX LFPGYYYX 101541 METAR LFPG 101541Z 01230KT 9999 FEW030 1/12 Q1013
KK LFPGYYYX EDDFYYYX LFPOYYYX 180054 METAR LFPG 180054Z 33213KT 9999 FEW030 27/0 Q1084
DD LFPNYYYX LFPGYYYX 050220 METAR LFPG 050220Z 23919KT 9999 FEW030 27/7 Q1088
SS LFPYYYX LFPBYYYX EGLLYYYX EGLLYYYX 251025 METAR LFPG 251025Z 29523KT 9999 FEW030 6/10 Q1082
DD LFPBYYYX EDDFYYYX LFPGYYYX LFPOYYYX 042151 METAR LFPG 042151Z 32950KT 9999 FEW030 23/0 Q1033
SS LFPOYYYX EGLLYYYX LFPBYYYX 210645 METAR LFPG 210645Z 31533KT 9999 FEW030 13/2 Q1087
GG EGLLYYYX LFPNYYYX EGLLYYYX LFPGYYYX 012248 METAR LFPG 012248Z 13817KT 9999 FEW030 29/18 Q1010
FF LFPYYYX LFPGYYYX LFPOYYYX 060434 METAR LFPG 060434Z 19212KT 9999 FEW030 27/16 Q1056
SS LFPOYYYX LFPBYYYX LFPOYYYX EDDFYYYX 251901 METAR LFPG 251901Z 27920KT 9999 FEW030 7/0 Q1076
SS EGLLYYYX LFPNYYYX 060006 METAR LFPG 060006Z 16435KT 9999 FEW030 16/12 Q1099
FF LFPOYYYX LFPGYYYX LFPOYYYX LFPBYYYX 180726 METAR LFPG 180726Z 12454KT 9999 FEW030 19/18 Q1012
SS LFPGYYYX LFPGYYYX LFPBYYYX 011001 METAR LFPG 011001Z 03119KT 9999 FEW030 28/1 Q1035
FF EGLLYYYX EGLLYYYX LFPBYYYX 272135 METAR LFPG 272135Z 18534KT 9999 FEW030 15/5 Q1057
DD EDDFYYYX LFPOYYYX LFPBYYYX LFPGYYYX 200119 METAR LFPG 200119Z 35848KT 9999 FEW030 4/18 Q1001
GG LFPYYYX LFPOYYYX 240500 METAR LFPG 240500Z 33838KT 9999 FEW030 26/5 Q1074
DD LFPNYYYX EGLLYYYX 101958 METAR LFPG 101958Z 08816KT 9999 FEW030 29/12 Q1075
FF LFPBYYYX EGLLYYYX 242103 METAR LFPG 242103Z 04242KT 9999 FEW030 17/18 Q1084
FF EGLLYYYX LFPNYYYX 221254 METAR LFPG 221254Z 03223KT 9999 FEW030 20/6 Q1038
FF LFPBYYYX EGLLYYYX 171416 METAR LFPG 171416Z 22745KT 9999 FEW030 17/16 Q1077
SS LFPOYYYX LFPNYYYX 221622 METAR LFPG 221622Z 18041KT 9999 FEW030 5/2 Q1001
KK EGLLYYYX LFPNYYYX EGLLYYYX 110927 METAR LFPG 110927Z 12556KT 9999 FEW030 23/6 Q1003
FF LFPNYYYX LFPGYYYX 251856 METAR LFPG 251856Z 32745KT 9999 FEW030 26/1 Q1038
FF LFPOYYYX LFPBYYYX 032002 METAR LFPG 032002Z 04151KT 9999 FEW030 15/13 Q1068
LL LFPOYYYX LFPNYYYX 160600 METAR LFPG 160600Z 09819KT 9999 FEW030 17/9 Q1064
GG EGLLYYYX LFPBYYYX LFPNYYYX 061101 METAR LFPG 061101Z 03240KT 9999 FEW030 23/2 Q1007
SS EDDFYYYX LFPOYYYX LFPBYYYX 270455 METAR LFPG 270455Z 02523KT 9999 FEW030 29/3 Q1034
GG EDDFYYYX LFPOYYYX EDDFYYYX 170644 METAR LFPG 170644Z 31523KT 9999 FEW030 23/1 Q1016
LL LFPBYYYX LFPNYYYX LFPNYYYX 151719 METAR LFPG 151719Z 34938KT 9999 FEW030 10/9 Q1093
SS LFPNYYYX LFPOYYYX 122252 METAR LFPG 122252Z 09041KT 9999 FEW030 25/10 Q1019
GG LFPNYYYX LFPOYYYX EDDFYYYX EGLLYYYX 200512 METAR LFPG 200512Z 05050KT 9999 FEW030 27/0 Q1068
GG EDDFYYYX LFPOYYYX EGLLYYYX LFPBYYYX 262353 METAR LFPG 262353Z 09252KT 9999 FEW030 21/5 Q1062
GG LFPOYYYX LFPGYYYX LFPOYYYX LFPNYYYX 221622 METAR LFPG 221622Z 18011KT 9999 FEW030 25/11 Q1084
KK EGLLYYYX EDDFYYYX LFPBYYYX 230031 METAR LFPG 230031Z 18919KT 9999 FEW030 8/16 Q1054
DD LFPGYYYX LFPNYYYX 232139 METAR LFPG 232139Z 13728KT 9999 FEW030 28/4 Q1044
SS LFPOYYYX LFPGYYYX 052240 METAR LFPG 052240Z 01839KT 9999 FEW030 4/12 Q1010
FF EGLLYYYX LFPGYYYX EGLLYYYX LFPOYYYX 221129 METAR LFPG 221129Z 12848KT 9999 FEW030 6/14 Q1075
SS LFPGYYYX EGLLYYYX EGLLYYYX LFPBYYYX 122200 METAR LFPG 122200Z 09019KT 9999 FEW030 11/17 Q1030
DD LFPBYYYX EDDFYYYX EGLLYYYX 130725 METAR LFPG 130725Z 12354KT 9999 FEW030 19/17 Q1015
GG LFPBYYYX LFPBYYYX 250204 METAR LFPG 250204Z 09453KT 9999 FEW030 2/6 Q1009
GG LFPGYYYX EGLLYYYX EDDFYYYX 110511 METAR LFPG 110511Z 16939KT 9999 FEW030 21/10 Q1040
GG LFPOYYYX EDDFYYYX EGLLYYYX EGLLYYYX 011849 METAR LFPG 011849Z 08737KT 9999 FEW030 11/5 Q1029
KK LFPYYYX EGLLYYYX LFPBYYYX LFPGYYYX 072027 METAR LFPG 072027Z 18535KT 9999 FEW030 2/7 Q1089
KK LFPNYYYX LFPOYYYX LFPGYYYX 050632 METAR LFPG 050632Z 24211KT 9999 FEW030 4/13 Q1056
GG LFPGYYYX EGLLYYYX LFPOYYYX 162128 METAR LFPG 162128Z 06626KT 9999 FEW030 20/19 Q1077
SS LFPGYYYX LFPOYYYX LFPGYYYX 140309 METAR LFPG 140309Z 04818KT 9999 FEW030 6/7 Q1072
FF LFPGYYYX LFPOYYYX LFPOYYYX EDDFYYYX 162135 METAR LFPG 162135Z 30524KT 9999 FEW030 6/15 Q1011
LL LFPNYYYX EGLLYYYX EDDFYYYX LFPBYYYX 061946 METAR LFPG 061946Z 01654KT 9999 FEW030 29/11 Q1056
DD LFPYYYX LFPOYYYX 041012 METAR LFPG 041012Z 34241KT 9999 FEW030 0/18 Q1041
GG LFPYYYX LFPOYYYX LFPBYYYX LFPGYYYX 232026 METAR LFPG 232026Z 30545KT 9999 FEW030 27/15 Q1016
FF LFPNYYYX LFPOYYYX LFPBYYYX 111723 METAR LFPG 111723Z 30131KT 9999 FEW030 6/18 Q1048
SS LFPGYYYX EDDFYYYX EGLLYYYX LFPNYYYX 270454 METAR LFPG 270454Z 14543KT 9999 FEW030 12/15 Q1030
DD LFPOYYYX EDDFYYYX LFPBYYYX EGLLYYYX 140006 METAR LFPG 140006Z 16425KT 9999 FEW030 6/9 Q1022
KK LFPNYYYX LFPGYYYX LFPOYYYX 190834 METAR LFPG 190834Z 00423KT 9999 FEW030 9/19 Q1018
KK LFPGYYYX LFPNYYYX EDDFYYYX 081756 METAR LFPG 081756Z 32634KT 9999 FEW030 13/7 Q1080
SS LFPGYYYX EGLLYYYX 161708 METAR LFPG 161708Z 15848KT 9999 FEW030 29/12 Q1075
LL EDDFYYYX EDDFYYYX 160947 METAR LFPG 160947Z 07856KT 9999 FEW030 21/18 Q1018
FF LFPGYYYX LFPGYYYX 190039 METAR LFPG 190039Z 06937KT 9999 FEW030 17/19 Q1023
FF LFPOYYYX LFPOYYYX 010600 METAR LFPG 010600Z 33919KT 9999 FEW030 29/18 Q1045
GG EDDFYYYX LFPBYYYX EGLLYYYX EDDFYYYX 260334 METAR LFPG 260334Z 31252KT 9999 FEW030 7/12 Q1007
SS LFPGYYYX LFPNYYYX LFPOYYYX 071610 METAR LFPG 071610Z 10919KT 9999 FEW030 26/3 Q1017
LL EDDFYYYX LFPGYYYX LFPGYYYX LFPGYYYX 270815 METAR LFPG 270815Z 05323KT 9999 FEW030 5/5 Q1025
LL LFPBYYYX LFPGYYYX 100317 METAR LFPG 100317Z 04726KT 9999 FEW030 20/1 Q1058
FF LFPNYYYX EGLLYYYX LFPGYYYX LFPOYYYX 252313 METAR LFPG 252313Z 04321KT 9999 FEW030 20/17 Q1053
SS LFPGYYYX EDDFYYYX 170601 METAR LFPG 170601Z 33959KT 9999 FEW030 20/11 Q1088
LL LFPBYYYX EGLLYYYX 260750 METAR LFPG 260750Z 02848KT 9999 FEW030 22/11 Q1021
FF LFPYYYX LFPNYYYX EDDFYYYX 120911 METAR LFPG 120911Z 10230KT 9999 FEW030 18/16 Q1013
LL LFPYYYX LFPOYYYX 100814 METAR LFPG 100814Z 16412KT 9999 FEW030 3/0 Q1038
FF LFPGYYYX EDDFYYYX 131153 METAR LFPG 131153Z 15142KT 9999 FEW030 17/15 Q1008
LL LFPNYYYX EGLLYYYX 280911 METAR LFPG 280911Z 22230KT 9999 FEW030 9/8 Q1065
SS EGLLYYYX LFPNYYYX LFPBYYYX 171440 METAR LFPG 171440Z 01119KT 9999 FEW030 21/18 Q1035
GG LFPYYYX LFPOYYYX EDDFYYYX LFPNYYYX 051421 METAR LFPG 051421Z 05919KT 9999 FEW030 14/8 Q1020
SS EDDFYYYX EDDFYYYX 180750 METAR LFPG 180750Z 26848KT 9999 FEW030 25/8 Q1095
DD LFPNYYYX EDDFYYYX 032050 METAR LFPG 032050Z 20919KT 9999 FEW030 0/15 Q1064
SS EDDFYYYX LFPBYYYX 170253 METAR LFPG 170253Z 02311KT 9999 FEW030 7/0 Q1087
SS EDDFYYYX EDDFYYYX 050221 METAR LFPG 050221Z 11919KT 9999 FEW030 17/17 Q1056
KK LFPNYYYX LFPNYYYX 201328 METAR LFPG 201328Z 29836KT 9999 FEW030 29/4 Q1025
SS LFPYYYX LFPBYYYX LFPBYYYX 091820 METAR LFPG 091820Z 23129KT 9999 FEW030 4/15 Q1009
LL LFPYYYX EDDFYYYX 052200 METAR LFPG 052200Z 21129KT 9999 FEW030 27/9 Q1029
FF LFPYYYX EDDFYYYX LFPBYYYX 231343 METAR LFPG 231343Z 20142KT 9999 FEW030 22/4 Q1090
SS LFPGYYYX LFPOYYYX LFPOYYYX 250204 METAR LFPG 250204Z 33533KT 9999 FEW030 17/2 Q1004
DD EGLLYYYX EDDFYYYX LFPNYYYX EDDFYYYX 110406 METAR LFPG 110406Z 33725KT 9999 FEW030 24/1 Q1094
KK LFPBYYYX LFPOYYYX LFPNYYYX EGLLYYYX 022301 METAR LFPG 022301Z 33150KT 9999 FEW030 1/18 Q1016
SS EGLLYYYX EDDFYYYX LFPOYYYX LFPBYYYX 211416 METAR LFPG 211416Z 10747KT 9999 FEW030 21/8 Q1091
LL LFPBYYYX LFPGYYYX LFPGYYYX LFPBYYYX 101914 METAR LFPG 101914Z 23212KT 9999 FEW030 1/17 Q1081
LL LFPYYYX EGLLYYYX 261546 METAR LFPG 261546Z 32424KT 9999 FEW030 15/3 Q1084
LL LFPYYYX EDDFYYYX EDDFYYYX LFPOYYYX 120624 METAR LFPG 120624Z 00253KT 9999 FEW030 6/6 Q1059
LL LFPBYYYX LFPNYYYX LFPBYYYX LFPOYYYX 081408 METAR LFPG 081408Z 34646KT 9999 FEW030 24/13 Q1026
GG LFPGYYYX LFPNYYYX 020722 METAR LFPG 020722Z 17212KT 9999 FEW030 13/12 Q1096
LL LFPGYYYX LFPGYYYX LFPGYYYX 100846 METAR LFPG 100846Z 31635KT 9999 FEW030 19/5 Q1080
FF LFPGYYYX LFPGYYYX LFPGYYYX EDDFYYYX 172229 METAR LFPG 172229Z 18727KT 9999 FEW030 14/3 Q1092
KK EGLLYYYX EDDFYYYX 011509 METAR LFPG 011509Z 34727KT 9999 FEW030 29/16 Q1054
GG LFPNYYYX LFPNYYYX EDDFYYYX 102014 METAR LFPG 102014Z 23213KT 9999 FEW030 16/3 Q1056
DD LFPGYYYX LFPBYYYX 170648 METAR LFPG 170648Z 26727KT 9999 FEW030 25/3 Q1045
GG LFPYYYX LFPGYYYX EDDFYYYX EDDFYYYX 052200 METAR LFPG 052200Z 21029KT 9999 FEW030 12/10 Q1021
FF LFPBYYYX EDDFYYYX LFPOYYYX LFPNYYYX 121327 METAR LFPG 121327Z 17846KT 9999 FEW030 21/3 Q1089
SS LFPGYYYX EDDFYYYX 180358 METAR LFPG 180358Z 33646KT 9999 FEW030 4/10 Q1037
FF LFPBYYYX LFPGYYYX 210725 METAR LFPG 210725Z 00314KT 9999 FEW030 6/1 Q1022
SS LFPBYYYX LFPBYYYX LFPBYYYX LFPNYYYX 182326 METAR LFPG 182326Z 23654KT 9999 FEW030 19/13 Q1035
DD LFPGYYYX EGLLYYYX 011800 METAR LFPG 011800Z 03829KT 9999 FEW030 28/12 Q1044
GG LFPOYYYX EDDFYYYX LFPBYYYX 140305 METAR LFPG 140305Z 33654KT 9999 FEW030 8/13 Q1060
LL LFPGYYYX EGLLYYYX LFPNYYYX LFPGYYYX 080524 METAR LFPG 080524Z 24242KT 9999 FEW030 16/9 Q1089
GG LFPBYYYX LFPOYYYX 091417 METAR LFPG 091417Z 22745KT 9999 FEW030 14/16 Q1089
SS LFPYYYX LFPGYYYX LFPBYYYX LFPOYYYX 150523 METAR LFPG 150523Z 11311KT 9999 FEW030 2/12 Q1089
FF LFPYYYX LFPOYYYX LFPNYYYX 101658 METAR LFPG 101658Z 27627KT 9999 FEW030 12/19 Q1047
LL LFPOYYYX LFPGYYYX LFPGYYYX 032147 METAR LFPG 032147Z 13735KT 9999 FEW030 5/14 Q1098
DD LFPYYYX EDDFYYYX LFPOYYYX 061118 METAR LFPG 061118Z 29656KT 9999 FEW030 27/16 Q1092
LL LFPOYYYX LFPBYYYX EGLLYYYX 030127 METAR LFPG 030127Z 11755KT 9999 FEW030 10/1 Q1095
FF LFPOYYYX LFPNYYYX LFPNYYYX LFPBYYYX 271343 METAR LFPG 271343Z 32122KT 9999 FEW030 9/11 Q1008
KK LFPBYYYX LFPGYYYX 220346 METAR LFPG 220346Z 02424KT 9999 FEW030 16/14 Q1095
FF EDDFYYYX LFPGYYYX 171844 METAR LFPG 171844Z 13543KT 9999 FEW030 19/19 Q1048
GG LFPNYYYX LFPOYYYX LFPGYYYX 131117 METAR LFPG 131117Z 17516KT 9999 FEW030 12/18 Q1000
DD LFPGYYYX EDDFYYYX 181902 METAR LFPG 181902Z 28030KT 9999 FEW030 2/2 Q1061
SS EGLLYYYX LFPNYYYX EDDFYYYX 011052 METAR LFPG 011052Z 03141KT 9999 FEW030 5/17 Q1017
DD LFPOYYYX LFPNYYYX 071642 METAR LFPG 071642Z 13221KT 9999 FEW030 29/11 Q1037
DD EDDFYYYX LFPOYYYX LFPGYYYX 270406 METAR LFPG 270406Z 09715KT 9999 FEW030 28/3 Q1002
LL LFPBYYYX LFPOYYYX 062026 METAR LFPG 062026Z 30425KT 9999 FEW030 0/7 Q1082
LL LFPBYYYX LFPOYYYX LFPBYYYX LFPGYYYX 262046 METAR LFPG 262046Z 13645KT 9999 FEW030 24/0 Q1086
SS LFPNYYYX EGLLYYYX LFPGYYYX 270959 METAR LFPG 270959Z 02948KT 9999 FEW030 20/15 Q1076
DD EGLLYYYX LFPOYYYX LFPGYYYX LFPNYYYX 272011 METAR LFPG 272011Z 28159KT 9999 FEW030 14/8 Q1096
KK LFPOYYYX LFPNYYYX EGLLYYYX LFPOYYYX 121332 METAR LFPG 121332Z 01020KT 9999 FEW030 9/19 Q1080
FF EDDFYYYX EGLLYYYX 160935 METAR LFPG 160935Z 12644KT 9999 FEW030 25/3 Q1009
LL EDDFYYYX LFPOYYYX LFPGYYYX 062325 METAR LFPG 062325Z 11624KT 9999 FEW030 20/18 Q1030
LL LFPGYYYX EDDFYYYX LFPNYYYX 201355 METAR LFPG 201355Z 27454KT 9999 FEW030 2/3 Q1037
DD LFPYYYX LFPGYYYX 151327 METAR LFPG 151327Z 05726KT 9999 FEW030 8/0 Q1077
KK EGLLYYYX LFPNYYYX 230959 METAR LFPG 230959Z 14948KT 9999 FEW030 23/5 Q1087
DD EDDFYYYX LFPOYYYX 022026 METAR LFPG 022026Z 30425KT 9999 FEW030 2/15 Q1014
GG LFPBYYYX LFPGYYYX LFPBYYYX LFPBYYYX 251048 METAR LFPG 251048Z 19947KT 9999 FEW030 29/9 Q1055
FF LFPOYYYX LFPBYYYX LFPBYYYX EDDFYYYX 260321 METAR LFPG 260321Z 35950KT 9999 FEW030 14/7 Q1022
DD LFPNYYYX EGLLYYYX LFPOYYYX 010657 METAR LFPG 010657Z 02735KT 9999 FEW030 24/3 Q1043
DD LFPNYYYX LFPNYYYX LFPBYYYX EGLLYYYX 052241 METAR LFPG 052241Z 01939KT 9999 FEW030 21/18 Q1007
GG LFPGYYYX LFPGYYYX LFPNYYYX LFPOYYYX 091812 METAR LFPG 091812Z 23121KT 9999 FEW030 5/1 Q1057
DD EGLLYYYX LFPBYYYX 151218 METAR LFPG 151218Z 29737KT 9999 FEW030 24/18 Q1048
KK LFPOYYYX LFPGYYYX 170209 METAR LFPG 170209Z 28747KT 9999 FEW030 18/7 Q1046
GG LFPBYYYX LFPBYYYX EGLLYYYX 242128 METAR LFPG 242128Z 06626KT 9999 FEW030 20/6 Q1076
DD EDDFYYYX EGLLYYYX LFPOYYYX 161036 METAR LFPG 161036Z 24645KT 9999 FEW030 2/17 Q1049
SS EGLLYYYX EGLLYYYX EGLLYYYX LFPGYYYX 202112 METAR LFPG 202112Z 28210KT 9999 FEW030 13/7 Q1062
GG LFPGYYYX LFPNYYYX 240632 METAR LFPG 240632Z 24212KT 9999 FEW030 7/19 Q1017
DD LFPGYYYX LFPNYYYX EGLLYYYX LFPBYYYX 131509 METAR LFPG 131509Z 10717KT 9999 FEW030 5/12 Q1037
GG LFPOYYYX LFPOYYYX LFPOYYYX EGLLYYYX 010205 METAR LFPG 010205Z 33513KT 9999 FEW030 5/8 Q1048
DD LFPYYYX LFPNYYYX LFPNYYYX EDDFYYYX 101517 METAR LFPG 101517Z 22726KT 9999 FEW030 22/14 Q1059
DD LFPOYYYX EDDFYYYX EDDFYYYX EGLLYYYX 040951 METAR LFPG 040951Z 03010KT 9999 FEW030 17/19 Q1024
KK EGLLYYYX LFPOYYYX 102353 METAR LFPG 102353Z 33252KT 9999 FEW030 23/17 Q1099
FF LFPYYYX LFPNYYYX 040556 METAR LFPG 040556Z 26614KT 9999 FEW030 0/7 Q1031
SS LFPGYYYX LFPNYYYX LFPGYYYX 240507 METAR LFPG 240507Z 21846KT 9999 FEW030 24/12 Q1044
FF LFPOYYYX EDDFYYYX 021925 METAR LFPG 021925Z 18314KT 9999 FEW030 24/4 Q1069
DD LFPNYYYX EGLLYYYX EGLLYYYX 102302 METAR LFPG 102302Z 09250KT 9999 FEW030 6/3 Q1019
LL LFPNYYYX EGLLYYYX 201315 METAR LFPG 201315Z 22654KT 9999 FEW030 1/4 Q1023
FF LFPNYYYX LFPBYYYX EDDFYYYX LFPBYYYX 162224 METAR LFPG 162224Z 11412KT 9999 FEW030 15/11 Q1015
FF LFPYYYX EGLLYYYX 110007 METAR LFPG 110007Z 04535KT 9999 FEW030 10/5 Q1001
FF EDDFYYYX EDDFYYYX LFPOYYYX LFPGYYYX 182306 METAR LFPG 182306Z 16424KT 9999 FEW030 21/2 Q1084
KK LFPBYYYX EGLLYYYX LFPOYYYX 142314 METAR LFPG 142314Z 16422KT 9999 FEW030 4/1 Q1001
FF LFPGYYYX EGLLYYYX 181214 METAR LFPG 181214Z 10443KT 9999 FEW030 8/0 Q1011
KK LFPBYYYX LFPNYYYX 170217 METAR LFPG 170217Z 28715KT 9999 FEW030 24/12 Q1046
GG LFPYYYX EGLLYYYX EDDFYYYX EDDFYYYX 132249 METAR LFPG 132249Z 01957KT 9999 FEW030 0/3 Q1056
DD LFPYYYX LFPGYYYX EGLLYYYX 070935 METAR LFPG 070935Z 00543KT 9999 FEW030 29/8 Q1067
LL LFPBYYYX LFPNYYYX LFPOYYYX LFPBYYYX 142306 METAR LFPG 142306Z 04414KT 9999 FEW030 12/5 Q1051
SS EDDFYYYX LFPBYYYX LFPNYYYX 271611 METAR LFPG 271611Z 34919KT 9999 FEW030 21/7 Q1089
SS LFPYYYX LFPGYYYX 190151 METAR LFPG 190151Z 26140KT 9999 FEW030 6/5 Q1084
KK LFPYYYX EGLLYYYX 270859 METAR LFPG 270859Z 02947KT 9999 FEW030 27/15 Q1064
SS EDDFYYYX EDDFYYYX LFPOYYYX 150038 METAR LFPG 150038Z 06947KT 9999 FEW030 19/19 Q1018
DD EDDFYYYX EGLLYYYX LFPBYYYX EDDFYYYX 121732 METAR LFPG 121732Z 06240KT 9999 FEW030 17/13 Q1085
LL LFPYYYX LFPBYYYX 051945 METAR LFPG 051945Z 25534KT 9999 FEW030 12/17 Q1041
KK LFPBYYYX LFPBYYYX 060357 METAR LFPG 060357Z 09656KT 9999 FEW030 7/16 Q1050
DD LFPGYYYX LFPBYYYX 191655 METAR LFPG 191655Z 20523KT 9999 FEW030 9/4 Q1054
DD EGLLYYYX EDDFYYYX 160512 METAR LFPG 160512Z 17050KT 9999 FEW030 8/8 Q1003
SS LFPBYYYX LFPBYYYX 210205 METAR LFPG 210205Z 09523KT 9999 FEW030 6/13 Q1031
FF EGLLYYYX LFPBYYYX LFPBYYYX 131417 METAR LFPG 131417Z 22715KT 9999 FEW030 0/5 Q1094
GG LFPYYYX EGLLYYYX LFPNYYYX 262305 METAR LFPG 262305Z 04434KT 9999 FEW030 1/3 Q1033
FF LFPBYYYX LFPGYYYX LFPBYYYX 122115 METAR LFPG 122115Z 35424KT 9999 FEW030 24/6 Q1067
FF LFPYYYX LFPNYYYX LFPGYYYX EDDFYYYX 030039 METAR LFPG 030039Z 30939KT 9999 FEW030 14/7 Q1066
DD LFPYYYX LFPBYYYX 211445 METAR LFPG 211445Z 20353KT 9999 FEW030 2/11 Q1066
DD LFPOYYYX LFPOYYYX 082111 METAR LFPG 082111Z 16230KT 9999 FEW030 11/8 Q1067
FF LFPGYYYX LFPBYYYX LFPNYYYX LFPBYYYX 110531 METAR LFPG 110531Z 12140KT 9999 FEW030 5/11 Q1094
GG EDDFYYYX LFPOYYYX LFPOYYYX EDDFYYYX 232147 METAR LFPG 232147Z 01745KT 9999 FEW030 4/15 Q1008
GG LFPGYYYX LFPBYYYX 182010 METAR LFPG 182010Z 28059KT 9999 FEW030 1/13 Q1051
LL LFPOYYYX LFPBYYYX LFPNYYYX 240939 METAR LFPG 240939Z 07718KT 9999 FEW030 13/17 Q1022
DD LFPYYYX LFPNYYYX 131012 METAR LFPG 131012Z 22341KT 9999 FEW030 21/11 Q1045
LL LFPYYYX EDDFYYYX LFPOYYYX 021137 METAR LFPG 021137Z 00746KT 9999 FEW030 28/1 Q1024
GG EGLLYYYX LFPBYYYX 250229 METAR LFPG 250229Z 35939KT 9999 FEW030 24/17 Q1032
GG LFPYYYX LFPOYYYX 080104 METAR LFPG 080104Z 21422KT 9999 FEW030 11/4 Q1000
SS LFPOYYYX LFPOYYYX LFPOYYYX 070846 METAR LFPG 070846Z 31735KT 9999 FEW030 7/15 Q1099
GG EGLLYYYX EGLLYYYX LFPOYYYX LFPGYYYX 061230 METAR LFPG 061230Z 24839KT 9999 FEW030 2/8 Q1000
GG LFPYYYX LFPGYYYX LFPOYYYX 101950 METAR LFPG 101950Z 08858KT 9999 FEW030 27/8 Q1083
GG LFPYYYX LFPBYYYX 080511 METAR LFPG 080511Z 29030KT 9999 FEW030 1/14 Q1021
SS LFPGYYYX LFPGYYYX LFPGYYYX LFPNYYYX 230431 METAR LFPG 230431Z 24159KT 9999 FEW030 25/2 Q1070
SS EDDFYYYX LFPGYYYX LFPGYYYX LFPGYYYX 020738 METAR LFPG 020738Z 31656KT 9999 FEW030 14/19 Q1010
DD EDDFYYYX EGLLYYYX LFPNYYYX LFPBYYYX 130745 METAR LFPG 130745Z 19523KT 9999 FEW030 26/16 Q1054
FF LFPOYYYX LFPGYYYX 080120 METAR LFPG 080120Z 35848KT 9999 FEW030 13/13 Q1059
GG LFPGYYYX LFPOYYYX LFPOYYYX 122100 METAR LFPG 122100Z 09048KT 9999 FEW030 28/11 Q1072
LL LFPYYYX EGLLYYYX LFPNYYYX LFPBYYYX 100353 METAR LFPG 100353Z 26452KT 9999 FEW030 4/8 Q1022
FF LFPOYYYX LFPOYYYX 081428 METAR LFPG 081428Z 05847KT 9999 FEW030 21/18 Q1002
KK EGLLYYYX LFPGYYYX EGLLYYYX EGLLYYYX 270927 METAR LFPG 270927Z 00536KT 9999 FEW030 24/17 Q1071
KK LFPYYYX LFPNYYYX LFPBYYYX 152115 METAR LFPG 152115Z 22524KT 9999 FEW030 25/13 Q1062
GG LFPYYYX LFPGYYYX EDDFYYYX LFPNYYYX 221105 METAR LFPG 221105Z 10444KT 9999 FEW030 28/1 Q1027
KK EGLLYYYX EGLLYYYX 081343 METAR LFPG 081343Z 08142KT 9999 FEW030 10/16 Q1007
DD LFPOYYYX EGLLYYYX LFPBYYYX LFPBYYYX 021610 METAR LFPG 021610Z 10829KT 9999 FEW030 19/7 Q1043
SS LFPOYYYX LFPOYYYX 052249 METAR LFPG 052249Z 01927KT 9999 FEW030 2/11 Q1001
DD LFPOYYYX EDDFYYYX 160108 METAR LFPG 160108Z 16616KT 9999 FEW030 4/18 Q1073
KK LFPGYYYX LFPBYYYX EGLLYYYX LFPBYYYX 150519 METAR LFPG 150519Z 28927KT 9999 FEW030 19/19 Q1039
FF LFPBYYYX EGLLYYYX 102313 METAR LFPG 102313Z 16432KT 9999 FEW030 26/18 Q1023
DD LFPGYYYX LFPOYYYX 180822 METAR LFPG 180822Z 17211KT 9999 FEW030 9/14 Q1018
DD EGLLYYYX LFPOYYYX LFPNYYYX LFPBYYYX 201456 METAR LFPG 201456Z 03425KT 9999 FEW030 26/19 Q1069
FF LFPGYYYX LFPGYYYX EGLLYYYX 201836 METAR LFPG 201836Z 13454KT 9999 FEW030 18/7 Q1004
SS LFPBYYYX LFPOYYYX 091053 METAR LFPG 091053Z 03111KT 9999 FEW030 10/2 Q1048
DD LFPNYYYX LFPBYYYX 251052 METAR LFPG 251052Z 15121KT 9999 FEW030 22/0 Q1042
LL LFPNYYYX EGLLYYYX EDDFYYYX 171445 METAR LFPG 171445Z 32353KT 9999 FEW030 18/16 Q1044
FF LFPNYYYX EGLLYYYX LFPNYYYX 270422 METAR LFPG 270422Z 24051KT 9999 FEW030 8/7 Q1028
GG LFPGYYYX EDDFYYYX EGLLYYYX 091824 METAR LFPG 091824Z 18213KT 9999 FEW030 15/14 Q1093
FF LFPYYYX LFPOYYYX 211529 METAR LFPG 211529Z 17938KT 9999 FEW030 2/6 Q1014
DD EDDFYYYX LFPNYYYX EDDFYYYX LFPOYYYX 211416 METAR LFPG 211416Z 34715KT 9999 FEW030 24/12 Q1051
SS LFPBYYYX LFPOYYYX LFPOYYYX LFPBYYYX 080132 METAR LFPG 080132Z 07010KT 9999 FEW030 22/15 Q1094
KK LFPNYYYX LFPGYYYX LFPGYYYX LFPGYYYX 071355 METAR LFPG 071355Z 15353KT 9999 FEW030 27/16 Q1000
GG LFPYYYX EDDFYYYX 201747 METAR LFPG 201747Z 08636KT 9999 FEW030 24/11 Q1080
GG LFPOYYYX EDDFYYYX EGLLYYYX 212212 METAR LFPG 212212Z 04311KT 9999 FEW030 24/7 Q1002
GG LFPBYYYX LFPOYYYX LFPNYYYX 270434 METAR LFPG 270434Z 31313KT 9999 FEW030 6/10 Q1058
FF LFPBYYYX EDDFYYYX LFPNYYYX 201755 METAR LFPG 201755Z 20614KT 9999 FEW030 2/14 Q1010
SS EDDFYYYX LFPBYYYX 181646 METAR LFPG 181646Z 32415KT 9999 FEW030 5/9 Q1026
GG LFPGYYYX LFPBYYYX EDDFYYYX LFPBYYYX 110042 METAR LFPG 110042Z 26121KT 9999 FEW030 6/7 Q1010
SS EGLLYYYX LFPGYYYX LFPOYYYX LFPBYYYX 090624 METAR LFPG 090624Z 00333KT 9999 FEW030 0/12 Q1064
LL EGLLYYYX LFPNYYYX 132240 METAR LFPG 132240Z 25929KT 9999 FEW030 21/3 Q1019
SS LFPGYYYX EDDFYYYX LFPGYYYX EDDFYYYX 200208 METAR LFPG 200208Z 28656KT 9999 FEW030 1/2 Q1063
GG EDDFYYYX LFPBYYYX 090649 METAR LFPG 090649Z 14717KT 9999 FEW030 24/19 Q1058
SS LFPOYYYX LFPGYYYX LFPBYYYX 191630 METAR LFPG 191630Z 30119KT 9999 FEW030 10/10 Q1040
LL LFPOYYYX LFPBYYYX EDDFYYYX 220410 METAR LFPG 220410Z 16839KT 9999 FEW030 2/1 Q1052
FF LFPBYYYX LFPOYYYX LFPGYYYX 010244 METAR LFPG 010244Z 14353KT 9999 FEW030 11/18 Q1030
GG LFPNYYYX EDDFYYYX LFPBYYYX 121723 METAR LFPG 121723Z 18122KT 9999 FEW030 2/8 Q1074
KK EGLLYYYX LFPGYYYX 040132 METAR LFPG 040132Z 31030KT 9999 FEW030 15/17 Q1087
SS LFPGYYYX LFPOYYYX EDDFYYYX 120935 METAR LFPG 120935Z 12654KT 9999 FEW030 2/10 Q1087
FF LFPOYYYX LFPNYYYX 171844 METAR LFPG 171844Z 25523KT 9999 FEW030 15/19 Q1082
KK LFPBYYYX LFPOYYYX 240520 METAR LFPG 240520Z 05058KT 9999 FEW030 3/4 Q1083
SS LFPBYYYX LFPBYYYX 180321 METAR LFPG 180321Z 12040KT 9999 FEW030 17/18 Q1004
FF LFPOYYYX LFPOYYYX EDDFYYYX EGLLYYYX 281428 METAR LFPG 281428Z 17837KT 9999 FEW030 28/13 Q1027
LL EGLLYYYX LFPGYYYX LFPNYYYX 131848 METAR LFPG 131848Z 08757KT 9999 FEW030 1/18 Q1067
GG LFPYYYX LFPGYYYX 020834 METAR LFPG 020834Z 12423KT 9999 FEW030 21/13 Q1077
DD LFPGYYYX LFPNYYYX EGLLYYYX 150139 METAR LFPG 150139Z 18938KT 9999 FEW030 0/15 Q1048
KK LFPOYYYX LFPBYYYX EDDFYYYX LFPOYYYX 021154 METAR LFPG 021154Z 15212KT 9999 FEW030 28/18 Q1070
SS EDDFYYYX LFPOYYYX 180802 METAR LFPG 180802Z 22011KT 9999 FEW030 18/15 Q1064
FF LFPBYYYX LFPOYYYX 110407 METAR LFPG 110407Z 33755KT 9999 FEW030 28/10 Q1016
FF EDDFYYYX EDDFYYYX 200244 METAR LFPG 200244Z 14253KT 9999 FEW030 17/14 Q1099
LL EGLLYYYX LFPNYYYX EDDFYYYX LFPNYYYX 281732 METAR LFPG 281732Z 06210KT 9999 FEW030 9/4 Q1017
GG LFPBYYYX LFPGYYYX EDDFYYYX 071331 METAR LFPG 071331Z 00959KT 9999 FEW030 21/4 Q1048
SS LFPNYYYX LFPOYYYX LFPOYYYX LFPOYYYX 171013 METAR LFPG 171013Z 34321KT 9999 FEW030 7/13 Q1064
GG LFPYYYX LFPOYYYX EGLLYYYX LFPBYYYX 272034 METAR LFPG 272034Z 30443KT 9999 FEW030 11/11 Q1071
KK EGLLYYYX LFPGYYYX LFPBYYYX LFPBYYYX 232010 METAR LFPG 232010Z 16139KT 9999 FEW030 0/7 Q1045
LL LFPYYYX LFPNYYYX EGLLYYYX LFPOYYYX 162248 METAR LFPG 162248Z 01846KT 9999 FEW030 12/5 Q1011
KK EGLLYYYX LFPBYYYX 210737 METAR LFPG 210737Z 07515KT 9999 FEW030 13/14 Q1013
GG LFPNYYYX LFPNYYYX EGLLYYYX LFPGYYYX 010240 METAR LFPG 010240Z 19159KT 9999 FEW030 21/2 Q1052
FF LFPBYYYX LFPBYYYX 230027 METAR LFPG 230027Z 35737KT 9999 FEW030 20/4 Q1090
LL LFPNYYYX LFPNYYYX LFPBYYYX 232023 METAR LFPG 232023Z 11311KT 9999 FEW030 21/14 Q1074
DD EDDFYYYX LFPGYYYX EGLLYYYX 112014 METAR LFPG 112014Z 23343KT 9999 FEW030 25/18 Q1031
SS LFPOYYYX EDDFYYYX LFPOYYYX EDDFYYYX 210600 METAR LFPG 210600Z 33819KT 9999 FEW030 23/2 Q1008
DD LFPNYYYX LFPBYYYX EGLLYYYX 260006 METAR LFPG 260006Z 28445KT 9999 FEW030 11/14 Q1071
DD LFPBYYYX EDDFYYYX LFPGYYYX 141149 METAR LFPG 141149Z 32050KT 9999 FEW030 21/16 Q1098
DD LFPOYYYX LFPNYYYX LFPBYYYX 181529 METAR LFPG 181529Z 30058KT 9999 FEW030 14/12 Q1093
LL LFPBYYYX LFPNYYYX LFPBYYYX LFPNYYYX 230834 METAR LFPG 230834Z 24433KT 9999 FEW030 1/14 Q1018
KK LFPOYYYX EDDFYYYX EDDFYYYX 041428 METAR LFPG 041428Z 17827KT 9999 FEW030 29/0 Q1007
SS LFPYYYX LFPBYYYX LFPBYYYX 250233 METAR LFPG 250233Z 07111KT 9999 FEW030 16/9 Q1034
SS LFPNYYYX EDDFYYYX LFPGYYYX LFPOYYYX 012349 METAR LFPG 012349Z 01947KT 9999 FEW030 7/16 Q1037
KK EDDFYYYX LFPGYYYX EDDFYYYX LFPGYYYX 051836 METAR LFPG 051836Z 01545KT 9999 FEW030 15/13 Q1003
GG LFPGYYYX LFPOYYYX EDDFYYYX 251432 METAR LFPG 251432Z 01031KT 9999 FEW030 15/10 Q1052
GG LFPBYYYX EGLLYYYX LFPOYYYX 240152 METAR LFPG 240152Z 02252KT 9999 FEW030 9/7 Q1082
DD LFPGYYYX EDDFYYYX 121732 METAR LFPG 121732Z 18220KT 9999 FEW030 2/1 Q1033
GG LFPNYYYX LFPOYYYX 101630 METAR LFPG 101630Z 18029KT 9999 FEW030 4/15 Q1070
KK EDDFYYYX LFPOYYYX 011933 METAR LFPG 011933Z 06311KT 9999 FEW030 20/1 Q1000
SS LFPGYYYX EGLLYYYX LFPOYYYX EDDFYYYX 171037 METAR LFPG 171037Z 00715KT 9999 FEW030 28/10 Q1038
DD EDDFYYYX EDDFYYYX LFPNYYYX LFPOYYYX 032003 METAR LFPG 032003Z 16131KT 9999 FEW030 15/18 Q1032
DD EGLLYYYX EGLLYYYX 101553 METAR LFPG 101553Z 32312KT 9999 FEW030 10/9 Q1088
DD LFPNYYYX LFPGYYYX EGLLYYYX 221206 METAR LFPG 221206Z 10434KT 9999 FEW030 5/6 Q1008
SS EGLLYYYX EGLLYYYX EGLLYYYX LFPGYYYX 111230 METAR LFPG 111230Z 24939KT 9999 FEW030 4/12 Q1055
LL EDDFYYYX LFPNYYYX LFPGYYYX EDDFYYYX 050608 METAR LFPG 050608Z 33817KT 9999 FEW030 24/5 Q1063
LL LFPBYYYX EGLLYYYX EGLLYYYX 260310 METAR LFPG 260310Z 16848KT 9999 FEW030 8/4 Q1092
DD EDDFYYYX LFPOYYYX EGLLYYYX LFPBYYYX 231319 METAR LFPG 231319Z 29718KT 9999 FEW030 22/0 Q1078
KK EGLLYYYX LFPNYYYX LFPBYYYX EGLLYYYX 202111 METAR LFPG 202111Z 04250KT 9999 FEW030 19/3 Q1099
GG LFPGYYYX LFPNYYYX LFPGYYYX 112035 METAR LFPG 112035Z 18533KT 9999 FEW030 24/15 Q1081
SS EDDFYYYX LFPGYYYX EGLLYYYX LFPGYYYX 040935 METAR LFPG 040935Z 12654KT 9999 FEW030 0/5 Q1091
KK LFPOYYYX LFPOYYYX 240544 METAR LFPG 240544Z 19412KT 9999 FEW030 20/2 Q1061
GG EDDFYYYX EGLLYYYX EDDFYYYX LFPBYYYX 281408 METAR LFPG 281408Z 34627KT 9999 FEW030 27/11 Q1058
FF EGLLYYYX LFPNYYYX 080947 METAR LFPG 080947Z 31846KT 9999 FEW030 11/2 Q1006
DD EGLLYYYX LFPGYYYX LFPNYYYX 181125 METAR LFPG 181125Z 29626KT 9999 FEW030 23/11 Q1096
SS LFPGYYYX LFPGYYYX 070002 METAR LFPG 070002Z 21311KT 9999 FEW030 13/19 Q1093
KK LFPBYYYX EGLLYYYX LFPOYYYX LFPNYYYX 221554 METAR LFPG 221554Z 32442KT 9999 FEW030 17/8 Q1068
DD EDDFYYYX LFPBYYYX LFPOYYYX 121331 METAR LFPG 121331Z 24930KT 9999 FEW030 7/12 Q1026
GG EGLLYYYX LFPOYYYX 152059 METAR LFPG 152059Z 20937KT 9999 FEW030 8/8 Q1048
DD LFPNYYYX LFPNYYYX LFPGYYYX LFPBYYYX 101957 METAR LFPG 101957Z 08856KT 9999 FEW030 12/4 Q1079
FF LFPGYYYX EGLLYYYX 210745 METAR LFPG 210745Z 19544KT 9999 FEW030 12/14 Q1009
FF EDDFYYYX EGLLYYYX EDDFYYYX LFPBYYYX 150802 METAR LFPG 150802Z 22111KT 9999 FEW030 11/2 Q1093
KK LFPNYYYX LFPNYYYX LFPGYYYX 182301 METAR LFPG 182301Z 33120KT 9999 FEW030 15/2 Q1062
GG LFPOYYYX EGLLYYYX EDDFYYYX LFPGYYYX 211849 METAR LFPG 211849Z 20717KT 9999 FEW030 15/16 Q1080
KK LFPNYYYX EGLLYYYX LFPNYYYX 172224 METAR LFPG 172224Z 11533KT 9999 FEW030 25/12 Q1043
KK EGLLYYYX EGLLYYYX LFPOYYYX EGLLYYYX 230511 METAR LFPG 230511Z 28939KT 9999 FEW030 24/17 Q1042
GG LFPOYYYX LFPGYYYX LFPNYYYX LFPOYYYX 101922 METAR LFPG 101922Z 35220KT 9999 FEW030 9/11 Q1037
FF LFPYYYX LFPBYYYX LFPBYYYX 261646 METAR LFPG 261646Z 08415KT 9999 FEW030 16/12 Q1080
GG LFPGYYYX EGLLYYYX 070851 METAR LFPG 070851Z 02949KT 9999 FEW030 3/18 Q1040
SS LFPNYYYX LFPBYYYX EGLLYYYX EDDFYYYX 231245 METAR LFPG 231245Z 02343KT 9999 FEW030 1/18 Q1047
LL LFPNYYYX LFPGYYYX EDDFYYYX EGLLYYYX 091836 METAR LFPG 091836Z 01525KT 9999 FEW030 27/18 Q1085
GG EDDFYYYX LFPNYYYX LFPGYYYX LFPGYYYX 221114 METAR LFPG 221114Z 02233KT 9999 FEW030 9/1 Q1036
SS LFPOYYYX LFPGYYYX 120512 METAR LFPG 120512Z 29049KT 9999 FEW030 19/7 Q1059
