FF EGLLYYYX LFPBYYYX EDDFYYYX LFPNYYYX 121242 METAR LFPG 121242Z 32743KT 9999 FEW030 7/-2 Q1079
SS EGLLYYYX LFPGYYYX 081914 METAR LFPG 081914Z 35036KT 9999 FEW030 21/-10 Q1031
SS LFPNYYYX EGLLYYYX EDDFYYYX 011028 METAR LFPG 011028Z 17242KT 9999 FEW030 6/14 Q1028
DD LFPBYYYX LFPBYYYX EDDFYYYX 101324 METAR LFPG 101324Z 04510KT 9999 FEW030 32/-6 Q1021
GG LFPOYYYX EGLLYYYX 121637 METAR LFPG 121637Z 27933KT 9999 FEW030 1/-4 Q1016
GG EGLLYYYX LFPOYYYX LFPGYYYX LFPNYYYX 221923 METAR LFPG 221923Z 00833KT 9999 FEW030 23/21 Q1049
GG LFPBYYYX EGLLYYYX LFPBYYYX 211815 METAR LFPG 211815Z 27534KT 9999 FEW030 14/17 Q1048
KK EDDFYYYX LFPBYYYX LFPOYYYX 221629 METAR LFPG 221629Z 35326KT 9999 FEW030 0/20 Q1048
SS LFPGYYYX EGLLYYYX LFPOYYYX LFPNYYYX 251258 METAR LFPG 251258Z 05527KT 9999 FEW030 22/-4 Q1053
KK LFPGYYYX LFPOYYYX EGLLYYYX 071717 METAR LFPG 071717Z 19214KT 9999 FEW030 32/24 Q1090
SS LFPNYYYX EDDFYYYX LFPOYYYX LFPNYYYX 021228 METAR LFPG 021228Z 20241KT 9999 FEW030 16/21 Q1022
LL LFPNYYYX LFPOYYYX LFPNYYYX 060704 METAR LFPG 060704Z 00235KT 9999 FEW030 32/18 Q1067
DD EGLLYYYX LFPOYYYX LFPGYYYX EGLLYYYX 180752 METAR LFPG 180752Z 24233KT 9999 FEW030 2/2 Q1041
SS LFPNYYYX LFPBYYYX EGLLYYYX 061228 METAR LFPG 061228Z 19425KT 9999 FEW030 7/-1 Q1086
SS LFPOYYYX LFPBYYYX EDDFYYYX EGLLYYYX 181243 METAR LFPG 181243Z 23232KT 9999 FEW030 4/12 Q1096
KK LFPNYYYX LFPGYYYX LFPNYYYX EDDFYYYX 122019 METAR LFPG 122019Z 22748KT 9999 FEW030 -9/19 Q1013
DD LFPOYYYX EDDFYYYX EGLLYYYX LFPNYYYX 280710 METAR LFPG 280710Z 16824KT 9999 FEW030 35/2 Q1003
GG LFPGYYYX LFPBYYYX LFPOYYYX EGLLYYYX 181059 METAR LFPG 181059Z 33125KT 9999 FEW030 17/-5 Q1080
KK EGLLYYYX LFPNYYYX 192359 METAR LFPG 192359Z 05849KT 9999 FEW030 23/3 Q1024
GG LFPOYYYX LFPNYYYX LFPBYYYX EDDFYYYX 082342 METAR LFPG 082342Z 08116KT 9999 FEW030 26/18 Q1046
DD LFPGYYYX EDDFYYYX LFPGYYYX 221146 METAR LFPG 221146Z 19614KT 9999 FEW030 8/25 Q1099
SS LFPBYYYX EGLLYYYX LFPOYYYX 040325 METAR LFPG 040325Z 15611KT 9999 FEW030 5/-10 Q1023
KK LFPGYYYX EDDFYYYX 160921 METAR LFPG 160921Z 01846KT 9999 FEW030 19/-2 Q1061
KK EDDFYYYX EGLLYYYX 172139 METAR LFPG 172139Z 23013KT 9999 FEW030 16/11 Q1024
LL LFPGYYYX LFPGYYYX 060304 METAR LFPG 060304Z 17849KT 9999 FEW030 20/-4 Q1067
GG LFPNYYYX LFPBYYYX EDDFYYYX 061807 METAR LFPG 061807Z 09441KT 9999 FEW030 -3/7 Q1050
KK LFPOYYYX LFPBYYYX EGLLYYYX 071134 METAR LFPG 071134Z 31428KT 9999 FEW030 28/21 Q1034
DD EDDFYYYX LFPOYYYX LFPBYYYX 012208 METAR LFPG 012208Z 04229KT 9999 FEW030 35/5 Q1021
KK EGLLYYYX LFPBYYYX LFPOYYYX 111304 METAR LFPG 111304Z 31311KT 9999 FEW030 16/-10 Q1050
SS EGLLYYYX LFPBYYYX EDDFYYYX LFPGYYYX 221741 METAR LFPG 221741Z 11012KT 9999 FEW030 -9/-5 Q1068
SS EDDFYYYX LFPGYYYX LFPNYYYX 110458 METAR LFPG 110458Z 13913KT 9999 FEW030 27/-7 Q1092
SS EDDFYYYX LFPBYYYX EDDFYYYX EGLLYYYX 121439 METAR LFPG 121439Z 22411KT 9999 FEW030 20/17 Q1053
LL LFPGYYYX LFPBYYYX LFPOYYYX LFPGYYYX 201029 METAR LFPG 201029Z 07114KT 9999 FEW030 -10/-6 Q1075
FF LFPNYYYX EGLLYYYX LFPOYYYX EDDFYYYX 241150 METAR LFPG 241150Z 17848KT 9999 FEW030 -2/2 Q1033
FF LFPBYYYX LFPNYYYX 172129 METAR LFPG 172129Z 31042KT 9999 FEW030 15/6 Q1058
FF LFPBYYYX LFPNYYYX 281541 METAR LFPG 281541Z 16542KT 9999 FEW030 -4/21 Q1002
DD LFPBYYYX LFPGYYYX 070249 METAR LFPG 070249Z 18515KT 9999 FEW030 -3/19 Q1070
GG LFPGYYYX LFPNYYYX 210040 METAR LFPG 210040Z 23131KT 9999 FEW030 21/5 Q1003
GG LFPBYYYX EDDFYYYX 030046 METAR LFPG 030046Z 33120KT 9999 FEW030 25/5 Q1072
KK LFPGYYYX LFPNYYYX 150353 METAR LFPG 150353Z 12840KT 9999 FEW030 17/-8 Q1041
SS LFPOYYYX EDDFYYYX 061550 METAR LFPG 061550Z 29318KT 9999 FEW030 32/1 Q1031
KK EGLLYYYX EGLLYYYX LFPGYYYX 171356 METAR LFPG 171356Z 02712KT 9999 FEW030 -8/19 Q1066
GG LFPBYYYX EGLLYYYX LFPNYYYX LFPBYYYX 041247 METAR LFPG 041247Z 06615KT 9999 FEW030 27/9 Q1084
GG LFPBYYYX EDDFYYYX LFPGYYYX LFPOYYYX 220341 METAR LFPG 220341Z 35847KT 9999 FEW030 -7/2 Q1029
KK LFPGYYYX LFPGYYYX EGLLYYYX LFPOYYYX 110649 METAR LFPG 110649Z 14917KT 9999 FEW030 18/18 Q1034
GG LFPGYYYX EGLLYYYX EDDFYYYX 041446 METAR LFPG 041446Z 35430KT 9999 FEW030 -2/-10 Q1059
LL LFPBYYYX LFPOYYYX EGLLYYYX LFPNYYYX 280638 METAR LFPG 280638Z 31617KT 9999 FEW030 18/-10 Q1052
FF EDDFYYYX EDDFYYYX EGLLYYYX 160754 METAR LFPG 160754Z 06432KT 9999 FEW030 15/22 Q1014
FF EDDFYYYX LFPNYYYX EDDFYYYX 092056 METAR LFPG 092056Z 33510KT 9999 FEW030 10/14 Q1024
GG EGLLYYYX LFPOYYYX EGLLYYYX 082148 METAR LFPG 082148Z 15732KT 9999 FEW030 5/17 Q1055
FF LFPBYYYX EDDFYYYX LFPBYYYX LFPNYYYX 071204 METAR LFPG 071204Z 28737KT 9999 FEW030 20/-10 Q1094
GG LFPOYYYX LFPGYYYX EGLLYYYX LFPNYYYX 100250 METAR LFPG 100250Z 35635KT 9999 FEW030 26/25 Q1055
DD EGLLYYYX EGLLYYYX LFPGYYYX 160857 METAR LFPG 160857Z 26847KT 9999 FEW030 24/5 Q1053
FF EDDFYYYX EGLLYYYX LFPBYYYX 230513 METAR LFPG 230513Z 21821KT 9999 FEW030 19/20 Q1053
LL LFPGYYYX EGLLYYYX LFPNYYYX LFPOYYYX 060259 METAR LFPG 060259Z 28520KT 9999 FEW030 26/25 Q1029
FF LFPOYYYX LFPBYYYX LFPOYYYX 191343 METAR LFPG 191343Z 22243KT 9999 FEW030 15/2 Q1000
FF LFPNYYYX LFPOYYYX EGLLYYYX LFPNYYYX 070643 METAR LFPG 070643Z 05845KT 9999 FEW030 -10/5 Q1011
FF LFPOYYYX LFPNYYYX LFPOYYYX 131404 METAR LFPG 131404Z 09829KT 9999 FEW030 5/-4 Q1087
DD EGLLYYYX LFPBYYYX 180620 METAR LFPG 180620Z 29326KT 9999 FEW030 22/21 Q1000
DD LFPGYYYX EDDFYYYX 050123 METAR LFPG 050123Z 23849KT 9999 FEW030 15/3 Q1088
SS LFPNYYYX EGLLYYYX LFPOYYYX EDDFYYYX 090507 METAR LFPG 090507Z 10831KT 9999 FEW030 -3/-4 Q1022
DD EDDFYYYX EGLLYYYX 120215 METAR LFPG 120215Z 30534KT 9999 FEW030 10/5 Q1085
LL EDDFYYYX LFPNYYYX EDDFYYYX 101710 METAR LFPG 101710Z 35024KT 9999 FEW030 31/-10 Q1013
GG LFPOYYYX EGLLYYYX LFPNYYYX LFPOYYYX 011847 METAR LFPG 011847Z 22631KT 9999 FEW030 3/-1 Q1012
DD LFPNYYYX LFPOYYYX LFPGYYYX 211218 METAR LFPG 211218Z 25631KT 9999 FEW030 -8/10 Q1033
LL LFPNYYYX LFPGYYYX 151353 METAR LFPG 151353Z 27015KT 9999 FEW030 26/9 Q1089
LL EGLLYYYX LFPBYYYX EGLLYYYX 271535 METAR LFPG 271535Z 19315KT 9999 FEW030 33/0 Q1005
FF EDDFYYYX EGLLYYYX LFPGYYYX LFPBYYYX 021313 METAR LFPG 021313Z 35441KT 9999 FEW030 18/18 Q1003
GG LFPGYYYX LFPGYYYX LFPOYYYX 182356 METAR LFPG 182356Z 28422KT 9999 FEW030 8/12 Q1058
FF LFPBYYYX EDDFYYYX LFPGYYYX 131703 METAR LFPG 131703Z 28641KT 9999 FEW030 26/16 Q1083
GG EDDFYYYX LFPGYYYX 091434 METAR LFPG 091434Z 02247KT 9999 FEW030 -10/15 Q1015
DD LFPNYYYX EGLLYYYX LFPGYYYX LFPBYYYX 140739 METAR LFPG 140739Z 25525KT 9999 FEW030 24/14 Q1092
KK LFPOYYYX LFPNYYYX 051100 METAR LFPG 051100Z 29030KT 9999 FEW030 7/1 Q1057
FF LFPNYYYX EGLLYYYX 181256 METAR LFPG 181256Z 27534KT 9999 FEW030 20/3 Q1062
FF LFPNYYYX LFPOYYYX EGLLYYYX 271509 METAR LFPG 271509Z 33238KT 9999 FEW030 8/9 Q1095
LL EDDFYYYX EGLLYYYX 170731 METAR LFPG 170731Z 06948KT 9999 FEW030 12/-8 Q1050
DD EDDFYYYX LFPOYYYX EGLLYYYX 260758 METAR LFPG 260758Z 15039KT 9999 FEW030 -4/8 Q1096
KK LFPOYYYX LFPNYYYX LFPBYYYX 011253 METAR LFPG 011253Z 07923KT 9999 FEW030 19/0 Q1080
FF LFPNYYYX LFPNYYYX EGLLYYYX LFPBYYYX 120532 METAR LFPG 120532Z 24327KT 9999 FEW030 14/5 Q1010
DD LFPOYYYX LFPBYYYX LFPGYYYX EDDFYYYX 041026 METAR LFPG 041026Z 15429KT 9999 FEW030 16/12 Q1032
GG EGLLYYYX LFPOYYYX LFPBYYYX LFPNYYYX 181431 METAR LFPG 181431Z 03819KT 9999 FEW030 4/6 Q1068
LL LFPOYYYX LFPGYYYX LFPNYYYX 190641 METAR LFPG 190641Z 18726KT 9999 FEW030 -9/17 Q1075
KK EGLLYYYX EDDFYYYX LFPNYYYX LFPGYYYX 061818 METAR LFPG 061818Z 16730KT 9999 FEW030 -5/23 Q1090
FF LFPNYYYX LFPGYYYX 200226 METAR LFPG 200226Z 10345KT 9999 FEW030 1/-5 Q1019
LL LFPBYYYX EGLLYYYX LFPGYYYX LFPOYYYX 070834 METAR LFPG 070834Z 15626KT 9999 FEW030 -4/-2 Q1087
LL EDDFYYYX LFPBYYYX EDDFYYYX 142057 METAR LFPG 142057Z 04727KT 9999 FEW030 8/6 Q1097
GG EGLLYYYX EDDFYYYX LFPBYYYX EGLLYYYX 091705 METAR LFPG 091705Z 33337KT 9999 FEW030 15/6 Q1059
SS LFPGYYYX LFPOYYYX 251253 METAR LFPG 251253Z 24336KT 9999 FEW030 6/4 Q1028
KK LFPNYYYX EDDFYYYX 150332 METAR LFPG 150332Z 05541KT 9999 FEW030 12/-7 Q1022
FF LFPBYYYX EGLLYYYX 090655 METAR LFPG 090655Z 09212KT 9999 FEW030 8/15 Q1022
DD LFPOYYYX EGLLYYYX 252000 METAR LFPG 252000Z 11730KT 9999 FEW030 -2/-4 Q1051
GG LFPBYYYX EGLLYYYX LFPBYYYX LFPOYYYX 121609 METAR LFPG 121609Z 17132KT 9999 FEW030 -7/-9 Q1042
SS LFPGYYYX LFPNYYYX 091123 METAR LFPG 091123Z 30417KT 9999 FEW030 -6/-2 Q1100
SS LFPGYYYX LFPOYYYX LFPNYYYX 191315 METAR LFPG 191315Z 14124KT 9999 FEW030 16/2 Q1057
DD EDDFYYYX EGLLYYYX LFPNYYYX LFPBYYYX 180018 METAR LFPG 180018Z 23714KT 9999 FEW030 -9/-6 Q1059
LL EDDFYYYX LFPBYYYX LFPOYYYX LFPGYYYX 080010 METAR LFPG 080010Z 34544KT 9999 FEW030 28/7 Q1070
DD LFPBYYYX EDDFYYYX EGLLYYYX 110440 METAR LFPG 110440Z 31817KT 9999 FEW030 5/-1 Q1090
SS LFPOYYYX EGLLYYYX LFPGYYYX EDDFYYYX 282211 METAR LFPG 282211Z 31218KT 9999 FEW030 9/20 Q1018
FF LFPOYYYX LFPNYYYX LFPBYYYX 272251 METAR LFPG 272251Z 14632KT 9999 FEW030 6/10 Q1044
GG LFPOYYYX LFPBYYYX EDDFYYYX 211324 METAR LFPG 211324Z 05737KT 9999 FEW030 35/22 Q1008
SS EGLLYYYX EDDFYYYX 151845 METAR LFPG 151845Z 29911KT 9999 FEW030 6/-1 Q1098
LL LFPNYYYX LFPNYYYX EDDFYYYX 071147 METAR LFPG 071147Z 15713KT 9999 FEW030 34/7 Q1015
FF LFPNYYYX LFPGYYYX EGLLYYYX LFPNYYYX 181252 METAR LFPG 181252Z 08417KT 9999 FEW030 -10/-8 Q1015
LL LFPOYYYX LFPNYYYX EDDFYYYX EGLLYYYX 220409 METAR LFPG 220409Z 15923KT 9999 FEW030 7/16 Q1060
GG LFPGYYYX LFPBYYYX LFPNYYYX 271809 METAR LFPG 271809Z 29035KT 9999 FEW030 21/-4 Q1049
GG LFPNYYYX LFPBYYYX EDDFYYYX 151647 METAR LFPG 151647Z 07448KT 9999 FEW030 21/8 Q1028
GG LFPBYYYX LFPOYYYX EDDFYYYX 070223 METAR LFPG 070223Z 25439KT 9999 FEW030 -3/7 Q1035
KK EDDFYYYX EDDFYYYX LFPGYYYX LFPBYYYX 030039 METAR LFPG 030039Z 31923KT 9999 FEW030 17/5 Q1065
FF LFPOYYYX LFPGYYYX LFPBYYYX 130047 METAR LFPG 130047Z 23522KT 9999 FEW030 -5/6 Q1001
SS LFPGYYYX EGLLYYYX EDDFYYYX 200241 METAR LFPG 200241Z 06740KT 9999 FEW030 -2/-8 Q1036
FF LFPGYYYX LFPBYYYX 272258 METAR LFPG 272258Z 35520KT 9999 FEW030 25/1 Q1080
DD LFPOYYYX EGLLYYYX 091533 METAR LFPG 091533Z 19247KT 9999 FEW030 14/16 Q1005
GG LFPOYYYX EDDFYYYX LFPOYYYX 081925 METAR LFPG 081925Z 25539KT 9999 FEW030 22/2 Q1019
FF LFPBYYYX EGLLYYYX LFPOYYYX LFPBYYYX 150525 METAR LFPG 150525Z 10231KT 9999 FEW030 34/24 Q1057
LL LFPNYYYX LFPNYYYX EDDFYYYX 050040 METAR LFPG 050040Z 01120KT 9999 FEW030 0/18 Q1085
FF EGLLYYYX LFPGYYYX LFPNYYYX LFPOYYYX 230715 METAR LFPG 230715Z 10320KT 9999 FEW030 20/-3 Q1087
DD LFPNYYYX LFPNYYYX EGLLYYYX 240841 METAR LFPG 240841Z 21628KT 9999 FEW030 32/-5 Q1064
GG LFPBYYYX EDDFYYYX LFPGYYYX EGLLYYYX 112209 METAR LFPG 112209Z 28126KT 9999 FEW030 23/-3 Q1008
GG EDDFYYYX EDDFYYYX 051618 METAR LFPG 051618Z 05838KT 9999 FEW030 0/19 Q1050
GG EDDFYYYX LFPNYYYX 192157 METAR LFPG 192157Z 17038KT 9999 FEW030 17/16 Q1062
KK EGLLYYYX LFPNYYYX LFPGYYYX 111852 METAR LFPG 111852Z 27827KT 9999 FEW030 16/23 Q1037
GG LFPNYYYX LFPGYYYX EGLLYYYX LFPNYYYX 180739 METAR LFPG 180739Z 05915KT 9999 FEW030 29/10 Q1036
KK LFPGYYYX LFPBYYYX LFPNYYYX EDDFYYYX 141427 METAR LFPG 141427Z 04338KT 9999 FEW030 30/15 Q1032
LL EGLLYYYX LFPOYYYX LFPGYYYX 111513 METAR LFPG 111513Z 24139KT 9999 FEW030 24/18 Q1049
GG LFPBYYYX LFPBYYYX EDDFYYYX 271542 METAR LFPG 271542Z 00420KT 9999 FEW030 3/0 Q1054
KK LFPOYYYX LFPGYYYX 121629 METAR LFPG 121629Z 07324KT 9999 FEW030 -9/20 Q1051
SS LFPOYYYX LFPGYYYX 011327 METAR LFPG 011327Z 27840KT 9999 FEW030 27/17 Q1036
KK EDDFYYYX LFPGYYYX LFPOYYYX 150410 METAR LFPG 150410Z 11646KT 9999 FEW030 7/-10 Q1100
SS LFPGYYYX LFPGYYYX 161818 METAR LFPG 161818Z 17524KT 9999 FEW030 2/12 Q1076
SS EGLLYYYX LFPOYYYX LFPBYYYX 040438 METAR LFPG 040438Z 00015KT 9999 FEW030 11/-10 Q1014
DD LFPBYYYX EGLLYYYX EDDFYYYX 261748 METAR LFPG 261748Z 05948KT 9999 FEW030 32/-4 Q1097
FF LFPOYYYX EGLLYYYX LFPOYYYX 062354 METAR LFPG 062354Z 34831KT 9999 FEW030 27/-10 Q1020
SS LFPNYYYX LFPGYYYX 192229 METAR LFPG 192229Z 19917KT 9999 FEW030 6/23 Q1095
GG EGLLYYYX LFPNYYYX 230409 METAR LFPG 230409Z 31037KT 9999 FEW030 33/-7 Q1073
FF EDDFYYYX LFPOYYYX 192043 METAR LFPG 192043Z 33534KT 9999 FEW030 8/10 Q1099
KK LFPGYYYX LFPOYYYX 281624 METAR LFPG 281624Z 22339KT 9999 FEW030 5/16 Q1073
SS LFPNYYYX EGLLYYYX LFPGYYYX 191315 METAR LFPG 191315Z 31513KT 9999 FEW030 -6/-10 Q1037
SS LFPBYYYX EDDFYYYX 212353 METAR LFPG 212353Z 22133KT 9999 FEW030 23/-2 Q1049
DD EGLLYYYX EDDFYYYX 190734 METAR LFPG 190734Z 20721KT 9999 FEW030 12/9 Q1085
SS LFPGYYYX LFPNYYYX 231201 METAR LFPG 231201Z 05449KT 9999 FEW030 31/7 Q1083
LL LFPNYYYX LFPNYYYX 040315 METAR LFPG 040315Z 23530KT 9999 FEW030 9/-2 Q1018
SS LFPGYYYX LFPBYYYX 022119 METAR LFPG 022119Z 31315KT 9999 FEW030 27/7 Q1019
KK LFPNYYYX LFPOYYYX EDDFYYYX LFPBYYYX 210358 METAR LFPG 210358Z 02742KT 9999 FEW030 3/-9 Q1099
LL LFPBYYYX LFPOYYYX 250144 METAR LFPG 250144Z 13437KT 9999 FEW030 24/3 Q1005
LL EDDFYYYX EDDFYYYX 101232 METAR LFPG 101232Z 02024KT 9999 FEW030 7/3 Q1088
LL LFPGYYYX LFPNYYYX LFPGYYYX LFPBYYYX 280517 METAR LFPG 280517Z 33139KT 9999 FEW030 14/2 Q1080
KK EDDFYYYX LFPOYYYX 070104 METAR LFPG 070104Z 19034KT 9999 FEW030 -7/9 Q1035
GG EGLLYYYX LFPGYYYX LFPOYYYX 100508 METAR LFPG 100508Z 28335KT 9999 FEW030 8/-5 Q1060
DD LFPNYYYX LFPOYYYX EGLLYYYX LFPBYYYX 142010 METAR LFPG 142010Z 17243KT 9999 FEW030 -9/11 Q1037
SS LFPOYYYX LFPBYYYX 200246 METAR LFPG 200246Z 15712KT 9999 FEW030 -7/9 Q1041
GG LFPBYYYX EDDFYYYX EGLLYYYX 122331 METAR LFPG 122331Z 26233KT 9999 FEW030 31/9 Q1069
FF EGLLYYYX LFPNYYYX EGLLYYYX 180324 METAR LFPG 180324Z 01821KT 9999 FEW030 17/24 Q1092
FF LFPBYYYX LFPGYYYX EGLLYYYX 070220 METAR LFPG 070220Z 07223KT 9999 FEW030 32/2 Q1058
LL EGLLYYYX LFPOYYYX LFPGYYYX 010119 METAR LFPG 010119Z 12635KT 9999 FEW030 -5/1 Q1087
LL LFPBYYYX EGLLYYYX LFPBYYYX EDDFYYYX 110956 METAR LFPG 110956Z 23247KT 9999 FEW030 23/8 Q1006
KK EGLLYYYX EDDFYYYX 280415 METAR LFPG 280415Z 01343KT 9999 FEW030 -5/7 Q1082
FF LFPBYYYX EGLLYYYX LFPGYYYX LFPNYYYX 281140 METAR LFPG 281140Z 19938KT 9999 FEW030 4/8 Q1039
KK EGLLYYYX LFPBYYYX 111211 METAR LFPG 111211Z 34222KT 9999 FEW030 7/7 Q1100
SS LFPNYYYX LFPOYYYX LFPNYYYX 230937 METAR LFPG 230937Z 13517KT 9999 FEW030 30/3 Q1050
DD EGLLYYYX EGLLYYYX LFPGYYYX LFPBYYYX 122115 METAR LFPG 122115Z 30634KT 9999 FEW030 -6/20 Q1099
SS LFPGYYYX LFPGYYYX 171357 METAR LFPG 171357Z 07438KT 9999 FEW030 35/25 Q1043
LL LFPBYYYX LFPOYYYX EDDFYYYX 110704 METAR LFPG 110704Z 27914KT 9999 FEW030 7/15 Q1040
FF EDDFYYYX EDDFYYYX LFPOYYYX 201840 METAR LFPG 201840Z 07211KT 9999 FEW030 -1/-5 Q1060
SS EDDFYYYX LFPOYYYX LFPGYYYX LFPNYYYX 030719 METAR LFPG 030719Z 14132KT 9999 FEW030 3/12 Q1028
DD LFPNYYYX LFPBYYYX LFPGYYYX EGLLYYYX 221444 METAR LFPG 221444Z 34013KT 9999 FEW030 34/23 Q1026
KK LFPBYYYX EDDFYYYX LFPBYYYX 281438 METAR LFPG 281438Z 26334KT 9999 FEW030 20/-7 Q1047
FF LFPOYYYX EDDFYYYX LFPBYYYX LFPGYYYX 282121 METAR LFPG 282121Z 30242KT 9999 FEW030 32/22 Q1011
GG LFPGYYYX EDDFYYYX EGLLYYYX 091640 METAR LFPG 091640Z 22332KT 9999 FEW030 11/1 Q1017
KK LFPNYYYX LFPGYYYX LFPOYYYX EGLLYYYX 091730 METAR LFPG 091730Z 18016KT 9999 FEW030 1/-7 Q1034
GG LFPGYYYX LFPBYYYX EGLLYYYX 052130 METAR LFPG 052130Z 01228KT 9999 FEW030 19/12 Q1100
SS LFPGYYYX LFPNYYYX LFPOYYYX LFPBYYYX 161016 METAR LFPG 161016Z 25048KT 9999 FEW030 26/16 Q1079
KK EGLLYYYX LFPBYYYX EDDFYYYX 142139 METAR LFPG 142139Z 20932KT 9999 FEW030 4/15 Q1068
DD LFPBYYYX LFPBYYYX 071654 METAR LFPG 071654Z 18443KT 9999 FEW030 27/17 Q1086
KK LFPNYYYX EDDFYYYX 271134 METAR LFPG 271134Z 32445KT 9999 FEW030 20/5 Q1093
GG LFPGYYYX LFPBYYYX EDDFYYYX 100002 METAR LFPG 100002Z 28925KT 9999 FEW030 20/15 Q1075
GG LFPBYYYX EGLLYYYX LFPBYYYX 272033 METAR LFPG 272033Z 14327KT 9999 FEW030 11/12 Q1010
LL LFPOYYYX LFPOYYYX EGLLYYYX 081456 METAR LFPG 081456Z 20829KT 9999 FEW030 -1/10 Q1019
FF LFPOYYYX LFPOYYYX 060726 METAR LFPG 060726Z 13727KT 9999 FEW030 26/-9 Q1024
DD EGLLYYYX EDDFYYYX LFPNYYYX LFPBYYYX 120342 METAR LFPG 120342Z 22537KT 9999 FEW030 7/18 Q1039
KK LFPNYYYX LFPNYYYX LFPGYYYX LFPBYYYX 140920 METAR LFPG 140920Z 34744KT 9999 FEW030 1/-5 Q1078
SS EGLLYYYX EDDFYYYX LFPBYYYX 041700 METAR LFPG 041700Z 33721KT 9999 FEW030 12/13 Q1045
FF LFPGYYYX LFPNYYYX LFPGYYYX LFPBYYYX 100924 METAR LFPG 100924Z 08446KT 9999 FEW030 3/5 Q1086
LL LFPOYYYX LFPGYYYX LFPBYYYX EGLLYYYX 031235 METAR LFPG 031235Z 22420KT 9999 FEW030 14/10 Q1023
GG LFPGYYYX EDDFYYYX EGLLYYYX 052354 METAR LFPG 052354Z 19046KT 9999 FEW030 32/-4 Q1017
KK LFPOYYYX LFPBYYYX LFPNYYYX 022116 METAR LFPG 022116Z 27550KT 9999 FEW030 19/-10 Q1028
DD LFPNYYYX EGLLYYYX 181234 METAR LFPG 181234Z 26245KT 9999 FEW030 23/0 Q1023
KK EGLLYYYX EDDFYYYX LFPNYYYX 092343 METAR LFPG 092343Z 35643KT 9999 FEW030 -10/-4 Q1088
DD LFPBYYYX LFPNYYYX EDDFYYYX EGLLYYYX 141048 METAR LFPG 141048Z 14329KT 9999 FEW030 29/3 Q1000
LL EGLLYYYX EDDFYYYX 031022 METAR LFPG 031022Z 31913KT 9999 FEW030 -3/-6 Q1082
SS LFPOYYYX LFPNYYYX LFPOYYYX 141414 METAR LFPG 141414Z 26015KT 9999 FEW030 5/3 Q1052
KK LFPOYYYX LFPBYYYX LFPGYYYX LFPOYYYX 160116 METAR LFPG 160116Z 26538KT 9999 FEW030 31/25 Q1082
GG LFPBYYYX LFPOYYYX LFPGYYYX 210202 METAR LFPG 210202Z 29314KT 9999 FEW030 20/-5 Q1049
FF LFPBYYYX EGLLYYYX LFPBYYYX 120314 METAR LFPG 120314Z 01714KT 9999 FEW030 15/1 Q1067
LL EDDFYYYX EDDFYYYX 070306 METAR LFPG 070306Z 24332KT 9999 FEW030 10/13 Q1052
GG LFPBYYYX LFPOYYYX LFPGYYYX EGLLYYYX 072114 METAR LFPG 072114Z 25442KT 9999 FEW030 8/2 Q1007
KK EDDFYYYX LFPOYYYX EGLLYYYX 020423 METAR LFPG 020423Z 05822KT 9999 FEW030 22/-10 Q1011
GG LFPBYYYX EDDFYYYX EGLLYYYX LFPGYYYX 051700 METAR LFPG 051700Z 18041KT 9999 FEW030 21/21 Q1063
SS EDDFYYYX EGLLYYYX LFPOYYYX LFPGYYYX 151036 METAR LFPG 151036Z 35516KT 9999 FEW030 0/13 Q1074
LL LFPGYYYX EGLLYYYX 151515 METAR LFPG 151515Z 22736KT 9999 FEW030 22/0 Q1038
KK LFPNYYYX EGLLYYYX EDDFYYYX 012121 METAR LFPG 012121Z 13822KT 9999 FEW030 13/-7 Q1067
DD LFPBYYYX LFPNYYYX LFPGYYYX 110215 METAR LFPG 110215Z 17125KT 9999 FEW030 23/3 Q1003
FF LFPBYYYX LFPBYYYX EDDFYYYX LFPGYYYX 052323 METAR LFPG 052323Z 08247KT 9999 FEW030 -5/15 Q1044
SS EGLLYYYX EDDFYYYX EGLLYYYX LFPGYYYX 010048 METAR LFPG 010048Z 05530KT 9999 FEW030 33/23 Q1028
KK LFPNYYYX LFPOYYYX 070748 METAR LFPG 070748Z 02346KT 9999 FEW030 -1/2 Q1074
KK LFPGYYYX EGLLYYYX LFPBYYYX LFPOYYYX 040739 METAR LFPG 040739Z 30122KT 9999 FEW030 18/18 Q1079
GG LFPGYYYX LFPOYYYX EDDFYYYX 192356 METAR LFPG 192356Z 18634KT 9999 FEW030 10/8 Q1017
DD LFPGYYYX LFPBYYYX LFPNYYYX EGLLYYYX 010940 METAR LFPG 010940Z 35020KT 9999 FEW030 -9/7 Q1002
KK LFPBYYYX LFPGYYYX LFPOYYYX EGLLYYYX 180150 METAR LFPG 180150Z 18229KT 9999 FEW030 5/2 Q1043
KK LFPGYYYX LFPNYYYX 241044 METAR LFPG 241044Z 29043KT 9999 FEW030 19/-10 Q1077
LL LFPGYYYX LFPGYYYX 162105 METAR LFPG 162105Z 20848KT 9999 FEW030 16/17 Q1024
LL LFPGYYYX EGLLYYYX 151812 METAR LFPG 151812Z 29845KT 9999 FEW030 -5/13 Q1021
KK LFPNYYYX EGLLYYYX LFPOYYYX LFPNYYYX 101936 METAR LFPG 101936Z 04524KT 9999 FEW030 0/24 Q1094
KK LFPBYYYX LFPOYYYX 080859 METAR LFPG 080859Z 30446KT 9999 FEW030 0/1 Q1010
SS EGLLYYYX LFPGYYYX LFPBYYYX 100634 METAR LFPG 100634Z 14819KT 9999 FEW030 21/3 Q1016
SS EDDFYYYX LFPGYYYX EDDFYYYX LFPOYYYX 081312 METAR LFPG 081312Z 07313KT 9999 FEW030 -2/23 Q1071
GG EGLLYYYX EDDFYYYX LFPNYYYX 121226 METAR LFPG 121226Z 32346KT 9999 FEW030 21/-5 Q1088
DD EGLLYYYX EDDFYYYX EGLLYYYX LFPBYYYX 232301 METAR LFPG 232301Z 32149KT 9999 FEW030 18/1 Q1070
SS LFPGYYYX LFPGYYYX EDDFYYYX 200040 METAR LFPG 200040Z 01924KT 9999 FEW030 19/-8 Q1039
GG LFPOYYYX LFPBYYYX EDDFYYYX 030930 METAR LFPG 030930Z 20849KT 9999 FEW030 19/14 Q1023
DD LFPOYYYX EDDFYYYX 230352 METAR LFPG 230352Z 15249KT 9999 FEW030 -10/-6 Q1086
DD LFPNYYYX LFPGYYYX 211920 METAR LFPG 211920Z 29015KT 9999 FEW030 24/-1 Q1013
FF EDDFYYYX EDDFYYYX LFPOYYYX 130538 METAR LFPG 130538Z 32236KT 9999 FEW030 3/1 Q1043
GG LFPBYYYX LFPBYYYX LFPOYYYX EDDFYYYX 161350 METAR LFPG 161350Z 14421KT 9999 FEW030 4/1 Q1041
DD LFPOYYYX LFPBYYYX EDDFYYYX EGLLYYYX 281404 METAR LFPG 281404Z 25838KT 9999 FEW030 -9/-8 Q1016
FF LFPBYYYX LFPOYYYX LFPNYYYX LFPGYYYX 051541 METAR LFPG 051541Z 35214KT 9999 FEW030 -9/16 Q1006
DD LFPOYYYX LFPNYYYX LFPBYYYX 040146 METAR LFPG 040146Z 02416KT 9999 FEW030 32/7 Q1004
GG EDDFYYYX LFPOYYYX EDDFYYYX LFPNYYYX 011402 METAR LFPG 011402Z 25743KT 9999 FEW030 12/1 Q1020
SS EGLLYYYX LFPGYYYX EGLLYYYX 201725 METAR LFPG 201725Z 21828KT 9999 FEW030 27/-5 Q1031
LL EGLLYYYX LFPBYYYX 160450 METAR LFPG 160450Z 13614KT 9999 FEW030 16/-7 Q1071
KK EGLLYYYX LFPBYYYX LFPNYYYX LFPGYYYX 020649 METAR LFPG 020649Z 16921KT 9999 FEW030 33/10 Q1074
SS LFPBYYYX EGLLYYYX LFPBYYYX LFPGYYYX 240048 METAR LFPG 240048Z 32515KT 9999 FEW030 20/13 Q1098
LL LFPGYYYX LFPOYYYX 202123 METAR LFPG 202123Z 12119KT 9999 FEW030 28/13 Q1031
SS LFPBYYYX LFPOYYYX LFPBYYYX EGLLYYYX 091709 METAR LFPG 091709Z 07420KT 9999 FEW030 -3/-1 Q1032
LL EDDFYYYX EDDFYYYX 202225 METAR LFPG 202225Z 07121KT 9999 FEW030 22/-5 Q1085
DD LFPGYYYX LFPGYYYX LFPBYYYX LFPNYYYX 051919 METAR LFPG 051919Z 12628KT 9999 FEW030 19/18 Q1084
SS LFPOYYYX LFPGYYYX 021551 METAR LFPG 021551Z 20434KT 9999 FEW030 2/10 Q1033
LL LFPOYYYX LFPGYYYX LFPBYYYX LFPOYYYX 141530 METAR LFPG 141530Z 14136KT 9999 FEW030 10/-7 Q1026
FF EDDFYYYX LFPNYYYX LFPOYYYX 101156 METAR LFPG 101156Z 11748KT 9999 FEW030 10/17 Q1041
LL LFPOYYYX LFPNYYYX 092154 METAR LFPG 092154Z 30415KT 9999 FEW030 -8/22 Q1084
FF LFPBYYYX LFPBYYYX 070336 METAR LFPG 070336Z 22547KT 9999 FEW030 31/8 Q1040
KK EDDFYYYX EGLLYYYX 100557 METAR LFPG 100557Z 07032KT 9999 FEW030 6/-9 Q1044
GG LFPGYYYX LFPNYYYX 150338 METAR LFPG 150338Z 05844KT 9999 FEW030 23/16 Q1001
KK LFPGYYYX LFPGYYYX LFPBYYYX LFPOYYYX 220235 METAR LFPG 220235Z 04228KT 9999 FEW030 -3/9 Q1048
SS LFPOYYYX LFPNYYYX LFPGYYYX 252005 METAR LFPG 252005Z 26938KT 9999 FEW030 13/-2 Q1083
GG LFPNYYYX EDDFYYYX 091037 METAR LFPG 091037Z 21942KT 9999 FEW030 0/-7 Q1025
LL LFPGYYYX LFPGYYYX EDDFYYYX 271739 METAR LFPG 271739Z 17229KT 9999 FEW030 0/18 Q1089
FF LFPGYYYX EDDFYYYX LFPGYYYX 111659 METAR LFPG 111659Z 20729KT 9999 FEW030 3/21 Q1009
KK LFPBYYYX LFPBYYYX 220750 METAR LFPG 220750Z 12323KT 9999 FEW030 4/5 Q1041
LL LFPOYYYX EDDFYYYX LFPGYYYX LFPBYYYX 011915 METAR LFPG 011915Z 03211KT 9999 FEW030 17/6 Q1077
LL LFPOYYYX EGLLYYYX 210400 METAR LFPG 210400Z 20728KT 9999 FEW030 5/-10 Q1096
DD LFPGYYYX EDDFYYYX 090938 METAR LFPG 090938Z 28649KT 9999 FEW030 16/7 Q1017
FF EGLLYYYX LFPOYYYX 250250 METAR LFPG 250250Z 09514KT 9999 FEW030 11/12 Q1047
KK LFPGYYYX LFPOYYYX 121907 METAR LFPG 121907Z 14733KT 9999 FEW030 28/13 Q1015
FF EDDFYYYX LFPGYYYX LFPOYYYX LFPBYYYX 150903 METAR LFPG 150903Z 04910KT 9999 FEW030 2/12 Q1040
FF EDDFYYYX LFPNYYYX 192022 METAR LFPG 192022Z 16114KT 9999 FEW030 27/14 Q1057
LL EGLLYYYX LFPBYYYX 150238 METAR LFPG 150238Z 05410KT 9999 FEW030 0/-6 Q1027
SS LFPOYYYX LFPNYYYX 101038 METAR LFPG 101038Z 35639KT 9999 FEW030 10/0 Q1046
DD LFPNYYYX LFPNYYYX 132323 METAR LFPG 132323Z 04541KT 9999 FEW030 28/23 Q1071
SS LFPNYYYX LFPGYYYX LFPOYYYX 242258 METAR LFPG 242258Z 17913KT 9999 FEW030 18/4 Q1071
SS LFPNYYYX LFPOYYYX EGLLYYYX 031739 METAR LFPG 031739Z 06224KT 9999 FEW030 6/-7 Q1067
LL LFPBYYYX LFPGYYYX LFPNYYYX 170129 METAR LFPG 170129Z 21946KT 9999 FEW030 8/5 Q1000
GG LFPGYYYX EDDFYYYX LFPNYYYX 131153 METAR LFPG 131153Z 02441KT 9999 FEW030 8/-1 Q1037
DD LFPGYYYX EGLLYYYX LFPGYYYX 142350 METAR LFPG 142350Z 01341KT 9999 FEW030 -7/-1 Q1014
SS LFPOYYYX LFPBYYYX EGLLYYYX 270608 METAR LFPG 270608Z 35219KT 9999 FEW030 -4/24 Q1092
DD LFPNYYYX LFPGYYYX LFPOYYYX LFPNYYYX 252320 METAR LFPG 252320Z 33944KT 9999 FEW030 28/8 Q1075
GG EDDFYYYX LFPNYYYX EGLLYYYX LFPBYYYX 250138 METAR LFPG 250138Z 13910KT 9999 FEW030 17/-2 Q1059
GG LFPOYYYX EDDFYYYX LFPOYYYX LFPBYYYX 241725 METAR LFPG 241725Z 13917KT 9999 FEW030 14/8 Q1089
DD EDDFYYYX LFPBYYYX 150500 METAR LFPG 150500Z 03031KT 9999 FEW030 0/14 Q1087
KK LFPGYYYX EGLLYYYX LFPGYYYX EDDFYYYX 081940 METAR LFPG 081940Z 00923KT 9999 FEW030 21/-10 Q1007
LL EDDFYYYX LFPNYYYX EDDFYYYX EGLLYYYX 260602 METAR LFPG 260602Z 31738KT 9999 FEW030 23/14 Q1027
FF LFPOYYYX LFPNYYYX 051536 METAR LFPG 051536Z 19718KT 9999 FEW030 7/10 Q1016
SS EDDFYYYX LFPNYYYX 210032 METAR LFPG 210032Z 13427KT 9999 FEW030 11/-3 Q1047
DD LFPGYYYX EDDFYYYX LFPGYYYX 131218 METAR LFPG 131218Z 21238KT 9999 FEW030 35/20 Q1030
DD EGLLYYYX EDDFYYYX LFPBYYYX 180002 METAR LFPG 180002Z 02643KT 9999 FEW030 13/21 Q1026
GG EGLLYYYX LFPGYYYX LFPOYYYX EDDFYYYX 240820 METAR LFPG 240820Z 15339KT 9999 FEW030 12/14 Q1091
SS LFPNYYYX LFPBYYYX LFPOYYYX 041405 METAR LFPG 041405Z 13927KT 9999 FEW030 3/16 Q1098
LL LFPBYYYX LFPOYYYX 132324 METAR LFPG 132324Z 06015KT 9999 FEW030 17/15 Q1083
FF EGLLYYYX EDDFYYYX LFPOYYYX LFPNYYYX 021521 METAR LFPG 021521Z 06145KT 9999 FEW030 -7/4 Q1016
FF LFPOYYYX LFPGYYYX 010432 METAR LFPG 010432Z 16724KT 9999 FEW030 26/-2 Q1017
GG LFPGYYYX EDDFYYYX LFPBYYYX 211952 METAR LFPG 211952Z 22743KT 9999 FEW030 -2/20 Q1019
KK LFPNYYYX EGLLYYYX 061544 METAR LFPG 061544Z 27133KT 9999 FEW030 11/17 Q1092
GG LFPOYYYX EDDFYYYX EGLLYYYX LFPNYYYX 141653 METAR LFPG 141653Z 13535KT 9999 FEW030 35/2 Q1019
GG LFPNYYYX EGLLYYYX LFPBYYYX 042225 METAR LFPG 042225Z 26933KT 9999 FEW030 -5/21 Q1068
DD LFPBYYYX EDDFYYYX LFPBYYYX 110851 METAR LFPG 110851Z 12111KT 9999 FEW030 20/-9 Q1033
SS LFPBYYYX LFPGYYYX LFPNYYYX 080723 METAR LFPG 080723Z 34119KT 9999 FEW030 10/13 Q1034
SS LFPOYYYX LFPGYYYX 120745 METAR LFPG 120745Z 15137KT 9999 FEW030 -8/18 Q1071
DD LFPGYYYX EGLLYYYX LFPNYYYX LFPOYYYX 071207 METAR LFPG 071207Z 29741KT 9999 FEW030 0/19 Q1045
KK EGLLYYYX LFPNYYYX LFPBYYYX EDDFYYYX 270842 METAR LFPG 270842Z 23426KT 9999 FEW030 -5/-8 Q1019
DD LFPBYYYX LFPOYYYX 071318 METAR LFPG 071318Z 18432KT 9999 FEW030 0/-10 Q1054
GG LFPNYYYX LFPBYYYX 071254 METAR LFPG 071254Z 23432KT 9999 FEW030 13/11 Q1041
SS EDDFYYYX LFPBYYYX EDDFYYYX LFPGYYYX 080634 METAR LFPG 080634Z 34411KT 9999 FEW030 34/-3 Q1093
DD LFPOYYYX EGLLYYYX EDDFYYYX 160623 METAR LFPG 160623Z 02124KT 9999 FEW030 11/-6 Q1002
FF LFPOYYYX LFPOYYYX 270403 METAR LFPG 270403Z 17724KT 9999 FEW030 27/15 Q1013
LL EGLLYYYX LFPOYYYX 271853 METAR LFPG 271853Z 09025KT 9999 FEW030 -10/-4 Q1098
DD LFPOYYYX LFPGYYYX 151638 METAR LFPG 151638Z 21831KT 9999 FEW030 -5/21 Q1003
DD LFPNYYYX LFPOYYYX EDDFYYYX 012013 METAR LFPG 012013Z 32040KT 9999 FEW030 -9/14 Q1039
SS EDDFYYYX EDDFYYYX EGLLYYYX 180346 METAR LFPG 180346Z 30649KT 9999 FEW030 11/7 Q1052
GG LFPGYYYX LFPOYYYX 110855 METAR LFPG 110855Z 01025KT 9999 FEW030 2/-4 Q1032
FF EGLLYYYX LFPGYYYX 252028 METAR LFPG 252028Z 16343KT 9999 FEW030 16/14 Q1029
LL EDDFYYYX LFPBYYYX 140920 METAR LFPG 140920Z 19622KT 9999 FEW030 5/16 Q1097
KK LFPBYYYX LFPGYYYX 010712 METAR LFPG 010712Z 29227KT 9999 FEW030 14/6 Q1049
KK LFPNYYYX LFPBYYYX 090831 METAR LFPG 090831Z 27530KT 9999 FEW030 5/6 Q1100
DD EDDFYYYX LFPNYYYX LFPOYYYX 221804 METAR LFPG 221804Z 29719KT 9999 FEW030 7/-3 Q1075
FF LFPGYYYX LFPOYYYX LFPBYYYX 161934 METAR LFPG 161934Z 30549KT 9999 FEW030 21/13 Q1100
GG LFPNYYYX EDDFYYYX LFPOYYYX 110657 METAR LFPG 110657Z 10021KT 9999 FEW030 2/3 Q1098
SS EGLLYYYX EDDFYYYX 161937 METAR LFPG 161937Z 13137KT 9999 FEW030 5/7 Q1017
SS EDDFYYYX EGLLYYYX 240946 METAR LFPG 240946Z 05225KT 9999 FEW030 27/9 Q1016
FF LFPGYYYX LFPBYYYX LFPNYYYX 240435 METAR LFPG 240435Z 09935KT 9999 FEW030 1/7 Q1093
SS LFPGYYYX LFPGYYYX EGLLYYYX LFPNYYYX 080833 METAR LFPG 080833Z 15443KT 9999 FEW030 0/7 Q1068
FF LFPOYYYX LFPBYYYX LFPGYYYX LFPNYYYX 030035 METAR LFPG 030035Z 04027KT 9999 FEW030 29/23 Q1084
FF LFPOYYYX EDDFYYYX LFPOYYYX LFPBYYYX 161334 METAR LFPG 161334Z 10816KT 9999 FEW030 20/23 Q1064
SS EGLLYYYX LFPBYYYX EDDFYYYX 021100 METAR LFPG 021100Z 30037KT 9999 FEW030 3/25 Q1089
KK EGLLYYYX LFPGYYYX LFPOYYYX 140539 METAR LFPG 140539Z 00631KT 9999 FEW030 -10/-1 Q1046
FF LFPGYYYX LFPBYYYX LFPOYYYX 050111 METAR LFPG 050111Z 09230KT 9999 FEW030 -9/18 Q1017
SS LFPOYYYX LFPGYYYX LFPOYYYX EDDFYYYX 191312 METAR LFPG 191312Z 17410KT 9999 FEW030 21/24 Q1029
KK LFPBYYYX LFPGYYYX LFPNYYYX 252019 METAR LFPG 252019Z 10439KT 9999 FEW030 35/14 Q1068
GG LFPGYYYX LFPOYYYX EDDFYYYX EGLLYYYX 061437 METAR LFPG 061437Z 02730KT 9999 FEW030 17/-8 Q1074
GG EDDFYYYX LFPOYYYX 031500 METAR LFPG 031500Z 00434KT 9999 FEW030 34/18 Q1064
DD LFPBYYYX LFPBYYYX 081500 METAR LFPG 081500Z 23811KT 9999 FEW030 14/2 Q1007
SS LFPOYYYX EGLLYYYX LFPNYYYX 172205 METAR LFPG 172205Z 04824KT 9999 FEW030 -7/-9 Q1052
KK LFPGYYYX LFPOYYYX LFPGYYYX 271930 METAR LFPG 271930Z 32443KT 9999 FEW030 19/5 Q1008
SS LFPNYYYX LFPOYYYX 212342 METAR LFPG 212342Z 30237KT 9999 FEW030 3/-1 Q1088
GG LFPGYYYX LFPGYYYX EGLLYYYX 140625 METAR LFPG 140625Z 00721KT 9999 FEW030 18/-4 Q1082
DD LFPOYYYX LFPGYYYX LFPOYYYX 181853 METAR LFPG 181853Z 01737KT 9999 FEW030 20/0 Q1016
KK EGLLYYYX LFPGYYYX 011034 METAR LFPG 011034Z 26627KT 9999 FEW030 3/14 Q1024
FF LFPNYYYX LFPGYYYX 061015 METAR LFPG 061015Z 10840KT 9999 FEW030 13/20 Q1043
GG EDDFYYYX LFPBYYYX EDDFYYYX 051555 METAR LFPG 051555Z 22534KT 9999 FEW030 29/3 Q1056
LL EDDFYYYX LFPBYYYX EGLLYYYX 121507 METAR LFPG 121507Z 20720KT 9999 FEW030 30/16 Q1089
KK LFPGYYYX EDDFYYYX 232050 METAR LFPG 232050Z 30839KT 9999 FEW030 32/16 Q1089
LL LFPGYYYX EDDFYYYX LFPGYYYX 031033 METAR LFPG 031033Z 33742KT 9999 FEW030 24/2 Q1056
KK EDDFYYYX EGLLYYYX LFPNYYYX 160731 METAR LFPG 160731Z 17531KT 9999 FEW030 -9/-9 Q1098
KK EDDFYYYX EGLLYYYX LFPGYYYX 131145 METAR LFPG 131145Z 05324KT 9999 FEW030 -2/-6 Q1017
DD LFPBYYYX EDDFYYYX LFPBYYYX 262251 METAR LFPG 262251Z 15713KT 9999 FEW030 11/9 Q1003
GG LFPNYYYX LFPBYYYX 062210 METAR LFPG 062210Z 09247KT 9999 FEW030 30/24 Q1067
DD LFPOYYYX LFPBYYYX 120939 METAR LFPG 120939Z 28439KT 9999 FEW030 -6/8 Q1051
KK LFPNYYYX LFPOYYYX LFPBYYYX EGLLYYYX 210811 METAR LFPG 210811Z 21730KT 9999 FEW030 11/-7 Q1004
KK EDDFYYYX LFPBYYYX LFPNYYYX 081020 METAR LFPG 081020Z 22739KT 9999 FEW030 5/6 Q1084
FF LFPBYYYX EGLLYYYX 122359 METAR LFPG 122359Z 00229KT 9999 FEW030 -3/8 Q1021
GG EDDFYYYX LFPGYYYX LFPNYYYX 132149 METAR LFPG 132149Z 19724KT 9999 FEW030 0/0 Q1023
DD LFPOYYYX LFPOYYYX LFPNYYYX 260316 METAR LFPG 260316Z 09927KT 9999 FEW030 5/12 Q1000
SS LFPNYYYX LFPNYYYX 031852 METAR LFPG 031852Z 12524KT 9999 FEW030 16/12 Q1065
GG EGLLYYYX LFPOYYYX EDDFYYYX 071018 METAR LFPG 071018Z 20826KT 9999 FEW030 -10/17 Q1100
FF EDDFYYYX LFPBYYYX 111829 METAR LFPG 111829Z 16513KT 9999 FEW030 5/-5 Q1018
KK EDDFYYYX LFPOYYYX LFPBYYYX 010254 METAR LFPG 010254Z 33744KT 9999 FEW030 22/12 Q1065
DD LFPGYYYX LFPNYYYX LFPGYYYX 190620 METAR LFPG 190620Z 17641KT 9999 FEW030 0/25 Q1098
DD LFPBYYYX LFPGYYYX 171717 METAR LFPG 171717Z 30445KT 9999 FEW030 16/19 Q1033
DD LFPGYYYX LFPBYYYX LFPNYYYX LFPOYYYX 070843 METAR LFPG 070843Z 13248KT 9999 FEW030 -1/12 Q1084
SS LFPBYYYX LFPBYYYX LFPGYYYX LFPNYYYX 100328 METAR LFPG 100328Z 34125KT 9999 FEW030 29/4 Q1052
LL LFPGYYYX LFPNYYYX EGLLYYYX 110758 METAR LFPG 110758Z 22022KT 9999 FEW030 6/6 Q1039
KK LFPOYYYX EDDFYYYX LFPBYYYX EGLLYYYX 200026 METAR LFPG 200026Z 03619KT 9999 FEW030 4/7 Q1049
SS EDDFYYYX EGLLYYYX 200217 METAR LFPG 200217Z 35311KT 9999 FEW030 20/5 Q1048
DD LFPOYYYX LFPGYYYX EGLLYYYX LFPOYYYX 030126 METAR LFPG 030126Z 30741KT 9999 FEW030 8/21 Q1053
GG LFPBYYYX LFPOYYYX LFPBYYYX 010912 METAR LFPG 010912Z 14621KT 9999 FEW030 22/-4 Q1078
DD EDDFYYYX LFPBYYYX EDDFYYYX 041005 METAR LFPG 041005Z 33044KT 9999 FEW030 20/3 Q1014
LL EDDFYYYX LFPNYYYX EGLLYYYX EDDFYYYX 192229 METAR LFPG 192229Z 22413KT 9999 FEW030 -1/-5 Q1097
KK LFPGYYYX LFPGYYYX 192035 METAR LFPG 192035Z 09531KT 9999 FEW030 32/14 Q1092
LL LFPGYYYX LFPGYYYX EDDFYYYX 101017 METAR LFPG 101017Z 26244KT 9999 FEW030 3/-5 Q1024
SS LFPOYYYX LFPBYYYX EDDFYYYX EGLLYYYX 040927 METAR LFPG 040927Z 07140KT 9999 FEW030 15/0 Q1055
DD LFPOYYYX LFPNYYYX LFPGYYYX 171731 METAR LFPG 171731Z 30221KT 9999 FEW030 28/11 Q1002
KK LFPOYYYX LFPNYYYX 051750 METAR LFPG 051750Z 19218KT 9999 FEW030 19/15 Q1082
FF EGLLYYYX LFPOYYYX LFPNYYYX LFPGYYYX 140840 METAR LFPG 140840Z 12550KT 9999 FEW030 -9/0 Q1095
KK LFPGYYYX LFPBYYYX 011033 METAR LFPG 011033Z 24924KT 9999 FEW030 5/-1 Q1083
KK LFPBYYYX EGLLYYYX LFPOYYYX EDDFYYYX 031608 METAR LFPG 031608Z 24237KT 9999 FEW030 27/4 Q1071
KK EGLLYYYX EGLLYYYX EDDFYYYX LFPOYYYX 210349 METAR LFPG 210349Z 05343KT 9999 FEW030 19/-10 Q1085
FF LFPNYYYX EGLLYYYX LFPGYYYX 171253 METAR LFPG 171253Z 14926KT 9999 FEW030 -10/-4 Q1073
DD LFPNYYYX LFPGYYYX LFPOYYYX 160632 METAR LFPG 160632Z 27730KT 9999 FEW030 22/-5 Q1100
KK LFPNYYYX LFPGYYYX 160329 METAR LFPG 160329Z 28611KT 9999 FEW030 26/-1 Q1078
GG LFPNYYYX LFPBYYYX EDDFYYYX LFPGYYYX 250917 METAR LFPG 250917Z 00644KT 9999 FEW030 3/18 Q1076
FF LFPGYYYX LFPNYYYX EDDFYYYX LFPOYYYX 181447 METAR LFPG 181447Z 23419KT 9999 FEW030 5/11 Q1095
GG EGLLYYYX LFPOYYYX 070757 METAR LFPG 070757Z 06732KT 9999 FEW030 16/9 Q1060
LL LFPGYYYX EDDFYYYX LFPGYYYX 210326 METAR LFPG 210326Z 16328KT 9999 FEW030 0/-8 Q1047
LL LFPNYYYX EDDFYYYX LFPOYYYX EGLLYYYX 030259 METAR LFPG 030259Z 19344KT 9999 FEW030 -4/1 Q1042
LL LFPGYYYX LFPOYYYX EGLLYYYX 041149 METAR LFPG 041149Z 08116KT 9999 FEW030 -10/20 Q1074
DD EGLLYYYX LFPNYYYX EDDFYYYX EGLLYYYX 252009 METAR LFPG 252009Z 16729KT 9999 FEW030 9/6 Q1031
KK LFPBYYYX LFPBYYYX LFPOYYYX 160816 METAR LFPG 160816Z 33411KT 9999 FEW030 3/-3 Q1037
FF LFPBYYYX LFPGYYYX 121436 METAR LFPG 121436Z 22724KT 9999 FEW030 17/12 Q1056
LL LFPOYYYX LFPNYYYX EGLLYYYX 210009 METAR LFPG 210009Z 07110KT 9999 FEW030 -2/23 Q1032
KK EGLLYYYX LFPGYYYX EDDFYYYX LFPBYYYX 190906 METAR LFPG 190906Z 32725KT 9999 FEW030 12/3 Q1053
KK EGLLYYYX LFPBYYYX EGLLYYYX 182314 METAR LFPG 182314Z 04230KT 9999 FEW030 29/8 Q1023
SS LFPGYYYX EGLLYYYX LFPNYYYX 020430 METAR LFPG 020430Z 18413KT 9999 FEW030 21/-6 Q1029
SS EDDFYYYX LFPOYYYX 210849 METAR LFPG 210849Z 02718KT 9999 FEW030 -7/8 Q1060
LL LFPBYYYX EGLLYYYX LFPGYYYX LFPOYYYX 200445 METAR LFPG 200445Z 14312KT 9999 FEW030 32/9 Q1053
KK EGLLYYYX LFPBYYYX 071636 METAR LFPG 071636Z 28848KT 9999 FEW030 5/6 Q1038
KK LFPNYYYX LFPOYYYX LFPNYYYX EGLLYYYX 072213 METAR LFPG 072213Z 24322KT 9999 FEW030 23/-2 Q1016
FF LFPBYYYX LFPBYYYX LFPNYYYX 031800 METAR LFPG 031800Z 00638KT 9999 FEW030 15/15 Q1014
SS LFPNYYYX EGLLYYYX LFPGYYYX 181532 METAR LFPG 181532Z 26436KT 9999 FEW030 8/4 Q1041
DD EDDFYYYX LFPBYYYX LFPNYYYX 180851 METAR LFPG 180851Z 08842KT 9999 FEW030 25/7 Q1034
DD LFPGYYYX LFPBYYYX EDDFYYYX 101420 METAR LFPG 101420Z 24946KT 9999 FEW030 16/24 Q1065
GG LFPGYYYX LFPBYYYX EDDFYYYX LFPOYYYX 220320 METAR LFPG 220320Z 34030KT 9999 FEW030 34/3 Q1097
DD LFPGYYYX LFPGYYYX LFPNYYYX 071532 METAR LFPG 071532Z 30230KT 9999 FEW030 -7/15 Q1078
FF LFPBYYYX EGLLYYYX 120346 METAR LFPG 120346Z 12236KT 9999 FEW030 17/-8 Q1063
KK LFPBYYYX LFPGYYYX LFPOYYYX 170849 METAR LFPG 170849Z 15015KT 9999 FEW030 9/10 Q1025
DD EGLLYYYX EDDFYYYX LFPNYYYX EGLLYYYX 110152 METAR LFPG 110152Z 08928KT 9999 FEW030 7/-7 Q1083
LL LFPGYYYX LFPGYYYX EGLLYYYX LFPOYYYX 272043 METAR LFPG 272043Z 09810KT 9999 FEW030 4/23 Q1038
FF EDDFYYYX EGLLYYYX 142308 METAR LFPG 142308Z 23241KT 9999 FEW030 2/0 Q1059
LL EGLLYYYX LFPOYYYX 091200 METAR LFPG 091200Z 16127KT 9999 FEW030 -10/17 Q1045
FF LFPNYYYX LFPBYYYX EGLLYYYX LFPGYYYX 091206 METAR LFPG 091206Z 35029KT 9999 FEW030 17/-9 Q1099
FF EDDFYYYX LFPNYYYX 032148 METAR LFPG 032148Z 09311KT 9999 FEW030 -7/10 Q1003
KK LFPOYYYX LFPBYYYX 051026 METAR LFPG 051026Z 18622KT 9999 FEW030 1/21 Q1056
DD LFPBYYYX EGLLYYYX LFPOYYYX 241655 METAR LFPG 241655Z 35028KT 9999 FEW030 33/23 Q1027
DD EGLLYYYX LFPGYYYX EDDFYYYX LFPOYYYX 152143 METAR LFPG 152143Z 22425KT 9999 FEW030 22/-9 Q1071
KK LFPBYYYX EGLLYYYX 122112 METAR LFPG 122112Z 18633KT 9999 FEW030 12/-10 Q1062
SS EDDFYYYX EDDFYYYX LFPNYYYX 282222 METAR LFPG 282222Z 00119KT 9999 FEW030 -3/-2 Q1071
DD EGLLYYYX LFPBYYYX 141423 METAR LFPG 141423Z 00433KT 9999 FEW030 0/-8 Q1038
GG LFPNYYYX LFPGYYYX 130326 METAR LFPG 130326Z 29325KT 9999 FEW030 3/6 Q1100
GG LFPOYYYX EGLLYYYX LFPBYYYX LFPOYYYX 030047 METAR LFPG 030047Z 34539KT 9999 FEW030 13/18 Q1060
FF LFPNYYYX EDDFYYYX LFPOYYYX 250545 METAR LFPG 250545Z 00018KT 9999 FEW030 15/-9 Q1093
SS EGLLYYYX EDDFYYYX LFPNYYYX 201815 METAR LFPG 201815Z 10425KT 9999 FEW030 32/23 Q1098
LL LFPGYYYX LFPOYYYX LFPBYYYX 180556 METAR LFPG 180556Z 20028KT 9999 FEW030 -8/16 Q1000
GG LFPOYYYX LFPGYYYX 211828 METAR LFPG 211828Z 06313KT 9999 FEW030 9/5 Q1049
KK LFPOYYYX LFPOYYYX EDDFYYYX 121843 METAR LFPG 121843Z 07133KT 9999 FEW030 31/7 Q1045
LL EDDFYYYX LFPGYYYX LFPNYYYX 161246 METAR LFPG 161246Z 12542KT 9999 FEW030 11/13 Q1099
FF LFPBYYYX LFPGYYYX LFPOYYYX 260736 METAR LFPG 260736Z 32019KT 9999 FEW030 2/10 Q1096
LL LFPOYYYX LFPBYYYX EDDFYYYX LFPGYYYX 220002 METAR LFPG 220002Z 14114KT 9999 FEW030 -4/10 Q1083
LL LFPBYYYX LFPOYYYX 111932 METAR LFPG 111932Z 16224KT 9999 FEW030 -2/21 Q1057
KK EGLLYYYX EGLLYYYX LFPBYYYX 090148 METAR LFPG 090148Z 02919KT 9999 FEW030 -4/24 Q1009
GG LFPNYYYX LFPOYYYX LFPGYYYX 170320 METAR LFPG 170320Z 05028KT 9999 FEW030 -3/4 Q1079
SS EGLLYYYX LFPGYYYX LFPOYYYX 121312 METAR LFPG 121312Z 12949KT 9999 FEW030 -4/22 Q1082
GG LFPGYYYX LFPNYYYX EDDFYYYX 110409 METAR LFPG 110409Z 33432KT 9999 FEW030 2/-7 Q1017
SS LFPNYYYX LFPBYYYX EDDFYYYX 190011 METAR LFPG 190011Z 25230KT 9999 FEW030 -3/22 Q1010
SS LFPGYYYX LFPGYYYX EGLLYYYX LFPNYYYX 181839 METAR LFPG 181839Z 29342KT 9999 FEW030 18/-8 Q1055
FF LFPNYYYX EDDFYYYX EGLLYYYX 041842 METAR LFPG 041842Z 33040KT 9999 FEW030 33/17 Q1035
DD LFPGYYYX EGLLYYYX LFPBYYYX 060516 METAR LFPG 060516Z 26726KT 9999 FEW030 31/20 Q1049
DD EGLLYYYX EDDFYYYX 101817 METAR LFPG 101817Z 26822KT 9999 FEW030 -7/12 Q1009
KK LFPBYYYX LFPBYYYX EDDFYYYX LFPGYYYX 062013 METAR LFPG 062013Z 00012KT 9999 FEW030 -6/17 Q1077
GG LFPNYYYX EDDFYYYX LFPNYYYX 151644 METAR LFPG 151644Z 17525KT 9999 FEW030 31/17 Q1048
DD LFPBYYYX LFPGYYYX 210443 METAR LFPG 210443Z 15340KT 9999 FEW030 6/0 Q1053
LL LFPOYYYX LFPGYYYX LFPNYYYX LFPBYYYX 281422 METAR LFPG 281422Z 03613KT 9999 FEW030 14/6 Q1070
LL LFPOYYYX LFPBYYYX 060921 METAR LFPG 060921Z 18536KT 9999 FEW030 32/18 Q1013
DD LFPGYYYX LFPBYYYX LFPNYYYX LFPOYYYX 082206 METAR LFPG 082206Z 32928KT 9999 FEW030 0/24 Q1066
GG LFPNYYYX EGLLYYYX 281916 METAR LFPG 281916Z 29838KT 9999 FEW030 28/22 Q1077
SS LFPBYYYX EGLLYYYX LFPGYYYX 082206 METAR LFPG 082206Z 03311KT 9999 FEW030 35/23 Q1090
GG LFPBYYYX EDDFYYYX 270929 METAR LFPG 270929Z 18750KT 9999 FEW030 1/-4 Q1093
KK EGLLYYYX LFPGYYYX 060226 METAR LFPG 060226Z 16442KT 9999 FEW030 -2/17 Q1019
FF LFPBYYYX LFPBYYYX LFPOYYYX 271706 METAR LFPG 271706Z 20011KT 9999 FEW030 25/-5 Q1040
SS EDDFYYYX LFPBYYYX 130443 METAR LFPG 130443Z 32219KT 9999 FEW030 -6/17 Q1085
KK EDDFYYYX LFPBYYYX LFPNYYYX 062147 METAR LFPG 062147Z 03846KT 9999 FEW030 35/16 Q1010
SS EGLLYYYX LFPNYYYX 251349 METAR LFPG 251349Z 01444KT 9999 FEW030 13/6 Q1082
LL LFPOYYYX LFPOYYYX LFPNYYYX EDDFYYYX 050110 METAR LFPG 050110Z 19135KT 9999 FEW030 4/3 Q1074
LL EDDFYYYX LFPBYYYX LFPOYYYX 040106 METAR LFPG 040106Z 34241KT 9999 FEW030 22/-2 Q1022
KK EDDFYYYX EDDFYYYX 171642 METAR LFPG 171642Z 14819KT 9999 FEW030 22/21 Q1068
KK EGLLYYYX LFPBYYYX 070210 METAR LFPG 070210Z 18439KT 9999 FEW030 28/-6 Q1063
LL EGLLYYYX EGLLYYYX LFPOYYYX 180938 METAR LFPG 180938Z 22547KT 9999 FEW030 9/19 Q1033
SS EGLLYYYX LFPOYYYX EDDFYYYX EGLLYYYX 061044 METAR LFPG 061044Z 26615KT 9999 FEW030 25/16 Q1002
KK LFPOYYYX LFPNYYYX LFPGYYYX LFPBYYYX 240821 METAR LFPG 240821Z 18021KT 9999 FEW030 30/-4 Q1004
LL LFPBYYYX LFPGYYYX EDDFYYYX 071110 METAR LFPG 071110Z 03546KT 9999 FEW030 21/23 Q1022
GG EGLLYYYX LFPOYYYX 152235 METAR LFPG 152235Z 15433KT 9999 FEW030 12/10 Q1034
SS LFPNYYYX LFPGYYYX LFPBYYYX 110823 METAR LFPG 110823Z 20025KT 9999 FEW030 29/21 Q1063
LL LFPOYYYX EGLLYYYX LFPNYYYX 230023 METAR LFPG 230023Z 32246KT 9999 FEW030 29/1 Q1057
DD LFPNYYYX LFPOYYYX 190723 METAR LFPG 190723Z 35720KT 9999 FEW030 1/-1 Q1043
FF EDDFYYYX EGLLYYYX LFPOYYYX LFPBYYYX 030133 METAR LFPG 030133Z 03135KT 9999 FEW030 -2/23 Q1065
KK LFPOYYYX LFPOYYYX LFPGYYYX LFPBYYYX 010746 METAR LFPG 010746Z 22837KT 9999 FEW030 30/-3 Q1023
LL EDDFYYYX EGLLYYYX 042058 METAR LFPG 042058Z 32113KT 9999 FEW030 13/19 Q1075
LL LFPGYYYX LFPGYYYX EGLLYYYX 140314 METAR LFPG 140314Z 34912KT 9999 FEW030 4/0 Q1035
DD LFPNYYYX LFPBYYYX LFPNYYYX 200713 METAR LFPG 200713Z 10310KT 9999 FEW030 14/3 Q1019
KK LFPBYYYX EDDFYYYX 021253 METAR LFPG 021253Z 22241KT 9999 FEW030 10/8 Q1001
LL LFPOYYYX EGLLYYYX LFPOYYYX 261943 METAR LFPG 261943Z 24042KT 9999 FEW030 15/10 Q1096
GG LFPBYYYX LFPBYYYX EDDFYYYX LFPGYYYX 032310 METAR LFPG 032310Z 08931KT 9999 FEW030 6/8 Q1060
DD LFPBYYYX LFPOYYYX 220325 METAR LFPG 220325Z 19712KT 9999 FEW030 22/19 Q1093
SS EGLLYYYX LFPNYYYX EGLLYYYX 041839 METAR LFPG 041839Z 13822KT 9999 FEW030 25/8 Q1090
SS LFPGYYYX LFPBYYYX EGLLYYYX LFPOYYYX 012307 METAR LFPG 012307Z 35610KT 9999 FEW030 2/5 Q1016
SS EGLLYYYX LFPOYYYX EGLLYYYX 200014 METAR LFPG 200014Z 35243KT 9999 FEW030 29/4 Q1035
DD EGLLYYYX LFPNYYYX LFPOYYYX LFPBYYYX 011407 METAR LFPG 011407Z 08512KT 9999 FEW030 -6/5 Q1064
LL LFPOYYYX EDDFYYYX EGLLYYYX LFPGYYYX 071010 METAR LFPG 071010Z 03116KT 9999 FEW030 18/9 Q1055
GG LFPNYYYX LFPBYYYX LFPOYYYX LFPGYYYX 100841 METAR LFPG 100841Z 21026KT 9999 FEW030 31/12 Q1096
LL EDDFYYYX LFPNYYYX EDDFYYYX 130434 METAR LFPG 130434Z 24150KT 9999 FEW030 1/6 Q1034
LL EDDFYYYX LFPGYYYX EDDFYYYX LFPNYYYX 100125 METAR LFPG 100125Z 17040KT 9999 FEW030 11/-7 Q1068
GG LFPNYYYX LFPOYYYX LFPBYYYX 131412 METAR LFPG 131412Z 21848KT 9999 FEW030 21/16 Q1084
FF LFPNYYYX LFPNYYYX LFPOYYYX EGLLYYYX 130614 METAR LFPG 130614Z 28144KT 9999 FEW030 -8/4 Q1076
FF LFPGYYYX EGLLYYYX LFPOYYYX 041313 METAR LFPG 041313Z 35447KT 9999 FEW030 22/22 Q1034
LL EGLLYYYX LFPBYYYX 150851 METAR LFPG 150851Z 12738KT 9999 FEW030 29/-5 Q1001
LL EDDFYYYX LFPGYYYX 202219 METAR LFPG 202219Z 28819KT 9999 FEW030 20/-4 Q1091
GG LFPNYYYX LFPBYYYX LFPOYYYX 221947 METAR LFPG 221947Z 25024KT 9999 FEW030 9/12 Q1027
FF LFPBYYYX EGLLYYYX LFPOYYYX LFPBYYYX 132045 METAR LFPG 132045Z 34435KT 9999 FEW030 -3/11 Q1048
SS EGLLYYYX EDDFYYYX 241254 METAR LFPG 241254Z 32840KT 9999 FEW030 10/-8 Q1083
LL LFPBYYYX LFPGYYYX 180533 METAR LFPG 180533Z 31013KT 9999 FEW030 27/6 Q1014
SS LFPOYYYX EGLLYYYX 181209 METAR LFPG 181209Z 02717KT 9999 FEW030 8/-5 Q1053
GG EDDFYYYX LFPOYYYX LFPGYYYX LFPBYYYX 212048 METAR LFPG 212048Z 01726KT 9999 FEW030 28/2 Q1097
GG LFPBYYYX LFPGYYYX EGLLYYYX 110126 METAR LFPG 110126Z 18230KT 9999 FEW030 35/-2 Q1024
GG LFPBYYYX LFPNYYYX 240503 METAR LFPG 240503Z 30133KT 9999 FEW030 7/15 Q1085
SS EDDFYYYX LFPNYYYX LFPOYYYX LFPBYYYX 032334 METAR LFPG 032334Z 30750KT 9999 FEW030 -2/7 Q1100
SS LFPGYYYX LFPOYYYX 082246 METAR LFPG 082246Z 35321KT 9999 FEW030 -9/22 Q1047
LL LFPOYYYX LFPGYYYX LFPNYYYX 070858 METAR LFPG 070858Z 12032KT 9999 FEW030 12/-10 Q1032
DD EDDFYYYX LFPNYYYX LFPBYYYX EDDFYYYX 251332 METAR LFPG 251332Z 27914KT 9999 FEW030 -2/1 Q1063
SS LFPGYYYX EGLLYYYX EDDFYYYX LFPOYYYX 161829 METAR LFPG 161829Z 20313KT 9999 FEW030 31/17 Q1050
DD LFPGYYYX LFPNYYYX LFPGYYYX 162346 METAR LFPG 162346Z 27733KT 9999 FEW030 23/9 Q1084
FF EGLLYYYX LFPNYYYX 180345 METAR LFPG 180345Z 32416KT 9999 FEW030 -9/7 Q1073
LL LFPBYYYX LFPGYYYX 140308 METAR LFPG 140308Z 27410KT 9999 FEW030 5/18 Q1080
FF LFPOYYYX EDDFYYYX LFPOYYYX 132033 METAR LFPG 132033Z 10624KT 9999 FEW030 30/20 Q1001
FF LFPGYYYX LFPOYYYX LFPBYYYX LFPNYYYX 150446 METAR LFPG 150446Z 30124KT 9999 FEW030 -3/24 Q1051
DD LFPBYYYX EDDFYYYX LFPBYYYX 151726 METAR LFPG 151726Z 09526KT 9999 FEW030 13/-7 Q1095
FF EDDFYYYX EGLLYYYX LFPOYYYX 082356 METAR LFPG 082356Z 10739KT 9999 FEW030 26/-2 Q1017
GG LFPBYYYX LFPGYYYX LFPOYYYX LFPNYYYX 241011 METAR LFPG 241011Z 21440KT 9999 FEW030 -1/15 Q1084
FF EGLLYYYX LFPGYYYX LFPNYYYX LFPOYYYX 281049 METAR LFPG 281049Z 32321KT 9999 FEW030 -10/20 Q1034
KK LFPOYYYX LFPGYYYX 170054 METAR LFPG 170054Z 33622KT 9999 FEW030 16/24 Q1032
LL LFPGYYYX LFPBYYYX LFPOYYYX LFPGYYYX 072146 METAR LFPG 072146Z 29427KT 9999 FEW030 0/6 Q1044
DD LFPNYYYX EDDFYYYX 010813 METAR LFPG 010813Z 10813KT 9999 FEW030 16/18 Q1043
SS LFPGYYYX EDDFYYYX LFPBYYYX EGLLYYYX 061539 METAR LFPG 061539Z 33535KT 9999 FEW030 30/10 Q1013
DD LFPGYYYX EDDFYYYX 161131 METAR LFPG 161131Z 25738KT 9999 FEW030 27/11 Q1043
SS LFPBYYYX EDDFYYYX LFPBYYYX 060210 METAR LFPG 060210Z 27418KT 9999 FEW030 16/21 Q1068
KK LFPGYYYX EDDFYYYX LFPNYYYX LFPOYYYX 061254 METAR LFPG 061254Z 28430KT 9999 FEW030 19/6 Q1026
LL LFPBYYYX LFPGYYYX 240338 METAR LFPG 240338Z 21334KT 9999 FEW030 16/-6 Q1044
SS LFPBYYYX EGLLYYYX 071956 METAR LFPG 071956Z 15538KT 9999 FEW030 8/24 Q1054
FF EGLLYYYX EGLLYYYX LFPNYYYX LFPOYYYX 080528 METAR LFPG 080528Z 29319KT 9999 FEW030 6/24 Q1014
SS LFPNYYYX LFPGYYYX EDDFYYYX 271517 METAR LFPG 271517Z 29936KT 9999 FEW030 -10/16 Q1022
LL EGLLYYYX LFPOYYYX LFPGYYYX EDDFYYYX 171640 METAR LFPG 171640Z 34827KT 9999 FEW030 -9/25 Q1018
SS LFPNYYYX LFPNYYYX EDDFYYYX 050432 METAR LFPG 050432Z 28914KT 9999 FEW030 -6/-7 Q1026
KK LFPOYYYX LFPNYYYX LFPOYYYX 120358 METAR LFPG 120358Z 17239KT 9999 FEW030 17/22 Q1013
DD LFPNYYYX LFPOYYYX LFPGYYYX EGLLYYYX 282320 METAR LFPG 282320Z 06831KT 9999 FEW030 24/23 Q1001
LL LFPGYYYX LFPNYYYX 170253 METAR LFPG 170253Z 26336KT 9999 FEW030 13/16 Q1021
KK LFPOYYYX LFPBYYYX LFPGYYYX 010342 METAR LFPG 010342Z 13350KT 9999 FEW030 19/-5 Q1036
LL LFPNYYYX LFPOYYYX LFPNYYYX EDDFYYYX 081932 METAR LFPG 081932Z 18447KT 9999 FEW030 34/17 Q1025
GG LFPGYYYX LFPOYYYX LFPNYYYX LFPBYYYX 032302 METAR LFPG 032302Z 03429KT 9999 FEW030 33/-4 Q1034
FF EGLLYYYX EDDFYYYX EGLLYYYX LFPNYYYX 231122 METAR LFPG 231122Z 19950KT 9999 FEW030 14/-4 Q1032
GG LFPBYYYX LFPNYYYX LFPOYYYX 130551 METAR LFPG 130551Z 11817KT 9999 FEW030 -2/22 Q1098
SS LFPGYYYX EGLLYYYX LFPNYYYX LFPBYYYX 182142 METAR LFPG 182142Z 21332KT 9999 FEW030 28/5 Q1034
SS EDDFYYYX LFPOYYYX LFPGYYYX LFPBYYYX 271709 METAR LFPG 271709Z 31111KT 9999 FEW030 11/15 Q1054
LL EDDFYYYX LFPBYYYX LFPGYYYX 021751 METAR LFPG 021751Z 21329KT 9999 FEW030 16/24 Q1076
DD EGLLYYYX LFPOYYYX 160145 METAR LFPG 160145Z 20916KT 9999 FEW030 6/1 Q1070
KK LFPBYYYX LFPNYYYX 121739 METAR LFPG 121739Z 06147KT 9999 FEW030 -5/6 Q1059
LL LFPBYYYX EDDFYYYX LFPOYYYX EGLLYYYX 010112 METAR LFPG 010112Z 22033KT 9999 FEW030 26/15 Q1068
SS LFPBYYYX LFPBYYYX 091726 METAR LFPG 091726Z 07442KT 9999 FEW030 32/9 Q1034
FF LFPNYYYX EGLLYYYX LFPGYYYX LFPNYYYX 171538 METAR LFPG 171538Z 05739KT 9999 FEW030 22/10 Q1027
FF LFPGYYYX LFPOYYYX EGLLYYYX 081539 METAR LFPG 081539Z 08249KT 9999 FEW030 6/-5 Q1060
KK LFPGYYYX LFPNYYYX EDDFYYYX 220711 METAR LFPG 220711Z 14722KT 9999 FEW030 8/9 Q1032
FF EGLLYYYX EDDFYYYX LFPGYYYX LFPOYYYX 180750 METAR LFPG 180750Z 35633KT 9999 FEW030 13/-8 Q1014
LL LFPNYYYX LFPGYYYX 180017 METAR LFPG 180017Z 00448KT 9999 FEW030 -4/-3 Q1080
GG LFPNYYYX LFPOYYYX 252315 METAR LFPG 252315Z 27543KT 9999 FEW030 21/5 Q1056
DD EGLLYYYX EDDFYYYX LFPNYYYX LFPBYYYX 202212 METAR LFPG 202212Z 07218KT 9999 FEW030 10/-5 Q1071
LL LFPBYYYX LFPBYYYX 180114 METAR LFPG 180114Z 33821KT 9999 FEW030 35/4 Q1090
LL EGLLYYYX LFPGYYYX 142053 METAR LFPG 142053Z 30416KT 9999 FEW030 22/20 Q1058
SS LFPBYYYX LFPBYYYX 201246 METAR LFPG 201246Z 03014KT 9999 FEW030 17/22 Q1091
DD LFPOYYYX LFPBYYYX LFPGYYYX 131425 METAR LFPG 131425Z 31837KT 9999 FEW030 10/6 Q1060
LL EDDFYYYX EDDFYYYX LFPBYYYX 020340 METAR LFPG 020340Z 07713KT 9999 FEW030 31/18 Q1015
FF LFPNYYYX EDDFYYYX 192339 METAR LFPG 192339Z 17524KT 9999 FEW030 12/18 Q1006
SS LFPBYYYX LFPBYYYX 191831 METAR LFPG 191831Z 02417KT 9999 FEW030 33/-3 Q1007
DD EDDFYYYX LFPGYYYX 280027 METAR LFPG 280027Z 07429KT 9999 FEW030 24/-6 Q1083
SS LFPNYYYX LFPBYYYX 210157 METAR LFPG 210157Z 02844KT 9999 FEW030 30/24 Q1016
KK LFPNYYYX LFPBYYYX EGLLYYYX EDDFYYYX 012136 METAR LFPG 012136Z 26230KT 9999 FEW030 17/0 Q1049
LL LFPOYYYX LFPOYYYX LFPGYYYX LFPBYYYX 100824 METAR LFPG 100824Z 13131KT 9999 FEW030 15/22 Q1056
SS LFPNYYYX LFPGYYYX LFPBYYYX EGLLYYYX 282001 METAR LFPG 282001Z 35828KT 9999 FEW030 15/8 Q1026
KK EGLLYYYX LFPBYYYX EGLLYYYX 162139 METAR LFPG 162139Z 28411KT 9999 FEW030 8/20 Q1022
KK EDDFYYYX LFPNYYYX LFPOYYYX 271609 METAR LFPG 271609Z 01046KT 9999 FEW030 20/-1 Q1069
SS LFPOYYYX LFPBYYYX 070935 METAR LFPG 070935Z 03836KT 9999 FEW030 33/21 Q1075
FF EGLLYYYX LFPBYYYX 190151 METAR LFPG 190151Z 33822KT 9999 FEW030 10/1 Q1050
LL LFPGYYYX LFPBYYYX LFPGYYYX LFPOYYYX 060523 METAR LFPG 060523Z 32641KT 9999 FEW030 27/-8 Q1010
SS LFPBYYYX LFPGYYYX LFPNYYYX LFPOYYYX 161215 METAR LFPG 161215Z 14314KT 9999 FEW030 -5/-10 Q1060
FF EDDFYYYX LFPNYYYX 141015 METAR LFPG 141015Z 23526KT 9999 FEW030 -7/0 Q1053
KK EDDFYYYX LFPOYYYX EDDFYYYX EGLLYYYX 191044 METAR LFPG 191044Z 02437KT 9999 FEW030 6/25 Q1052
FF LFPOYYYX LFPOYYYX LFPNYYYX 050253 METAR LFPG 050253Z 06619KT 9999 FEW030 12/7 Q1060
FF LFPNYYYX LFPBYYYX LFPNYYYX 100136 METAR LFPG 100136Z 17241KT 9999 FEW030 -3/24 Q1080
FF EDDFYYYX LFPNYYYX EGLLYYYX EDDFYYYX 101251 METAR LFPG 101251Z 06411KT 9999 FEW030 35/-9 Q1048
DD LFPNYYYX EDDFYYYX LFPBYYYX LFPGYYYX 030036 METAR LFPG 030036Z 07150KT 9999 FEW030 -1/3 Q1097
KK LFPOYYYX LFPOYYYX LFPBYYYX 100537 METAR LFPG 100537Z 33843KT 9999 FEW030 27/22 Q1065
LL EGLLYYYX LFPNYYYX 081415 METAR LFPG 081415Z 24423KT 9999 FEW030 25/17 Q1088
KK LFPOYYYX LFPGYYYX 220136 METAR LFPG 220136Z 30910KT 9999 FEW030 -8/21 Q1007
LL LFPGYYYX LFPBYYYX 261617 METAR LFPG 261617Z 16320KT 9999 FEW030 14/-7 Q1064
FF EGLLYYYX LFPGYYYX LFPOYYYX LFPBYYYX 260458 METAR LFPG 260458Z 25710KT 9999 FEW030 32/22 Q1047
FF EGLLYYYX EGLLYYYX LFPBYYYX 181223 METAR LFPG 181223Z 34923KT 9999 FEW030 -5/15 Q1012
LL LFPGYYYX EGLLYYYX LFPOYYYX EDDFYYYX 181313 METAR LFPG 181313Z 17711KT 9999 FEW030 17/-3 Q1086
LL LFPGYYYX LFPBYYYX LFPGYYYX 201503 METAR LFPG 201503Z 14634KT 9999 FEW030 -3/25 Q1029
SS EDDFYYYX LFPGYYYX 040106 METAR LFPG 040106Z 02837KT 9999 FEW030 30/14 Q1068
KK LFPBYYYX LFPGYYYX LFPOYYYX 112331 METAR LFPG 112331Z 15333KT 9999 FEW030 -9/21 Q1029
FF LFPGYYYX EGLLYYYX LFPBYYYX 091853 METAR LFPG 091853Z 10342KT 9999 FEW030 24/21 Q1081
GG LFPGYYYX LFPOYYYX EDDFYYYX 261252 METAR LFPG 261252Z 12845KT 9999 FEW030 18/24 Q1031
DD EGLLYYYX LFPNYYYX 122155 METAR LFPG 122155Z 14149KT 9999 FEW030 20/6 Q1061
FF LFPGYYYX LFPNYYYX 111906 METAR LFPG 111906Z 31846KT 9999 FEW030 2/-9 Q1060
DD EGLLYYYX LFPNYYYX 062116 METAR LFPG 062116Z 20122KT 9999 FEW030 16/15 Q1098
SS EDDFYYYX LFPOYYYX 181603 METAR LFPG 181603Z 25636KT 9999 FEW030 6/-5 Q1040
LL LFPNYYYX EDDFYYYX LFPNYYYX 061234 METAR LFPG 061234Z 32618KT 9999 FEW030 29/-9 Q1044
DD LFPBYYYX LFPBYYYX 091114 METAR LFPG 091114Z 27231KT 9999 FEW030 18/-9 Q1045
FF LFPOYYYX EGLLYYYX LFPOYYYX 261848 METAR LFPG 261848Z 16215KT 9999 FEW030 18/23 Q1014
KK EGLLYYYX EGLLYYYX LFPOYYYX EDDFYYYX 180210 METAR LFPG 180210Z 29721KT 9999 FEW030 -6/9 Q1020
SS EDDFYYYX LFPNYYYX EDDFYYYX 230657 METAR LFPG 230657Z 09341KT 9999 FEW030 4/13 Q1075
LL LFPBYYYX EGLLYYYX LFPBYYYX LFPOYYYX 242153 METAR LFPG 242153Z 22430KT 9999 FEW030 35/24 Q1018
LL EGLLYYYX LFPOYYYX LFPBYYYX 010927 METAR LFPG 010927Z 08429KT 9999 FEW030 33/-6 Q1061
SS LFPOYYYX LFPOYYYX EDDFYYYX LFPBYYYX 120852 METAR LFPG 120852Z 32947KT 9999 FEW030 20/23 Q1051
SS LFPBYYYX LFPNYYYX LFPGYYYX 250930 METAR LFPG 250930Z 17942KT 9999 FEW030 5/25 Q1065
DD EGLLYYYX LFPGYYYX LFPOYYYX 131939 METAR LFPG 131939Z 00937KT 9999 FEW030 31/12 Q1001
LL EGLLYYYX EGLLYYYX 171606 METAR LFPG 171606Z 10211KT 9999 FEW030 8/11 Q1094
KK LFPOYYYX EGLLYYYX LFPGYYYX LFPBYYYX 100009 METAR LFPG 100009Z 02047KT 9999 FEW030 4/2 Q1082
FF LFPOYYYX LFPGYYYX EGLLYYYX LFPBYYYX 081302 METAR LFPG 081302Z 22415KT 9999 FEW030 -8/-10 Q1099
GG LFPBYYYX EGLLYYYX EDDFYYYX 191757 METAR LFPG 191757Z 17742KT 9999 FEW030 9/14 Q1057
SS LFPGYYYX LFPOYYYX 070655 METAR LFPG 070655Z 15311KT 9999 FEW030 -3/22 Q1058
KK LFPBYYYX EDDFYYYX LFPNYYYX 260512 METAR LFPG 260512Z 29914KT 9999 FEW030 20/0 Q1014
KK LFPGYYYX EDDFYYYX LFPNYYYX 150922 METAR LFPG 150922Z 07536KT 9999 FEW030 -7/-8 Q1069
SS EDDFYYYX EDDFYYYX 211209 METAR LFPG 211209Z 14122KT 9999 FEW030 25/25 Q1087
SS LFPBYYYX LFPBYYYX 251400 METAR LFPG 251400Z 11437KT 9999 FEW030 6/11 Q1079
DD EGLLYYYX LFPNYYYX EDDFYYYX EGLLYYYX 230101 METAR LFPG 230101Z 35836KT 9999 FEW030 20/16 Q1082
FF EGLLYYYX LFPOYYYX LFPNYYYX LFPGYYYX 201102 METAR LFPG 201102Z 09540KT 9999 FEW030 27/19 Q1092
SS LFPNYYYX LFPGYYYX LFPBYYYX 041030 METAR LFPG 041030Z 01410KT 9999 FEW030 -9/23 Q1063
LL LFPBYYYX LFPOYYYX EDDFYYYX EGLLYYYX 140733 METAR LFPG 140733Z 32034KT 9999 FEW030 23/24 Q1055
SS EDDFYYYX EGLLYYYX LFPBYYYX 232104 METAR LFPG 232104Z 30632KT 9999 FEW030 23/14 Q1056
FF LFPNYYYX LFPNYYYX LFPBYYYX 231357 METAR LFPG 231357Z 21320KT 9999 FEW030 10/7 Q1100
FF LFPBYYYX LFPOYYYX LFPNYYYX EGLLYYYX 190516 METAR LFPG 190516Z 19348KT 9999 FEW030 -10/6 Q1061
GG EDDFYYYX LFPGYYYX LFPNYYYX EGLLYYYX 110338 METAR LFPG 110338Z 07334KT 9999 FEW030 -8/16 Q1080
LL LFPBYYYX EDDFYYYX LFPOYYYX EGLLYYYX 191854 METAR LFPG 191854Z 03741KT 9999 FEW030 -2/18 Q1015
GG LFPNYYYX LFPNYYYX EDDFYYYX LFPGYYYX 251616 METAR LFPG 251616Z 06531KT 9999 FEW030 23/11 Q1084
SS LFPBYYYX LFPNYYYX 180814 METAR LFPG 180814Z 17624KT 9999 FEW030 34/19 Q1051
LL EGLLYYYX LFPBYYYX LFPOYYYX EDDFYYYX 132359 METAR LFPG 132359Z 26121KT 9999 FEW030 32/22 Q1049
GG LFPNYYYX LFPNYYYX 250227 METAR LFPG 250227Z 08612KT 9999 FEW030 27/14 Q1059
FF LFPGYYYX LFPGYYYX LFPBYYYX 052149 METAR LFPG 052149Z 02244KT 9999 FEW030 0/-4 Q1067
KK LFPGYYYX LFPBYYYX 091758 METAR LFPG 091758Z 03516KT 9999 FEW030 32/3 Q1002
DD EGLLYYYX EGLLYYYX 100002 METAR LFPG 100002Z 24130KT 9999 FEW030 7/-4 Q1067
SS EDDFYYYX EGLLYYYX LFPNYYYX 220054 METAR LFPG 220054Z 14249KT 9999 FEW030 6/2 Q1097
FF EDDFYYYX LFPOYYYX LFPNYYYX 021156 METAR LFPG 021156Z 09730KT 9999 FEW030 20/11 Q1024
GG LFPBYYYX LFPBYYYX LFPGYYYX 161400 METAR LFPG 161400Z 02712KT 9999 FEW030 21/17 Q1024
LL EGLLYYYX LFPBYYYX 280250 METAR LFPG 280250Z 32929KT 9999 FEW030 34/5 Q1064
DD LFPBYYYX LFPGYYYX 031159 METAR LFPG 031159Z 13744KT 9999 FEW030 1/10 Q1073
KK LFPOYYYX EGLLYYYX 150855 METAR LFPG 150855Z 28141KT 9999 FEW030 20/20 Q1029
GG EDDFYYYX LFPOYYYX LFPGYYYX 022008 METAR LFPG 022008Z 15326KT 9999 FEW030 29/7 Q1010
FF LFPNYYYX LFPBYYYX LFPOYYYX EGLLYYYX 010114 METAR LFPG 010114Z 34444KT 9999 FEW030 10/20 Q1049
SS LFPOYYYX LFPNYYYX 281915 METAR LFPG 281915Z 15037KT 9999 FEW030 13/5 Q1095
LL LFPOYYYX LFPNYYYX EGLLYYYX LFPOYYYX 072329 METAR LFPG 072329Z 13943KT 9999 FEW030 18/25 Q1013
SS EGLLYYYX LFPOYYYX LFPGYYYX 190348 METAR LFPG 190348Z 18847KT 9999 FEW030 29/13 Q1032
DD EDDFYYYX LFPOYYYX LFPGYYYX 080555 METAR LFPG 080555Z 29012KT 9999 FEW030 21/-10 Q1093
SS LFPNYYYX LFPBYYYX EGLLYYYX 100224 METAR LFPG 100224Z 02834KT 9999 FEW030 15/17 Q1056
LL EDDFYYYX EGLLYYYX LFPNYYYX 061417 METAR LFPG 061417Z 00645KT 9999 FEW030 20/-7 Q1014
KK LFPBYYYX LFPNYYYX LFPBYYYX EDDFYYYX 232048 METAR LFPG 232048Z 14246KT 9999 FEW030 21/-6 Q1089
GG EGLLYYYX EGLLYYYX 282246 METAR LFPG 282246Z 05231KT 9999 FEW030 -3/15 Q1058
LL LFPOYYYX EGLLYYYX LFPNYYYX LFPBYYYX 051446 METAR LFPG 051446Z 27149KT 9999 FEW030 21/18 Q1016
FF EDDFYYYX LFPGYYYX 131800 METAR LFPG 131800Z 03010KT 9999 FEW030 8/2 Q1042
DD EDDFYYYX LFPOYYYX LFPNYYYX 201358 METAR LFPG 201358Z 34937KT 9999 FEW030 14/7 Q1035
KK EDDFYYYX LFPOYYYX LFPGYYYX 191649 METAR LFPG 191649Z 24915KT 9999 FEW030 -1/12 Q1092
LL LFPOYYYX EGLLYYYX LFPGYYYX LFPOYYYX 151245 METAR LFPG 151245Z 19912KT 9999 FEW030 -5/-5 Q1080
KK EDDFYYYX LFPGYYYX 260302 METAR LFPG 260302Z 15230KT 9999 FEW030 22/4 Q1001
FF LFPBYYYX EGLLYYYX LFPGYYYX LFPOYYYX 240651 METAR LFPG 240651Z 25350KT 9999 FEW030 6/7 Q1048
GG LFPBYYYX LFPOYYYX EDDFYYYX EGLLYYYX 112027 METAR LFPG 112027Z 18113KT 9999 FEW030 5/17 Q1074
FF EDDFYYYX EDDFYYYX EGLLYYYX LFPNYYYX 151345 METAR LFPG 151345Z 31730KT 9999 FEW030 18/-7 Q1001
SS LFPGYYYX EGLLYYYX LFPBYYYX 010410 METAR LFPG 010410Z 08134KT 9999 FEW030 -1/14 Q1012
FF EGLLYYYX LFPOYYYX LFPGYYYX EGLLYYYX 052054 METAR LFPG 052054Z 03931KT 9999 FEW030 24/7 Q1098
GG EDDFYYYX LFPGYYYX LFPBYYYX 091009 METAR LFPG 091009Z 06513KT 9999 FEW030 16/-3 Q1035
KK EDDFYYYX LFPOYYYX LFPGYYYX 100119 METAR LFPG 100119Z 08712KT 9999 FEW030 17/14 Q1017
DD LFPNYYYX LFPBYYYX LFPOYYYX EDDFYYYX 091059 METAR LFPG 091059Z 22537KT 9999 FEW030 -9/3 Q1076
KK EDDFYYYX LFPNYYYX 070212 METAR LFPG 070212Z 24618KT 9999 FEW030 19/-9 Q1050
FF LFPOYYYX LFPOYYYX LFPBYYYX 260514 METAR LFPG 260514Z 27933KT 9999 FEW030 13/21 Q1040
FF EGLLYYYX EDDFYYYX 071041 METAR LFPG 071041Z 20740KT 9999 FEW030 -5/-4 Q1042
GG LFPGYYYX LFPOYYYX 190635 METAR LFPG 190635Z 01645KT 9999 FEW030 17/-5 Q1082
FF LFPBYYYX EDDFYYYX LFPOYYYX 180234 METAR LFPG 180234Z 14934KT 9999 FEW030 9/3 Q1093
KK LFPGYYYX LFPGYYYX 081800 METAR LFPG 081800Z 16215KT 9999 FEW030 29/13 Q1080
SS LFPOYYYX LFPNYYYX LFPGYYYX 111536 METAR LFPG 111536Z 15923KT 9999 FEW030 -4/20 Q1008
GG LFPBYYYX LFPBYYYX LFPGYYYX EDDFYYYX 071511 METAR LFPG 071511Z 27424KT 9999 FEW030 8/-6 Q1084
LL LFPGYYYX EDDFYYYX 051309 METAR LFPG 051309Z 18216KT 9999 FEW030 13/2 Q1052
GG LFPBYYYX LFPBYYYX LFPOYYYX 221539 METAR LFPG 221539Z 16321KT 9999 FEW030 28/17 Q1085
KK LFPOYYYX LFPBYYYX EGLLYYYX EDDFYYYX 031102 METAR LFPG 031102Z 03332KT 9999 FEW030 -8/12 Q1054
LL LFPNYYYX EGLLYYYX 232357 METAR LFPG 232357Z 00029KT 9999 FEW030 0/-7 Q1004
KK LFPGYYYX EGLLYYYX LFPGYYYX LFPOYYYX 152147 METAR LFPG 152147Z 30950KT 9999 FEW030 19/1 Q1038
LL LFPOYYYX EGLLYYYX LFPBYYYX LFPNYYYX 010612 METAR LFPG 010612Z 17313KT 9999 FEW030 -2/12 Q1041
SS LFPOYYYX LFPOYYYX EGLLYYYX EDDFYYYX 171311 METAR LFPG 171311Z 26010KT 9999 FEW030 16/17 Q1004
LL LFPBYYYX LFPGYYYX 121825 METAR LFPG 121825Z 09011KT 9999 FEW030 20/-4 Q1060
FF LFPBYYYX LFPBYYYX EGLLYYYX LFPOYYYX 200514 METAR LFPG 200514Z 12022KT 9999 FEW030 27/-6 Q1008
FF LFPNYYYX LFPNYYYX 100224 METAR LFPG 100224Z 06320KT 9999 FEW030 -9/1 Q1086
LL LFPBYYYX EGLLYYYX EDDFYYYX LFPGYYYX 181739 METAR LFPG 181739Z 12645KT 9999 FEW030 6/9 Q1026
LL EGLLYYYX LFPBYYYX 050434 METAR LFPG 050434Z 07642KT 9999 FEW030 18/3 Q1001
LL LFPOYYYX LFPGYYYX LFPBYYYX LFPNYYYX 072106 METAR LFPG 072106Z 30239KT 9999 FEW030 22/16 Q1040
GG LFPGYYYX LFPOYYYX LFPGYYYX EGLLYYYX 190814 METAR LFPG 190814Z 27636KT 9999 FEW030 -4/6 Q1001
SS LFPBYYYX LFPOYYYX EGLLYYYX LFPBYYYX 011100 METAR LFPG 011100Z 14923KT 9999 FEW030 -10/7 Q1046
GG LFPBYYYX LFPBYYYX EDDFYYYX LFPOYYYX 191930 METAR LFPG 191930Z 04325KT 9999 FEW030 11/1 Q1094
GG LFPNYYYX EDDFYYYX LFPBYYYX LFPGYYYX 220322 METAR LFPG 220322Z 24037KT 9999 FEW030 5/0 Q1036
DD EGLLYYYX LFPGYYYX EDDFYYYX LFPNYYYX 221534 METAR LFPG 221534Z 13926KT 9999 FEW030 29/11 Q1054
GG EGLLYYYX LFPNYYYX LFPBYYYX 021922 METAR LFPG 021922Z 33444KT 9999 FEW030 10/0 Q1066
SS EDDFYYYX LFPNYYYX LFPOYYYX 250713 METAR LFPG 250713Z 03119KT 9999 FEW030 12/23 Q1050
LL LFPBYYYX LFPOYYYX EGLLYYYX LFPBYYYX 040346 METAR LFPG 040346Z 21026KT 9999 FEW030 15/15 Q1086
KK LFPOYYYX EDDFYYYX 191102 METAR LFPG 191102Z 22316KT 9999 FEW030 -7/-2 Q1060
DD LFPNYYYX LFPOYYYX LFPGYYYX LFPBYYYX 241849 METAR LFPG 241849Z 19926KT 9999 FEW030 -9/15 Q1098
FF EGLLYYYX EDDFYYYX LFPGYYYX 012339 METAR LFPG 012339Z 04233KT 9999 FEW030 32/-7 Q1053
KK LFPBYYYX LFPOYYYX 071525 METAR LFPG 071525Z 23519KT 9999 FEW030 23/13 Q1016
LL LFPBYYYX LFPGYYYX EDDFYYYX 281424 METAR LFPG 281424Z 33734KT 9999 FEW030 28/12 Q1042
DD LFPOYYYX LFPOYYYX 010530 METAR LFPG 010530Z 29418KT 9999 FEW030 30/14 Q1022
FF EDDFYYYX LFPNYYYX 170040 METAR LFPG 170040Z 23948KT 9999 FEW030 35/7 Q1094
FF LFPGYYYX LFPBYYYX LFPNYYYX 032247 METAR LFPG 032247Z 25448KT 9999 FEW030 26/0 Q1084
LL LFPNYYYX LFPGYYYX EGLLYYYX EDDFYYYX 081059 METAR LFPG 081059Z 26122KT 9999 FEW030 33/8 Q1028
SS LFPOYYYX EDDFYYYX LFPGYYYX 251702 METAR LFPG 251702Z 34644KT 9999 FEW030 6/12 Q1036
DD LFPOYYYX LFPNYYYX LFPGYYYX EDDFYYYX 191318 METAR LFPG 191318Z 20941KT 9999 FEW030 3/-7 Q1099
FF LFPBYYYX EDDFYYYX LFPGYYYX EGLLYYYX 142321 METAR LFPG 142321Z 32934KT 9999 FEW030 2/16 Q1071
DD LFPBYYYX LFPOYYYX EDDFYYYX 121504 METAR LFPG 121504Z 03410KT 9999 FEW030 -6/-10 Q1065
KK LFPOYYYX LFPBYYYX 170219 METAR LFPG 170219Z 09433KT 9999 FEW030 4/-6 Q1083
LL EGLLYYYX LFPOYYYX EDDFYYYX LFPNYYYX 032146 METAR LFPG 032146Z 01744KT 9999 FEW030 20/25 Q1066
LL EDDFYYYX LFPGYYYX 041015 METAR LFPG 041015Z 06525KT 9999 FEW030 -3/-2 Q1014
DD LFPOYYYX LFPNYYYX LFPGYYYX LFPBYYYX 260155 METAR LFPG 260155Z 34333KT 9999 FEW030 17/3 Q1081
GG LFPNYYYX EGLLYYYX 070603 METAR LFPG 070603Z 35547KT 9999 FEW030 -2/4 Q1012
DD LFPNYYYX LFPGYYYX LFPBYYYX 190902 METAR LFPG 190902Z 18738KT 9999 FEW030 -3/3 Q1042
LL LFPOYYYX LFPBYYYX 261245 METAR LFPG 261245Z 09510KT 9999 FEW030 21/10 Q1028
FF LFPOYYYX LFPOYYYX EGLLYYYX LFPBYYYX 191547 METAR LFPG 191547Z 33723KT 9999 FEW030 0/19 Q1010
FF LFPNYYYX LFPGYYYX LFPOYYYX LFPBYYYX 060613 METAR LFPG 060613Z 15121KT 9999 FEW030 13/6 Q1021
FF LFPNYYYX EDDFYYYX LFPGYYYX 030316 METAR LFPG 030316Z 20540KT 9999 FEW030 32/22 Q1091
FF LFPGYYYX LFPNYYYX LFPBYYYX 141704 METAR LFPG 141704Z 31449KT 9999 FEW030 8/4 Q1081
DD EGLLYYYX LFPOYYYX EDDFYYYX 122247 METAR LFPG 122247Z 28016KT 9999 FEW030 11/14 Q1033
LL LFPOYYYX EDDFYYYX 092115 METAR LFPG 092115Z 22430KT 9999 FEW030 12/16 Q1074
KK LFPOYYYX LFPBYYYX 241943 METAR LFPG 241943Z 35144KT 9999 FEW030 12/-7 Q1080
LL LFPOYYYX EGLLYYYX LFPGYYYX LFPNYYYX 240456 METAR LFPG 240456Z 27812KT 9999 FEW030 22/25 Q1032
LL LFPNYYYX LFPGYYYX 200402 METAR LFPG 200402Z 12339KT 9999 FEW030 17/-6 Q1004
LL EGLLYYYX EGLLYYYX LFPOYYYX 172154 METAR LFPG 172154Z 27032KT 9999 FEW030 1/-9 Q1031
KK LFPGYYYX LFPBYYYX 012243 METAR LFPG 012243Z 00629KT 9999 FEW030 26/10 Q1008
KK EDDFYYYX EDDFYYYX 251352 METAR LFPG 251352Z 00515KT 9999 FEW030 -8/21 Q1083
DD EGLLYYYX EGLLYYYX 040816 METAR LFPG 040816Z 32115KT 9999 FEW030 22/-4 Q1025
SS LFPGYYYX LFPNYYYX EDDFYYYX EGLLYYYX 221605 METAR LFPG 221605Z 34919KT 9999 FEW030 16/10 Q1002
LL LFPNYYYX LFPGYYYX 050641 METAR LFPG 050641Z 08920KT 9999 FEW030 11/-8 Q1078
DD LFPNYYYX LFPBYYYX EDDFYYYX 191336 METAR LFPG 191336Z 33734KT 9999 FEW030 22/-5 Q1080
LL LFPGYYYX LFPGYYYX EGLLYYYX LFPBYYYX 212225 METAR LFPG 212225Z 22115KT 9999 FEW030 28/10 Q1050
FF EDDFYYYX LFPNYYYX EDDFYYYX 060632 METAR LFPG 060632Z 18115KT 9999 FEW030 -8/1 Q1083
FF EDDFYYYX EDDFYYYX 240451 METAR LFPG 240451Z 14039KT 9999 FEW030 -2/13 Q1032
DD LFPNYYYX LFPNYYYX LFPGYYYX 031101 METAR LFPG 031101Z 11037KT 9999 FEW030 14/7 Q1013
GG LFPOYYYX LFPBYYYX EGLLYYYX LFPGYYYX 221926 METAR LFPG 221926Z 12028KT 9999 FEW030 -9/-4 Q1002
FF LFPBYYYX EDDFYYYX LFPGYYYX 260423 METAR LFPG 260423Z 14120KT 9999 FEW030 33/25 Q1047
SS LFPBYYYX LFPBYYYX LFPGYYYX EDDFYYYX 261118 METAR LFPG 261118Z 11450KT 9999 FEW030 33/12 Q1040
FF LFPNYYYX EGLLYYYX LFPNYYYX LFPBYYYX 210346 METAR LFPG 210346Z 13034KT 9999 FEW030 27/0 Q1021
LL LFPGYYYX LFPOYYYX EDDFYYYX 032106 METAR LFPG 032106Z 10113KT 9999 FEW030 -3/17 Q1009
GG LFPGYYYX EDDFYYYX LFPOYYYX 141955 METAR LFPG 141955Z 07724KT 9999 FEW030 29/23 Q1084
GG LFPGYYYX LFPOYYYX EGLLYYYX EDDFYYYX 091500 METAR LFPG 091500Z 26014KT 9999 FEW030 4/14 Q1068
SS LFPNYYYX LFPOYYYX 170912 METAR LFPG 170912Z 08419KT 9999 FEW030 -7/7 Q1043
LL EDDFYYYX LFPBYYYX LFPOYYYX 010652 METAR LFPG 010652Z 10223KT 9999 FEW030 17/-7 Q1093
GG LFPOYYYX LFPOYYYX LFPBYYYX EGLLYYYX 171712 METAR LFPG 171712Z 31414KT 9999 FEW030 1/15 Q1082
LL LFPBYYYX EDDFYYYX LFPNYYYX LFPGYYYX 120421 METAR LFPG 120421Z 09236KT 9999 FEW030 30/19 Q1084
DD LFPGYYYX LFPOYYYX 102239 METAR LFPG 102239Z 08838KT 9999 FEW030 28/8 Q1078
GG EGLLYYYX LFPGYYYX 060312 METAR LFPG 060312Z 26826KT 9999 FEW030 10/24 Q1076
SS LFPOYYYX LFPOYYYX EDDFYYYX LFPNYYYX 080451 METAR LFPG 080451Z 18935KT 9999 FEW030 -5/9 Q1063
SS EGLLYYYX EDDFYYYX LFPNYYYX LFPOYYYX 011903 METAR LFPG 011903Z 09021KT 9999 FEW030 4/2 Q1098
SS LFPNYYYX EDDFYYYX EGLLYYYX 132247 METAR LFPG 132247Z 09021KT 9999 FEW030 20/-10 Q1001
DD EDDFYYYX LFPGYYYX 281123 METAR LFPG 281123Z 17627KT 9999 FEW030 12/6 Q1032
GG LFPBYYYX LFPBYYYX LFPGYYYX EDDFYYYX 221228 METAR LFPG 221228Z 01925KT 9999 FEW030 18/0 Q1097
FF EGLLYYYX LFPNYYYX 151201 METAR LFPG 151201Z 08737KT 9999 FEW030 2/9 Q1040
FF LFPGYYYX EGLLYYYX LFPNYYYX 172127 METAR LFPG 172127Z 28014KT 9999 FEW030 17/-2 Q1033
GG LFPBYYYX LFPNYYYX 261356 METAR LFPG 261356Z 30850KT 9999 FEW030 12/21 Q1076
FF EGLLYYYX LFPOYYYX 011441 METAR LFPG 011441Z 18943KT 9999 FEW030 -7/-10 Q1013
KK LFPNYYYX LFPOYYYX 160941 METAR LFPG 160941Z 34439KT 9999 FEW030 31/24 Q1042
FF LFPGYYYX LFPBYYYX 281028 METAR LFPG 281028Z 23930KT 9999 FEW030 25/22 Q1086
DD EGLLYYYX LFPBYYYX LFPGYYYX 140737 METAR LFPG 140737Z 00827KT 9999 FEW030 -6/5 Q1002
GG EGLLYYYX EDDFYYYX 242117 METAR LFPG 242117Z 04344KT 9999 FEW030 -5/14 Q1059
FF EDDFYYYX EGLLYYYX LFPBYYYX 080420 METAR LFPG 080420Z 30117KT 9999 FEW030 -1/19 Q1085
SS LFPGYYYX LFPGYYYX 241100 METAR LFPG 241100Z 06112KT 9999 FEW030 14/6 Q1080
DD EDDFYYYX LFPGYYYX 241743 METAR LFPG 241743Z 33235KT 9999 FEW030 24/-1 Q1079
FF LFPOYYYX LFPBYYYX 121031 METAR LFPG 121031Z 35548KT 9999 FEW030 -4/23 Q1060
DD LFPBYYYX LFPGYYYX EDDFYYYX LFPOYYYX 081037 METAR LFPG 081037Z 09423KT 9999 FEW030 12/-9 Q1093
LL LFPOYYYX EDDFYYYX 281755 METAR LFPG 281755Z 35016KT 9999 FEW030 18/-9 Q1021
KK LFPNYYYX EDDFYYYX 021644 METAR LFPG 021644Z 30014KT 9999 FEW030 15/21 Q1069
KK LFPOYYYX LFPBYYYX LFPNYYYX EGLLYYYX 180304 METAR LFPG 180304Z 32810KT 9999 FEW030 35/8 Q1087
SS EDDFYYYX LFPNYYYX 040830 METAR LFPG 040830Z 02130KT 9999 FEW030 14/1 Q1003
LL LFPGYYYX EGLLYYYX 212019 METAR LFPG 212019Z 31842KT 9999 FEW030 35/14 Q1043
GG LFPOYYYX EGLLYYYX LFPBYYYX 201518 METAR LFPG 201518Z 16322KT 9999 FEW030 17/-9 Q1092
GG LFPNYYYX LFPNYYYX 230807 METAR LFPG 230807Z 19623KT 9999 FEW030 -5/-6 Q1099
LL LFPNYYYX LFPGYYYX LFPBYYYX 082133 METAR LFPG 082133Z 17036KT 9999 FEW030 7/17 Q1089
KK LFPNYYYX LFPOYYYX EDDFYYYX EGLLYYYX 170750 METAR LFPG 170750Z 09647KT 9999 FEW030 10/0 Q1022
KK LFPGYYYX LFPGYYYX LFPOYYYX EGLLYYYX 231626 METAR LFPG 231626Z 32816KT 9999 FEW030 14/-7 Q1085
GG EGLLYYYX EDDFYYYX 251721 METAR LFPG 251721Z 32821KT 9999 FEW030 -2/19 Q1087
LL LFPBYYYX LFPBYYYX 170251 METAR LFPG 170251Z 04344KT 9999 FEW030 17/16 Q1050
FF LFPNYYYX LFPBYYYX EDDFYYYX LFPOYYYX 111405 METAR LFPG 111405Z 22519KT 9999 FEW030 4/7 Q1044
DD LFPBYYYX EDDFYYYX LFPBYYYX 220624 METAR LFPG 220624Z 10210KT 9999 FEW030 -9/13 Q1085
FF LFPBYYYX EDDFYYYX LFPBYYYX 012105 METAR LFPG 012105Z 24447KT 9999 FEW030 30/-2 Q1086
LL EDDFYYYX LFPNYYYX LFPBYYYX 121303 METAR LFPG 121303Z 19821KT 9999 FEW030 34/6 Q1019
DD LFPOYYYX LFPGYYYX LFPOYYYX EDDFYYYX 070638 METAR LFPG 070638Z 02222KT 9999 FEW030 27/-5 Q1081
FF LFPBYYYX LFPOYYYX LFPNYYYX LFPBYYYX 270001 METAR LFPG 270001Z 35725KT 9999 FEW030 23/-5 Q1031
DD LFPOYYYX LFPOYYYX LFPBYYYX 190914 METAR LFPG 190914Z 35321KT 9999 FEW030 34/12 Q1058
LL EGLLYYYX EGLLYYYX LFPBYYYX EDDFYYYX 041521 METAR LFPG 041521Z 09445KT 9999 FEW030 15/21 Q1027
DD EGLLYYYX LFPGYYYX LFPBYYYX LFPOYYYX 160138 METAR LFPG 160138Z 23316KT 9999 FEW030 10/6 Q1041
DD EDDFYYYX LFPOYYYX LFPGYYYX LFPNYYYX 130906 METAR LFPG 130906Z 06834KT 9999 FEW030 -9/16 Q1094
DD LFPBYYYX LFPBYYYX EDDFYYYX LFPGYYYX 151958 METAR LFPG 151958Z 22014KT 9999 FEW030 5/-2 Q1064
LL LFPGYYYX LFPOYYYX LFPGYYYX EGLLYYYX 030137 METAR LFPG 030137Z 27618KT 9999 FEW030 -7/22 Q1091
FF LFPOYYYX LFPGYYYX LFPOYYYX 152232 METAR LFPG 152232Z 06522KT 9999 FEW030 22/4 Q1089
GG EGLLYYYX LFPBYYYX LFPGYYYX EDDFYYYX 050815 METAR LFPG 050815Z 25039KT 9999 FEW030 17/19 Q1047
SS LFPOYYYX EGLLYYYX 072037 METAR LFPG 072037Z 33443KT 9999 FEW030 4/1 Q1044
SS LFPOYYYX EDDFYYYX LFPNYYYX LFPGYYYX 040058 METAR LFPG 040058Z 09718KT 9999 FEW030 23/3 Q1069
DD LFPNYYYX EDDFYYYX LFPGYYYX 192110 METAR LFPG 192110Z 04731KT 9999 FEW030 20/-4 Q1078
SS LFPGYYYX LFPOYYYX 130027 METAR LFPG 130027Z 08738KT 9999 FEW030 3/24 Q1023
DD EGLLYYYX LFPBYYYX LFPGYYYX EDDFYYYX 040824 METAR LFPG 040824Z 07815KT 9999 FEW030 26/19 Q1014
LL LFPBYYYX LFPOYYYX 011406 METAR LFPG 011406Z 13834KT 9999 FEW030 23/-2 Q1037
FF LFPOYYYX LFPGYYYX EGLLYYYX 020517 METAR LFPG 020517Z 00736KT 9999 FEW030 -5/8 Q1009
KK EGLLYYYX EDDFYYYX EGLLYYYX LFPGYYYX 270157 METAR LFPG 270157Z 24646KT 9999 FEW030 21/5 Q1035
KK EGLLYYYX LFPGYYYX LFPOYYYX 220724 METAR LFPG 220724Z 18026KT 9999 FEW030 -10/-9 Q1093
KK LFPBYYYX LFPNYYYX 070548 METAR LFPG 070548Z 05714KT 9999 FEW030 20/1 Q1091
SS LFPBYYYX LFPGYYYX 171743 METAR LFPG 171743Z 07535KT 9999 FEW030 -8/11 Q1049
LL LFPNYYYX LFPNYYYX 100141 METAR LFPG 100141Z 19315KT 9999 FEW030 22/-2 Q1035
GG LFPOYYYX EDDFYYYX LFPGYYYX 181208 METAR LFPG 181208Z 14128KT 9999 FEW030 33/11 Q1046
SS LFPGYYYX LFPOYYYX 050742 METAR LFPG 050742Z 21338KT 9999 FEW030 22/20 Q1068
SS LFPOYYYX LFPOYYYX EGLLYYYX 231421 METAR LFPG 231421Z 11919KT 9999 FEW030 17/15 Q1084
SS EDDFYYYX LFPOYYYX LFPNYYYX EDDFYYYX 150229 METAR LFPG 150229Z 22031KT 9999 FEW030 13/9 Q1043
KK EGLLYYYX LFPOYYYX LFPNYYYX 051329 METAR LFPG 051329Z 14034KT 9999 FEW030 2/12 Q1036
GG LFPGYYYX LFPBYYYX 222013 METAR LFPG 222013Z 31144KT 9999 FEW030 14/-10 Q1071
FF LFPGYYYX LFPOYYYX LFPGYYYX 121417 METAR LFPG 121417Z 17128KT 9999 FEW030 -5/5 Q1015
KK LFPGYYYX LFPOYYYX LFPNYYYX 152327 METAR LFPG 152327Z 07231KT 9999 FEW030 17/-4 Q1080
LL LFPBYYYX LFPGYYYX LFPNYYYX 261752 METAR LFPG 261752Z 35932KT 9999 FEW030 29/1 Q1082
DD LFPNYYYX LFPBYYYX 121310 METAR LFPG 121310Z 11047KT 9999 FEW030 27/9 Q1006
LL LFPBYYYX LFPGYYYX LFPNYYYX 192344 METAR LFPG 192344Z 28742KT 9999 FEW030 18/-9 Q1014
LL LFPGYYYX EGLLYYYX LFPNYYYX EDDFYYYX 172353 METAR LFPG 172353Z 02326KT 9999 FEW030 20/20 Q1002
FF EDDFYYYX LFPNYYYX LFPBYYYX EDDFYYYX 112041 METAR LFPG 112041Z 27322KT 9999 FEW030 21/0 Q1009
LL EGLLYYYX LFPBYYYX LFPOYYYX LFPGYYYX 072214 METAR LFPG 072214Z 33250KT 9999 FEW030 15/12 Q1091
FF EGLLYYYX EGLLYYYX LFPNYYYX LFPOYYYX 030055 METAR LFPG 030055Z 23722KT 9999 FEW030 9/13 Q1027
KK LFPNYYYX LFPNYYYX LFPBYYYX 231204 METAR LFPG 231204Z 10840KT 9999 FEW030 29/1 Q1038
DD LFPNYYYX LFPNYYYX LFPGYYYX 242330 METAR LFPG 242330Z 29039KT 9999 FEW030 20/0 Q1087
DD LFPGYYYX LFPNYYYX 040820 METAR LFPG 040820Z 25830KT 9999 FEW030 17/2 Q1049
LL LFPNYYYX EGLLYYYX LFPOYYYX LFPNYYYX 141227 METAR LFPG 141227Z 14434KT 9999 FEW030 4/12 Q1054
FF EDDFYYYX EGLLYYYX LFPBYYYX 031633 METAR LFPG 031633Z 35242KT 9999 FEW030 19/12 Q1020
FF EGLLYYYX LFPOYYYX EDDFYYYX 260018 METAR LFPG 260018Z 33740KT 9999 FEW030 13/9 Q1089
GG LFPOYYYX LFPBYYYX LFPNYYYX LFPOYYYX 171443 METAR LFPG 171443Z 15318KT 9999 FEW030 9/2 Q1028
KK EDDFYYYX LFPOYYYX LFPBYYYX 161125 METAR LFPG 161125Z 10534KT 9999 FEW030 6/-6 Q1067
GG LFPOYYYX EDDFYYYX LFPOYYYX LFPNYYYX 132232 METAR LFPG 132232Z 31414KT 9999 FEW030 7/23 Q1043
FF LFPOYYYX LFPGYYYX 181120 METAR LFPG 181120Z 22732KT 9999 FEW030 -10/3 Q1004
FF LFPGYYYX LFPGYYYX EGLLYYYX 050312 METAR LFPG 050312Z 22527KT 9999 FEW030 -9/-10 Q1068
GG LFPBYYYX LFPNYYYX LFPOYYYX 042152 METAR LFPG 042152Z 24024KT 9999 FEW030 20/24 Q1050
KK EGLLYYYX EGLLYYYX LFPNYYYX LFPGYYYX 280515 METAR LFPG 280515Z 05729KT 9999 FEW030 25/16 Q1028
GG LFPBYYYX LFPNYYYX LFPOYYYX EGLLYYYX 191931 METAR LFPG 191931Z 27110KT 9999 FEW030 23/-2 Q1071
GG LFPGYYYX LFPBYYYX EGLLYYYX 130459 METAR LFPG 130459Z 17914KT 9999 FEW030 26/-6 Q1024
DD LFPOYYYX LFPBYYYX 201028 METAR LFPG 201028Z 15743KT 9999 FEW030 7/-9 Q1014
GG LFPBYYYX EGLLYYYX 121239 METAR LFPG 121239Z 10739KT 9999 FEW030 22/-1 Q1074
KK LFPNYYYX EGLLYYYX LFPOYYYX 091700 METAR LFPG 091700Z 16022KT 9999 FEW030 2/-8 Q1007
FF LFPOYYYX LFPBYYYX LFPGYYYX 222030 METAR LFPG 222030Z 28521KT 9999 FEW030 14/12 Q1026
SS LFPGYYYX EGLLYYYX LFPGYYYX 111917 METAR LFPG 111917Z 22318KT 9999 FEW030 12/15 Q1085
FF EDDFYYYX LFPBYYYX EDDFYYYX 220143 METAR LFPG 220143Z 06610KT 9999 FEW030 10/21 Q1093
DD EGLLYYYX LFPBYYYX LFPNYYYX EDDFYYYX 021054 METAR LFPG 021054Z 15133KT 9999 FEW030 32/4 Q1015
GG LFPOYYYX EDDFYYYX LFPGYYYX LFPNYYYX 280439 METAR LFPG 280439Z 28344KT 9999 FEW030 30/18 Q1033
GG LFPOYYYX LFPOYYYX LFPNYYYX LFPBYYYX 070639 METAR LFPG 070639Z 09412KT 9999 FEW030 22/21 Q1057
FF LFPOYYYX LFPGYYYX EDDFYYYX EGLLYYYX 192010 METAR LFPG 192010Z 06331KT 9999 FEW030 15/-8 Q1051
LL LFPGYYYX LFPOYYYX LFPGYYYX EDDFYYYX 242020 METAR LFPG 242020Z 21211KT 9999 FEW030 7/14 Q1099
KK LFPNYYYX LFPBYYYX 071354 METAR LFPG 071354Z 05948KT 9999 FEW030 -8/17 Q1019
LL LFPOYYYX LFPGYYYX EDDFYYYX LFPOYYYX 150825 METAR LFPG 150825Z 21349KT 9999 FEW030 11/10 Q1064
FF LFPGYYYX LFPBYYYX EDDFYYYX 040552 METAR LFPG 040552Z 34716KT 9999 FEW030 -10/7 Q1004
SS EDDFYYYX LFPOYYYX 110135 METAR LFPG 110135Z 34432KT 9999 FEW030 0/-7 Q1048
DD LFPOYYYX LFPGYYYX 252146 METAR LFPG 252146Z 09244KT 9999 FEW030 5/0 Q1079
DD EGLLYYYX EDDFYYYX LFPNYYYX 150501 METAR LFPG 150501Z 22011KT 9999 FEW030 16/24 Q1001
GG LFPBYYYX EDDFYYYX LFPOYYYX LFPBYYYX 281856 METAR LFPG 281856Z 29212KT 9999 FEW030 20/25 Q1064
GG LFPBYYYX EDDFYYYX LFPGYYYX 120011 METAR LFPG 120011Z 04947KT 9999 FEW030 9/-8 Q1046
SS EGLLYYYX EDDFYYYX LFPGYYYX 180304 METAR LFPG 180304Z 25410KT 9999 FEW030 30/-9 Q1061
FF EGLLYYYX LFPNYYYX EGLLYYYX EDDFYYYX 130704 METAR LFPG 130704Z 15519KT 9999 FEW030 31/18 Q1095
FF LFPGYYYX LFPBYYYX EDDFYYYX 172010 METAR LFPG 172010Z 01744KT 9999 FEW030 16/17 Q1039
KK EGLLYYYX LFPOYYYX EGLLYYYX 032136 METAR LFPG 032136Z 11039KT 9999 FEW030 29/25 Q1081
SS LFPGYYYX LFPNYYYX EDDFYYYX 051408 METAR LFPG 051408Z 11846KT 9999 FEW030 -9/-7 Q1028
SS LFPNYYYX LFPGYYYX EDDFYYYX 252311 METAR LFPG 252311Z 07747KT 9999 FEW030 9/17 Q1013
KK LFPNYYYX LFPNYYYX LFPGYYYX 100907 METAR LFPG 100907Z 16048KT 9999 FEW030 3/-4 Q1085
LL LFPBYYYX EDDFYYYX EGLLYYYX 272346 METAR LFPG 272346Z 22319KT 9999 FEW030 4/0 Q1029
DD EDDFYYYX LFPNYYYX EGLLYYYX 030911 METAR LFPG 030911Z 00713KT 9999 FEW030 25/16 Q1086
GG LFPNYYYX LFPGYYYX 110547 METAR LFPG 110547Z 08725KT 9999 FEW030 -7/5 Q1061
DD EGLLYYYX LFPBYYYX 182039 METAR LFPG 182039Z 16910KT 9999 FEW030 23/0 Q1035
LL LFPNYYYX LFPOYYYX EGLLYYYX 200453 METAR LFPG 200453Z 09146KT 9999 FEW030 27/17 Q1041
FF LFPOYYYX LFPGYYYX EGLLYYYX 130302 METAR LFPG 130302Z 06725KT 9999 FEW030 3/8 Q1066
GG EGLLYYYX EDDFYYYX 021505 METAR LFPG 021505Z 22312KT 9999 FEW030 -5/-8 Q1062
FF EDDFYYYX LFPGYYYX 041933 METAR LFPG 041933Z 15613KT 9999 FEW030 21/13 Q1081
SS LFPGYYYX LFPGYYYX EGLLYYYX 120426 METAR LFPG 120426Z 04415KT 9999 FEW030 16/-1 Q1094
SS LFPOYYYX EGLLYYYX EDDFYYYX LFPBYYYX 160150 METAR LFPG 160150Z 26323KT 9999 FEW030 6/0 Q1015
DD EDDFYYYX LFPGYYYX 122051 METAR LFPG 122051Z 05743KT 9999 FEW030 20/8 Q1018
DD LFPNYYYX LFPBYYYX LFPGYYYX 050825 METAR LFPG 050825Z 05645KT 9999 FEW030 13/24 Q1017
KK EDDFYYYX EGLLYYYX LFPNYYYX 030256 METAR LFPG 030256Z 14735KT 9999 FEW030 14/10 Q1082
KK EDDFYYYX EGLLYYYX LFPGYYYX LFPOYYYX 192329 METAR LFPG 192329Z 32820KT 9999 FEW030 29/2 Q1037
DD LFPBYYYX LFPOYYYX EDDFYYYX LFPNYYYX 120635 METAR LFPG 120635Z 30440KT 9999 FEW030 -3/17 Q1034
DD EGLLYYYX LFPBYYYX 020233 METAR LFPG 020233Z 00816KT 9999 FEW030 30/1 Q1091
LL LFPGYYYX EGLLYYYX LFPOYYYX 200758 METAR LFPG 200758Z 13714KT 9999 FEW030 -10/15 Q1045
KK EDDFYYYX LFPBYYYX LFPGYYYX EGLLYYYX 011412 METAR LFPG 011412Z 05416KT 9999 FEW030 6/-7 Q1034
LL LFPBYYYX EDDFYYYX LFPBYYYX EGLLYYYX 200737 METAR LFPG 200737Z 21929KT 9999 FEW030 14/-1 Q1026
KK EDDFYYYX LFPNYYYX 250911 METAR LFPG 250911Z 05530KT 9999 FEW030 12/24 Q1005
DD LFPGYYYX LFPGYYYX EDDFYYYX EGLLYYYX 151321 METAR LFPG 151321Z 09333KT 9999 FEW030 15/-5 Q1053
KK LFPOYYYX EDDFYYYX LFPNYYYX LFPBYYYX 250057 METAR LFPG 250057Z 26829KT 9999 FEW030 4/13 Q1051
SS LFPGYYYX LFPOYYYX LFPBYYYX 231728 METAR LFPG 231728Z 29741KT 9999 FEW030 10/20 Q1060
SS EGLLYYYX LFPBYYYX 111213 METAR LFPG 111213Z 12849KT 9999 FEW030 33/-4 Q1073
FF EDDFYYYX LFPBYYYX 171306 METAR LFPG 171306Z 34312KT 9999 FEW030 3/9 Q1056
SS LFPGYYYX LFPBYYYX EGLLYYYX 280220 METAR LFPG 280220Z 06016KT 9999 FEW030 31/-6 Q1037
DD LFPBYYYX LFPNYYYX EGLLYYYX 032023 METAR LFPG 032023Z 13942KT 9999 FEW030 18/-7 Q1002
GG EDDFYYYX LFPBYYYX LFPNYYYX 172132 METAR LFPG 172132Z 22440KT 9999 FEW030 0/22 Q1020
KK EDDFYYYX LFPNYYYX LFPGYYYX 060732 METAR LFPG 060732Z 23820KT 9999 FEW030 11/2 Q1022
GG LFPGYYYX EDDFYYYX LFPOYYYX 080206 METAR LFPG 080206Z 29622KT 9999 FEW030 25/5 Q1025
SS LFPOYYYX EGLLYYYX LFPNYYYX LFPOYYYX 160500 METAR LFPG 160500Z 07317KT 9999 FEW030 2/25 Q1000
LL LFPGYYYX LFPBYYYX LFPNYYYX 011904 METAR LFPG 011904Z 20214KT 9999 FEW030 27/15 Q1031
KK LFPNYYYX EDDFYYYX LFPOYYYX LFPGYYYX 171816 METAR LFPG 171816Z 09140KT 9999 FEW030 35/23 Q1047
FF LFPBYYYX LFPGYYYX 161125 METAR LFPG 161125Z 20216KT 9999 FEW030 10/4 Q1053
KK LFPOYYYX LFPGYYYX 232049 METAR LFPG 232049Z 12414KT 9999 FEW030 9/21 Q1042
DD LFPNYYYX LFPBYYYX LFPOYYYX LFPNYYYX 221838 METAR LFPG 221838Z 31045KT 9999 FEW030 5/20 Q1070
SS EDDFYYYX EDDFYYYX 162039 METAR LFPG 162039Z 01949KT 9999 FEW030 -7/12 Q1069
GG EDDFYYYX EGLLYYYX EDDFYYYX 150128 METAR LFPG 150128Z 10839KT 9999 FEW030 -9/22 Q1053
SS EDDFYYYX LFPGYYYX LFPBYYYX LFPNYYYX 281533 METAR LFPG 281533Z 09947KT 9999 FEW030 22/20 Q1020
KK EDDFYYYX EGLLYYYX LFPOYYYX 270930 METAR LFPG 270930Z 33339KT 9999 FEW030 20/16 Q1052
DD LFPOYYYX LFPGYYYX LFPOYYYX 251059 METAR LFPG 251059Z 33045KT 9999 FEW030 1/-10 Q1073
DD EGLLYYYX LFPNYYYX EGLLYYYX EDDFYYYX 040902 METAR LFPG 040902Z 14925KT 9999 FEW030 6/-2 Q1092
FF LFPNYYYX LFPBYYYX EDDFYYYX LFPGYYYX 100324 METAR LFPG 100324Z 24412KT 9999 FEW030 18/-8 Q1066
KK LFPGYYYX LFPBYYYX 060140 METAR LFPG 060140Z 14638KT 9999 FEW030 10/2 Q1066
FF LFPBYYYX LFPOYYYX LFPBYYYX LFPGYYYX 280030 METAR LFPG 280030Z 07529KT 9999 FEW030 17/-4 Q1090
SS LFPBYYYX LFPGYYYX 281442 METAR LFPG 281442Z 12513KT 9999 FEW030 16/-7 Q1010
GG LFPOYYYX LFPOYYYX 271517 METAR LFPG 271517Z 09022KT 9999 FEW030 -2/-10 Q1090
FF LFPGYYYX LFPBYYYX LFPNYYYX 261051 METAR LFPG 261051Z 15826KT 9999 FEW030 17/10 Q1075
DD EGLLYYYX LFPOYYYX 090218 METAR LFPG 090218Z 04949KT 9999 FEW030 7/3 Q1022
FF EDDFYYYX EDDFYYYX EGLLYYYX LFPBYYYX 200722 METAR LFPG 200722Z 18341KT 9999 FEW030 -2/1 Q1005
KK LFPNYYYX LFPBYYYX LFPNYYYX 081324 METAR LFPG 081324Z 18310KT 9999 FEW030 3/-6 Q1073
FF EGLLYYYX LFPBYYYX 170340 METAR LFPG 170340Z 19518KT 9999 FEW030 10/-4 Q1088
DD LFPOYYYX LFPNYYYX EGLLYYYX 131802 METAR LFPG 131802Z 29312KT 9999 FEW030 12/1 Q1022
KK EDDFYYYX EDDFYYYX LFPOYYYX 250906 METAR LFPG 250906Z 19443KT 9999 FEW030 12/0 Q1061
DD LFPGYYYX LFPOYYYX LFPGYYYX 271359 METAR LFPG 271359Z 05435KT 9999 FEW030 17/6 Q1030
KK LFPOYYYX LFPGYYYX 141717 METAR LFPG 141717Z 12933KT 9999 FEW030 25/4 Q1028
KK LFPGYYYX EGLLYYYX LFPBYYYX 130243 METAR LFPG 130243Z 21412KT 9999 FEW030 -5/14 Q1034
SS EGLLYYYX EGLLYYYX EDDFYYYX LFPBYYYX 281855 METAR LFPG 281855Z 32727KT 9999 FEW030 25/12 Q1064
SS LFPOYYYX LFPOYYYX EDDFYYYX 121052 METAR LFPG 121052Z 33640KT 9999 FEW030 24/-2 Q1021
DD LFPGYYYX EDDFYYYX EGLLYYYX 172340 METAR LFPG 172340Z 02250KT 9999 FEW030 13/9 Q1002
KK EDDFYYYX LFPBYYYX 031433 METAR LFPG 031433Z 21125KT 9999 FEW030 5/20 Q1000
DD LFPOYYYX LFPBYYYX 060755 METAR LFPG 060755Z 17038KT 9999 FEW030 11/10 Q1077
DD EGLLYYYX LFPNYYYX LFPGYYYX LFPBYYYX 031335 METAR LFPG 031335Z 19827KT 9999 FEW030 -2/25 Q1096
KK LFPBYYYX EGLLYYYX LFPBYYYX 111425 METAR LFPG 111425Z 14421KT 9999 FEW030 -6/0 Q1079
GG LFPGYYYX EGLLYYYX LFPOYYYX 151606 METAR LFPG 151606Z 27231KT 9999 FEW030 14/-6 Q1012
DD LFPBYYYX EDDFYYYX 150131 METAR LFPG 150131Z 14615KT 9999 FEW030 2/22 Q1007
KK LFPBYYYX LFPGYYYX 200845 METAR LFPG 200845Z 34627KT 9999 FEW030 13/15 Q1012
DD EDDFYYYX LFPOYYYX EDDFYYYX 151323 METAR LFPG 151323Z 18428KT 9999 FEW030 35/-6 Q1029
KK LFPNYYYX EGLLYYYX EDDFYYYX 251637 METAR LFPG 251637Z 11027KT 9999 FEW030 28/-2 Q1061
KK LFPNYYYX EDDFYYYX LFPBYYYX 191156 METAR LFPG 191156Z 25248KT 9999 FEW030 13/15 Q1009
DD LFPGYYYX LFPBYYYX EGLLYYYX EDDFYYYX 041503 METAR LFPG 041503Z 33042KT 9999 FEW030 17/21 Q1098
KK LFPNYYYX LFPBYYYX LFPGYYYX 111952 METAR LFPG 111952Z 15237KT 9999 FEW030 7/8 Q1086
SS LFPBYYYX LFPNYYYX 040124 METAR LFPG 040124Z 00738KT 9999 FEW030 15/2 Q1034
SS EGLLYYYX LFPOYYYX EGLLYYYX EDDFYYYX 030303 METAR LFPG 030303Z 23236KT 9999 FEW030 16/7 Q1052
KK LFPOYYYX LFPGYYYX 070006 METAR LFPG 070006Z 10511KT 9999 FEW030 -4/5 Q1019
KK LFPGYYYX LFPBYYYX 111244 METAR LFPG 111244Z 29531KT 9999 FEW030 12/17 Q1046
SS EGLLYYYX LFPGYYYX LFPBYYYX 201459 METAR LFPG 201459Z 23911KT 9999 FEW030 6/23 Q1077
LL LFPGYYYX EDDFYYYX 191615 METAR LFPG 191615Z 27035KT 9999 FEW030 22/20 Q1063
KK LFPOYYYX LFPBYYYX LFPNYYYX 202104 METAR LFPG 202104Z 25944KT 9999 FEW030 0/1 Q1099
KK EDDFYYYX EGLLYYYX LFPNYYYX EDDFYYYX 091601 METAR LFPG 091601Z 07038KT 9999 FEW030 -10/21 Q1069
KK EGLLYYYX EDDFYYYX LFPNYYYX EGLLYYYX 282157 METAR LFPG 282157Z 34945KT 9999 FEW030 9/16 Q1057
FF LFPGYYYX LFPGYYYX EDDFYYYX 030914 METAR LFPG 030914Z 14825KT 9999 FEW030 3/-5 Q1076
DD EGLLYYYX LFPBYYYX EDDFYYYX 042010 METAR LFPG 042010Z 16130KT 9999 FEW030 30/-6 Q1081
SS LFPBYYYX LFPNYYYX 102206 METAR LFPG 102206Z 32636KT 9999 FEW030 27/16 Q1032
KK LFPBYYYX LFPGYYYX LFPOYYYX 121341 METAR LFPG 121341Z 14621KT 9999 FEW030 7/24 Q1010
KK EDDFYYYX EDDFYYYX LFPGYYYX 211141 METAR LFPG 211141Z 25531KT 9999 FEW030 24/18 Q1048
LL EGLLYYYX LFPBYYYX LFPNYYYX 111736 METAR LFPG 111736Z 05212KT 9999 FEW030 34/2 Q1035
FF LFPBYYYX LFPOYYYX 050029 METAR LFPG 050029Z 05546KT 9999 FEW030 2/19 Q1039
SS LFPBYYYX EDDFYYYX LFPNYYYX 031342 METAR LFPG 031342Z 10126KT 9999 FEW030 7/25 Q1091
GG LFPNYYYX EDDFYYYX LFPNYYYX LFPOYYYX 281905 METAR LFPG 281905Z 33125KT 9999 FEW030 3/15 Q1046
GG EGLLYYYX EGLLYYYX LFPNYYYX LFPBYYYX 032110 METAR LFPG 032110Z 30345KT 9999 FEW030 -7/16 Q1060
FF LFPOYYYX EDDFYYYX EGLLYYYX 060622 METAR LFPG 060622Z 07448KT 9999 FEW030 -8/15 Q1061
FF LFPBYYYX LFPNYYYX LFPOYYYX 220804 METAR LFPG 220804Z 24516KT 9999 FEW030 5/-2 Q1085
FF EDDFYYYX LFPNYYYX EDDFYYYX LFPOYYYX 012320 METAR LFPG 012320Z 26118KT 9999 FEW030 23/2 Q1098
KK EDDFYYYX LFPOYYYX LFPBYYYX EDDFYYYX 080035 METAR LFPG 080035Z 23835KT 9999 FEW030 17/-4 Q1001
LL LFPNYYYX LFPNYYYX LFPOYYYX 041028 METAR LFPG 041028Z 02641KT 9999 FEW030 12/9 Q1054
DD EDDFYYYX EDDFYYYX 011457 METAR LFPG 011457Z 17420KT 9999 FEW030 2/-4 Q1030
FF LFPOYYYX LFPOYYYX EDDFYYYX 051507 METAR LFPG 051507Z 32520KT 9999 FEW030 8/-4 Q1066
GG EDDFYYYX LFPBYYYX LFPGYYYX EDDFYYYX 031712 METAR LFPG 031712Z 04222KT 9999 FEW030 -4/4 Q1097
DD EGLLYYYX EDDFYYYX LFPBYYYX 190506 METAR LFPG 190506Z 22419KT 9999 FEW030 26/0 Q1093
KK EDDFYYYX EDDFYYYX LFPGYYYX 010208 METAR LFPG 010208Z 20634KT 9999 FEW030 6/12 Q1003
FF LFPOYYYX LFPNYYYX 120023 METAR LFPG 120023Z 04049KT 9999 FEW030 21/3 Q1082
LL LFPNYYYX LFPBYYYX 231826 METAR LFPG 231826Z 19347KT 9999 FEW030 13/17 Q1100
LL LFPNYYYX EGLLYYYX 050815 METAR LFPG 050815Z 02233KT 9999 FEW030 12/18 Q1068
FF EDDFYYYX LFPNYYYX LFPOYYYX EGLLYYYX 220447 METAR LFPG 220447Z 25045KT 9999 FEW030 29/5 Q1014
SS LFPBYYYX LFPGYYYX LFPNYYYX EDDFYYYX 220251 METAR LFPG 220251Z 35513KT 9999 FEW030 16/6 Q1013
SS EDDFYYYX EGLLYYYX EDDFYYYX 201044 METAR LFPG 201044Z 21923KT 9999 FEW030 30/-8 Q1099
FF LFPGYYYX LFPGYYYX 171026 METAR LFPG 171026Z 04149KT 9999 FEW030 17/-3 Q1006
SS LFPOYYYX EDDFYYYX 070616 METAR LFPG 070616Z 10624KT 9999 FEW030 0/25 Q1042
SS LFPGYYYX EGLLYYYX 102139 METAR LFPG 102139Z 13912KT 9999 FEW030 3/17 Q1075
KK LFPGYYYX LFPBYYYX 151807 METAR LFPG 151807Z 24744KT 9999 FEW030 30/12 Q1069
FF LFPNYYYX EGLLYYYX LFPOYYYX 061054 METAR LFPG 061054Z 31510KT 9999 FEW030 -9/7 Q1056
LL EGLLYYYX LFPBYYYX LFPOYYYX 111541 METAR LFPG 111541Z 15527KT 9999 FEW030 32/20 Q1084
FF LFPGYYYX LFPBYYYX LFPOYYYX EDDFYYYX 030114 METAR LFPG 030114Z 29426KT 9999 FEW030 31/6 Q1013
DD LFPNYYYX LFPGYYYX 200236 METAR LFPG 200236Z 24533KT 9999 FEW030 29/18 Q1066
FF LFPOYYYX EDDFYYYX 021551 METAR LFPG 021551Z 34142KT 9999 FEW030 10/16 Q1074
SS LFPBYYYX EDDFYYYX 240251 METAR LFPG 240251Z 01424KT 9999 FEW030 3/-6 Q1032
FF LFPBYYYX EDDFYYYX 171820 METAR LFPG 171820Z 16724KT 9999 FEW030 2/1 Q1009
FF LFPGYYYX LFPOYYYX EGLLYYYX 041536 METAR LFPG 041536Z 16116KT 9999 FEW030 27/15 Q1098
FF LFPOYYYX LFPOYYYX 210730 METAR LFPG 210730Z 29739KT 9999 FEW030 12/12 Q1054
SS LFPBYYYX EGLLYYYX 020325 METAR LFPG 020325Z 25244KT 9999 FEW030 17/16 Q1055
LL EGLLYYYX EGLLYYYX 051134 METAR LFPG 051134Z 24711KT 9999 FEW030 -5/18 Q1098
FF LFPBYYYX LFPGYYYX 181802 METAR LFPG 181802Z 22917KT 9999 FEW030 -5/23 Q1068
SS EDDFYYYX EGLLYYYX LFPGYYYX LFPBYYYX 251635 METAR LFPG 251635Z 05934KT 9999 FEW030 31/20 Q1060
DD EDDFYYYX EGLLYYYX LFPBYYYX LFPGYYYX 190518 METAR LFPG 190518Z 23421KT 9999 FEW030 34/21 Q1038
KK EGLLYYYX EDDFYYYX LFPGYYYX 222038 METAR LFPG 222038Z 20315KT 9999 FEW030 15/-3 Q1078
FF EGLLYYYX EDDFYYYX LFPOYYYX 251130 METAR LFPG 251130Z 06515KT 9999 FEW030 0/13 Q1011
LL EDDFYYYX EGLLYYYX LFPGYYYX LFPNYYYX 041334 METAR LFPG 041334Z 23235KT 9999 FEW030 25/5 Q1041
GG EGLLYYYX LFPGYYYX 191530 METAR LFPG 191530Z 23338KT 9999 FEW030 -2/-9 Q1099
LL EGLLYYYX EDDFYYYX 281040 METAR LFPG 281040Z 35824KT 9999 FEW030 30/-6 Q1094
SS LFPGYYYX LFPGYYYX LFPOYYYX LFPBYYYX 070611 METAR LFPG 070611Z 08412KT 9999 FEW030 27/2 Q1078
LL LFPOYYYX LFPGYYYX 160659 METAR LFPG 160659Z 05616KT 9999 FEW030 18/2 Q1004
LL EGLLYYYX EDDFYYYX LFPBYYYX 010250 METAR LFPG 010250Z 04121KT 9999 FEW030 -9/6 Q1099
DD LFPBYYYX EGLLYYYX LFPGYYYX 180309 METAR LFPG 180309Z 34913KT 9999 FEW030 -9/21 Q1070
SS LFPGYYYX LFPBYYYX EDDFYYYX 051720 METAR LFPG 051720Z 02312KT 9999 FEW030 34/6 Q1067
DD EDDFYYYX LFPOYYYX EDDFYYYX LFPBYYYX 241403 METAR LFPG 241403Z 13449KT 9999 FEW030 4/5 Q1071
KK LFPBYYYX LFPNYYYX LFPGYYYX LFPBYYYX 070853 METAR LFPG 070853Z 13027KT 9999 FEW030 -4/14 Q1080
FF LFPOYYYX LFPGYYYX EDDFYYYX LFPBYYYX 050735 METAR LFPG 050735Z 30211KT 9999 FEW030 15/3 Q1046
LL LFPBYYYX EGLLYYYX 211840 METAR LFPG 211840Z 29524KT 9999 FEW030 10/25 Q1023
FF LFPGYYYX LFPBYYYX LFPGYYYX LFPNYYYX 221124 METAR LFPG 221124Z 02141KT 9999 FEW030 14/-3 Q1016
LL LFPOYYYX LFPOYYYX LFPBYYYX EDDFYYYX 231731 METAR LFPG 231731Z 30942KT 9999 FEW030 -8/2 Q1078
DD LFPNYYYX LFPOYYYX 140855 METAR LFPG 140855Z 28628KT 9999 FEW030 4/8 Q1069
FF EDDFYYYX LFPBYYYX EGLLYYYX 281042 METAR LFPG 281042Z 03112KT 9999 FEW030 0/5 Q1015
KK LFPGYYYX LFPBYYYX LFPOYYYX EGLLYYYX 141304 METAR LFPG 141304Z 09634KT 9999 FEW030 30/9 Q1090
DD LFPOYYYX LFPBYYYX LFPNYYYX 142339 METAR LFPG 142339Z 18234KT 9999 FEW030 16/-10 Q1045
GG LFPGYYYX LFPGYYYX 090041 METAR LFPG 090041Z 21016KT 9999 FEW030 -4/-1 Q1022
KK LFPOYYYX EGLLYYYX 010006 METAR LFPG 010006Z 25919KT 9999 FEW030 7/3 Q1086
KK LFPGYYYX LFPNYYYX LFPGYYYX 280159 METAR LFPG 280159Z 26224KT 9999 FEW030 9/22 Q1072
LL LFPBYYYX LFPNYYYX LFPGYYYX 060206 METAR LFPG 060206Z 06225KT 9999 FEW030 5/5 Q1038
KK LFPBYYYX EDDFYYYX LFPOYYYX LFPBYYYX 270807 METAR LFPG 270807Z 05550KT 9999 FEW030 9/8 Q1092
FF LFPOYYYX EGLLYYYX EDDFYYYX LFPBYYYX 241808 METAR LFPG 241808Z 25647KT 9999 FEW030 33/-1 Q1083
LL LFPNYYYX EDDFYYYX LFPNYYYX 061848 METAR LFPG 061848Z 17348KT 9999 FEW030 11/11 Q1019
LL LFPGYYYX LFPNYYYX EDDFYYYX 051345 METAR LFPG 051345Z 22321KT 9999 FEW030 35/0 Q1066
KK LFPNYYYX LFPBYYYX LFPGYYYX EGLLYYYX 101840 METAR LFPG 101840Z 16839KT 9999 FEW030 34/10 Q1086
SS LFPBYYYX LFPBYYYX 271838 METAR LFPG 271838Z 10812KT 9999 FEW030 1/24 Q1031
KK LFPGYYYX LFPNYYYX LFPBYYYX EGLLYYYX 240928 METAR LFPG 240928Z 16218KT 9999 FEW030 20/25 Q1068
KK LFPNYYYX LFPNYYYX LFPBYYYX 241845 METAR LFPG 241845Z 14025KT 9999 FEW030 27/11 Q1035
FF LFPNYYYX LFPBYYYX EDDFYYYX 230459 METAR LFPG 230459Z 21830KT 9999 FEW030 25/18 Q1082
KK LFPNYYYX LFPNYYYX 110039 METAR LFPG 110039Z 33638KT 9999 FEW030 8/21 Q1037
SS LFPOYYYX LFPBYYYX 030129 METAR LFPG 030129Z 16739KT 9999 FEW030 14/9 Q1033
KK LFPOYYYX EDDFYYYX EGLLYYYX LFPGYYYX 051946 METAR LFPG 051946Z 25131KT 9999 FEW030 26/21 Q1058
LL LFPGYYYX LFPNYYYX EDDFYYYX LFPOYYYX 011301 METAR LFPG 011301Z 13811KT 9999 FEW030 3/7 Q1069
LL EGLLYYYX EGLLYYYX EDDFYYYX LFPGYYYX 080017 METAR LFPG 080017Z 27929KT 9999 FEW030 22/1 Q1013
DD LFPNYYYX LFPGYYYX LFPNYYYX 042226 METAR LFPG 042226Z 11915KT 9999 FEW030 9/7 Q1016
LL EGLLYYYX EGLLYYYX 091935 METAR LFPG 091935Z 27620KT 9999 FEW030 -6/-10 Q1079
SS EGLLYYYX LFPOYYYX 090600 METAR LFPG 090600Z 20625KT 9999 FEW030 33/5 Q1046
DD LFPBYYYX LFPGYYYX LFPBYYYX EGLLYYYX 131321 METAR LFPG 131321Z 08744KT 9999 FEW030 35/-2 Q1029
LL LFPOYYYX LFPNYYYX LFPBYYYX LFPGYYYX 220237 METAR LFPG 220237Z 22931KT 9999 FEW030 28/9 Q1094
DD LFPNYYYX EDDFYYYX LFPGYYYX LFPBYYYX 241233 METAR LFPG 241233Z 11236KT 9999 FEW030 5/20 Q1098
DD LFPBYYYX LFPBYYYX 151423 METAR LFPG 151423Z 20620KT 9999 FEW030 -10/-10 Q1058
DD LFPNYYYX LFPNYYYX 111149 METAR LFPG 111149Z 31316KT 9999 FEW030 0/21 Q1042
FF LFPGYYYX LFPBYYYX LFPNYYYX 220507 METAR LFPG 220507Z 26528KT 9999 FEW030 -6/2 Q1036
FF LFPBYYYX EGLLYYYX 210438 METAR LFPG 210438Z 34411KT 9999 FEW030 26/24 Q1017
GG LFPBYYYX EDDFYYYX 120722 METAR LFPG 120722Z 09014KT 9999 FEW030 34/-1 Q1076
DD LFPBYYYX EGLLYYYX LFPBYYYX LFPOYYYX 210203 METAR LFPG 210203Z 11329KT 9999 FEW030 16/-1 Q1009
FF LFPOYYYX EGLLYYYX 160741 METAR LFPG 160741Z 27233KT 9999 FEW030 35/7 Q1011
DD EGLLYYYX LFPNYYYX EGLLYYYX LFPOYYYX 020616 METAR LFPG 020616Z 29436KT 9999 FEW030 10/24 Q1100
FF LFPGYYYX EGLLYYYX 031446 METAR LFPG 031446Z 00434KT 9999 FEW030 -2/20 Q1028
LL EDDFYYYX LFPBYYYX LFPNYYYX 060443 METAR LFPG 060443Z 26943KT 9999 FEW030 22/-8 Q1083
SS LFPOYYYX LFPGYYYX LFPNYYYX 270547 METAR LFPG 270547Z 13444KT 9999 FEW030 15/18 Q1033
DD EDDFYYYX LFPBYYYX 010726 METAR LFPG 010726Z 29339KT 9999 FEW030 -6/-7 Q1064
KK LFPNYYYX LFPNYYYX LFPOYYYX EGLLYYYX 281730 METAR LFPG 281730Z 22237KT 9999 FEW030 4/14 Q1044
DD LFPNYYYX LFPBYYYX LFPGYYYX LFPOYYYX 010708 METAR LFPG 010708Z 25221KT 9999 FEW030 4/24 Q1053
KK EGLLYYYX LFPOYYYX EGLLYYYX LFPNYYYX 242039 METAR LFPG 242039Z 25233KT 9999 FEW030 13/22 Q1014
FF LFPNYYYX LFPNYYYX EGLLYYYX 241105 METAR LFPG 241105Z 21012KT 9999 FEW030 1/7 Q1100
GG EDDFYYYX EGLLYYYX 061504 METAR LFPG 061504Z 12244KT 9999 FEW030 0/24 Q1090
KK LFPGYYYX LFPNYYYX LFPBYYYX 140810 METAR LFPG 140810Z 14824KT 9999 FEW030 1/25 Q1081
DD EGLLYYYX LFPNYYYX EGLLYYYX 110115 METAR LFPG 110115Z 02813KT 9999 FEW030 21/11 Q1087
SS LFPBYYYX EDDFYYYX LFPNYYYX 082026 METAR LFPG 082026Z 13624KT 9999 FEW030 25/6 Q1078
SS LFPGYYYX EGLLYYYX EDDFYYYX 072245 METAR LFPG 072245Z 18533KT 9999 FEW030 5/18 Q1091
LL LFPBYYYX EDDFYYYX 080456 METAR LFPG 080456Z 07524KT 9999 FEW030 7/0 Q1080
FF LFPGYYYX LFPNYYYX LFPGYYYX 021432 METAR LFPG 021432Z 04842KT 9999 FEW030 0/25 Q1059
FF LFPNYYYX LFPGYYYX LFPNYYYX LFPBYYYX 141739 METAR LFPG 141739Z 04410KT 9999 FEW030 7/8 Q1069
KK EDDFYYYX LFPNYYYX 181712 METAR LFPG 181712Z 21922KT 9999 FEW030 2/8 Q1062
GG EDDFYYYX LFPNYYYX EGLLYYYX 180304 METAR LFPG 180304Z 24942KT 9999 FEW030 5/-1 Q1044
DD LFPOYYYX EGLLYYYX 152358 METAR LFPG 152358Z 32012KT 9999 FEW030 27/-6 Q1057
KK LFPNYYYX LFPGYYYX 161411 METAR LFPG 161411Z 00632KT 9999 FEW030 20/17 Q1088
KK LFPBYYYX LFPBYYYX EDDFYYYX 141045 METAR LFPG 141045Z 27042KT 9999 FEW030 -2/5 Q1032
LL LFPBYYYX EGLLYYYX 162150 METAR LFPG 162150Z 14317KT 9999 FEW030 18/4 Q1097
FF EGLLYYYX LFPBYYYX 101721 METAR LFPG 101721Z 05016KT 9999 FEW030 -4/1 Q1092
KK EGLLYYYX EDDFYYYX LFPGYYYX 260551 METAR LFPG 260551Z 30536KT 9999 FEW030 0/-3 Q1050
FF EGLLYYYX LFPOYYYX LFPBYYYX 041114 METAR LFPG 041114Z 04439KT 9999 FEW030 -2/-2 Q1054
KK LFPOYYYX LFPBYYYX EGLLYYYX LFPOYYYX 241428 METAR LFPG 241428Z 21024KT 9999 FEW030 8/8 Q1030
KK LFPOYYYX EGLLYYYX 240141 METAR LFPG 240141Z 24941KT 9999 FEW030 6/18 Q1043
FF EDDFYYYX EGLLYYYX EDDFYYYX 222041 METAR LFPG 222041Z 33227KT 9999 FEW030 1/23 Q1027
DD LFPNYYYX LFPOYYYX LFPGYYYX 081807 METAR LFPG 081807Z 13939KT 9999 FEW030 -8/16 Q1076
LL LFPOYYYX LFPBYYYX LFPGYYYX EGLLYYYX 072021 METAR LFPG 072021Z 20548KT 9999 FEW030 0/16 Q1084
GG EGLLYYYX LFPGYYYX 071513 METAR LFPG 071513Z 09324KT 9999 FEW030 14/14 Q1083
KK EDDFYYYX LFPBYYYX 201212 METAR LFPG 201212Z 01917KT 9999 FEW030 23/-10 Q1007
LL LFPBYYYX EGLLYYYX LFPNYYYX EDDFYYYX 080711 METAR LFPG 080711Z 29342KT 9999 FEW030 -3/0 Q1044
GG EDDFYYYX EDDFYYYX LFPGYYYX 040921 METAR LFPG 040921Z 08231KT 9999 FEW030 16/1 Q1054
LL EDDFYYYX LFPBYYYX LFPGYYYX LFPOYYYX 162131 METAR LFPG 162131Z 07910KT 9999 FEW030 -3/9 Q1081
DD EGLLYYYX LFPBYYYX LFPNYYYX LFPOYYYX 070645 METAR LFPG 070645Z 06947KT 9999 FEW030 22/8 Q1039
GG LFPBYYYX EGLLYYYX LFPOYYYX LFPBYYYX 041042 METAR LFPG 041042Z 15617KT 9999 FEW030 20/16 Q1092
LL LFPNYYYX EDDFYYYX LFPBYYYX 260725 METAR LFPG 260725Z 32346KT 9999 FEW030 6/-3 Q1100
DD EDDFYYYX EDDFYYYX LFPNYYYX 041407 METAR LFPG 041407Z 25520KT 9999 FEW030 33/4 Q1038
KK EGLLYYYX LFPNYYYX 120221 METAR LFPG 120221Z 28615KT 9999 FEW030 29/14 Q1028
SS EGLLYYYX LFPNYYYX LFPOYYYX EDDFYYYX 012217 METAR LFPG 012217Z 06041KT 9999 FEW030 33/21 Q1057
LL LFPBYYYX LFPOYYYX EDDFYYYX LFPGYYYX 231610 METAR LFPG 231610Z 24722KT 9999 FEW030 9/-5 Q1018
DD LFPGYYYX LFPNYYYX LFPGYYYX 221830 METAR LFPG 221830Z 35923KT 9999 FEW030 -7/17 Q1048
FF LFPGYYYX EDDFYYYX LFPOYYYX EGLLYYYX 090449 METAR LFPG 090449Z 15347KT 9999 FEW030 27/8 Q1088
GG LFPNYYYX LFPNYYYX LFPBYYYX 241741 METAR LFPG 241741Z 31529KT 9999 FEW030 27/9 Q1009
SS LFPGYYYX EDDFYYYX LFPBYYYX LFPNYYYX 101147 METAR LFPG 101147Z 07922KT 9999 FEW030 10/9 Q1068
KK LFPGYYYX EDDFYYYX 070848 METAR LFPG 070848Z 20324KT 9999 FEW030 2/8 Q1085
KK LFPNYYYX EDDFYYYX EGLLYYYX 150140 METAR LFPG 150140Z 11344KT 9999 FEW030 31/9 Q1042
LL EDDFYYYX LFPBYYYX LFPGYYYX 130849 METAR LFPG 130849Z 21338KT 9999 FEW030 4/13 Q1056
SS EGLLYYYX LFPOYYYX EDDFYYYX LFPBYYYX 201303 METAR LFPG 201303Z 26743KT 9999 FEW030 14/11 Q1088
KK LFPOYYYX LFPBYYYX EDDFYYYX LFPGYYYX 141135 METAR LFPG 141135Z 33917KT 9999 FEW030 2/7 Q1053
LL LFPBYYYX LFPNYYYX 242207 METAR LFPG 242207Z 25113KT 9999 FEW030 -9/-10 Q1047
GG EGLLYYYX LFPBYYYX 200457 METAR LFPG 200457Z 14918KT 9999 FEW030 27/-7 Q1017
LL LFPNYYYX LFPGYYYX EGLLYYYX 180409 METAR LFPG 180409Z 26436KT 9999 FEW030 31/12 Q1052
LL LFPGYYYX EDDFYYYX EGLLYYYX 170718 METAR LFPG 170718Z 18248KT 9999 FEW030 6/-3 Q1082
LL LFPBYYYX LFPGYYYX 281416 METAR LFPG 281416Z 14013KT 9999 FEW030 -8/19 Q1007
FF EGLLYYYX LFPNYYYX EGLLYYYX 010040 METAR LFPG 010040Z 29035KT 9999 FEW030 2/-7 Q1016
LL LFPNYYYX LFPBYYYX LFPNYYYX 260439 METAR LFPG 260439Z 01612KT 9999 FEW030 8/-6 Q1021
DD LFPOYYYX EDDFYYYX LFPOYYYX 262329 METAR LFPG 262329Z 20515KT 9999 FEW030 26/1 Q1022
FF LFPGYYYX LFPBYYYX LFPOYYYX EDDFYYYX 021818 METAR LFPG 021818Z 29137KT 9999 FEW030 9/7 Q1054
DD EDDFYYYX EGLLYYYX LFPOYYYX 140210 METAR LFPG 140210Z 34938KT 9999 FEW030 -5/-6 Q1088
FF LFPGYYYX LFPBYYYX EDDFYYYX 112122 METAR LFPG 112122Z 09638KT 9999 FEW030 31/10 Q1049
SS LFPGYYYX EGLLYYYX LFPGYYYX LFPNYYYX 170506 METAR LFPG 170506Z 16726KT 9999 FEW030 6/20 Q1033
KK EDDFYYYX LFPGYYYX 050633 METAR LFPG 050633Z 00213KT 9999 FEW030 -9/18 Q1045
SS LFPNYYYX LFPOYYYX EDDFYYYX LFPNYYYX 271827 METAR LFPG 271827Z 00619KT 9999 FEW030 30/14 Q1018
GG LFPOYYYX EDDFYYYX LFPBYYYX EGLLYYYX 020919 METAR LFPG 020919Z 23940KT 9999 FEW030 6/9 Q1085
DD LFPGYYYX EDDFYYYX EGLLYYYX 080008 METAR LFPG 080008Z 02843KT 9999 FEW030 31/25 Q1016
SS LFPGYYYX LFPBYYYX LFPOYYYX 102052 METAR LFPG 102052Z 28924KT 9999 FEW030 30/-5 Q1100
LL EDDFYYYX EGLLYYYX EDDFYYYX LFPGYYYX 130719 METAR LFPG 130719Z 07031KT 9999 FEW030 1/-4 Q1054
GG EGLLYYYX EDDFYYYX 202303 METAR LFPG 202303Z 20538KT 9999 FEW030 -10/17 Q1067
KK EGLLYYYX EGLLYYYX 011620 METAR LFPG 011620Z 28429KT 9999 FEW030 29/-6 Q1063
SS LFPOYYYX EGLLYYYX LFPOYYYX LFPGYYYX 250714 METAR LFPG 250714Z 03433KT 9999 FEW030 10/12 Q1020
GG LFPBYYYX LFPGYYYX 121847 METAR LFPG 121847Z 11432KT 9999 FEW030 2/13 Q1002
SS EDDFYYYX LFPGYYYX 270305 METAR LFPG 270305Z 26640KT 9999 FEW030 18/10 Q1038
GG LFPGYYYX LFPNYYYX EGLLYYYX 031359 METAR LFPG 031359Z 17447KT 9999 FEW030 6/21 Q1069
FF EGLLYYYX LFPNYYYX LFPBYYYX 031123 METAR LFPG 031123Z 13241KT 9999 FEW030 10/12 Q1053
SS EGLLYYYX LFPBYYYX 160533 METAR LFPG 160533Z 18334KT 9999 FEW030 34/-8 Q1005
KK EDDFYYYX EGLLYYYX LFPOYYYX LFPBYYYX 142006 METAR LFPG 142006Z 33826KT 9999 FEW030 7/3 Q1019
LL EGLLYYYX EDDFYYYX 091904 METAR LFPG 091904Z 29633KT 9999 FEW030 30/17 Q1066
FF LFPGYYYX EDDFYYYX 260929 METAR LFPG 260929Z 01824KT 9999 FEW030 14/2 Q1027
DD LFPGYYYX LFPBYYYX 242122 METAR LFPG 242122Z 20947KT 9999 FEW030 3/18 Q1017
DD EGLLYYYX LFPNYYYX EDDFYYYX 262215 METAR LFPG 262215Z 02812KT 9999 FEW030 16/-5 Q1077
SS LFPGYYYX EGLLYYYX LFPOYYYX 052029 METAR LFPG 052029Z 01544KT 9999 FEW030 30/7 Q1046
GG LFPOYYYX LFPBYYYX LFPNYYYX LFPGYYYX 150406 METAR LFPG 150406Z 05015KT 9999 FEW030 -1/24 Q1038
SS LFPOYYYX LFPOYYYX LFPGYYYX LFPBYYYX 161354 METAR LFPG 161354Z 16428KT 9999 FEW030 12/25 Q1099
LL EGLLYYYX EDDFYYYX LFPOYYYX LFPNYYYX 021140 METAR LFPG 021140Z 26929KT 9999 FEW030 28/8 Q1097
SS EGLLYYYX LFPOYYYX LFPGYYYX LFPBYYYX 020504 METAR LFPG 020504Z 13620KT 9999 FEW030 32/20 Q1093
FF EGLLYYYX LFPBYYYX EDDFYYYX LFPOYYYX 141927 METAR LFPG 141927Z 32636KT 9999 FEW030 26/25 Q1039
DD LFPOYYYX LFPNYYYX EDDFYYYX LFPGYYYX 032122 METAR LFPG 032122Z 27231KT 9999 FEW030 29/-4 Q1056
GG EDDFYYYX LFPOYYYX EGLLYYYX LFPGYYYX 251334 METAR LFPG 251334Z 00633KT 9999 FEW030 -3/11 Q1014
KK LFPBYYYX LFPBYYYX EGLLYYYX EDDFYYYX 051451 METAR LFPG 051451Z 20013KT 9999 FEW030 13/-9 Q1053
GG EGLLYYYX LFPNYYYX 272304 METAR LFPG 272304Z 23824KT 9999 FEW030 35/19 Q1056
GG EDDFYYYX LFPGYYYX 071705 METAR LFPG 071705Z 09540KT 9999 FEW030 -10/-3 Q1039
SS LFPGYYYX EDDFYYYX 071715 METAR LFPG 071715Z 33745KT 9999 FEW030 33/8 Q1021
GG LFPNYYYX LFPOYYYX EGLLYYYX 051123 METAR LFPG 051123Z 19829KT 9999 FEW030 5/-5 Q1094
FF LFPBYYYX LFPBYYYX 271906 METAR LFPG 271906Z 25449KT 9999 FEW030 -10/6 Q1097
LL LFPBYYYX LFPOYYYX LFPNYYYX 210208 METAR LFPG 210208Z 17248KT 9999 FEW030 20/23 Q1007
LL EDDFYYYX LFPNYYYX 212349 METAR LFPG 212349Z 29536KT 9999 FEW030 11/23 Q1052
SS LFPNYYYX EGLLYYYX LFPGYYYX 041400 METAR LFPG 041400Z 32229KT 9999 FEW030 0/5 Q1085
SS LFPNYYYX LFPNYYYX 100340 METAR LFPG 100340Z 20417KT 9999 FEW030 18/3 Q1074
DD LFPBYYYX LFPNYYYX EDDFYYYX 171857 METAR LFPG 171857Z 33341KT 9999 FEW030 29/14 Q1006
GG LFPBYYYX LFPNYYYX 012002 METAR LFPG 012002Z 08030KT 9999 FEW030 33/7 Q1024
SS EGLLYYYX EGLLYYYX EDDFYYYX LFPBYYYX 050143 METAR LFPG 050143Z 05418KT 9999 FEW030 -4/0 Q1092
DD LFPOYYYX EGLLYYYX LFPNYYYX LFPGYYYX 190610 METAR LFPG 190610Z 34722KT 9999 FEW030 -8/21 Q1082
SS LFPBYYYX LFPBYYYX 271445 METAR LFPG 271445Z 28116KT 9999 FEW030 12/21 Q1004
DD LFPOYYYX LFPOYYYX LFPNYYYX EDDFYYYX 100820 METAR LFPG 100820Z 33539KT 9999 FEW030 5/13 Q1016
DD LFPNYYYX LFPOYYYX EGLLYYYX LFPGYYYX 211653 METAR LFPG 211653Z 04822KT 9999 FEW030 20/10 Q1020
KK EDDFYYYX EGLLYYYX 210638 METAR LFPG 210638Z 26844KT 9999 FEW030 12/-1 Q1002
DD EDDFYYYX LFPNYYYX LFPGYYYX 030727 METAR LFPG 030727Z 04439KT 9999 FEW030 29/-10 Q1007
FF LFPOYYYX LFPGYYYX 280254 METAR LFPG 280254Z 32133KT 9999 FEW030 20/23 Q1065
LL LFPOYYYX LFPBYYYX EGLLYYYX 040713 METAR LFPG 040713Z 20914KT 9999 FEW030 20/18 Q1029
GG LFPOYYYX EDDFYYYX 131338 METAR LFPG 131338Z 33911KT 9999 FEW030 8/13 Q1050
KK LFPOYYYX LFPBYYYX 161920 METAR LFPG 161920Z 29111KT 9999 FEW030 -6/-5 Q1042
LL LFPNYYYX EGLLYYYX 191106 METAR LFPG 191106Z 13423KT 9999 FEW030 19/0 Q1070
DD LFPOYYYX LFPOYYYX EDDFYYYX LFPGYYYX 180032 METAR LFPG 180032Z 20114KT 9999 FEW030 13/-9 Q1009
FF LFPOYYYX LFPGYYYX EDDFYYYX 230147 METAR LFPG 230147Z 17224KT 9999 FEW030 -3/-6 Q1044
FF EGLLYYYX EGLLYYYX 050651 METAR LFPG 050651Z 30622KT 9999 FEW030 31/4 Q1059
SS LFPNYYYX EDDFYYYX EGLLYYYX 222155 METAR LFPG 222155Z 23545KT 9999 FEW030 27/9 Q1046
KK EGLLYYYX EGLLYYYX 101138 METAR LFPG 101138Z 10420KT 9999 FEW030 18/22 Q1043
KK LFPGYYYX LFPNYYYX 132123 METAR LFPG 132123Z 20828KT 9999 FEW030 5/-8 Q1084
KK EDDFYYYX EDDFYYYX EGLLYYYX 082354 METAR LFPG 082354Z 17641KT 9999 FEW030 4/-4 Q1081
FF LFPOYYYX LFPBYYYX 160247 METAR LFPG 160247Z 33912KT 9999 FEW030 4/-6 Q1004
LL LFPGYYYX EGLLYYYX 062244 METAR LFPG 062244Z 35111KT 9999 FEW030 25/-4 Q1002
FF LFPGYYYX EGLLYYYX 030458 METAR LFPG 030458Z 32220KT 9999 FEW030 10/-9 Q1012
FF EGLLYYYX LFPBYYYX EGLLYYYX EDDFYYYX 262251 METAR LFPG 262251Z 06320KT 9999 FEW030 -4/-4 Q1088
FF LFPOYYYX EGLLYYYX LFPOYYYX LFPBYYYX 220412 METAR LFPG 220412Z 34233KT 9999 FEW030 32/23 Q1054
SS LFPOYYYX LFPOYYYX 071915 METAR LFPG 071915Z 18728KT 9999 FEW030 -6/20 Q1082
DD EGLLYYYX EGLLYYYX LFPNYYYX EDDFYYYX 230717 METAR LFPG 230717Z 06015KT 9999 FEW030 3/-1 Q1009
SS EGLLYYYX EGLLYYYX 040032 METAR LFPG 040032Z 24117KT 9999 FEW030 13/23 Q1100
LL LFPGYYYX LFPBYYYX 101424 METAR LFPG 101424Z 19710KT 9999 FEW030 -1/-5 Q1013
FF LFPGYYYX LFPGYYYX EGLLYYYX LFPBYYYX 240913 METAR LFPG 240913Z 07048KT 9999 FEW030 18/1 Q1081
DD EGLLYYYX LFPBYYYX 251753 METAR LFPG 251753Z 29443KT 9999 FEW030 -8/14 Q1009
DD LFPNYYYX LFPNYYYX EDDFYYYX 102337 METAR LFPG 102337Z 13623KT 9999 FEW030 24/12 Q1081
LL LFPGYYYX LFPOYYYX LFPBYYYX LFPNYYYX 050704 METAR LFPG 050704Z 26619KT 9999 FEW030 -3/22 Q1068
FF LFPNYYYX LFPOYYYX 080345 METAR LFPG 080345Z 07914KT 9999 FEW030 32/13 Q1099
GG LFPBYYYX LFPBYYYX 030942 METAR LFPG 030942Z 23221KT 9999 FEW030 25/17 Q1096
KK EGLLYYYX LFPOYYYX 211804 METAR LFPG 211804Z 01812KT 9999 FEW030 21/15 Q1003
DD LFPBYYYX EDDFYYYX LFPBYYYX LFPOYYYX 230341 METAR LFPG 230341Z 20321KT 9999 FEW030 34/8 Q1028
SS LFPNYYYX LFPGYYYX 251704 METAR LFPG 251704Z 32841KT 9999 FEW030 15/-9 Q1015
KK LFPGYYYX LFPNYYYX LFPBYYYX EDDFYYYX 270216 METAR LFPG 270216Z 08130KT 9999 FEW030 -6/24 Q1086
GG LFPGYYYX LFPBYYYX EDDFYYYX 190339 METAR LFPG 190339Z 16926KT 9999 FEW030 32/24 Q1036
FF LFPGYYYX LFPNYYYX 200303 METAR LFPG 200303Z 13539KT 9999 FEW030 32/-7 Q1044
KK EDDFYYYX LFPOYYYX 171404 METAR LFPG 171404Z 28227KT 9999 FEW030 31/14 Q1011
GG EGLLYYYX LFPGYYYX LFPBYYYX EDDFYYYX 200149 METAR LFPG 200149Z 09436KT 9999 FEW030 20/3 Q1074
KK EGLLYYYX LFPBYYYX LFPOYYYX 181239 METAR LFPG 181239Z 01231KT 9999 FEW030 0/20 Q1094
SS LFPNYYYX EGLLYYYX EDDFYYYX 180506 METAR LFPG 180506Z 33437KT 9999 FEW030 6/2 Q1089
SS EDDFYYYX EGLLYYYX 260733 METAR LFPG 260733Z 06142KT 9999 FEW030 26/25 Q1083
SS LFPBYYYX LFPOYYYX 221811 METAR LFPG 221811Z 28146KT 9999 FEW030 35/-10 Q1020
LL LFPBYYYX LFPBYYYX 060216 METAR LFPG 060216Z 00927KT 9999 FEW030 -6/20 Q1026
SS LFPOYYYX LFPBYYYX 071705 METAR LFPG 071705Z 32211KT 9999 FEW030 13/-8 Q1014
FF EDDFYYYX LFPGYYYX 092220 METAR LFPG 092220Z 11237KT 9999 FEW030 -9/5 Q1005
DD LFPGYYYX LFPOYYYX LFPNYYYX EDDFYYYX 030546 METAR LFPG 030546Z 03828KT 9999 FEW030 0/-4 Q1042
LL LFPOYYYX EGLLYYYX LFPOYYYX 140057 METAR LFPG 140057Z 14719KT 9999 FEW030 -7/-2 Q1021
KK LFPOYYYX LFPOYYYX LFPNYYYX LFPBYYYX 161733 METAR LFPG 161733Z 15224KT 9999 FEW030 -10/24 Q1074
SS LFPBYYYX LFPOYYYX EGLLYYYX 131101 METAR LFPG 131101Z 17044KT 9999 FEW030 0/6 Q1085
DD LFPNYYYX EDDFYYYX LFPNYYYX LFPBYYYX 021448 METAR LFPG 021448Z 34110KT 9999 FEW030 5/13 Q1062
FF LFPOYYYX LFPNYYYX LFPBYYYX EGLLYYYX 061034 METAR LFPG 061034Z 04710KT 9999 FEW030 -7/-5 Q1058
DD EGLLYYYX LFPOYYYX 131558 METAR LFPG 131558Z 18644KT 9999 FEW030 3/-10 Q1003
FF LFPOYYYX LFPBYYYX LFPGYYYX EGLLYYYX 162324 METAR LFPG 162324Z 35442KT 9999 FEW030 28/25 Q1054
FF LFPNYYYX LFPNYYYX 200900 METAR LFPG 200900Z 28626KT 9999 FEW030 14/-3 Q1088
FF LFPOYYYX LFPNYYYX EGLLYYYX 160822 METAR LFPG 160822Z 31130KT 9999 FEW030 25/15 Q1017
LL LFPNYYYX LFPNYYYX EDDFYYYX LFPOYYYX 180320 METAR LFPG 180320Z 35636KT 9999 FEW030 2/16 Q1000
KK EGLLYYYX LFPBYYYX 250243 METAR LFPG 250243Z 02346KT 9999 FEW030 11/0 Q1067
KK EGLLYYYX LFPGYYYX 092156 METAR LFPG 092156Z 05230KT 9999 FEW030 26/19 Q1070
KK LFPGYYYX LFPGYYYX LFPNYYYX EDDFYYYX 021655 METAR LFPG 021655Z 03425KT 9999 FEW030 -3/3 Q1038
FF LFPNYYYX LFPOYYYX LFPBYYYX EGLLYYYX 141856 METAR LFPG 141856Z 10741KT 9999 FEW030 -8/16 Q1024
GG LFPGYYYX EGLLYYYX LFPOYYYX LFPBYYYX 230230 METAR LFPG 230230Z 04724KT 9999 FEW030 28/25 Q1024
GG EDDFYYYX LFPOYYYX 240029 METAR LFPG 240029Z 35043KT 9999 FEW030 28/4 Q1075
FF EGLLYYYX LFPGYYYX 260647 METAR LFPG 260647Z 04120KT 9999 FEW030 18/5 Q1088
GG LFPGYYYX LFPGYYYX 170334 METAR LFPG 170334Z 19432KT 9999 FEW030 -9/23 Q1047
FF LFPNYYYX LFPGYYYX EDDFYYYX LFPOYYYX 192343 METAR LFPG 192343Z 33913KT 9999 FEW030 14/-6 Q1042
LL EGLLYYYX EDDFYYYX 010529 METAR LFPG 010529Z 04326KT 9999 FEW030 33/3 Q1007
FF EDDFYYYX EGLLYYYX EDDFYYYX 271919 METAR LFPG 271919Z 31932KT 9999 FEW030 29/-7 Q1043
LL LFPGYYYX LFPBYYYX 181221 METAR LFPG 181221Z 35832KT 9999 FEW030 -8/25 Q1061
KK EGLLYYYX LFPBYYYX EDDFYYYX 151031 METAR LFPG 151031Z 00849KT 9999 FEW030 12/-10 Q1043
SS LFPNYYYX LFPGYYYX LFPBYYYX EGLLYYYX 160713 METAR LFPG 160713Z 26730KT 9999 FEW030 -9/-9 Q1019
KK EDDFYYYX EDDFYYYX EGLLYYYX LFPBYYYX 062228 METAR LFPG 062228Z 28716KT 9999 FEW030 25/-1 Q1028
DD LFPGYYYX LFPBYYYX LFPOYYYX 241705 METAR LFPG 241705Z 33524KT 9999 FEW030 28/19 Q1050
SS LFPGYYYX LFPNYYYX LFPBYYYX EGLLYYYX 122005 METAR LFPG 122005Z 13626KT 9999 FEW030 34/0 Q1093
GG EDDFYYYX LFPBYYYX 150656 METAR LFPG 150656Z 17147KT 9999 FEW030 24/15 Q1075
KK EDDFYYYX LFPGYYYX LFPBYYYX LFPOYYYX 042031 METAR LFPG 042031Z 07833KT 9999 FEW030 1/13 Q1091
SS LFPNYYYX LFPNYYYX 262112 METAR LFPG 262112Z 19843KT 9999 FEW030 -9/-4 Q1095
LL EDDFYYYX LFPNYYYX EDDFYYYX LFPOYYYX 152243 METAR LFPG 152243Z 10529KT 9999 FEW030 -4/23 Q1087
KK LFPNYYYX LFPNYYYX 130500 METAR LFPG 130500Z 14644KT 9999 FEW030 8/0 Q1017
GG LFPBYYYX LFPNYYYX EDDFYYYX LFPBYYYX 171957 METAR LFPG 171957Z 21222KT 9999 FEW030 14/-9 Q1047
LL LFPGYYYX LFPBYYYX LFPNYYYX 052011 METAR LFPG 052011Z 13839KT 9999 FEW030 1/-8 Q1076
LL LFPBYYYX LFPOYYYX EGLLYYYX LFPNYYYX 191359 METAR LFPG 191359Z 21829KT 9999 FEW030 31/24 Q1044
KK LFPNYYYX EGLLYYYX LFPNYYYX 020726 METAR LFPG 020726Z 30350KT 9999 FEW030 -4/-10 Q1080
GG LFPNYYYX LFPNYYYX EGLLYYYX 141607 METAR LFPG 141607Z 14543KT 9999 FEW030 21/-10 Q1026
SS LFPBYYYX EDDFYYYX LFPGYYYX 131811 METAR LFPG 131811Z 35919KT 9999 FEW030 9/-2 Q1010
DD LFPBYYYX LFPGYYYX EDDFYYYX LFPNYYYX 241247 METAR LFPG 241247Z 04713KT 9999 FEW030 -1/5 Q1013
DD LFPBYYYX EDDFYYYX LFPGYYYX LFPBYYYX 091716 METAR LFPG 091716Z 17213KT 9999 FEW030 15/-7 Q1078
DD LFPNYYYX LFPNYYYX LFPBYYYX 051611 METAR LFPG 051611Z 25544KT 9999 FEW030 4/-7 Q1085
DD LFPOYYYX EGLLYYYX 032251 METAR LFPG 032251Z 13229KT 9999 FEW030 22/25 Q1056
SS EGLLYYYX EGLLYYYX EDDFYYYX LFPGYYYX 092055 METAR LFPG 092055Z 16728KT 9999 FEW030 -9/0 Q1042
GG LFPGYYYX LFPGYYYX EDDFYYYX 112101 METAR LFPG 112101Z 26236KT 9999 FEW030 -3/16 Q1003
DD LFPGYYYX EGLLYYYX EDDFYYYX 062356 METAR LFPG 062356Z 14438KT 9999 FEW030 2/0 Q1006
DD LFPBYYYX LFPGYYYX EGLLYYYX LFPNYYYX 070115 METAR LFPG 070115Z 22643KT 9999 FEW030 34/17 Q1025
LL EGLLYYYX LFPBYYYX LFPNYYYX LFPGYYYX 030726 METAR LFPG 030726Z 35248KT 9999 FEW030 7/2 Q1005
FF LFPBYYYX LFPGYYYX EGLLYYYX 180536 METAR LFPG 180536Z 03015KT 9999 FEW030 14/18 Q1100
LL EGLLYYYX LFPGYYYX EDDFYYYX 120259 METAR LFPG 120259Z 07926KT 9999 FEW030 -10/3 Q1003
FF LFPNYYYX LFPOYYYX 090551 METAR LFPG 090551Z 28933KT 9999 FEW030 33/18 Q1085
DD LFPNYYYX EDDFYYYX 171940 METAR LFPG 171940Z 31740KT 9999 FEW030 -6/4 Q1070
FF EDDFYYYX EDDFYYYX LFPOYYYX EGLLYYYX 050413 METAR LFPG 050413Z 06828KT 9999 FEW030 4/24 Q1056
GG EGLLYYYX LFPNYYYX LFPBYYYX 080746 METAR LFPG 080746Z 15633KT 9999 FEW030 3/17 Q1038
LL EDDFYYYX EDDFYYYX LFPNYYYX LFPOYYYX 092157 METAR LFPG 092157Z 30311KT 9999 FEW030 25/-7 Q1083
SS EGLLYYYX LFPNYYYX 051327 METAR LFPG 051327Z 21020KT 9999 FEW030 19/6 Q1046
FF LFPBYYYX LFPGYYYX 051644 METAR LFPG 051644Z 33312KT 9999 FEW030 -1/23 Q1026
DD LFPNYYYX EDDFYYYX EGLLYYYX 230900 METAR LFPG 230900Z 01545KT 9999 FEW030 30/25 Q1008
DD LFPOYYYX LFPNYYYX EDDFYYYX EGLLYYYX 221308 METAR LFPG 221308Z 15529KT 9999 FEW030 -1/-7 Q1081
SS LFPBYYYX LFPGYYYX EDDFYYYX EGLLYYYX 240122 METAR LFPG 240122Z 25837KT 9999 FEW030 2/22 Q1070
FF LFPBYYYX LFPGYYYX EDDFYYYX LFPOYYYX 050628 METAR LFPG 050628Z 09619KT 9999 FEW030 2/0 Q1075
LL LFPBYYYX LFPBYYYX EDDFYYYX 081711 METAR LFPG 081711Z 31420KT 9999 FEW030 35/22 Q1078
SS LFPOYYYX LFPNYYYX EDDFYYYX LFPGYYYX 020903 METAR LFPG 020903Z 04714KT 9999 FEW030 22/-6 Q1045
SS LFPBYYYX EGLLYYYX 050948 METAR LFPG 050948Z 33332KT 9999 FEW030 2/0 Q1094
DD EDDFYYYX EDDFYYYX 241027 METAR LFPG 241027Z 35038KT 9999 FEW030 19/13 Q1075
FF LFPOYYYX LFPOYYYX EDDFYYYX EGLLYYYX 110126 METAR LFPG 110126Z 22511KT 9999 FEW030 18/8 Q1071
KK EGLLYYYX LFPGYYYX EGLLYYYX LFPOYYYX 220246 METAR LFPG 220246Z 22126KT 9999 FEW030 23/-8 Q1000
LL LFPNYYYX LFPGYYYX EDDFYYYX 271733 METAR LFPG 271733Z 05030KT 9999 FEW030 -10/10 Q1065
GG EDDFYYYX LFPOYYYX 211946 METAR LFPG 211946Z 01324KT 9999 FEW030 -1/9 Q1026
FF LFPGYYYX LFPGYYYX 031756 METAR LFPG 031756Z 03010KT 9999 FEW030 -6/0 Q1014
KK LFPOYYYX LFPBYYYX 031518 METAR LFPG 031518Z 14433KT 9999 FEW030 17/6 Q1053
GG EDDFYYYX EGLLYYYX LFPBYYYX 181104 METAR LFPG 181104Z 18127KT 9999 FEW030 -2/25 Q1000
LL LFPGYYYX LFPBYYYX EDDFYYYX 130256 METAR LFPG 130256Z 15513KT 9999 FEW030 33/-4 Q1031
LL LFPNYYYX LFPNYYYX EDDFYYYX 181400 METAR LFPG 181400Z 00028KT 9999 FEW030 12/10 Q1036
SS LFPNYYYX LFPOYYYX LFPNYYYX 191335 METAR LFPG 191335Z 17019KT 9999 FEW030 25/7 Q1004
LL EDDFYYYX LFPOYYYX LFPBYYYX LFPNYYYX 280443 METAR LFPG 280443Z 25344KT 9999 FEW030 -4/-3 Q1003
GG LFPBYYYX EDDFYYYX LFPNYYYX LFPGYYYX 010437 METAR LFPG 010437Z 17237KT 9999 FEW030 12/19 Q1060
SS LFPBYYYX EGLLYYYX 120921 METAR LFPG 120921Z 21344KT 9999 FEW030 34/-10 Q1099
GG EDDFYYYX LFPNYYYX LFPOYYYX LFPBYYYX 030443 METAR LFPG 030443Z 25145KT 9999 FEW030 0/22 Q1008
SS EDDFYYYX EDDFYYYX 070014 METAR LFPG 070014Z 19542KT 9999 FEW030 24/7 Q1048
GG LFPBYYYX LFPBYYYX EGLLYYYX 271220 METAR LFPG 271220Z 11920KT 9999 FEW030 24/3 Q1080
FF LFPOYYYX LFPOYYYX EDDFYYYX 122033 METAR LFPG 122033Z 05844KT 9999 FEW030 9/-9 Q1098
SS LFPNYYYX LFPOYYYX 180720 METAR LFPG 180720Z 32342KT 9999 FEW030 18/13 Q1011
FF LFPOYYYX LFPOYYYX LFPGYYYX LFPBYYYX 280907 METAR LFPG 280907Z 22928KT 9999 FEW030 12/5 Q1071
KK LFPNYYYX EDDFYYYX LFPNYYYX EGLLYYYX 020400 METAR LFPG 020400Z 02447KT 9999 FEW030 11/24 Q1061
FF EGLLYYYX LFPNYYYX LFPOYYYX LFPGYYYX 080149 METAR LFPG 080149Z 26527KT 9999 FEW030 24/18 Q1089
SS LFPNYYYX LFPOYYYX 071322 METAR LFPG 071322Z 34043KT 9999 FEW030 -10/5 Q1051
FF EGLLYYYX LFPGYYYX EGLLYYYX LFPNYYYX 040528 METAR LFPG 040528Z 12113KT 9999 FEW030 12/23 Q1060
SS LFPOYYYX EDDFYYYX LFPGYYYX LFPOYYYX 232344 METAR LFPG 232344Z 27145KT 9999 FEW030 7/22 Q1042
GG LFPBYYYX LFPOYYYX EGLLYYYX LFPNYYYX 180459 METAR LFPG 180459Z 31015KT 9999 FEW030 14/15 Q1090
KK LFPNYYYX EGLLYYYX LFPOYYYX LFPBYYYX 042001 METAR LFPG 042001Z 05211KT 9999 FEW030 10/9 Q1023
LL EDDFYYYX LFPOYYYX EGLLYYYX 182250 METAR LFPG 182250Z 06742KT 9999 FEW030 7/3 Q1053
GG LFPBYYYX LFPGYYYX LFPNYYYX LFPOYYYX 172348 METAR LFPG 172348Z 14319KT 9999 FEW030 34/24 Q1066
DD EDDFYYYX LFPOYYYX LFPNYYYX 050645 METAR LFPG 050645Z 28632KT 9999 FEW030 -10/4 Q1039
KK EGLLYYYX EGLLYYYX LFPBYYYX EDDFYYYX 160259 METAR LFPG 160259Z 35714KT 9999 FEW030 18/11 Q1088
SS EGLLYYYX LFPBYYYX EGLLYYYX LFPOYYYX 110650 METAR LFPG 110650Z 34716KT 9999 FEW030 15/9 Q1009
DD LFPOYYYX EDDFYYYX 030930 METAR LFPG 030930Z 31141KT 9999 FEW030 -2/22 Q1096
LL LFPGYYYX EGLLYYYX LFPOYYYX LFPGYYYX 070805 METAR LFPG 070805Z 34811KT 9999 FEW030 8/20 Q1028
SS EGLLYYYX LFPBYYYX 190957 METAR LFPG 190957Z 23838KT 9999 FEW030 20/5 Q1071
GG LFPOYYYX LFPOYYYX 061051 METAR LFPG 061051Z 02447KT 9999 FEW030 5/-8 Q1042
SS LFPOYYYX LFPNYYYX LFPBYYYX EDDFYYYX 030348 METAR LFPG 030348Z 02132KT 9999 FEW030 -6/-4 Q1068
FF LFPNYYYX LFPBYYYX 040808 METAR LFPG 040808Z 22338KT 9999 FEW030 27/-2 Q1085
LL LFPBYYYX EGLLYYYX LFPGYYYX EDDFYYYX 132200 METAR LFPG 132200Z 34514KT 9999 FEW030 24/0 Q1001
FF LFPNYYYX LFPNYYYX 201121 METAR LFPG 201121Z 22518KT 9999 FEW030 7/5 Q1027
GG LFPGYYYX LFPGYYYX 150014 METAR LFPG 150014Z 20621KT 9999 FEW030 -1/-6 Q1006
GG EGLLYYYX LFPOYYYX LFPGYYYX 141530 METAR LFPG 141530Z 05643KT 9999 FEW030 19/17 Q1020
DD LFPBYYYX LFPGYYYX EDDFYYYX 162125 METAR LFPG 162125Z 31133KT 9999 FEW030 -10/8 Q1088
SS LFPNYYYX LFPOYYYX LFPNYYYX LFPGYYYX 031454 METAR LFPG 031454Z 16611KT 9999 FEW030 12/16 Q1061
FF LFPGYYYX LFPOYYYX LFPGYYYX 161923 METAR LFPG 161923Z 10820KT 9999 FEW030 12/11 Q1070
LL EDDFYYYX LFPOYYYX 281007 METAR LFPG 281007Z 29319KT 9999 FEW030 35/21 Q1063
LL EGLLYYYX EGLLYYYX LFPBYYYX LFPOYYYX 022125 METAR LFPG 022125Z 11928KT 9999 FEW030 -2/1 Q1076
SS LFPOYYYX LFPOYYYX LFPNYYYX 141758 METAR LFPG 141758Z 17623KT 9999 FEW030 10/13 Q1053
DD LFPNYYYX LFPGYYYX 130551 METAR LFPG 130551Z 01920KT 9999 FEW030 -3/-1 Q1100
SS LFPGYYYX LFPNYYYX EGLLYYYX 182258 METAR LFPG 182258Z 17748KT 9999 FEW030 -2/20 Q1089
LL LFPBYYYX EGLLYYYX 230048 METAR LFPG 230048Z 27250KT 9999 FEW030 11/9 Q1004
LL LFPGYYYX LFPOYYYX LFPNYYYX EDDFYYYX 170724 METAR LFPG 170724Z 04645KT 9999 FEW030 7/-4 Q1047
LL LFPBYYYX LFPNYYYX LFPOYYYX LFPBYYYX 031646 METAR LFPG 031646Z 32429KT 9999 FEW030 -8/25 Q1001
LL LFPGYYYX EDDFYYYX LFPGYYYX LFPOYYYX 280303 METAR LFPG 280303Z 29844KT 9999 FEW030 -6/-7 Q1060
LL LFPGYYYX LFPOYYYX LFPNYYYX 210657 METAR LFPG 210657Z 27544KT 9999 FEW030 12/6 Q1037
LL EGLLYYYX EGLLYYYX 110540 METAR LFPG 110540Z 24024KT 9999 FEW030 -2/18 Q1053
LL EDDFYYYX EGLLYYYX 160007 METAR LFPG 160007Z 06532KT 9999 FEW030 -5/25 Q1055
KK LFPGYYYX LFPNYYYX EGLLYYYX LFPOYYYX 270935 METAR LFPG 270935Z 14129KT 9999 FEW030 6/23 Q1089
SS LFPBYYYX LFPOYYYX EGLLYYYX 040634 METAR LFPG 040634Z 12020KT 9999 FEW030 8/24 Q1056
FF EDDFYYYX EDDFYYYX EGLLYYYX LFPOYYYX 241017 METAR LFPG 241017Z 00117KT 9999 FEW030 -2/20 Q1064
GG EGLLYYYX LFPNYYYX EGLLYYYX LFPOYYYX 221834 METAR LFPG 221834Z 24641KT 9999 FEW030 12/24 Q1034
FF EDDFYYYX EGLLYYYX EDDFYYYX LFPBYYYX 171050 METAR LFPG 171050Z 15526KT 9999 FEW030 -4/12 Q1037
FF EGLLYYYX LFPBYYYX 072331 METAR LFPG 072331Z 12239KT 9999 FEW030 9/7 Q1075
FF LFPGYYYX LFPOYYYX LFPNYYYX EGLLYYYX 110633 METAR LFPG 110633Z 06127KT 9999 FEW030 -10/17 Q1071
DD EDDFYYYX EDDFYYYX LFPOYYYX EGLLYYYX 170506 METAR LFPG 170506Z 28123KT 9999 FEW030 24/7 Q1003
KK EGLLYYYX LFPNYYYX EGLLYYYX EDDFYYYX 020816 METAR LFPG 020816Z 13833KT 9999 FEW030 10/14 Q1054
DD LFPOYYYX EGLLYYYX LFPGYYYX 241329 METAR LFPG 241329Z 20413KT 9999 FEW030 0/6 Q1019
DD LFPBYYYX LFPOYYYX LFPGYYYX LFPBYYYX 040814 METAR LFPG 040814Z 33933KT 9999 FEW030 30/20 Q1062
SS LFPBYYYX EGLLYYYX LFPNYYYX LFPOYYYX 081933 METAR LFPG 081933Z 21141KT 9999 FEW030 7/-9 Q1097
GG LFPGYYYX EGLLYYYX LFPNYYYX LFPOYYYX 242045 METAR LFPG 242045Z 23432KT 9999 FEW030 8/-8 Q1054
SS LFPOYYYX LFPGYYYX LFPBYYYX 051843 METAR LFPG 051843Z 17435KT 9999 FEW030 -1/-10 Q1033
SS EGLLYYYX LFPBYYYX 212031 METAR LFPG 212031Z 17534KT 9999 FEW030 -1/12 Q1040
SS LFPOYYYX LFPGYYYX LFPBYYYX 140716 METAR LFPG 140716Z 04749KT 9999 FEW030 16/16 Q1011
FF LFPOYYYX LFPOYYYX 271235 METAR LFPG 271235Z 10814KT 9999 FEW030 32/11 Q1002
KK LFPBYYYX LFPGYYYX EDDFYYYX LFPNYYYX 121723 METAR LFPG 121723Z 08932KT 9999 FEW030 -7/-8 Q1061
DD LFPGYYYX LFPOYYYX LFPBYYYX 152105 METAR LFPG 152105Z 12546KT 9999 FEW030 16/1 Q1070
KK EGLLYYYX EGLLYYYX EDDFYYYX LFPOYYYX 090803 METAR LFPG 090803Z 02835KT 9999 FEW030 17/6 Q1081
SS LFPBYYYX EGLLYYYX LFPGYYYX 191956 METAR LFPG 191956Z 28321KT 9999 FEW030 11/1 Q1004
FF LFPBYYYX LFPGYYYX 280204 METAR LFPG 280204Z 18333KT 9999 FEW030 34/7 Q1033
DD LFPNYYYX LFPGYYYX EGLLYYYX LFPOYYYX 101426 METAR LFPG 101426Z 18238KT 9999 FEW030 4/25 Q1094
SS LFPOYYYX LFPGYYYX LFPNYYYX EGLLYYYX 191813 METAR LFPG 191813Z 21711KT 9999 FEW030 21/25 Q1037
FF LFPNYYYX LFPBYYYX LFPGYYYX LFPNYYYX 022206 METAR LFPG 022206Z 14115KT 9999 FEW030 12/15 Q1038
DD LFPOYYYX LFPGYYYX LFPBYYYX 081227 METAR LFPG 081227Z 23643KT 9999 FEW030 6/21 Q1061
DD LFPOYYYX LFPBYYYX 092020 METAR LFPG 092020Z 00844KT 9999 FEW030 13/-10 Q1020
DD LFPOYYYX EDDFYYYX 230554 METAR LFPG 230554Z 20138KT 9999 FEW030 21/-5 Q1071
FF LFPGYYYX LFPBYYYX 250850 METAR LFPG 250850Z 21435KT 9999 FEW030 9/1 Q1076
KK LFPBYYYX LFPBYYYX LFPOYYYX 190142 METAR LFPG 190142Z 00116KT 9999 FEW030 22/-10 Q1000
LL LFPNYYYX EDDFYYYX LFPOYYYX LFPNYYYX 040046 METAR LFPG 040046Z 00539KT 9999 FEW030 17/-10 Q1058
DD LFPNYYYX LFPOYYYX LFPNYYYX 081138 METAR LFPG 081138Z 24520KT 9999 FEW030 12/-1 Q1038
SS LFPOYYYX LFPBYYYX LFPOYYYX 172316 METAR LFPG 172316Z 29540KT 9999 FEW030 -2/15 Q1031
SS LFPBYYYX EGLLYYYX LFPGYYYX 011133 METAR LFPG 011133Z 27727KT 9999 FEW030 14/17 Q1031
SS LFPNYYYX EDDFYYYX LFPBYYYX LFPGYYYX 071345 METAR LFPG 071345Z 34144KT 9999 FEW030 -3/-1 Q1055
SS LFPBYYYX LFPOYYYX EDDFYYYX LFPBYYYX 091323 METAR LFPG 091323Z 05050KT 9999 FEW030 26/-6 Q1100
SS LFPGYYYX LFPNYYYX 041155 METAR LFPG 041155Z 20421KT 9999 FEW030 3/3 Q1086
KK LFPGYYYX EGLLYYYX 101038 METAR LFPG 101038Z 02737KT 9999 FEW030 -2/23 Q1039
GG LFPNYYYX LFPBYYYX 061743 METAR LFPG 061743Z 22338KT 9999 FEW030 -6/-3 Q1020
SS EDDFYYYX LFPOYYYX LFPGYYYX EGLLYYYX 160446 METAR LFPG 160446Z 21315KT 9999 FEW030 11/-2 Q1046
DD LFPOYYYX LFPBYYYX LFPNYYYX LFPGYYYX 080554 METAR LFPG 080554Z 09118KT 9999 FEW030 23/2 Q1084
SS EGLLYYYX EGLLYYYX 030552 METAR LFPG 030552Z 17832KT 9999 FEW030 3/-2 Q1054
LL LFPGYYYX LFPGYYYX LFPNYYYX LFPBYYYX 122022 METAR LFPG 122022Z 01849KT 9999 FEW030 30/22 Q1097
LL EGLLYYYX EGLLYYYX 230909 METAR LFPG 230909Z 34649KT 9999 FEW030 -5/8 Q1080
LL LFPBYYYX EDDFYYYX 101711 METAR LFPG 101711Z 12621KT 9999 FEW030 -8/-10 Q1018
FF LFPNYYYX LFPGYYYX LFPBYYYX EGLLYYYX 271202 METAR LFPG 271202Z 06127KT 9999 FEW030 31/17 Q1023
KK LFPOYYYX LFPBYYYX EDDFYYYX LFPOYYYX 230009 METAR LFPG 230009Z 25644KT 9999 FEW030 34/19 Q1085
KK LFPNYYYX LFPNYYYX EDDFYYYX 120241 METAR LFPG 120241Z 01627KT 9999 FEW030 9/13 Q1049
DD LFPNYYYX EGLLYYYX 042018 METAR LFPG 042018Z 00220KT 9999 FEW030 15/13 Q1067
KK EDDFYYYX LFPGYYYX LFPOYYYX 202308 METAR LFPG 202308Z 20335KT 9999 FEW030 -8/19 Q1032
FF LFPBYYYX LFPNYYYX EGLLYYYX 090954 METAR LFPG 090954Z 12018KT 9999 FEW030 -1/-3 Q1056
LL LFPGYYYX LFPNYYYX 240554 METAR LFPG 240554Z 23924KT 9999 FEW030 9/-4 Q1095
KK EDDFYYYX LFPOYYYX EGLLYYYX LFPBYYYX 110235 METAR LFPG 110235Z 08429KT 9999 FEW030 30/-3 Q1017
DD EDDFYYYX EGLLYYYX 020237 METAR LFPG 020237Z 11227KT 9999 FEW030 -7/-1 Q1080
LL LFPOYYYX LFPGYYYX 201109 METAR LFPG 201109Z 06933KT 9999 FEW030 9/-6 Q1077
LL LFPOYYYX EGLLYYYX LFPNYYYX 260242 METAR LFPG 260242Z 17614KT 9999 FEW030 34/1 Q1063
SS LFPNYYYX LFPOYYYX 060642 METAR LFPG 060642Z 30711KT 9999 FEW030 19/11 Q1079
GG LFPGYYYX EGLLYYYX LFPOYYYX LFPGYYYX 170049 METAR LFPG 170049Z 13714KT 9999 FEW030 7/5 Q1094
LL EGLLYYYX LFPOYYYX 160136 METAR LFPG 160136Z 24741KT 9999 FEW030 26/15 Q1095
LL LFPBYYYX LFPBYYYX 130826 METAR LFPG 130826Z 04342KT 9999 FEW030 12/-6 Q1001
KK EDDFYYYX EDDFYYYX LFPNYYYX LFPGYYYX 222147 METAR LFPG 222147Z 09918KT 9999 FEW030 -6/-4 Q1092
SS EDDFYYYX LFPBYYYX EDDFYYYX LFPNYYYX 160616 METAR LFPG 160616Z 35923KT 9999 FEW030 -8/25 Q1019
FF EGLLYYYX EGLLYYYX EDDFYYYX LFPGYYYX 111249 METAR LFPG 111249Z 07819KT 9999 FEW030 20/8 Q1045
FF LFPBYYYX LFPOYYYX LFPNYYYX LFPBYYYX 070806 METAR LFPG 070806Z 01846KT 9999 FEW030 -5/9 Q1005
DD EGLLYYYX LFPBYYYX 101632 METAR LFPG 101632Z 28722KT 9999 FEW030 34/11 Q1069
LL LFPBYYYX LFPBYYYX 100144 METAR LFPG 100144Z 06242KT 9999 FEW030 -9/11 Q1056
KK EDDFYYYX LFPOYYYX LFPGYYYX 170422 METAR LFPG 170422Z 29035KT 9999 FEW030 33/2 Q1052
GG LFPOYYYX LFPBYYYX EGLLYYYX LFPGYYYX 191358 METAR LFPG 191358Z 35110KT 9999 FEW030 33/1 Q1014
FF LFPOYYYX EDDFYYYX LFPNYYYX 081942 METAR LFPG 081942Z 07225KT 9999 FEW030 -8/14 Q1041
GG EGLLYYYX EGLLYYYX LFPGYYYX 250810 METAR LFPG 250810Z 31014KT 9999 FEW030 29/4 Q1078
FF LFPNYYYX LFPNYYYX EDDFYYYX LFPBYYYX 031502 METAR LFPG 031502Z 06539KT 9999 FEW030 -8/11 Q1000
GG LFPNYYYX LFPOYYYX LFPNYYYX EGLLYYYX 281325 METAR LFPG 281325Z 27833KT 9999 FEW030 1/3 Q1011
LL LFPGYYYX LFPNYYYX LFPBYYYX 101313 METAR LFPG 101313Z 07928KT 9999 FEW030 28/-2 Q1075
FF EGLLYYYX LFPBYYYX LFPOYYYX 201246 METAR LFPG 201246Z 20443KT 9999 FEW030 13/-4 Q1057
SS LFPNYYYX EDDFYYYX LFPNYYYX 180147 METAR LFPG 180147Z 01033KT 9999 FEW030 27/-7 Q1010
GG LFPNYYYX EDDFYYYX EGLLYYYX 060453 METAR LFPG 060453Z 18440KT 9999 FEW030 17/16 Q1006
DD LFPOYYYX EDDFYYYX LFPBYYYX EGLLYYYX 181800 METAR LFPG 181800Z 30345KT 9999 FEW030 25/4 Q1096
LL LFPBYYYX LFPBYYYX LFPNYYYX LFPGYYYX 041251 METAR LFPG 041251Z 09727KT 9999 FEW030 33/3 Q1095
GG LFPOYYYX LFPBYYYX LFPOYYYX EDDFYYYX 071634 METAR LFPG 071634Z 01916KT 9999 FEW030 7/25 Q1052
SS EDDFYYYX LFPBYYYX EDDFYYYX 210642 METAR LFPG 210642Z 03743KT 9999 FEW030 6/6 Q1003
SS EGLLYYYX LFPOYYYX 022230 METAR LFPG 022230Z 30839KT 9999 FEW030 -2/21 Q1075
KK LFPGYYYX LFPBYYYX EDDFYYYX 090635 METAR LFPG 090635Z 16546KT 9999 FEW030 6/12 Q1035
FF LFPGYYYX LFPOYYYX LFPBYYYX LFPGYYYX 201521 METAR LFPG 201521Z 17941KT 9999 FEW030 28/-1 Q1021
GG LFPOYYYX EGLLYYYX LFPOYYYX 231321 METAR LFPG 231321Z 35519KT 9999 FEW030 15/1 Q1094
KK EDDFYYYX LFPGYYYX EGLLYYYX LFPNYYYX 261533 METAR LFPG 261533Z 13337KT 9999 FEW030 -1/12 Q1067
LL LFPOYYYX EGLLYYYX LFPBYYYX 270211 METAR LFPG 270211Z 28323KT 9999 FEW030 21/-6 Q1046
KK LFPOYYYX EGLLYYYX LFPOYYYX LFPGYYYX 102215 METAR LFPG 102215Z 15438KT 9999 FEW030 -9/4 Q1047
FF EGLLYYYX EGLLYYYX 050141 METAR LFPG 050141Z 22231KT 9999 FEW030 3/5 Q1029
KK LFPNYYYX LFPBYYYX 100209 METAR LFPG 100209Z 23132KT 9999 FEW030 -4/19 Q1058
LL LFPGYYYX LFPOYYYX LFPGYYYX 231207 METAR LFPG 231207Z 22115KT 9999 FEW030 -10/16 Q1027
LL LFPGYYYX LFPNYYYX EGLLYYYX LFPGYYYX 040352 METAR LFPG 040352Z 21618KT 9999 FEW030 17/15 Q1010
GG LFPNYYYX LFPGYYYX LFPOYYYX 280453 METAR LFPG 280453Z 27636KT 9999 FEW030 27/16 Q1100
GG EDDFYYYX LFPOYYYX LFPGYYYX 192335 METAR LFPG 192335Z 16735KT 9999 FEW030 15/22 Q1055
GG EDDFYYYX LFPGYYYX 012222 METAR LFPG 012222Z 32926KT 9999 FEW030 16/13 Q1032
DD LFPGYYYX LFPBYYYX EDDFYYYX 150124 METAR LFPG 150124Z 14139KT 9999 FEW030 -3/-5 Q1018
SS EDDFYYYX EDDFYYYX 180734 METAR LFPG 180734Z 05224KT 9999 FEW030 15/-8 Q1082
FF LFPBYYYX LFPGYYYX EDDFYYYX 012103 METAR LFPG 012103Z 26227KT 9999 FEW030 -7/17 Q1001
SS EGLLYYYX LFPGYYYX EGLLYYYX LFPOYYYX 091459 METAR LFPG 091459Z 13832KT 9999 FEW030 2/25 Q1040
LL EGLLYYYX EDDFYYYX LFPGYYYX LFPBYYYX 082252 METAR LFPG 082252Z 10037KT 9999 FEW030 11/-5 Q1063
LL LFPOYYYX EDDFYYYX EGLLYYYX 060014 METAR LFPG 060014Z 01726KT 9999 FEW030 13/-8 Q1071
KK EDDFYYYX LFPNYYYX 051419 METAR LFPG 051419Z 13716KT 9999 FEW030 -2/21 Q1007
DD LFPNYYYX EGLLYYYX LFPGYYYX 131034 METAR LFPG 131034Z 07746KT 9999 FEW030 19/5 Q1040
LL LFPNYYYX LFPOYYYX LFPNYYYX LFPBYYYX 101857 METAR LFPG 101857Z 26750KT 9999 FEW030 -2/18 Q1034
DD LFPBYYYX EDDFYYYX LFPNYYYX EGLLYYYX 151400 METAR LFPG 151400Z 17221KT 9999 FEW030 6/19 Q1089
FF EDDFYYYX LFPGYYYX 021614 METAR LFPG 021614Z 31024KT 9999 FEW030 -9/7 Q1064
DD LFPBYYYX LFPNYYYX 021419 METAR LFPG 021419Z 18726KT 9999 FEW030 7/-6 Q1020
GG EDDFYYYX LFPOYYYX 121628 METAR LFPG 121628Z 30135KT 9999 FEW030 23/3 Q1011
FF LFPNYYYX LFPOYYYX 042151 METAR LFPG 042151Z 19541KT 9999 FEW030 -2/15 Q1053
SS EDDFYYYX LFPNYYYX LFPBYYYX 250525 METAR LFPG 250525Z 01720KT 9999 FEW030 31/12 Q1066
KK LFPNYYYX LFPBYYYX 012247 METAR LFPG 012247Z 07024KT 9999 FEW030 22/0 Q1034
SS EGLLYYYX LFPNYYYX LFPGYYYX 141854 METAR LFPG 141854Z 31313KT 9999 FEW030 1/-2 Q1038
KK EGLLYYYX LFPGYYYX LFPBYYYX LFPNYYYX 020614 METAR LFPG 020614Z 09248KT 9999 FEW030 20/25 Q1026
KK LFPBYYYX LFPBYYYX 060530 METAR LFPG 060530Z 22945KT 9999 FEW030 8/9 Q1025
FF EGLLYYYX LFPOYYYX LFPBYYYX 241829 METAR LFPG 241829Z 15126KT 9999 FEW030 -3/1 Q1016
SS EDDFYYYX EGLLYYYX 040054 METAR LFPG 040054Z 07628KT 9999 FEW030 -10/23 Q1083
KK LFPOYYYX LFPOYYYX EDDFYYYX 051632 METAR LFPG 051632Z 26230KT 9999 FEW030 35/21 Q1060
SS EDDFYYYX LFPOYYYX LFPBYYYX 200749 METAR LFPG 200749Z 33130KT 9999 FEW030 3/-3 Q1001
LL EGLLYYYX EGLLYYYX EDDFYYYX 200420 METAR LFPG 200420Z 31612KT 9999 FEW030 3/0 Q1017
DD EDDFYYYX EGLLYYYX 270716 METAR LFPG 270716Z 33947KT 9999 FEW030 17/24 Q1052
FF LFPOYYYX EDDFYYYX LFPNYYYX 232310 METAR LFPG 232310Z 11336KT 9999 FEW030 29/8 Q1004
LL LFPBYYYX LFPBYYYX EGLLYYYX LFPNYYYX 222256 METAR LFPG 222256Z 29348KT 9999 FEW030 23/4 Q1032
DD LFPNYYYX LFPBYYYX LFPOYYYX LFPNYYYX 050741 METAR LFPG 050741Z 33622KT 9999 FEW030 24/-8 Q1090
LL LFPNYYYX LFPOYYYX 180713 METAR LFPG 180713Z 25026KT 9999 FEW030 5/5 Q1025
FF LFPBYYYX LFPOYYYX EGLLYYYX LFPNYYYX 070617 METAR LFPG 070617Z 07821KT 9999 FEW030 21/16 Q1052
LL LFPOYYYX LFPGYYYX EGLLYYYX LFPOYYYX 030115 METAR LFPG 030115Z 14219KT 9999 FEW030 -6/12 Q1064
LL LFPGYYYX EGLLYYYX LFPOYYYX 052303 METAR LFPG 052303Z 30636KT 9999 FEW030 19/-3 Q1032
KK LFPNYYYX LFPNYYYX LFPOYYYX 240048 METAR LFPG 240048Z 13325KT 9999 FEW030 25/15 Q1054
FF EDDFYYYX LFPBYYYX 162120 METAR LFPG 162120Z 29410KT 9999 FEW030 -1/25 Q1021
FF LFPGYYYX EGLLYYYX LFPNYYYX LFPGYYYX 041103 METAR LFPG 041103Z 18540KT 9999 FEW030 -5/14 Q1076
FF LFPBYYYX LFPBYYYX 111040 METAR LFPG 111040Z 24841KT 9999 FEW030 23/2 Q1074
FF LFPBYYYX EDDFYYYX LFPNYYYX LFPGYYYX 260808 METAR LFPG 260808Z 19110KT 9999 FEW030 3/7 Q1044
KK EDDFYYYX EGLLYYYX LFPBYYYX 260418 METAR LFPG 260418Z 33116KT 9999 FEW030 31/13 Q1058
KK EDDFYYYX EDDFYYYX LFPBYYYX LFPNYYYX 251702 METAR LFPG 251702Z 20117KT 9999 FEW030 21/5 Q1092
DD LFPBYYYX EDDFYYYX 111655 METAR LFPG 111655Z 15327KT 9999 FEW030 23/24 Q1009
DD EDDFYYYX EDDFYYYX LFPNYYYX EGLLYYYX 090446 METAR LFPG 090446Z 23539KT 9999 FEW030 11/23 Q1017
DD LFPBYYYX LFPOYYYX 090719 METAR LFPG 090719Z 29023KT 9999 FEW030 4/25 Q1033
KK LFPOYYYX LFPGYYYX 012346 METAR LFPG 012346Z 01822KT 9999 FEW030 14/7 Q1085
FF LFPOYYYX LFPOYYYX 020957 METAR LFPG 020957Z 17017KT 9999 FEW030 -2/19 Q1099
KK EGLLYYYX EDDFYYYX 040527 METAR LFPG 040527Z 17331KT 9999 FEW030 -6/11 Q1052
GG EGLLYYYX LFPGYYYX LFPBYYYX LFPNYYYX 210238 METAR LFPG 210238Z 32928KT 9999 FEW030 14/19 Q1047
LL LFPBYYYX LFPGYYYX EGLLYYYX LFPNYYYX 181537 METAR LFPG 181537Z 30234KT 9999 FEW030 -1/21 Q1034
LL EDDFYYYX EGLLYYYX 161810 METAR LFPG 161810Z 19412KT 9999 FEW030 29/2 Q1024
FF LFPBYYYX LFPBYYYX EDDFYYYX EGLLYYYX 211122 METAR LFPG 211122Z 17640KT 9999 FEW030 23/22 Q1043
FF LFPNYYYX LFPNYYYX LFPBYYYX LFPGYYYX 152205 METAR LFPG 152205Z 04039KT 9999 FEW030 31/21 Q1013
FF EDDFYYYX LFPGYYYX LFPOYYYX 162202 METAR LFPG 162202Z 07921KT 9999 FEW030 34/4 Q1034
LL LFPBYYYX EGLLYYYX EDDFYYYX 131801 METAR LFPG 131801Z 11842KT 9999 FEW030 31/8 Q1089
SS EGLLYYYX EGLLYYYX LFPBYYYX 251153 METAR LFPG 251153Z 22516KT 9999 FEW030 17/9 Q1042
KK LFPGYYYX LFPBYYYX EGLLYYYX LFPOYYYX 242009 METAR LFPG 242009Z 21719KT 9999 FEW030 0/10 Q1019
LL EDDFYYYX LFPGYYYX 261917 METAR LFPG 261917Z 16521KT 9999 FEW030 25/7 Q1092
SS EDDFYYYX EDDFYYYX LFPBYYYX 201127 METAR LFPG 201127Z 29948KT 9999 FEW030 -5/10 Q1009
FF LFPGYYYX LFPGYYYX LFPOYYYX 092256 METAR LFPG 092256Z 21812KT 9999 FEW030 21/13 Q1079
LL EGLLYYYX LFPNYYYX LFPOYYYX LFPGYYYX 090942 METAR LFPG 090942Z 17346KT 9999 FEW030 19/23 Q1053
FF EGLLYYYX LFPNYYYX EDDFYYYX 042115 METAR LFPG 042115Z 24942KT 9999 FEW030 9/11 Q1049
KK LFPOYYYX EDDFYYYX EGLLYYYX 191943 METAR LFPG 191943Z 27031KT 9999 FEW030 22/-4 Q1093
KK LFPBYYYX LFPNYYYX EGLLYYYX 121930 METAR LFPG 121930Z 22217KT 9999 FEW030 29/21 Q1003
KK LFPNYYYX EGLLYYYX LFPGYYYX 190826 METAR LFPG 190826Z 18237KT 9999 FEW030 30/20 Q1030
FF LFPOYYYX EGLLYYYX LFPNYYYX LFPGYYYX 130731 METAR LFPG 130731Z 10215KT 9999 FEW030 27/1 Q1037
DD EDDFYYYX LFPOYYYX 030434 METAR LFPG 030434Z 12233KT 9999 FEW030 0/-1 Q1000
GG LFPOYYYX EGLLYYYX LFPGYYYX 221747 METAR LFPG 221747Z 19132KT 9999 FEW030 29/3 Q1058
FF EGLLYYYX EGLLYYYX 022025 METAR LFPG 022025Z 30621KT 9999 FEW030 27/-3 Q1071
SS EGLLYYYX LFPBYYYX EGLLYYYX 262035 METAR LFPG 262035Z 17917KT 9999 FEW030 30/15 Q1010
SS LFPNYYYX LFPBYYYX EDDFYYYX EGLLYYYX 190358 METAR LFPG 190358Z 19615KT 9999 FEW030 -1/-4 Q1099
KK LFPGYYYX LFPGYYYX LFPOYYYX EGLLYYYX 181840 METAR LFPG 181840Z 09537KT 9999 FEW030 10/-2 Q1001
KK LFPOYYYX LFPNYYYX EGLLYYYX LFPGYYYX 171533 METAR LFPG 171533Z 14426KT 9999 FEW030 11/24 Q1081
SS LFPOYYYX LFPBYYYX LFPGYYYX 050701 METAR LFPG 050701Z 18926KT 9999 FEW030 23/15 Q1070
DD EDDFYYYX EGLLYYYX LFPNYYYX 050809 METAR LFPG 050809Z 12945KT 9999 FEW030 10/12 Q1021
LL LFPOYYYX EDDFYYYX 101133 METAR LFPG 101133Z 05243KT 9999 FEW030 22/-8 Q1014
DD LFPBYYYX LFPBYYYX 040232 METAR LFPG 040232Z 04042KT 9999 FEW030 10/-4 Q1094
LL EDDFYYYX LFPGYYYX LFPBYYYX EGLLYYYX 242034 METAR LFPG 242034Z 12130KT 9999 FEW030 3/7 Q1043
DD EDDFYYYX EDDFYYYX 150659 METAR LFPG 150659Z 23131KT 9999 FEW030 2/24 Q1089
KK EDDFYYYX LFPBYYYX EDDFYYYX 090533 METAR LFPG 090533Z 24913KT 9999 FEW030 0/19 Q1002
GG LFPNYYYX EDDFYYYX 092058 METAR LFPG 092058Z 31326KT 9999 FEW030 18/-6 Q1085
DD LFPBYYYX LFPNYYYX EGLLYYYX 091550 METAR LFPG 091550Z 04316KT 9999 FEW030 -8/-10 Q1092
FF LFPOYYYX LFPNYYYX LFPGYYYX LFPOYYYX 021424 METAR LFPG 021424Z 01829KT 9999 FEW030 31/-2 Q1016
KK EDDFYYYX LFPBYYYX 121148 METAR LFPG 121148Z 04039KT 9999 FEW030 14/17 Q1060
LL EGLLYYYX EGLLYYYX LFPOYYYX LFPNYYYX 181320 METAR LFPG 181320Z 13729KT 9999 FEW030 26/13 Q1060
GG LFPGYYYX LFPOYYYX LFPGYYYX 141534 METAR LFPG 141534Z 09332KT 9999 FEW030 20/-8 Q1033
SS LFPNYYYX LFPNYYYX LFPOYYYX LFPGYYYX 171422 METAR LFPG 171422Z 09122KT 9999 FEW030 6/-6 Q1098
GG LFPGYYYX LFPNYYYX 030955 METAR LFPG 030955Z 32443KT 9999 FEW030 1/-1 Q1007
KK LFPNYYYX LFPGYYYX 280615 METAR LFPG 280615Z 09911KT 9999 FEW030 35/4 Q1041
GG LFPOYYYX LFPNYYYX 281640 METAR LFPG 281640Z 02338KT 9999 FEW030 -6/-9 Q1016
DD LFPNYYYX LFPBYYYX 191925 METAR LFPG 191925Z 12512KT 9999 FEW030 12/18 Q1021
GG EDDFYYYX LFPNYYYX LFPOYYYX 251300 METAR LFPG 251300Z 16510KT 9999 FEW030 7/8 Q1053
SS LFPGYYYX LFPGYYYX EDDFYYYX LFPOYYYX 260140 METAR LFPG 260140Z 19643KT 9999 FEW030 12/15 Q1034
FF LFPOYYYX LFPNYYYX LFPGYYYX 221017 METAR LFPG 221017Z 05322KT 9999 FEW030 10/12 Q1092
DD LFPGYYYX LFPNYYYX LFPGYYYX LFPOYYYX 161449 METAR LFPG 161449Z 00231KT 9999 FEW030 17/21 Q1046
GG LFPOYYYX LFPNYYYX EDDFYYYX EGLLYYYX 210638 METAR LFPG 210638Z 23816KT 9999 FEW030 -7/0 Q1038
SS LFPGYYYX EDDFYYYX LFPGYYYX 141637 METAR LFPG 141637Z 23149KT 9999 FEW030 22/0 Q1051
FF EDDFYYYX LFPOYYYX EGLLYYYX LFPGYYYX 051635 METAR LFPG 051635Z 21843KT 9999 FEW030 25/0 Q1032
FF EGLLYYYX LFPBYYYX LFPNYYYX LFPGYYYX 090353 METAR LFPG 090353Z 08418KT 9999 FEW030 -4/11 Q1033
SS LFPOYYYX LFPBYYYX 071205 METAR LFPG 071205Z 35627KT 9999 FEW030 29/1 Q1097
KK LFPNYYYX EDDFYYYX 092112 METAR LFPG 092112Z 23519KT 9999 FEW030 -1/16 Q1069
FF EGLLYYYX EDDFYYYX LFPOYYYX 260140 METAR LFPG 260140Z 22616KT 9999 FEW030 33/-6 Q1047
DD LFPNYYYX EDDFYYYX EGLLYYYX 140529 METAR LFPG 140529Z 27440KT 9999 FEW030 -9/-6 Q1077
GG EGLLYYYX EGLLYYYX LFPNYYYX 040159 METAR LFPG 040159Z 32444KT 9999 FEW030 31/7 Q1075
GG EDDFYYYX LFPGYYYX EGLLYYYX EDDFYYYX 161508 METAR LFPG 161508Z 15523KT 9999 FEW030 22/-3 Q1022
FF EDDFYYYX LFPBYYYX EDDFYYYX 200347 METAR LFPG 200347Z 33315KT 9999 FEW030 2/-4 Q1078
LL LFPBYYYX LFPBYYYX LFPNYYYX 021947 METAR LFPG 021947Z 24533KT 9999 FEW030 6/-1 Q1031
DD LFPNYYYX LFPOYYYX LFPGYYYX EGLLYYYX 262354 METAR LFPG 262354Z 07248KT 9999 FEW030 -10/18 Q1099
FF LFPBYYYX LFPOYYYX EDDFYYYX EGLLYYYX 112345 METAR LFPG 112345Z 05915KT 9999 FEW030 31/4 Q1072
FF LFPOYYYX LFPOYYYX 231534 METAR LFPG 231534Z 15326KT 9999 FEW030 -1/11 Q1028
SS LFPNYYYX LFPGYYYX LFPBYYYX EDDFYYYX 101319 METAR LFPG 101319Z 22647KT 9999 FEW030 -5/17 Q1025
GG EDDFYYYX LFPGYYYX EDDFYYYX 180008 METAR LFPG 180008Z 19625KT 9999 FEW030 6/-7 Q1022
KK LFPNYYYX LFPNYYYX LFPBYYYX LFPOYYYX 111304 METAR LFPG 111304Z 21740KT 9999 FEW030 -6/-4 Q1064
SS EDDFYYYX LFPOYYYX EDDFYYYX 150315 METAR LFPG 150315Z 30043KT 9999 FEW030 28/17 Q1072
LL LFPBYYYX LFPNYYYX LFPOYYYX 160209 METAR LFPG 160209Z 14715KT 9999 FEW030 5/20 Q1070
LL LFPOYYYX LFPBYYYX EGLLYYYX LFPOYYYX 270639 METAR LFPG 270639Z 13933KT 9999 FEW030 -2/-2 Q1009
KK EDDFYYYX EDDFYYYX LFPGYYYX 181601 METAR LFPG 181601Z 15437KT 9999 FEW030 18/3 Q1022
FF EGLLYYYX EGLLYYYX LFPGYYYX EDDFYYYX 071820 METAR LFPG 071820Z 10450KT 9999 FEW030 12/6 Q1089
LL LFPBYYYX EGLLYYYX 120829 METAR LFPG 120829Z 28813KT 9999 FEW030 2/-8 Q1092
GG LFPBYYYX LFPBYYYX LFPOYYYX LFPGYYYX 151608 METAR LFPG 151608Z 33441KT 9999 FEW030 28/20 Q1049
DD EDDFYYYX LFPOYYYX LFPBYYYX 011115 METAR LFPG 011115Z 16046KT 9999 FEW030 -1/2 Q1053
FF EDDFYYYX LFPGYYYX EGLLYYYX LFPBYYYX 101514 METAR LFPG 101514Z 30345KT 9999 FEW030 7/2 Q1016
GG LFPGYYYX EDDFYYYX LFPNYYYX LFPBYYYX 040838 METAR LFPG 040838Z 35346KT 9999 FEW030 28/20 Q1011
LL LFPGYYYX LFPNYYYX LFPGYYYX EDDFYYYX 121859 METAR LFPG 121859Z 33512KT 9999 FEW030 21/10 Q1006
KK LFPNYYYX EDDFYYYX LFPOYYYX EGLLYYYX 100851 METAR LFPG 100851Z 15944KT 9999 FEW030 4/23 Q1060
DD LFPGYYYX EDDFYYYX EGLLYYYX LFPOYYYX 030039 METAR LFPG 030039Z 30942KT 9999 FEW030 7/18 Q1036
GG EDDFYYYX EDDFYYYX 241520 METAR LFPG 241520Z 02924KT 9999 FEW030 32/13 Q1083
FF LFPNYYYX LFPOYYYX LFPNYYYX 250427 METAR LFPG 250427Z 27419KT 9999 FEW030 -6/25 Q1091
FF LFPOYYYX EGLLYYYX EDDFYYYX 160951 METAR LFPG 160951Z 23842KT 9999 FEW030 -7/4 Q1037
FF LFPGYYYX LFPNYYYX LFPBYYYX 152006 METAR LFPG 152006Z 03227KT 9999 FEW030 21/25 Q1069
DD LFPOYYYX EDDFYYYX 241205 METAR LFPG 241205Z 08418KT 9999 FEW030 3/17 Q1010
GG LFPBYYYX EDDFYYYX LFPNYYYX LFPGYYYX 051959 METAR LFPG 051959Z 31221KT 9999 FEW030 3/17 Q1010
SS LFPNYYYX LFPNYYYX 242148 METAR LFPG 242148Z 27915KT 9999 FEW030 -4/21 Q1040
LL LFPOYYYX LFPNYYYX EGLLYYYX 111117 METAR LFPG 111117Z 22315KT 9999 FEW030 33/-2 Q1013
FF LFPNYYYX EDDFYYYX 141931 METAR LFPG 141931Z 26542KT 9999 FEW030 27/24 Q1014
SS LFPGYYYX LFPBYYYX EGLLYYYX 100819 METAR LFPG 100819Z 02240KT 9999 FEW030 22/15 Q1017
FF LFPOYYYX EDDFYYYX 091328 METAR LFPG 091328Z 15117KT 9999 FEW030 28/2 Q1074
KK LFPGYYYX EDDFYYYX LFPBYYYX EGLLYYYX 051632 METAR LFPG 051632Z 11546KT 9999 FEW030 1/-1 Q1032
DD EDDFYYYX LFPBYYYX EGLLYYYX LFPOYYYX 030917 METAR LFPG 030917Z 03430KT 9999 FEW030 12/-5 Q1012
DD LFPBYYYX EGLLYYYX LFPGYYYX LFPOYYYX 241932 METAR LFPG 241932Z 33638KT 9999 FEW030 20/12 Q1075
DD LFPNYYYX EDDFYYYX LFPBYYYX LFPGYYYX 061442 METAR LFPG 061442Z 35349KT 9999 FEW030 0/15 Q1030
FF EGLLYYYX LFPBYYYX LFPNYYYX LFPOYYYX 050034 METAR LFPG 050034Z 30315KT 9999 FEW030 0/2 Q1098
LL EDDFYYYX LFPNYYYX LFPOYYYX 230703 METAR LFPG 230703Z 22823KT 9999 FEW030 29/16 Q1085
LL LFPOYYYX LFPGYYYX LFPNYYYX LFPBYYYX 210951 METAR LFPG 210951Z 12412KT 9999 FEW030 12/16 Q1001
DD EGLLYYYX LFPOYYYX EGLLYYYX LFPGYYYX 061044 METAR LFPG 061044Z 35124KT 9999 FEW030 -6/7 Q1065
GG EGLLYYYX EDDFYYYX LFPOYYYX LFPNYYYX 230820 METAR LFPG 230820Z 19744KT 9999 FEW030 24/4 Q1005
SS LFPBYYYX LFPOYYYX 011541 METAR LFPG 011541Z 15320KT 9999 FEW030 -1/-6 Q1022
FF LFPBYYYX LFPGYYYX 182237 METAR LFPG 182237Z 26544KT 9999 FEW030 -7/-5 Q1015
DD LFPOYYYX LFPBYYYX LFPGYYYX LFPNYYYX 131555 METAR LFPG 131555Z 04234KT 9999 FEW030 27/1 Q1022
SS EGLLYYYX LFPOYYYX 021532 METAR LFPG 021532Z 20641KT 9999 FEW030 24/16 Q1064
LL EGLLYYYX LFPGYYYX LFPNYYYX LFPOYYYX 041810 METAR LFPG 041810Z 02613KT 9999 FEW030 18/13 Q1047
FF LFPNYYYX EGLLYYYX LFPNYYYX LFPGYYYX 061045 METAR LFPG 061045Z 33211KT 9999 FEW030 27/14 Q1087
SS LFPOYYYX LFPGYYYX LFPOYYYX 170102 METAR LFPG 170102Z 17841KT 9999 FEW030 7/-2 Q1020
GG LFPNYYYX LFPOYYYX 251734 METAR LFPG 251734Z 21517KT 9999 FEW030 3/2 Q1060
DD LFPNYYYX LFPOYYYX EGLLYYYX 060757 METAR LFPG 060757Z 09741KT 9999 FEW030 33/14 Q1072
LL LFPOYYYX LFPNYYYX 241023 METAR LFPG 241023Z 18937KT 9999 FEW030 -4/-3 Q1027
LL LFPBYYYX EDDFYYYX LFPNYYYX 010725 METAR LFPG 010725Z 34644KT 9999 FEW030 8/12 Q1059
FF EDDFYYYX LFPGYYYX 102034 METAR LFPG 102034Z 06423KT 9999 FEW030 22/8 Q1046
GG LFPNYYYX EGLLYYYX LFPGYYYX LFPOYYYX 190813 METAR LFPG 190813Z 13629KT 9999 FEW030 22/12 Q1011
LL LFPNYYYX LFPNYYYX EGLLYYYX LFPOYYYX 151748 METAR LFPG 151748Z 28043KT 9999 FEW030 12/-10 Q1002
DD LFPGYYYX EGLLYYYX 261529 METAR LFPG 261529Z 18831KT 9999 FEW030 -1/17 Q1058
DD LFPGYYYX EDDFYYYX LFPOYYYX 111754 METAR LFPG 111754Z 27643KT 9999 FEW030 11/10 Q1090
LL EGLLYYYX LFPBYYYX LFPOYYYX LFPNYYYX 120222 METAR LFPG 120222Z 08237KT 9999 FEW030 33/-5 Q1084
GG EGLLYYYX LFPGYYYX LFPNYYYX 241142 METAR LFPG 241142Z 11417KT 9999 FEW030 26/-8 Q1009
GG EDDFYYYX LFPOYYYX 012026 METAR LFPG 012026Z 27032KT 9999 FEW030 33/18 Q1017
KK EDDFYYYX LFPGYYYX 281929 METAR LFPG 281929Z 24541KT 9999 FEW030 19/13 Q1086
LL LFPNYYYX LFPOYYYX 101738 METAR LFPG 101738Z 08835KT 9999 FEW030 -5/8 Q1050
KK LFPNYYYX LFPBYYYX LFPGYYYX LFPNYYYX 091559 METAR LFPG 091559Z 20825KT 9999 FEW030 -1/11 Q1085
SS EGLLYYYX LFPGYYYX EGLLYYYX LFPOYYYX 141911 METAR LFPG 141911Z 04445KT 9999 FEW030 15/-2 Q1085
FF LFPNYYYX LFPBYYYX LFPNYYYX EDDFYYYX 020104 METAR LFPG 020104Z 29024KT 9999 FEW030 29/-4 Q1020
DD LFPOYYYX EGLLYYYX LFPGYYYX LFPOYYYX 242134 METAR LFPG 242134Z 05812KT 9999 FEW030 1/10 Q1069
DD LFPGYYYX EGLLYYYX LFPNYYYX 150056 METAR LFPG 150056Z 05347KT 9999 FEW030 34/0 Q1089
GG LFPOYYYX LFPGYYYX LFPBYYYX EDDFYYYX 021934 METAR LFPG 021934Z 34350KT 9999 FEW030 21/7 Q1083
KK LFPOYYYX EGLLYYYX EDDFYYYX LFPNYYYX 100430 METAR LFPG 100430Z 15513KT 9999 FEW030 30/-10 Q1100
FF EDDFYYYX EGLLYYYX LFPGYYYX LFPNYYYX 171847 METAR LFPG 171847Z 00426KT 9999 FEW030 11/2 Q1049
DD LFPGYYYX EDDFYYYX LFPGYYYX 220115 METAR LFPG 220115Z 15525KT 9999 FEW030 17/20 Q1089
KK LFPOYYYX LFPBYYYX EDDFYYYX LFPGYYYX 251403 METAR LFPG 251403Z 03136KT 9999 FEW030 0/19 Q1083
SS LFPGYYYX LFPBYYYX EDDFYYYX 181304 METAR LFPG 181304Z 09943KT 9999 FEW030 12/-9 Q1021
DD EDDFYYYX LFPNYYYX LFPGYYYX LFPBYYYX 232055 METAR LFPG 232055Z 13840KT 9999 FEW030 11/24 Q1096
DD LFPOYYYX LFPGYYYX EDDFYYYX 040649 METAR LFPG 040649Z 22937KT 9999 FEW030 -1/25 Q1030
KK EDDFYYYX EDDFYYYX LFPNYYYX EGLLYYYX 200321 METAR LFPG 200321Z 31418KT 9999 FEW030 24/23 Q1087
GG LFPGYYYX LFPNYYYX 080738 METAR LFPG 080738Z 00739KT 9999 FEW030 14/13 Q1010
DD EGLLYYYX LFPBYYYX 042213 METAR LFPG 042213Z 28741KT 9999 FEW030 -4/22 Q1067
FF LFPBYYYX EGLLYYYX 020215 METAR LFPG 020215Z 16415KT 9999 FEW030 0/11 Q1077
GG LFPGYYYX EGLLYYYX LFPBYYYX 130407 METAR LFPG 130407Z 03837KT 9999 FEW030 -8/-10 Q1034
LL EGLLYYYX LFPOYYYX LFPGYYYX LFPNYYYX 222228 METAR LFPG 222228Z 25139KT 9999 FEW030 23/12 Q1089
GG LFPGYYYX LFPGYYYX 160025 METAR LFPG 160025Z 02338KT 9999 FEW030 12/25 Q1026
GG LFPGYYYX EDDFYYYX EGLLYYYX 251218 METAR LFPG 251218Z 14023KT 9999 FEW030 6/-3 Q1003
KK LFPBYYYX EGLLYYYX LFPNYYYX LFPBYYYX 021105 METAR LFPG 021105Z 35230KT 9999 FEW030 29/11 Q1023
FF LFPNYYYX EDDFYYYX EGLLYYYX 080313 METAR LFPG 080313Z 32845KT 9999 FEW030 35/22 Q1038
GG LFPOYYYX LFPGYYYX LFPBYYYX EDDFYYYX 230259 METAR LFPG 230259Z 14120KT 9999 FEW030 -8/11 Q1059
LL LFPBYYYX LFPNYYYX 220548 METAR LFPG 220548Z 15736KT 9999 FEW030 -6/-6 Q1061
FF EDDFYYYX LFPOYYYX 132227 METAR LFPG 132227Z 22631KT 9999 FEW030 34/-6 Q1066
GG LFPGYYYX LFPOYYYX EDDFYYYX 151243 METAR LFPG 151243Z 12648KT 9999 FEW030 29/-9 Q1023
GG EGLLYYYX EGLLYYYX 211959 METAR LFPG 211959Z 01744KT 9999 FEW030 15/6 Q1078
LL LFPNYYYX LFPOYYYX 080520 METAR LFPG 080520Z 24249KT 9999 FEW030 1/-6 Q1038
LL EGLLYYYX LFPBYYYX LFPOYYYX 211821 METAR LFPG 211821Z 25544KT 9999 FEW030 33/24 Q1027
DD LFPBYYYX LFPNYYYX EGLLYYYX 241811 METAR LFPG 241811Z 15610KT 9999 FEW030 16/20 Q1087
FF EGLLYYYX EGLLYYYX LFPBYYYX EDDFYYYX 231233 METAR LFPG 231233Z 01213KT 9999 FEW030 22/-3 Q1027
SS EGLLYYYX LFPNYYYX LFPGYYYX LFPBYYYX 072149 METAR LFPG 072149Z 17248KT 9999 FEW030 -3/-10 Q1046
DD EDDFYYYX EGLLYYYX 272224 METAR LFPG 272224Z 04939KT 9999 FEW030 28/1 Q1084
DD LFPOYYYX EDDFYYYX EGLLYYYX 080837 METAR LFPG 080837Z 04349KT 9999 FEW030 -2/17 Q1085
KK LFPGYYYX EDDFYYYX 202352 METAR LFPG 202352Z 22219KT 9999 FEW030 5/14 Q1066
SS LFPGYYYX LFPNYYYX LFPGYYYX 200511 METAR LFPG 200511Z 05420KT 9999 FEW030 17/4 Q1027
FF LFPGYYYX LFPBYYYX 182205 METAR LFPG 182205Z 27730KT 9999 FEW030 16/17 Q1041
DD LFPGYYYX EDDFYYYX LFPNYYYX EGLLYYYX 021324 METAR LFPG 021324Z 17716KT 9999 FEW030 35/10 Q1022
KK LFPOYYYX LFPGYYYX 251055 METAR LFPG 251055Z 04525KT 9999 FEW030 3/22 Q1089
SS LFPGYYYX LFPGYYYX LFPBYYYX 020948 METAR LFPG 020948Z 15348KT 9999 FEW030 31/-7 Q1056
LL LFPOYYYX LFPOYYYX EDDFYYYX LFPNYYYX 170901 METAR LFPG 170901Z 16620KT 9999 FEW030 -10/-7 Q1099
FF LFPBYYYX LFPOYYYX 090136 METAR LFPG 090136Z 32136KT 9999 FEW030 35/22 Q1082
LL LFPOYYYX EGLLYYYX LFPBYYYX 092245 METAR LFPG 092245Z 25543KT 9999 FEW030 3/11 Q1027
DD LFPNYYYX LFPOYYYX 110715 METAR LFPG 110715Z 25432KT 9999 FEW030 24/6 Q1028
LL LFPBYYYX LFPOYYYX EDDFYYYX 070353 METAR LFPG 070353Z 14625KT 9999 FEW030 1/0 Q1098
LL LFPOYYYX EGLLYYYX 241915 METAR LFPG 241915Z 31720KT 9999 FEW030 23/14 Q1025
DD EDDFYYYX LFPOYYYX EGLLYYYX LFPNYYYX 240927 METAR LFPG 240927Z 10728KT 9999 FEW030 16/22 Q1053
DD EDDFYYYX LFPNYYYX EGLLYYYX LFPOYYYX 102134 METAR LFPG 102134Z 23623KT 9999 FEW030 -10/15 Q1004
GG EGLLYYYX LFPGYYYX LFPBYYYX 240409 METAR LFPG 240409Z 27621KT 9999 FEW030 2/-9 Q1084
GG EGLLYYYX LFPNYYYX EDDFYYYX 021145 METAR LFPG 021145Z 33210KT 9999 FEW030 -1/6 Q1055
GG LFPBYYYX LFPBYYYX LFPGYYYX 080802 METAR LFPG 080802Z 15525KT 9999 FEW030 -1/9 Q1056
FF EDDFYYYX LFPNYYYX EGLLYYYX LFPBYYYX 261925 METAR LFPG 261925Z 24930KT 9999 FEW030 -3/22 Q1058
GG EDDFYYYX LFPNYYYX LFPBYYYX 160628 METAR LFPG 160628Z 26345KT 9999 FEW030 15/24 Q1069
KK EGLLYYYX EDDFYYYX 251734 METAR LFPG 251734Z 05521KT 9999 FEW030 28/5 Q1048
GG EDDFYYYX EGLLYYYX 281432 METAR LFPG 281432Z 15931KT 9999 FEW030 35/8 Q1032
SS LFPGYYYX LFPNYYYX LFPBYYYX LFPGYYYX 230140 METAR LFPG 230140Z 21719KT 9999 FEW030 18/18 Q1014
GG LFPNYYYX LFPOYYYX LFPGYYYX 181427 METAR LFPG 181427Z 17548KT 9999 FEW030 31/-1 Q1054
KK EGLLYYYX LFPGYYYX 101756 METAR LFPG 101756Z 00810KT 9999 FEW030 14/16 Q1056
GG LFPBYYYX LFPOYYYX EGLLYYYX 171554 METAR LFPG 171554Z 34730KT 9999 FEW030 2/21 Q1047
DD EGLLYYYX EGLLYYYX EDDFYYYX 281801 METAR LFPG 281801Z 33543KT 9999 FEW030 -4/8 Q1055
LL LFPGYYYX LFPNYYYX EGLLYYYX LFPBYYYX 061254 METAR LFPG 061254Z 02417KT 9999 FEW030 25/5 Q1042
GG LFPOYYYX LFPGYYYX LFPNYYYX 171221 METAR LFPG 171221Z 02444KT 9999 FEW030 22/-8 Q1099
SS EDDFYYYX LFPGYYYX EGLLYYYX EDDFYYYX 170721 METAR LFPG 170721Z 29033KT 9999 FEW030 25/15 Q1036
FF EDDFYYYX LFPOYYYX LFPNYYYX 130658 METAR LFPG 130658Z 35132KT 9999 FEW030 2/23 Q1045
DD LFPBYYYX EGLLYYYX EDDFYYYX 140043 METAR LFPG 140043Z 04631KT 9999 FEW030 -4/-6 Q1046
LL LFPGYYYX LFPNYYYX 020636 METAR LFPG 020636Z 33638KT 9999 FEW030 16/3 Q1059
SS EDDFYYYX EGLLYYYX LFPOYYYX 181359 METAR LFPG 181359Z 08626KT 9999 FEW030 8/23 Q1072
FF LFPOYYYX EDDFYYYX 220039 METAR LFPG 220039Z 33039KT 9999 FEW030 17/24 Q1024
LL LFPBYYYX EGLLYYYX LFPOYYYX LFPBYYYX 282033 METAR LFPG 282033Z 26534KT 9999 FEW030 3/3 Q1046
KK EGLLYYYX EGLLYYYX LFPBYYYX 231012 METAR LFPG 231012Z 18530KT 9999 FEW030 21/-2 Q1003
GG EDDFYYYX LFPOYYYX EGLLYYYX 211357 METAR LFPG 211357Z 34413KT 9999 FEW030 0/9 Q1022
DD LFPBYYYX EGLLYYYX 061527 METAR LFPG 061527Z 22620KT 9999 FEW030 27/18 Q1011
LL EDDFYYYX LFPBYYYX LFPGYYYX 260523 METAR LFPG 260523Z 32029KT 9999 FEW030 19/21 Q1045
KK LFPNYYYX LFPNYYYX 171644 METAR LFPG 171644Z 01540KT 9999 FEW030 8/3 Q1095
KK EGLLYYYX LFPNYYYX LFPGYYYX LFPBYYYX 061837 METAR LFPG 061837Z 07010KT 9999 FEW030 22/11 Q1031
KK LFPBYYYX EGLLYYYX 190628 METAR LFPG 190628Z 23338KT 9999 FEW030 15/22 Q1060
KK LFPOYYYX LFPBYYYX 141301 METAR LFPG 141301Z 20417KT 9999 FEW030 -2/11 Q1092
FF LFPGYYYX LFPOYYYX 261411 METAR LFPG 261411Z 11920KT 9999 FEW030 33/-10 Q1038
DD EDDFYYYX EDDFYYYX LFPOYYYX 202122 METAR LFPG 202122Z 25748KT 9999 FEW030 34/23 Q1030
FF LFPNYYYX LFPGYYYX 200421 METAR LFPG 200421Z 10841KT 9999 FEW030 9/2 Q1038
FF EDDFYYYX LFPBYYYX LFPOYYYX EGLLYYYX 071305 METAR LFPG 071305Z 31737KT 9999 FEW030 6/8 Q1081
FF LFPOYYYX LFPNYYYX LFPBYYYX 171338 METAR LFPG 171338Z 30335KT 9999 FEW030 33/-5 Q1022
LL EGLLYYYX LFPGYYYX LFPBYYYX 150821 METAR LFPG 150821Z 19746KT 9999 FEW030 15/-9 Q1028
GG LFPBYYYX LFPBYYYX 180424 METAR LFPG 180424Z 07825KT 9999 FEW030 30/6 Q1062
LL LFPBYYYX LFPGYYYX 280831 METAR LFPG 280831Z 09023KT 9999 FEW030 21/8 Q1076
FF LFPNYYYX LFPNYYYX 271258 METAR LFPG 271258Z 15230KT 9999 FEW030 2/16 Q1093
GG EDDFYYYX EGLLYYYX 170325 METAR LFPG 170325Z 28631KT 9999 FEW030 18/12 Q1014
KK EGLLYYYX LFPNYYYX EDDFYYYX EGLLYYYX 140515 METAR LFPG 140515Z 12014KT 9999 FEW030 5/-8 Q1058
KK LFPGYYYX LFPBYYYX LFPOYYYX 070629 METAR LFPG 070629Z 16144KT 9999 FEW030 25/24 Q1066
FF LFPBYYYX LFPBYYYX EDDFYYYX LFPNYYYX 282351 METAR LFPG 282351Z 33440KT 9999 FEW030 4/23 Q1014
KK LFPNYYYX EGLLYYYX 211123 METAR LFPG 211123Z 03431KT 9999 FEW030 0/11 Q1094
KK LFPBYYYX EGLLYYYX EDDFYYYX LFPNYYYX 090428 METAR LFPG 090428Z 23140KT 9999 FEW030 -9/-4 Q1057
KK LFPGYYYX LFPBYYYX 252153 METAR LFPG 252153Z 28837KT 9999 FEW030 -2/4 Q1074
GG LFPGYYYX LFPBYYYX 190656 METAR LFPG 190656Z 25816KT 9999 FEW030 4/0 Q1045
FF EDDFYYYX LFPBYYYX EGLLYYYX LFPNYYYX 271547 METAR LFPG 271547Z 19646KT 9999 FEW030 -9/13 Q1099
KK EDDFYYYX LFPNYYYX 101153 METAR LFPG 101153Z 24613KT 9999 FEW030 -7/22 Q1073
DD LFPBYYYX LFPOYYYX 180440 METAR LFPG 180440Z 33833KT 9999 FEW030 -8/-4 Q1056
LL LFPGYYYX EGLLYYYX LFPOYYYX LFPBYYYX 080812 METAR LFPG 080812Z 32425KT 9999 FEW030 4/-5 Q1060
DD LFPBYYYX LFPBYYYX LFPGYYYX EGLLYYYX 161756 METAR LFPG 161756Z 13521KT 9999 FEW030 -6/3 Q1003
FF LFPNYYYX LFPOYYYX EGLLYYYX LFPGYYYX 050054 METAR LFPG 050054Z 12223KT 9999 FEW030 23/21 Q1052
SS EDDFYYYX EGLLYYYX EDDFYYYX 022348 METAR LFPG 022348Z 35450KT 9999 FEW030 19/13 Q1099
LL LFPNYYYX LFPNYYYX LFPOYYYX LFPBYYYX 271207 METAR LFPG 271207Z 32226KT 9999 FEW030 27/15 Q1039
FF LFPGYYYX EGLLYYYX LFPNYYYX 051945 METAR LFPG 051945Z 13515KT 9999 FEW030 7/13 Q1068
KK LFPNYYYX LFPGYYYX EGLLYYYX LFPOYYYX 182313 METAR LFPG 182313Z 15346KT 9999 FEW030 20/-6 Q1085
KK LFPOYYYX LFPGYYYX LFPOYYYX 160212 METAR LFPG 160212Z 02234KT 9999 FEW030 20/19 Q1067
KK LFPGYYYX LFPGYYYX 010753 METAR LFPG 010753Z 13933KT 9999 FEW030 -4/25 Q1038
KK LFPNYYYX EDDFYYYX LFPOYYYX 090655 METAR LFPG 090655Z 35936KT 9999 FEW030 8/20 Q1074
GG LFPBYYYX EDDFYYYX LFPBYYYX EGLLYYYX 150321 METAR LFPG 150321Z 19713KT 9999 FEW030 6/23 Q1066
KK LFPOYYYX LFPOYYYX LFPBYYYX LFPGYYYX 090705 METAR LFPG 090705Z 32419KT 9999 FEW030 0/17 Q1038
FF LFPGYYYX EDDFYYYX LFPOYYYX 251236 METAR LFPG 251236Z 27324KT 9999 FEW030 17/14 Q1026
FF LFPGYYYX LFPGYYYX 120150 METAR LFPG 120150Z 23240KT 9999 FEW030 -5/-4 Q1028
LL EDDFYYYX EGLLYYYX 250231 METAR LFPG 250231Z 28011KT 9999 FEW030 -9/20 Q1089
LL EDDFYYYX EGLLYYYX 201210 METAR LFPG 201210Z 02223KT 9999 FEW030 34/0 Q1001
DD EDDFYYYX LFPOYYYX LFPBYYYX 130129 METAR LFPG 130129Z 09713KT 9999 FEW030 29/-4 Q1079
GG LFPNYYYX EGLLYYYX EDDFYYYX 082247 METAR LFPG 082247Z 05133KT 9999 FEW030 -8/16 Q1083
KK LFPNYYYX LFPBYYYX 110525 METAR LFPG 110525Z 29843KT 9999 FEW030 14/5 Q1100
FF LFPBYYYX LFPBYYYX 031322 METAR LFPG 031322Z 18438KT 9999 FEW030 11/15 Q1090
FF EDDFYYYX LFPBYYYX EDDFYYYX 101202 METAR LFPG 101202Z 12519KT 9999 FEW030 -1/-5 Q1031
GG LFPOYYYX LFPBYYYX LFPGYYYX 152156 METAR LFPG 152156Z 27740KT 9999 FEW030 22/12 Q1043
KK LFPBYYYX LFPOYYYX LFPGYYYX EDDFYYYX 011231 METAR LFPG 011231Z 18817KT 9999 FEW030 32/9 Q1051
FF LFPGYYYX LFPBYYYX 271318 METAR LFPG 271318Z 09818KT 9999 FEW030 34/2 Q1058
LL EDDFYYYX EDDFYYYX 281453 METAR LFPG 281453Z 13126KT 9999 FEW030 -10/23 Q1098
KK LFPGYYYX LFPGYYYX EGLLYYYX 020658 METAR LFPG 020658Z 32046KT 9999 FEW030 -5/4 Q1041
GG EGLLYYYX LFPNYYYX LFPGYYYX 062056 METAR LFPG 062056Z 11524KT 9999 FEW030 16/-1 Q1034
SS EGLLYYYX LFPOYYYX LFPBYYYX LFPGYYYX 020350 METAR LFPG 020350Z 09736KT 9999 FEW030 -3/-7 Q1003
LL LFPBYYYX LFPBYYYX LFPNYYYX EDDFYYYX 191245 METAR LFPG 191245Z 19218KT 9999 FEW030 34/-10 Q1091
GG LFPBYYYX LFPNYYYX EGLLYYYX EDDFYYYX 022107 METAR LFPG 022107Z 11327KT 9999 FEW030 9/-7 Q1070
LL LFPOYYYX EGLLYYYX LFPNYYYX LFPOYYYX 020928 METAR LFPG 020928Z 00721KT 9999 FEW030 9/11 Q1093
SS LFPGYYYX LFPGYYYX LFPOYYYX 281143 METAR LFPG 281143Z 21430KT 9999 FEW030 10/-7 Q1059
LL LFPNYYYX LFPOYYYX 251801 METAR LFPG 251801Z 31028KT 9999 FEW030 -7/23 Q1078
DD EDDFYYYX LFPOYYYX LFPNYYYX EDDFYYYX 180110 METAR LFPG 180110Z 19749KT 9999 FEW030 12/-9 Q1081
LL LFPNYYYX LFPBYYYX LFPNYYYX 181230 METAR LFPG 181230Z 05026KT 9999 FEW030 23/11 Q1083
FF EGLLYYYX LFPBYYYX 052115 METAR LFPG 052115Z 26426KT 9999 FEW030 -3/17 Q1071
FF LFPNYYYX LFPNYYYX 200133 METAR LFPG 200133Z 24917KT 9999 FEW030 8/16 Q1074
LL LFPBYYYX LFPNYYYX EDDFYYYX EGLLYYYX 100144 METAR LFPG 100144Z 11046KT 9999 FEW030 20/10 Q1045
FF EGLLYYYX LFPBYYYX LFPNYYYX 112113 METAR LFPG 112113Z 07335KT 9999 FEW030 2/9 Q1024
DD LFPOYYYX LFPBYYYX EDDFYYYX EGLLYYYX 212112 METAR LFPG 212112Z 03437KT 9999 FEW030 29/1 Q1038
DD LFPGYYYX LFPBYYYX LFPNYYYX LFPOYYYX 211844 METAR LFPG 211844Z 01126KT 9999 FEW030 13/22 Q1045
KK LFPBYYYX LFPGYYYX 080703 METAR LFPG 080703Z 16641KT 9999 FEW030 27/-6 Q1075
SS EDDFYYYX LFPOYYYX 162307 METAR LFPG 162307Z 31045KT 9999 FEW030 29/16 Q1076
KK LFPBYYYX LFPOYYYX 211653 METAR LFPG 211653Z 04526KT 9999 FEW030 22/9 Q1066
LL LFPNYYYX LFPGYYYX LFPOYYYX 061710 METAR LFPG 061710Z 10140KT 9999 FEW030 -1/11 Q1098
DD EGLLYYYX LFPGYYYX LFPBYYYX 210722 METAR LFPG 210722Z 08610KT 9999 FEW030 -7/21 Q1026
LL LFPBYYYX EGLLYYYX LFPBYYYX EDDFYYYX 151031 METAR LFPG 151031Z 02924KT 9999 FEW030 4/11 Q1015
GG EGLLYYYX EGLLYYYX LFPBYYYX LFPOYYYX 030709 METAR LFPG 030709Z 14343KT 9999 FEW030 17/2 Q1016
FF EGLLYYYX EDDFYYYX EGLLYYYX LFPOYYYX 262211 METAR LFPG 262211Z 05731KT 9999 FEW030 27/22 Q1009
DD LFPGYYYX LFPGYYYX LFPNYYYX LFPBYYYX 071532 METAR LFPG 071532Z 11441KT 9999 FEW030 8/6 Q1026
KK LFPBYYYX EGLLYYYX 232119 METAR LFPG 232119Z 06934KT 9999 FEW030 30/6 Q1015
LL LFPGYYYX EDDFYYYX LFPBYYYX EGLLYYYX 201659 METAR LFPG 201659Z 21943KT 9999 FEW030 23/-2 Q1085
LL EGLLYYYX EGLLYYYX LFPGYYYX EDDFYYYX 072026 METAR LFPG 072026Z 32631KT 9999 FEW030 31/11 Q1086
SS LFPGYYYX EDDFYYYX 031726 METAR LFPG 031726Z 05550KT 9999 FEW030 6/22 Q1055
GG EDDFYYYX LFPNYYYX LFPBYYYX 110200 METAR LFPG 110200Z 16842KT 9999 FEW030 34/23 Q1012
DD LFPBYYYX EGLLYYYX LFPGYYYX 151244 METAR LFPG 151244Z 30622KT 9999 FEW030 25/1 Q1039
KK LFPGYYYX EGLLYYYX LFPOYYYX 020149 METAR LFPG 020149Z 23619KT 9999 FEW030 31/17 Q1004
FF EDDFYYYX LFPBYYYX EDDFYYYX LFPNYYYX 051033 METAR LFPG 051033Z 23613KT 9999 FEW030 7/18 Q1079
DD LFPBYYYX LFPNYYYX LFPGYYYX LFPOYYYX 141625 METAR LFPG 141625Z 17927KT 9999 FEW030 28/-1 Q1017
LL LFPBYYYX EDDFYYYX LFPGYYYX 030957 METAR LFPG 030957Z 34724KT 9999 FEW030 21/18 Q1044
KK LFPOYYYX EGLLYYYX 031052 METAR LFPG 031052Z 10827KT 9999 FEW030 5/13 Q1048
FF LFPOYYYX LFPNYYYX 252157 METAR LFPG 252157Z 12921KT 9999 FEW030 -6/-8 Q1064
LL LFPOYYYX LFPBYYYX 112134 METAR LFPG 112134Z 19746KT 9999 FEW030 10/16 Q1058
FF LFPOYYYX EDDFYYYX LFPGYYYX LFPBYYYX 190422 METAR LFPG 190422Z 14717KT 9999 FEW030 28/-2 Q1014
KK LFPNYYYX EDDFYYYX LFPOYYYX LFPNYYYX 201016 METAR LFPG 201016Z 23417KT 9999 FEW030 22/5 Q1070
DD EDDFYYYX LFPBYYYX LFPNYYYX 202148 METAR LFPG 202148Z 14041KT 9999 FEW030 33/11 Q1016
LL LFPGYYYX LFPGYYYX LFPNYYYX 030417 METAR LFPG 030417Z 30034KT 9999 FEW030 4/-8 Q1087
FF LFPOYYYX EDDFYYYX 250532 METAR LFPG 250532Z 20917KT 9999 FEW030 22/9 Q1070
GG EDDFYYYX EGLLYYYX 012008 METAR LFPG 012008Z 05930KT 9999 FEW030 14/-8 Q1097
FF EGLLYYYX EGLLYYYX LFPOYYYX 181125 METAR LFPG 181125Z 23937KT 9999 FEW030 5/20 Q1035
GG LFPNYYYX LFPNYYYX 091216 METAR LFPG 091216Z 10333KT 9999 FEW030 34/24 Q1020
GG LFPBYYYX EDDFYYYX 131522 METAR LFPG 131522Z 24520KT 9999 FEW030 9/8 Q1060
SS EGLLYYYX LFPBYYYX LFPOYYYX LFPGYYYX 221329 METAR LFPG 221329Z 13836KT 9999 FEW030 35/23 Q1036
FF LFPNYYYX EDDFYYYX 161301 METAR LFPG 161301Z 25548KT 9999 FEW030 24/13 Q1061
SS LFPBYYYX EGLLYYYX LFPGYYYX 171614 METAR LFPG 171614Z 15237KT 9999 FEW030 -5/18 Q1095
GG LFPGYYYX LFPNYYYX EGLLYYYX 031619 METAR LFPG 031619Z 20524KT 9999 FEW030 34/14 Q1005
SS LFPBYYYX LFPOYYYX LFPGYYYX EGLLYYYX 220742 METAR LFPG 220742Z 25620KT 9999 FEW030 33/1 Q1098
GG LFPOYYYX LFPOYYYX LFPNYYYX LFPBYYYX 051722 METAR LFPG 051722Z 04349KT 9999 FEW030 18/-4 Q1099
GG LFPOYYYX LFPNYYYX LFPGYYYX 180041 METAR LFPG 180041Z 18113KT 9999 FEW030 24/20 Q1072
KK EDDFYYYX LFPGYYYX LFPBYYYX LFPNYYYX 080118 METAR LFPG 080118Z 10447KT 9999 FEW030 -4/21 Q1069
SS EDDFYYYX LFPNYYYX EGLLYYYX 090933 METAR LFPG 090933Z 21029KT 9999 FEW030 29/2 Q1072
SS LFPOYYYX LFPBYYYX EGLLYYYX 051658 METAR LFPG 051658Z 11312KT 9999 FEW030 11/24 Q1046
KK EGLLYYYX LFPBYYYX LFPGYYYX 201902 METAR LFPG 201902Z 04741KT 9999 FEW030 -10/-3 Q1008
FF LFPNYYYX EDDFYYYX LFPNYYYX LFPOYYYX 262328 METAR LFPG 262328Z 27930KT 9999 FEW030 -6/12 Q1009
KK EGLLYYYX EDDFYYYX 201457 METAR LFPG 201457Z 14422KT 9999 FEW030 10/-1 Q1016
DD LFPBYYYX LFPNYYYX EDDFYYYX 251828 METAR LFPG 251828Z 29617KT 9999 FEW030 22/11 Q1059
LL LFPOYYYX EGLLYYYX LFPGYYYX EDDFYYYX 100815 METAR LFPG 100815Z 32816KT 9999 FEW030 -10/1 Q1094
SS LFPGYYYX LFPNYYYX EDDFYYYX 180734 METAR LFPG 180734Z 25445KT 9999 FEW030 0/-8 Q1000
SS LFPBYYYX EDDFYYYX LFPNYYYX LFPBYYYX 141413 METAR LFPG 141413Z 06829KT 9999 FEW030 0/-2 Q1025
GG LFPGYYYX LFPBYYYX LFPGYYYX 111554 METAR LFPG 111554Z 13330KT 9999 FEW030 -10/22 Q1066
KK EGLLYYYX LFPNYYYX EDDFYYYX LFPBYYYX 190228 METAR LFPG 190228Z 11530KT 9999 FEW030 -5/-9 Q1010
KK LFPNYYYX LFPBYYYX EGLLYYYX LFPGYYYX 261551 METAR LFPG 261551Z 03717KT 9999 FEW030 -7/20 Q1091
FF LFPNYYYX LFPGYYYX 260045 METAR LFPG 260045Z 18526KT 9999 FEW030 -2/16 Q1027
DD LFPBYYYX LFPGYYYX 072112 METAR LFPG 072112Z 01237KT 9999 FEW030 32/14 Q1038
DD LFPGYYYX LFPOYYYX LFPBYYYX LFPNYYYX 130702 METAR LFPG 130702Z 22729KT 9999 FEW030 -10/0 Q1092
FF EDDFYYYX LFPNYYYX 090817 METAR LFPG 090817Z 15143KT 9999 FEW030 3/7 Q1019
FF LFPOYYYX EDDFYYYX LFPGYYYX LFPOYYYX 140847 METAR LFPG 140847Z 15839KT 9999 FEW030 30/0 Q1005
FF LFPBYYYX LFPBYYYX EDDFYYYX 150025 METAR LFPG 150025Z 13328KT 9999 FEW030 -2/3 Q1022
DD LFPGYYYX LFPNYYYX LFPOYYYX EDDFYYYX 280529 METAR LFPG 280529Z 31712KT 9999 FEW030 28/16 Q1066
SS LFPGYYYX LFPOYYYX 251240 METAR LFPG 251240Z 33518KT 9999 FEW030 20/-10 Q1027
SS LFPGYYYX EGLLYYYX 191845 METAR LFPG 191845Z 07826KT 9999 FEW030 15/-1 Q1089
FF LFPBYYYX LFPNYYYX LFPGYYYX EGLLYYYX 061336 METAR LFPG 061336Z 27122KT 9999 FEW030 16/-1 Q1021
SS LFPOYYYX LFPBYYYX 170254 METAR LFPG 170254Z 08110KT 9999 FEW030 32/21 Q1057
SS LFPGYYYX LFPNYYYX 172313 METAR LFPG 172313Z 28137KT 9999 FEW030 1/-6 Q1019
KK LFPOYYYX LFPOYYYX 210839 METAR LFPG 210839Z 05230KT 9999 FEW030 27/13 Q1067
FF LFPOYYYX LFPGYYYX LFPNYYYX LFPBYYYX 010408 METAR LFPG 010408Z 06811KT 9999 FEW030 14/20 Q1008
DD LFPOYYYX EGLLYYYX LFPGYYYX 131123 METAR LFPG 131123Z 16116KT 9999 FEW030 24/-8 Q1030
KK EGLLYYYX LFPNYYYX EGLLYYYX LFPGYYYX 200014 METAR LFPG 200014Z 01716KT 9999 FEW030 34/0 Q1086
FF LFPGYYYX LFPNYYYX 241917 METAR LFPG 241917Z 28510KT 9999 FEW030 35/7 Q1046
LL LFPBYYYX LFPOYYYX LFPNYYYX 112100 METAR LFPG 112100Z 14548KT 9999 FEW030 5/3 Q1076
DD LFPBYYYX LFPNYYYX LFPOYYYX LFPBYYYX 081705 METAR LFPG 081705Z 00039KT 9999 FEW030 0/17 Q1071
LL EGLLYYYX LFPGYYYX EGLLYYYX 172045 METAR LFPG 172045Z 32346KT 9999 FEW030 7/18 Q1099
LL LFPBYYYX LFPBYYYX EDDFYYYX LFPGYYYX 062200 METAR LFPG 062200Z 12026KT 9999 FEW030 25/7 Q1089
DD LFPNYYYX EGLLYYYX 111151 METAR LFPG 111151Z 09827KT 9999 FEW030 18/2 Q1007
DD LFPOYYYX EDDFYYYX 061454 METAR LFPG 061454Z 01643KT 9999 FEW030 10/6 Q1057
DD EGLLYYYX LFPGYYYX EDDFYYYX 110419 METAR LFPG 110419Z 33431KT 9999 FEW030 7/3 Q1087
KK LFPBYYYX LFPGYYYX EGLLYYYX LFPOYYYX 101428 METAR LFPG 101428Z 31538KT 9999 FEW030 0/-9 Q1010
DD LFPGYYYX EGLLYYYX LFPOYYYX 070232 METAR LFPG 070232Z 27744KT 9999 FEW030 -3/15 Q1007
DD EGLLYYYX LFPBYYYX LFPOYYYX LFPNYYYX 122253 METAR LFPG 122253Z 22118KT 9999 FEW030 10/-4 Q1079
LL EDDFYYYX LFPNYYYX LFPGYYYX 031139 METAR LFPG 031139Z 24835KT 9999 FEW030 -8/10 Q1021
KK EGLLYYYX EGLLYYYX LFPNYYYX 271325 METAR LFPG 271325Z 34614KT 9999 FEW030 6/6 Q1073
LL EDDFYYYX EDDFYYYX LFPOYYYX LFPBYYYX 260423 METAR LFPG 260423Z 32929KT 9999 FEW030 -8/21 Q1003
KK EGLLYYYX LFPNYYYX 130846 METAR LFPG 130846Z 15241KT 9999 FEW030 9/17 Q1076
GG EGLLYYYX EDDFYYYX LFPNYYYX LFPGYYYX 050449 METAR LFPG 050449Z 26546KT 9999 FEW030 0/7 Q1009
LL LFPGYYYX LFPBYYYX 021521 METAR LFPG 021521Z 13844KT 9999 FEW030 10/16 Q1075
SS LFPGYYYX LFPOYYYX LFPNYYYX 020841 METAR LFPG 020841Z 26823KT 9999 FEW030 11/-10 Q1046
SS LFPOYYYX LFPBYYYX LFPGYYYX EDDFYYYX 240124 METAR LFPG 240124Z 25611KT 9999 FEW030 11/17 Q1031
DD LFPGYYYX LFPGYYYX LFPNYYYX 130414 METAR LFPG 130414Z 11329KT 9999 FEW030 -9/-7 Q1022
GG LFPBYYYX EDDFYYYX LFPOYYYX EGLLYYYX 090517 METAR LFPG 090517Z 31937KT 9999 FEW030 17/16 Q1068
LL LFPNYYYX LFPNYYYX 091742 METAR LFPG 091742Z 17844KT 9999 FEW030 20/-3 Q1027
SS LFPGYYYX LFPGYYYX EGLLYYYX 100932 METAR LFPG 100932Z 10842KT 9999 FEW030 35/-9 Q1074
SS LFPNYYYX LFPOYYYX EDDFYYYX LFPBYYYX 280923 METAR LFPG 280923Z 35839KT 9999 FEW030 9/0 Q1071
DD LFPBYYYX LFPOYYYX 181104 METAR LFPG 181104Z 19921KT 9999 FEW030 34/1 Q1013
SS LFPGYYYX EDDFYYYX 241040 METAR LFPG 241040Z 32244KT 9999 FEW030 -10/1 Q1018
DD LFPOYYYX EDDFYYYX LFPGYYYX LFPBYYYX 102303 METAR LFPG 102303Z 24722KT 9999 FEW030 3/-10 Q1026
LL LFPBYYYX EDDFYYYX LFPOYYYX 182313 METAR LFPG 182313Z 32224KT 9999 FEW030 5/2 Q1056
LL LFPGYYYX LFPBYYYX 212150 METAR LFPG 212150Z 18526KT 9999 FEW030 -4/1 Q1040
DD LFPBYYYX LFPOYYYX LFPNYYYX EDDFYYYX 050203 METAR LFPG 050203Z 03921KT 9999 FEW030 21/6 Q1090
KK LFPNYYYX EDDFYYYX 030904 METAR LFPG 030904Z 25931KT 9999 FEW030 -4/9 Q1094
GG LFPOYYYX LFPBYYYX LFPGYYYX 210624 METAR LFPG 210624Z 07812KT 9999 FEW030 20/7 Q1058
SS LFPBYYYX LFPNYYYX EGLLYYYX 120737 METAR LFPG 120737Z 04634KT 9999 FEW030 -3/11 Q1049
GG LFPNYYYX LFPGYYYX LFPNYYYX 250126 METAR LFPG 250126Z 19445KT 9999 FEW030 3/-3 Q1026
FF LFPGYYYX LFPNYYYX LFPOYYYX EGLLYYYX 150604 METAR LFPG 150604Z 03916KT 9999 FEW030 -9/15 Q1095
FF LFPNYYYX LFPGYYYX 050443 METAR LFPG 050443Z 32249KT 9999 FEW030 31/14 Q1052
KK LFPNYYYX LFPNYYYX 120802 METAR LFPG 120802Z 29022KT 9999 FEW030 28/14 Q1014
GG EGLLYYYX LFPNYYYX LFPOYYYX 011151 METAR LFPG 011151Z 11224KT 9999 FEW030 18/21 Q1040
DD LFPNYYYX LFPGYYYX 152107 METAR LFPG 152107Z 00818KT 9999 FEW030 -3/7 Q1069
DD LFPGYYYX EGLLYYYX EDDFYYYX LFPNYYYX 020439 METAR LFPG 020439Z 11213KT 9999 FEW030 34/0 Q1080
GG EDDFYYYX LFPOYYYX LFPBYYYX EDDFYYYX 020159 METAR LFPG 020159Z 19444KT 9999 FEW030 31/21 Q1051
LL LFPOYYYX EDDFYYYX LFPNYYYX 081140 METAR LFPG 081140Z 27425KT 9999 FEW030 31/9 Q1068
LL LFPNYYYX EGLLYYYX EDDFYYYX LFPBYYYX 251318 METAR LFPG 251318Z 17119KT 9999 FEW030 -6/13 Q1079
DD EGLLYYYX LFPBYYYX LFPOYYYX 241546 METAR LFPG 241546Z 17946KT 9999 FEW030 26/23 Q1056
LL LFPOYYYX LFPOYYYX LFPBYYYX EGLLYYYX 262005 METAR LFPG 262005Z 18144KT 9999 FEW030 1/25 Q1082
GG EGLLYYYX LFPGYYYX 180414 METAR LFPG 180414Z 13727KT 9999 FEW030 0/1 Q1089
FF LFPGYYYX LFPGYYYX EGLLYYYX EDDFYYYX 161944 METAR LFPG 161944Z 07430KT 9999 FEW030 35/20 Q1012
SS LFPOYYYX EDDFYYYX LFPGYYYX LFPNYYYX 272205 METAR LFPG 272205Z 22513KT 9999 FEW030 16/5 Q1088
FF LFPBYYYX LFPNYYYX 202329 METAR LFPG 202329Z 08215KT 9999 FEW030 25/8 Q1086
KK LFPOYYYX EDDFYYYX 112352 METAR LFPG 112352Z 20338KT 9999 FEW030 5/3 Q1058
KK LFPOYYYX EDDFYYYX 061634 METAR LFPG 061634Z 24115KT 9999 FEW030 6/-5 Q1084
SS LFPNYYYX LFPGYYYX LFPOYYYX 240051 METAR LFPG 240051Z 08527KT 9999 FEW030 7/-10 Q1019
LL LFPOYYYX LFPNYYYX 101030 METAR LFPG 101030Z 06650KT 9999 FEW030 7/22 Q1095
DD LFPBYYYX EGLLYYYX 121851 METAR LFPG 121851Z 12249KT 9999 FEW030 -7/-4 Q1087
KK LFPGYYYX EDDFYYYX 081658 METAR LFPG 081658Z 25934KT 9999 FEW030 29/-10 Q1004
LL EDDFYYYX LFPBYYYX LFPGYYYX 211943 METAR LFPG 211943Z 07839KT 9999 FEW030 8/9 Q1089
SS LFPNYYYX LFPNYYYX LFPOYYYX LFPBYYYX 140003 METAR LFPG 140003Z 34627KT 9999 FEW030 24/18 Q1094
LL LFPOYYYX LFPGYYYX LFPNYYYX 191506 METAR LFPG 191506Z 21033KT 9999 FEW030 -6/-6 Q1043
SS LFPNYYYX EDDFYYYX LFPNYYYX LFPBYYYX 171808 METAR LFPG 171808Z 03521KT 9999 FEW030 -2/22 Q1019
LL EDDFYYYX LFPBYYYX 241502 METAR LFPG 241502Z 15038KT 9999 FEW030 19/13 Q1043
LL LFPBYYYX EGLLYYYX LFPNYYYX LFPGYYYX 241206 METAR LFPG 241206Z 05627KT 9999 FEW030 -9/17 Q1009
KK EDDFYYYX LFPOYYYX 120905 METAR LFPG 120905Z 04339KT 9999 FEW030 25/3 Q1062
FF LFPNYYYX LFPNYYYX LFPOYYYX LFPBYYYX 082045 METAR LFPG 082045Z 23332KT 9999 FEW030 3/6 Q1010
DD LFPBYYYX LFPNYYYX 210328 METAR LFPG 210328Z 14640KT 9999 FEW030 20/7 Q1046
DD LFPGYYYX EGLLYYYX 060021 METAR LFPG 060021Z 33132KT 9999 FEW030 18/-2 Q1001
GG LFPBYYYX EDDFYYYX LFPBYYYX LFPGYYYX 252357 METAR LFPG 252357Z 14435KT 9999 FEW030 -6/21 Q1019
KK EDDFYYYX LFPGYYYX LFPBYYYX 181805 METAR LFPG 181805Z 23147KT 9999 FEW030 22/-2 Q1028
GG EDDFYYYX LFPOYYYX 081226 METAR LFPG 081226Z 29325KT 9999 FEW030 5/24 Q1082
SS EDDFYYYX LFPBYYYX EDDFYYYX 260134 METAR LFPG 260134Z 30221KT 9999 FEW030 7/-5 Q1025
FF EGLLYYYX EGLLYYYX LFPOYYYX 240239 METAR LFPG 240239Z 33714KT 9999 FEW030 -7/14 Q1068
LL EGLLYYYX LFPGYYYX 250505 METAR LFPG 250505Z 13941KT 9999 FEW030 17/6 Q1040
LL EGLLYYYX EGLLYYYX 131145 METAR LFPG 131145Z 08616KT 9999 FEW030 29/-2 Q1037
FF LFPGYYYX LFPNYYYX EGLLYYYX 140412 METAR LFPG 140412Z 22713KT 9999 FEW030 15/6 Q1025
FF EGLLYYYX LFPGYYYX 220050 METAR LFPG 220050Z 20626KT 9999 FEW030 18/20 Q1017
LL EGLLYYYX EDDFYYYX 130608 METAR LFPG 130608Z 30311KT 9999 FEW030 12/22 Q1047
KK LFPNYYYX EGLLYYYX LFPOYYYX LFPBYYYX 100052 METAR LFPG 100052Z 00245KT 9999 FEW030 -7/22 Q1063
SS EDDFYYYX LFPNYYYX LFPGYYYX 170621 METAR LFPG 170621Z 26220KT 9999 FEW030 -9/23 Q1060
LL LFPOYYYX LFPBYYYX 080550 METAR LFPG 080550Z 20346KT 9999 FEW030 -7/-7 Q1083
SS LFPGYYYX EGLLYYYX LFPOYYYX 080015 METAR LFPG 080015Z 04619KT 9999 FEW030 21/10 Q1056
FF EGLLYYYX EGLLYYYX LFPNYYYX 280512 METAR LFPG 280512Z 15744KT 9999 FEW030 -3/4 Q1022
LL LFPOYYYX LFPBYYYX LFPNYYYX EDDFYYYX 040809 METAR LFPG 040809Z 02646KT 9999 FEW030 14/1 Q1008
LL EGLLYYYX LFPNYYYX 201750 METAR LFPG 201750Z 31546KT 9999 FEW030 23/-10 Q1091
GG LFPBYYYX LFPNYYYX LFPGYYYX 030029 METAR LFPG 030029Z 14247KT 9999 FEW030 11/0 Q1086
LL EDDFYYYX LFPNYYYX EGLLYYYX 280040 METAR LFPG 280040Z 00444KT 9999 FEW030 -6/21 Q1059
LL EDDFYYYX LFPNYYYX 180456 METAR LFPG 180456Z 04421KT 9999 FEW030 -6/-6 Q1077
GG LFPNYYYX LFPBYYYX LFPGYYYX 082246 METAR LFPG 082246Z 28317KT 9999 FEW030 32/-4 Q1087
SS LFPBYYYX LFPOYYYX LFPBYYYX LFPGYYYX 281058 METAR LFPG 281058Z 25343KT 9999 FEW030 22/16 Q1036
LL LFPNYYYX LFPNYYYX 040853 METAR LFPG 040853Z 06730KT 9999 FEW030 23/15 Q1042
LL EGLLYYYX LFPOYYYX 090257 METAR LFPG 090257Z 04244KT 9999 FEW030 32/5 Q1091
DD LFPOYYYX LFPGYYYX 261529 METAR LFPG 261529Z 05225KT 9999 FEW030 25/2 Q1057
DD EDDFYYYX LFPOYYYX LFPGYYYX 061124 METAR LFPG 061124Z 08920KT 9999 FEW030 33/-2 Q1008
DD LFPNYYYX EGLLYYYX LFPNYYYX 191940 METAR LFPG 191940Z 33638KT 9999 FEW030 1/13 Q1006
FF LFPGYYYX EDDFYYYX EGLLYYYX LFPOYYYX 240149 METAR LFPG 240149Z 11630KT 9999 FEW030 -6/-7 Q1079
FF LFPBYYYX LFPOYYYX 040756 METAR LFPG 040756Z 30325KT 9999 FEW030 33/20 Q1062
FF LFPOYYYX LFPOYYYX EDDFYYYX 262222 METAR LFPG 262222Z 28443KT 9999 FEW030 16/15 Q1078
LL LFPOYYYX LFPGYYYX LFPNYYYX 271003 METAR LFPG 271003Z 21241KT 9999 FEW030 1/7 Q1033
LL EDDFYYYX LFPBYYYX LFPOYYYX 261009 METAR LFPG 261009Z 25732KT 9999 FEW030 35/-7 Q1067
DD LFPNYYYX LFPGYYYX LFPOYYYX EGLLYYYX 041744 METAR LFPG 041744Z 34547KT 9999 FEW030 22/-7 Q1001
FF LFPBYYYX LFPBYYYX EGLLYYYX 252151 METAR LFPG 252151Z 13045KT 9999 FEW030 2/-6 Q1060
GG LFPGYYYX LFPBYYYX 271224 METAR LFPG 271224Z 01122KT 9999 FEW030 13/25 Q1013
DD LFPGYYYX LFPGYYYX EGLLYYYX LFPBYYYX 191008 METAR LFPG 191008Z 29345KT 9999 FEW030 31/19 Q1093
SS EDDFYYYX LFPNYYYX 150819 METAR LFPG 150819Z 04649KT 9999 FEW030 -3/-4 Q1041
SS LFPBYYYX LFPNYYYX 231124 METAR LFPG 231124Z 13127KT 9999 FEW030 6/17 Q1062
DD LFPBYYYX LFPOYYYX LFPNYYYX LFPBYYYX 100237 METAR LFPG 100237Z 32247KT 9999 FEW030 18/-7 Q1098
SS LFPGYYYX EDDFYYYX LFPOYYYX 251606 METAR LFPG 251606Z 19320KT 9999 FEW030 21/15 Q1075
KK LFPGYYYX LFPOYYYX 121628 METAR LFPG 121628Z 20327KT 9999 FEW030 30/4 Q1074
FF LFPNYYYX EGLLYYYX 111818 METAR LFPG 111818Z 15736KT 9999 FEW030 2/16 Q1055
FF EGLLYYYX LFPBYYYX 131104 METAR LFPG 131104Z 16916KT 9999 FEW030 10/-5 Q1023
FF EDDFYYYX EGLLYYYX LFPOYYYX 102250 METAR LFPG 102250Z 22049KT 9999 FEW030 24/24 Q1017
LL LFPGYYYX LFPOYYYX LFPGYYYX EDDFYYYX 201510 METAR LFPG 201510Z 20331KT 9999 FEW030 14/10 Q1005
KK LFPOYYYX EGLLYYYX LFPBYYYX EDDFYYYX 130248 METAR LFPG 130248Z 32621KT 9999 FEW030 -10/15 Q1095
SS LFPOYYYX EDDFYYYX LFPNYYYX LFPBYYYX 071513 METAR LFPG 071513Z 00448KT 9999 FEW030 17/-8 Q1000
FF EDDFYYYX LFPNYYYX 011032 METAR LFPG 011032Z 30749KT 9999 FEW030 -2/-3 Q1058
GG EGLLYYYX LFPNYYYX 260901 METAR LFPG 260901Z 14820KT 9999 FEW030 24/19 Q1063
KK LFPNYYYX LFPGYYYX EDDFYYYX LFPBYYYX 062227 METAR LFPG 062227Z 25142KT 9999 FEW030 14/15 Q1022
FF EDDFYYYX EGLLYYYX 161429 METAR LFPG 161429Z 13319KT 9999 FEW030 -6/24 Q1055
KK EGLLYYYX EDDFYYYX 272332 METAR LFPG 272332Z 21347KT 9999 FEW030 22/23 Q1075
DD LFPGYYYX LFPNYYYX 181622 METAR LFPG 181622Z 20448KT 9999 FEW030 21/3 Q1094
LL LFPNYYYX LFPNYYYX LFPGYYYX 060109 METAR LFPG 060109Z 02826KT 9999 FEW030 28/11 Q1030
KK EDDFYYYX LFPNYYYX EGLLYYYX 172133 METAR LFPG 172133Z 34814KT 9999 FEW030 14/21 Q1034
KK EDDFYYYX LFPGYYYX 100446 METAR LFPG 100446Z 11843KT 9999 FEW030 6/23 Q1023
LL LFPOYYYX LFPNYYYX 161225 METAR LFPG 161225Z 03620KT 9999 FEW030 31/12 Q1029
LL LFPBYYYX LFPGYYYX 251712 METAR LFPG 251712Z 31249KT 9999 FEW030 10/25 Q1041
DD EGLLYYYX LFPNYYYX 141414 METAR LFPG 141414Z 11132KT 9999 FEW030 23/-7 Q1020
LL LFPBYYYX LFPNYYYX LFPOYYYX 161606 METAR LFPG 161606Z 08337KT 9999 FEW030 26/17 Q1094
GG LFPNYYYX LFPOYYYX LFPNYYYX 221133 METAR LFPG 221133Z 01417KT 9999 FEW030 21/7 Q1077
GG LFPNYYYX EDDFYYYX LFPNYYYX 081613 METAR LFPG 081613Z 06522KT 9999 FEW030 35/-7 Q1030
FF LFPBYYYX LFPGYYYX 170713 METAR LFPG 170713Z 20532KT 9999 FEW030 -4/15 Q1025
DD LFPNYYYX EDDFYYYX LFPOYYYX 281453 METAR LFPG 281453Z 18713KT 9999 FEW030 30/18 Q1071
KK LFPGYYYX EGLLYYYX 262129 METAR LFPG 262129Z 00133KT 9999 FEW030 -1/6 Q1022
GG EGLLYYYX LFPOYYYX EDDFYYYX 221947 METAR LFPG 221947Z 03627KT 9999 FEW030 20/12 Q1055
GG EGLLYYYX LFPGYYYX EDDFYYYX 190627 METAR LFPG 190627Z 05946KT 9999 FEW030 7/6 Q1091
LL EGLLYYYX LFPBYYYX LFPGYYYX LFPNYYYX 051543 METAR LFPG 051543Z 24415KT 9999 FEW030 3/-8 Q1055
SS LFPOYYYX EGLLYYYX LFPOYYYX LFPBYYYX 190229 METAR LFPG 190229Z 30320KT 9999 FEW030 17/-8 Q1070
SS LFPOYYYX LFPBYYYX LFPGYYYX 281403 METAR LFPG 281403Z 16114KT 9999 FEW030 -8/11 Q1034
DD LFPOYYYX LFPBYYYX LFPOYYYX LFPNYYYX 191942 METAR LFPG 191942Z 23648KT 9999 FEW030 26/13 Q1045
GG LFPGYYYX LFPGYYYX LFPOYYYX 281357 METAR LFPG 281357Z 35934KT 9999 FEW030 25/21 Q1073
LL LFPNYYYX LFPBYYYX 030436 METAR LFPG 030436Z 22733KT 9999 FEW030 -7/-6 Q1055
LL LFPGYYYX LFPOYYYX 080921 METAR LFPG 080921Z 24136KT 9999 FEW030 13/-2 Q1032
SS LFPBYYYX LFPGYYYX LFPBYYYX LFPNYYYX 160155 METAR LFPG 160155Z 07623KT 9999 FEW030 1/-4 Q1100
KK LFPGYYYX LFPNYYYX 211204 METAR LFPG 211204Z 15926KT 9999 FEW030 19/-5 Q1075
KK EGLLYYYX LFPNYYYX 080851 METAR LFPG 080851Z 16712KT 9999 FEW030 30/12 Q1059
LL LFPNYYYX EGLLYYYX 182246 METAR LFPG 182246Z 17250KT 9999 FEW030 12/17 Q1039
FF EGLLYYYX EGLLYYYX LFPNYYYX EDDFYYYX 211702 METAR LFPG 211702Z 27927KT 9999 FEW030 15/10 Q1043
KK LFPBYYYX LFPNYYYX EDDFYYYX 171640 METAR LFPG 171640Z 08128KT 9999 FEW030 20/-1 Q1065
DD LFPGYYYX LFPGYYYX EDDFYYYX LFPBYYYX 021414 METAR LFPG 021414Z 06141KT 9999 FEW030 7/-3 Q1019
FF EGLLYYYX EDDFYYYX 231824 METAR LFPG 231824Z 24324KT 9999 FEW030 4/-2 Q1075
SS EDDFYYYX EDDFYYYX LFPGYYYX 050715 METAR LFPG 050715Z 08934KT 9999 FEW030 10/-5 Q1057
LL EDDFYYYX LFPOYYYX EGLLYYYX LFPGYYYX 262148 METAR LFPG 262148Z 13523KT 9999 FEW030 3/14 Q1059
SS LFPNYYYX LFPNYYYX 011656 METAR LFPG 011656Z 25837KT 9999 FEW030 19/22 Q1030
DD LFPGYYYX LFPOYYYX 261330 METAR LFPG 261330Z 03646KT 9999 FEW030 -1/2 Q1006
SS EDDFYYYX EDDFYYYX LFPGYYYX LFPNYYYX 281624 METAR LFPG 281624Z 28440KT 9999 FEW030 34/8 Q1066
LL EGLLYYYX LFPNYYYX LFPGYYYX 111541 METAR LFPG 111541Z 23347KT 9999 FEW030 -5/-6 Q1089
SS LFPGYYYX EDDFYYYX 190253 METAR LFPG 190253Z 10720KT 9999 FEW030 -8/21 Q1014
KK LFPGYYYX EGLLYYYX 020717 METAR LFPG 020717Z 03248KT 9999 FEW030 4/18 Q1067
LL LFPGYYYX LFPNYYYX EDDFYYYX LFPGYYYX 120112 METAR LFPG 120112Z 32723KT 9999 FEW030 3/18 Q1033
KK EGLLYYYX LFPOYYYX EGLLYYYX LFPBYYYX 161948 METAR LFPG 161948Z 00234KT 9999 FEW030 11/22 Q1097
LL LFPGYYYX LFPOYYYX 010930 METAR LFPG 010930Z 02845KT 9999 FEW030 15/-2 Q1008
SS LFPNYYYX LFPNYYYX 230608 METAR LFPG 230608Z 12618KT 9999 FEW030 35/23 Q1040
DD LFPGYYYX LFPBYYYX LFPNYYYX EDDFYYYX 151323 METAR LFPG 151323Z 11535KT 9999 FEW030 19/12 Q1029
LL EDDFYYYX LFPGYYYX LFPBYYYX 201606 METAR LFPG 201606Z 20716KT 9999 FEW030 24/10 Q1098
DD LFPOYYYX LFPOYYYX EGLLYYYX EDDFYYYX 281721 METAR LFPG 281721Z 09348KT 9999 FEW030 34/13 Q1033
KK LFPBYYYX LFPGYYYX LFPBYYYX EGLLYYYX 122115 METAR LFPG 122115Z 12719KT 9999 FEW030 1/24 Q1073
FF LFPNYYYX LFPBYYYX EGLLYYYX LFPOYYYX 180617 METAR LFPG 180617Z 06723KT 9999 FEW030 0/9 Q1039
KK LFPOYYYX LFPOYYYX EDDFYYYX LFPNYYYX 280441 METAR LFPG 280441Z 15948KT 9999 FEW030 34/-7 Q1081
GG LFPOYYYX EDDFYYYX LFPOYYYX LFPBYYYX 090623 METAR LFPG 090623Z 18327KT 9999 FEW030 33/15 Q1029
KK EGLLYYYX EGLLYYYX 010844 METAR LFPG 010844Z 05623KT 9999 FEW030 -4/-10 Q1022
FF EDDFYYYX EGLLYYYX LFPOYYYX EDDFYYYX 110032 METAR LFPG 110032Z 25840KT 9999 FEW030 27/8 Q1036
KK LFPNYYYX EDDFYYYX LFPGYYYX 091539 METAR LFPG 091539Z 10028KT 9999 FEW030 0/14 Q1060
KK LFPNYYYX LFPNYYYX LFPOYYYX EGLLYYYX 101307 METAR LFPG 101307Z 22124KT 9999 FEW030 0/24 Q1027
GG LFPOYYYX LFPBYYYX 190330 METAR LFPG 190330Z 01122KT 9999 FEW030 15/10 Q1089
LL LFPOYYYX EGLLYYYX 241837 METAR LFPG 241837Z 07050KT 9999 FEW030 8/22 Q1059
LL EDDFYYYX LFPOYYYX LFPNYYYX 111002 METAR LFPG 111002Z 31023KT 9999 FEW030 25/7 Q1068
FF LFPNYYYX LFPBYYYX 122205 METAR LFPG 122205Z 02616KT 9999 FEW030 3/20 Q1019
SS LFPOYYYX EDDFYYYX 121142 METAR LFPG 121142Z 10226KT 9999 FEW030 27/-10 Q1046
SS EGLLYYYX EGLLYYYX 030005 METAR LFPG 030005Z 32141KT 9999 FEW030 22/4 Q1007
LL LFPGYYYX LFPGYYYX LFPNYYYX 102208 METAR LFPG 102208Z 11537KT 9999 FEW030 35/20 Q1035
FF LFPNYYYX EDDFYYYX LFPGYYYX 282249 METAR LFPG 282249Z 32227KT 9999 FEW030 -8/3 Q1025
GG LFPGYYYX LFPGYYYX 110953 METAR LFPG 110953Z 28347KT 9999 FEW030 -9/1 Q1095
LL LFPNYYYX LFPGYYYX LFPNYYYX LFPBYYYX 011039 METAR LFPG 011039Z 00421KT 9999 FEW030 -2/8 Q1027
FF LFPBYYYX LFPOYYYX 280603 METAR LFPG 280603Z 14728KT 9999 FEW030 30/11 Q1001
GG EDDFYYYX LFPGYYYX EDDFYYYX LFPNYYYX 081753 METAR LFPG 081753Z 10746KT 9999 FEW030 34/2 Q1011
SS LFPBYYYX LFPOYYYX LFPNYYYX LFPGYYYX 010357 METAR LFPG 010357Z 31020KT 9999 FEW030 15/0 Q1069
DD EDDFYYYX LFPGYYYX LFPBYYYX EDDFYYYX 271321 METAR LFPG 271321Z 25248KT 9999 FEW030 -7/3 Q1068
DD LFPBYYYX LFPGYYYX EGLLYYYX LFPBYYYX 090309 METAR LFPG 090309Z 12332KT 9999 FEW030 4/13 Q1038
DD LFPGYYYX LFPGYYYX LFPBYYYX EGLLYYYX 251823 METAR LFPG 251823Z 27940KT 9999 FEW030 4/7 Q1078
SS LFPOYYYX LFPNYYYX LFPOYYYX LFPGYYYX 090638 METAR LFPG 090638Z 02918KT 9999 FEW030 31/6 Q1039
LL LFPOYYYX EDDFYYYX LFPGYYYX 020026 METAR LFPG 020026Z 03441KT 9999 FEW030 -10/11 Q1032
LL LFPBYYYX LFPNYYYX LFPGYYYX 242132 METAR LFPG 242132Z 01210KT 9999 FEW030 -7/7 Q1002
FF EGLLYYYX LFPGYYYX 282055 METAR LFPG 282055Z 13310KT 9999 FEW030 18/2 Q1024
DD LFPBYYYX LFPOYYYX LFPNYYYX EDDFYYYX 021314 METAR LFPG 021314Z 02219KT 9999 FEW030 17/5 Q1068
FF LFPNYYYX LFPNYYYX EGLLYYYX 151631 METAR LFPG 151631Z 06633KT 9999 FEW030 20/-8 Q1004
DD EDDFYYYX EGLLYYYX LFPGYYYX LFPBYYYX 141215 METAR LFPG 141215Z 32025KT 9999 FEW030 27/24 Q1034
FF LFPNYYYX LFPGYYYX 221337 METAR LFPG 221337Z 05518KT 9999 FEW030 4/11 Q1040
GG LFPOYYYX LFPGYYYX LFPOYYYX LFPBYYYX 111941 METAR LFPG 111941Z 33450KT 9999 FEW030 8/12 Q1004
GG LFPOYYYX LFPBYYYX 022105 METAR LFPG 022105Z 26941KT 9999 FEW030 23/19 Q1056
FF LFPNYYYX LFPOYYYX LFPNYYYX 090622 METAR LFPG 090622Z 28313KT 9999 FEW030 12/14 Q1034
KK LFPBYYYX EDDFYYYX EGLLYYYX 040955 METAR LFPG 040955Z 15340KT 9999 FEW030 -9/15 Q1077
FF LFPOYYYX LFPOYYYX EDDFYYYX EGLLYYYX 261909 METAR LFPG 261909Z 09720KT 9999 FEW030 20/5 Q1015
FF LFPGYYYX LFPBYYYX LFPNYYYX 141810 METAR LFPG 141810Z 24210KT 9999 FEW030 31/25 Q1093
LL LFPGYYYX LFPOYYYX LFPNYYYX EDDFYYYX 130856 METAR LFPG 130856Z 02712KT 9999 FEW030 -9/20 Q1059
SS EDDFYYYX EGLLYYYX LFPNYYYX 121115 METAR LFPG 121115Z 25721KT 9999 FEW030 31/2 Q1000
FF LFPOYYYX LFPOYYYX EDDFYYYX 220351 METAR LFPG 220351Z 20819KT 9999 FEW030 24/9 Q1064
DD LFPOYYYX LFPNYYYX 231614 METAR LFPG 231614Z 29440KT 9999 FEW030 -8/14 Q1001
GG EDDFYYYX LFPGYYYX LFPNYYYX EDDFYYYX 250137 METAR LFPG 250137Z 26838KT 9999 FEW030 6/-7 Q1018
DD EGLLYYYX EGLLYYYX LFPOYYYX EDDFYYYX 082341 METAR LFPG 082341Z 29150KT 9999 FEW030 26/1 Q1053
DD LFPOYYYX LFPNYYYX LFPGYYYX EGLLYYYX 051126 METAR LFPG 051126Z 08822KT 9999 FEW030 8/22 Q1057
SS LFPGYYYX LFPGYYYX 041324 METAR LFPG 041324Z 24126KT 9999 FEW030 26/4 Q1013
FF LFPBYYYX LFPOYYYX EDDFYYYX 191504 METAR LFPG 191504Z 00237KT 9999 FEW030 25/11 Q1091
SS EDDFYYYX LFPNYYYX 160104 METAR LFPG 160104Z 08217KT 9999 FEW030 -10/8 Q1070
DD EGLLYYYX LFPOYYYX EDDFYYYX LFPGYYYX 030425 METAR LFPG 030425Z 34814KT 9999 FEW030 -2/20 Q1059
SS EDDFYYYX LFPOYYYX 251130 METAR LFPG 251130Z 14015KT 9999 FEW030 -7/25 Q1002
FF LFPGYYYX EDDFYYYX 051536 METAR LFPG 051536Z 08117KT 9999 FEW030 -3/-3 Q1083
KK LFPBYYYX LFPBYYYX EGLLYYYX 090705 METAR LFPG 090705Z 09817KT 9999 FEW030 3/0 Q1091
FF LFPGYYYX LFPOYYYX LFPBYYYX 100158 METAR LFPG 100158Z 01829KT 9999 FEW030 -4/-10 Q1058
DD LFPOYYYX LFPOYYYX 100601 METAR LFPG 100601Z 08639KT 9999 FEW030 -1/8 Q1038
LL EGLLYYYX LFPBYYYX LFPOYYYX 271604 METAR LFPG 271604Z 24234KT 9999 FEW030 8/5 Q1074
DD EGLLYYYX LFPOYYYX 201356 METAR LFPG 201356Z 31140KT 9999 FEW030 30/17 Q1064
KK LFPOYYYX LFPGYYYX LFPOYYYX LFPNYYYX 020700 METAR LFPG 020700Z 08421KT 9999 FEW030 27/20 Q1065
LL EGLLYYYX LFPOYYYX LFPGYYYX 151823 METAR LFPG 151823Z 20411KT 9999 FEW030 24/20 Q1060
LL LFPGYYYX LFPGYYYX 190522 METAR LFPG 190522Z 02648KT 9999 FEW030 30/24 Q1020
GG EDDFYYYX LFPBYYYX LFPGYYYX 100131 METAR LFPG 100131Z 03841KT 9999 FEW030 -8/2 Q1003
DD LFPOYYYX EGLLYYYX LFPNYYYX 280144 METAR LFPG 280144Z 19950KT 9999 FEW030 -4/23 Q1067
FF EGLLYYYX LFPOYYYX LFPNYYYX EGLLYYYX 152204 METAR LFPG 152204Z 13946KT 9999 FEW030 8/-9 Q1059
SS LFPBYYYX LFPGYYYX 121407 METAR LFPG 121407Z 27749KT 9999 FEW030 14/-2 Q1019
FF LFPOYYYX LFPBYYYX EDDFYYYX 092114 METAR LFPG 092114Z 24930KT 9999 FEW030 25/18 Q1028
GG EGLLYYYX LFPBYYYX EDDFYYYX 182241 METAR LFPG 182241Z 00346KT 9999 FEW030 32/21 Q1077
FF LFPGYYYX LFPBYYYX EDDFYYYX 201757 METAR LFPG 201757Z 19211KT 9999 FEW030 -7/-4 Q1055
GG EDDFYYYX LFPGYYYX LFPBYYYX 040014 METAR LFPG 040014Z 09043KT 9999 FEW030 1/5 Q1044
FF LFPOYYYX LFPBYYYX LFPNYYYX 170056 METAR LFPG 170056Z 15443KT 9999 FEW030 12/-5 Q1093
KK LFPOYYYX LFPGYYYX LFPNYYYX 102325 METAR LFPG 102325Z 24318KT 9999 FEW030 -9/0 Q1081
GG LFPGYYYX LFPGYYYX 030613 METAR LFPG 030613Z 29429KT 9999 FEW030 11/17 Q1086
KK LFPNYYYX LFPGYYYX LFPOYYYX 121812 METAR LFPG 121812Z 03948KT 9999 FEW030 1/5 Q1047
KK LFPBYYYX EGLLYYYX 140441 METAR LFPG 140441Z 16047KT 9999 FEW030 16/-5 Q1089
GG LFPGYYYX LFPOYYYX 011931 METAR LFPG 011931Z 26126KT 9999 FEW030 31/-5 Q1085
SS EGLLYYYX LFPGYYYX LFPNYYYX LFPOYYYX 091143 METAR LFPG 091143Z 14721KT 9999 FEW030 7/3 Q1020
LL LFPBYYYX LFPGYYYX 150046 METAR LFPG 150046Z 35225KT 9999 FEW030 24/10 Q1000
LL EGLLYYYX LFPNYYYX LFPBYYYX 052314 METAR LFPG 052314Z 11527KT 9999 FEW030 20/23 Q1059
KK LFPBYYYX LFPBYYYX 231440 METAR LFPG 231440Z 09840KT 9999 FEW030 5/-8 Q1057
LL LFPOYYYX LFPNYYYX 280043 METAR LFPG 280043Z 26834KT 9999 FEW030 -7/13 Q1082
FF EDDFYYYX EDDFYYYX LFPNYYYX 172354 METAR LFPG 172354Z 35918KT 9999 FEW030 15/-4 Q1056
KK LFPGYYYX EGLLYYYX LFPNYYYX LFPGYYYX 040330 METAR LFPG 040330Z 15110KT 9999 FEW030 12/14 Q1095
FF LFPGYYYX LFPGYYYX LFPOYYYX EGLLYYYX 240027 METAR LFPG 240027Z 26520KT 9999 FEW030 -6/14 Q1095
LL LFPNYYYX LFPGYYYX LFPNYYYX LFPOYYYX 020032 METAR LFPG 020032Z 29018KT 9999 FEW030 19/5 Q1044
FF EDDFYYYX EGLLYYYX LFPNYYYX LFPOYYYX 160831 METAR LFPG 160831Z 18619KT 9999 FEW030 12/25 Q1001
GG EDDFYYYX LFPBYYYX LFPGYYYX LFPOYYYX 032359 METAR LFPG 032359Z 00340KT 9999 FEW030 16/20 Q1013
KK EDDFYYYX EDDFYYYX LFPBYYYX LFPOYYYX 221203 METAR LFPG 221203Z 30930KT 9999 FEW030 -8/25 Q1072
DD LFPOYYYX LFPGYYYX EDDFYYYX LFPBYYYX 140544 METAR LFPG 140544Z 08935KT 9999 FEW030 27/25 Q1051
KK EGLLYYYX LFPOYYYX 130447 METAR LFPG 130447Z 02327KT 9999 FEW030 0/10 Q1013
SS EGLLYYYX LFPBYYYX LFPGYYYX 281804 METAR LFPG 281804Z 01046KT 9999 FEW030 11/25 Q1095
FF LFPOYYYX LFPOYYYX LFPBYYYX 121639 METAR LFPG 121639Z 03531KT 9999 FEW030 5/22 Q1004
LL LFPGYYYX EGLLYYYX LFPBYYYX LFPOYYYX 210933 METAR LFPG 210933Z 21835KT 9999 FEW030 2/0 Q1053
FF EDDFYYYX LFPGYYYX EGLLYYYX LFPNYYYX 092243 METAR LFPG 092243Z 21229KT 9999 FEW030 8/17 Q1086
SS EDDFYYYX LFPBYYYX LFPGYYYX EGLLYYYX 021050 METAR LFPG 021050Z 21035KT 9999 FEW030 -3/-7 Q1024
DD LFPBYYYX LFPOYYYX EGLLYYYX LFPGYYYX 261411 METAR LFPG 261411Z 28623KT 9999 FEW030 19/19 Q1036
DD LFPNYYYX EDDFYYYX LFPNYYYX LFPGYYYX 221413 METAR LFPG 221413Z 32737KT 9999 FEW030 7/3 Q1093
LL EDDFYYYX LFPGYYYX LFPNYYYX 061345 METAR LFPG 061345Z 10216KT 9999 FEW030 16/14 Q1037
SS LFPOYYYX EGLLYYYX 202312 METAR LFPG 202312Z 05346KT 9999 FEW030 25/9 Q1035
DD LFPNYYYX LFPBYYYX LFPNYYYX EGLLYYYX 240714 METAR LFPG 240714Z 21231KT 9999 FEW030 12/17 Q1012
KK LFPBYYYX EGLLYYYX 010229 METAR LFPG 010229Z 33246KT 9999 FEW030 2/11 Q1042
DD EDDFYYYX LFPGYYYX LFPNYYYX EGLLYYYX 202238 METAR LFPG 202238Z 30915KT 9999 FEW030 6/8 Q1018
GG LFPNYYYX EGLLYYYX LFPBYYYX 021150 METAR LFPG 021150Z 33032KT 9999 FEW030 -6/-10 Q1077
DD LFPNYYYX LFPBYYYX EGLLYYYX LFPNYYYX 120838 METAR LFPG 120838Z 10839KT 9999 FEW030 19/15 Q1028
KK LFPOYYYX LFPNYYYX EDDFYYYX 121746 METAR LFPG 121746Z 01029KT 9999 FEW030 13/-8 Q1018
SS LFPNYYYX LFPGYYYX 231003 METAR LFPG 231003Z 15426KT 9999 FEW030 -10/-2 Q1029
GG LFPBYYYX LFPOYYYX 211206 METAR LFPG 211206Z 22133KT 9999 FEW030 24/-1 Q1052
SS EDDFYYYX LFPNYYYX 191015 METAR LFPG 191015Z 00827KT 9999 FEW030 21/0 Q1062
LL LFPOYYYX LFPGYYYX 140623 METAR LFPG 140623Z 33010KT 9999 FEW030 34/10 Q1075
KK LFPNYYYX EGLLYYYX EDDFYYYX 130319 METAR LFPG 130319Z 13547KT 9999 FEW030 17/18 Q1086
FF LFPGYYYX EDDFYYYX LFPNYYYX 211628 METAR LFPG 211628Z 01630KT 9999 FEW030 -3/11 Q1061
LL EGLLYYYX LFPBYYYX 091613 METAR LFPG 091613Z 23129KT 9999 FEW030 -8/1 Q1038
SS EDDFYYYX LFPGYYYX 131245 METAR LFPG 131245Z 28110KT 9999 FEW030 8/20 Q1086
LL LFPNYYYX LFPGYYYX 181301 METAR LFPG 181301Z 13625KT 9999 FEW030 30/13 Q1019
SS LFPGYYYX LFPOYYYX 071336 METAR LFPG 071336Z 15411KT 9999 FEW030 6/-10 Q1059
DD LFPNYYYX LFPOYYYX LFPGYYYX 202010 METAR LFPG 202010Z 28310KT 9999 FEW030 17/22 Q1023
DD EDDFYYYX LFPBYYYX LFPOYYYX 020209 METAR LFPG 020209Z 09513KT 9999 FEW030 3/20 Q1070
LL EGLLYYYX EDDFYYYX LFPNYYYX LFPBYYYX 171818 METAR LFPG 171818Z 14349KT 9999 FEW030 -5/7 Q1099
DD LFPNYYYX EGLLYYYX 160347 METAR LFPG 160347Z 29819KT 9999 FEW030 25/17 Q1016
DD EGLLYYYX LFPNYYYX LFPBYYYX 150600 METAR LFPG 150600Z 24312KT 9999 FEW030 8/6 Q1074
DD LFPGYYYX EGLLYYYX EDDFYYYX 111629 METAR LFPG 111629Z 20618KT 9999 FEW030 31/-2 Q1057
SS EGLLYYYX EGLLYYYX LFPNYYYX 271947 METAR LFPG 271947Z 34511KT 9999 FEW030 1/7 Q1001
KK EDDFYYYX LFPGYYYX LFPBYYYX LFPOYYYX 072120 METAR LFPG 072120Z 30325KT 9999 FEW030 27/2 Q1008
SS LFPNYYYX LFPGYYYX EGLLYYYX EDDFYYYX 051903 METAR LFPG 051903Z 18031KT 9999 FEW030 10/6 Q1060
SS LFPGYYYX EDDFYYYX LFPNYYYX LFPOYYYX 240328 METAR LFPG 240328Z 22317KT 9999 FEW030 2/4 Q1083
KK LFPGYYYX LFPGYYYX 150742 METAR LFPG 150742Z 34637KT 9999 FEW030 3/6 Q1075
SS LFPOYYYX LFPGYYYX LFPNYYYX EDDFYYYX 072025 METAR LFPG 072025Z 25847KT 9999 FEW030 22/19 Q1032
LL LFPNYYYX LFPGYYYX LFPBYYYX 020219 METAR LFPG 020219Z 20919KT 9999 FEW030 20/-6 Q1020
KK LFPBYYYX LFPNYYYX 130253 METAR LFPG 130253Z 09328KT 9999 FEW030 15/-10 Q1030
SS LFPGYYYX LFPNYYYX LFPOYYYX EDDFYYYX 101334 METAR LFPG 101334Z 05942KT 9999 FEW030 -1/5 Q1014
FF LFPNYYYX LFPOYYYX 170605 METAR LFPG 170605Z 30345KT 9999 FEW030 -2/1 Q1035
FF EGLLYYYX LFPBYYYX 091502 METAR LFPG 091502Z 34320KT 9999 FEW030 17/18 Q1043
KK EGLLYYYX LFPBYYYX EDDFYYYX 151439 METAR LFPG 151439Z 25631KT 9999 FEW030 21/-8 Q1074
GG LFPNYYYX LFPGYYYX EGLLYYYX EDDFYYYX 240142 METAR LFPG 240142Z 04526KT 9999 FEW030 6/1 Q1076
GG LFPNYYYX EDDFYYYX LFPBYYYX LFPNYYYX 262117 METAR LFPG 262117Z 03331KT 9999 FEW030 3/15 Q1052
SS LFPBYYYX LFPOYYYX LFPBYYYX 141853 METAR LFPG 141853Z 14717KT 9999 FEW030 26/-2 Q1069
LL EDDFYYYX EGLLYYYX LFPOYYYX LFPBYYYX 030915 METAR LFPG 030915Z 31517KT 9999 FEW030 11/0 Q1005
GG LFPNYYYX LFPGYYYX 051626 METAR LFPG 051626Z 26222KT 9999 FEW030 23/11 Q1042
LL EDDFYYYX EDDFYYYX 260748 METAR LFPG 260748Z 17523KT 9999 FEW030 -6/-10 Q1004
LL LFPBYYYX LFPNYYYX 070345 METAR LFPG 070345Z 23416KT 9999 FEW030 3/16 Q1016
GG LFPBYYYX LFPOYYYX 060657 METAR LFPG 060657Z 10941KT 9999 FEW030 27/13 Q1005
DD LFPGYYYX LFPOYYYX LFPGYYYX EGLLYYYX 160500 METAR LFPG 160500Z 21616KT 9999 FEW030 6/14 Q1049
SS LFPBYYYX EDDFYYYX LFPBYYYX 211340 METAR LFPG 211340Z 00721KT 9999 FEW030 1/21 Q1003
FF EGLLYYYX LFPNYYYX LFPOYYYX EGLLYYYX 041748 METAR LFPG 041748Z 13314KT 9999 FEW030 -8/-1 Q1099
LL LFPBYYYX LFPOYYYX 252140 METAR LFPG 252140Z 04614KT 9999 FEW030 -2/6 Q1093
DD LFPOYYYX EDDFYYYX LFPGYYYX 081935 METAR LFPG 081935Z 20342KT 9999 FEW030 -9/20 Q1038
LL EDDFYYYX EDDFYYYX LFPNYYYX LFPBYYYX 270921 METAR LFPG 270921Z 29033KT 9999 FEW030 -6/-5 Q1072
DD LFPNYYYX LFPOYYYX 230901 METAR LFPG 230901Z 08034KT 9999 FEW030 11/-7 Q1040
KK EDDFYYYX LFPGYYYX 282258 METAR LFPG 282258Z 07230KT 9999 FEW030 -6/6 Q1066
LL LFPOYYYX LFPOYYYX LFPNYYYX EGLLYYYX 221050 METAR LFPG 221050Z 21327KT 9999 FEW030 15/23 Q1067
LL LFPGYYYX LFPGYYYX LFPOYYYX LFPBYYYX 040614 METAR LFPG 040614Z 11228KT 9999 FEW030 -7/7 Q1085
FF LFPGYYYX LFPGYYYX EGLLYYYX 240931 METAR LFPG 240931Z 22444KT 9999 FEW030 3/22 Q1008
SS LFPGYYYX LFPBYYYX LFPNYYYX 101159 METAR LFPG 101159Z 02136KT 9999 FEW030 27/17 Q1062
SS LFPOYYYX LFPOYYYX LFPBYYYX 130231 METAR LFPG 130231Z 31544KT 9999 FEW030 9/21 Q1001
DD EGLLYYYX LFPBYYYX 060402 METAR LFPG 060402Z 29121KT 9999 FEW030 16/2 Q1060
DD EDDFYYYX LFPNYYYX 100520 METAR LFPG 100520Z 16539KT 9999 FEW030 2/7 Q1000
SS EGLLYYYX EDDFYYYX LFPNYYYX 041158 METAR LFPG 041158Z 08628KT 9999 FEW030 12/-6 Q1072
KK LFPGYYYX LFPBYYYX LFPGYYYX LFPOYYYX 241317 METAR LFPG 241317Z 05424KT 9999 FEW030 10/-10 Q1021
FF LFPOYYYX EDDFYYYX LFPGYYYX EGLLYYYX 061825 METAR LFPG 061825Z 13622KT 9999 FEW030 2/0 Q1000
FF EDDFYYYX LFPNYYYX 111225 METAR LFPG 111225Z 01614KT 9999 FEW030 15/23 Q1012
KK LFPNYYYX LFPBYYYX 171752 METAR LFPG 171752Z 27725KT 9999 FEW030 24/24 Q1060
KK LFPOYYYX LFPBYYYX LFPOYYYX 150913 METAR LFPG 150913Z 12334KT 9999 FEW030 22/2 Q1028
SS LFPOYYYX LFPOYYYX LFPNYYYX 130624 METAR LFPG 130624Z 24831KT 9999 FEW030 7/14 Q1032
GG EDDFYYYX LFPNYYYX EGLLYYYX 011427 METAR LFPG 011427Z 07533KT 9999 FEW030 1/5 Q1096
FF LFPNYYYX EDDFYYYX LFPOYYYX 151945 METAR LFPG 151945Z 17215KT 9999 FEW030 15/3 Q1049
KK EDDFYYYX LFPNYYYX EDDFYYYX EGLLYYYX 021216 METAR LFPG 021216Z 21436KT 9999 FEW030 23/-5 Q1006
GG LFPOYYYX LFPGYYYX 170253 METAR LFPG 170253Z 27223KT 9999 FEW030 -1/22 Q1085
LL LFPOYYYX LFPBYYYX LFPGYYYX EDDFYYYX 060427 METAR LFPG 060427Z 11731KT 9999 FEW030 -10/-4 Q1044
KK EGLLYYYX LFPBYYYX LFPGYYYX LFPOYYYX 220538 METAR LFPG 220538Z 09631KT 9999 FEW030 16/24 Q1062
DD LFPBYYYX LFPOYYYX LFPNYYYX EGLLYYYX 011555 METAR LFPG 011555Z 15035KT 9999 FEW030 15/23 Q1092
DD LFPOYYYX EDDFYYYX 130941 METAR LFPG 130941Z 12250KT 9999 FEW030 6/17 Q1099
GG EGLLYYYX LFPNYYYX 202002 METAR LFPG 202002Z 14528KT 9999 FEW030 15/24 Q1057
LL LFPGYYYX LFPNYYYX 260432 METAR LFPG 260432Z 15439KT 9999 FEW030 -4/18 Q1063
DD LFPBYYYX LFPGYYYX EGLLYYYX LFPNYYYX 201001 METAR LFPG 201001Z 32919KT 9999 FEW030 25/11 Q1065
DD LFPBYYYX LFPGYYYX LFPBYYYX LFPOYYYX 161036 METAR LFPG 161036Z 35849KT 9999 FEW030 4/18 Q1093
SS LFPOYYYX EDDFYYYX LFPNYYYX LFPGYYYX 250753 METAR LFPG 250753Z 21132KT 9999 FEW030 32/2 Q1015
FF EDDFYYYX EDDFYYYX LFPBYYYX 031143 METAR LFPG 031143Z 09146KT 9999 FEW030 -6/-9 Q1018
SS LFPOYYYX EGLLYYYX EDDFYYYX 170553 METAR LFPG 170553Z 32246KT 9999 FEW030 32/-3 Q1014
KK EDDFYYYX EGLLYYYX EDDFYYYX 182320 METAR LFPG 182320Z 30931KT 9999 FEW030 23/14 Q1058
FF LFPOYYYX EGLLYYYX 241905 METAR LFPG 241905Z 13930KT 9999 FEW030 -5/4 Q1092
SS LFPNYYYX LFPGYYYX 232200 METAR LFPG 232200Z 14120KT 9999 FEW030 10/8 Q1009
SS EDDFYYYX LFPGYYYX LFPOYYYX EDDFYYYX 170956 METAR LFPG 170956Z 30321KT 9999 FEW030 28/2 Q1067
DD LFPNYYYX LFPGYYYX EGLLYYYX LFPOYYYX 090632 METAR LFPG 090632Z 23126KT 9999 FEW030 35/22 Q1011
LL LFPGYYYX EDDFYYYX EGLLYYYX LFPOYYYX 150717 METAR LFPG 150717Z 21543KT 9999 FEW030 28/18 Q1086
FF EGLLYYYX LFPBYYYX 110637 METAR LFPG 110637Z 21223KT 9999 FEW030 0/24 Q1050
FF LFPBYYYX LFPBYYYX 220141 METAR LFPG 220141Z 24613KT 9999 FEW030 8/1 Q1003
GG LFPOYYYX EDDFYYYX LFPGYYYX EGLLYYYX 262302 METAR LFPG 262302Z 06434KT 9999 FEW030 -3/9 Q1046
LL LFPBYYYX EDDFYYYX 110718 METAR LFPG 110718Z 00635KT 9999 FEW030 17/-10 Q1059
KK LFPGYYYX EDDFYYYX LFPNYYYX LFPBYYYX 170232 METAR LFPG 170232Z 06942KT 9999 FEW030 20/23 Q1087
GG LFPBYYYX EDDFYYYX LFPOYYYX 062317 METAR LFPG 062317Z 03340KT 9999 FEW030 5/16 Q1033
SS LFPGYYYX EDDFYYYX 181808 METAR LFPG 181808Z 22219KT 9999 FEW030 19/17 Q1060
DD EGLLYYYX LFPOYYYX 281433 METAR LFPG 281433Z 06729KT 9999 FEW030 14/3 Q1009
KK LFPNYYYX LFPGYYYX 072025 METAR LFPG 072025Z 24825KT 9999 FEW030 25/-6 Q1096
LL LFPOYYYX EGLLYYYX LFPGYYYX 051307 METAR LFPG 051307Z 22812KT 9999 FEW030 -2/11 Q1052
SS LFPOYYYX LFPOYYYX LFPGYYYX EDDFYYYX 230425 METAR LFPG 230425Z 06631KT 9999 FEW030 -8/13 Q1033
KK EGLLYYYX LFPNYYYX EDDFYYYX 082041 METAR LFPG 082041Z 12111KT 9999 FEW030 27/20 Q1069
GG EDDFYYYX EDDFYYYX 280745 METAR LFPG 280745Z 03050KT 9999 FEW030 3/-5 Q1042
DD EGLLYYYX LFPOYYYX LFPGYYYX 021605 METAR LFPG 021605Z 09939KT 9999 FEW030 34/23 Q1004
GG EGLLYYYX EDDFYYYX 090111 METAR LFPG 090111Z 10346KT 9999 FEW030 20/20 Q1041
LL LFPGYYYX LFPGYYYX EDDFYYYX 140347 METAR LFPG 140347Z 23734KT 9999 FEW030 -5/3 Q1099
FF EDDFYYYX EGLLYYYX 151753 METAR LFPG 151753Z 18113KT 9999 FEW030 25/-9 Q1036
DD LFPBYYYX LFPBYYYX LFPOYYYX 131101 METAR LFPG 131101Z 08345KT 9999 FEW030 8/-5 Q1066
SS LFPBYYYX LFPOYYYX EDDFYYYX LFPGYYYX 190550 METAR LFPG 190550Z 33946KT 9999 FEW030 -3/11 Q1005
FF LFPNYYYX EGLLYYYX LFPBYYYX LFPOYYYX 151709 METAR LFPG 151709Z 05034KT 9999 FEW030 13/6 Q1051
DD EGLLYYYX EGLLYYYX EDDFYYYX LFPNYYYX 130157 METAR LFPG 130157Z 20538KT 9999 FEW030 34/0 Q1084
DD LFPNYYYX LFPOYYYX EDDFYYYX LFPGYYYX 181158 METAR LFPG 181158Z 10525KT 9999 FEW030 29/-6 Q1014
GG LFPBYYYX LFPBYYYX 250646 METAR LFPG 250646Z 12014KT 9999 FEW030 33/14 Q1066
FF LFPGYYYX EDDFYYYX LFPGYYYX 062137 METAR LFPG 062137Z 18124KT 9999 FEW030 -9/9 Q1021
LL LFPGYYYX LFPGYYYX LFPOYYYX EGLLYYYX 080807 METAR LFPG 080807Z 14018KT 9999 FEW030 -8/-9 Q1025
DD EGLLYYYX EGLLYYYX LFPBYYYX LFPOYYYX 160030 METAR LFPG 160030Z 15938KT 9999 FEW030 2/-1 Q1004
FF LFPBYYYX EGLLYYYX LFPBYYYX LFPOYYYX 130509 METAR LFPG 130509Z 25422KT 9999 FEW030 1/4 Q1061
DD LFPOYYYX LFPBYYYX 221800 METAR LFPG 221800Z 23213KT 9999 FEW030 14/-4 Q1088
KK LFPNYYYX EDDFYYYX LFPNYYYX 131117 METAR LFPG 131117Z 21430KT 9999 FEW030 3/16 Q1068
SS LFPGYYYX LFPBYYYX 122053 METAR LFPG 122053Z 00226KT 9999 FEW030 -2/25 Q1082
LL LFPGYYYX EGLLYYYX LFPGYYYX LFPBYYYX 220754 METAR LFPG 220754Z 08516KT 9999 FEW030 -5/21 Q1035
GG LFPGYYYX LFPBYYYX LFPNYYYX 121105 METAR LFPG 121105Z 12424KT 9999 FEW030 -5/21 Q1040
KK EGLLYYYX LFPBYYYX 150916 METAR LFPG 150916Z 04120KT 9999 FEW030 1/17 Q1060
KK EGLLYYYX EGLLYYYX EDDFYYYX LFPOYYYX 230218 METAR LFPG 230218Z 07850KT 9999 FEW030 28/-5 Q1001
KK EDDFYYYX EDDFYYYX 140439 METAR LFPG 140439Z 30024KT 9999 FEW030 -10/12 Q1085
SS LFPBYYYX LFPNYYYX LFPBYYYX 040749 METAR LFPG 040749Z 34949KT 9999 FEW030 35/3 Q1002
GG LFPNYYYX LFPNYYYX EDDFYYYX LFPOYYYX 101711 METAR LFPG 101711Z 21842KT 9999 FEW030 22/-5 Q1008
LL LFPOYYYX LFPNYYYX LFPBYYYX 262116 METAR LFPG 262116Z 08713KT 9999 FEW030 23/20 Q1058
KK LFPOYYYX LFPOYYYX LFPGYYYX LFPBYYYX 031037 METAR LFPG 031037Z 16139KT 9999 FEW030 -1/-9 Q1051
GG EDDFYYYX LFPOYYYX EGLLYYYX LFPBYYYX 150028 METAR LFPG 150028Z 28324KT 9999 FEW030 28/10 Q1013
GG LFPNYYYX EGLLYYYX LFPOYYYX LFPBYYYX 140202 METAR LFPG 140202Z 03213KT 9999 FEW030 6/25 Q1070
DD EGLLYYYX EDDFYYYX LFPNYYYX 270537 METAR LFPG 270537Z 35616KT 9999 FEW030 27/14 Q1014
DD EDDFYYYX EDDFYYYX LFPOYYYX LFPBYYYX 070835 METAR LFPG 070835Z 05020KT 9999 FEW030 6/2 Q1030
FF LFPGYYYX LFPNYYYX 051347 METAR LFPG 051347Z 13843KT 9999 FEW030 -2/24 Q1026
DD LFPNYYYX EDDFYYYX LFPGYYYX EGLLYYYX 130500 METAR LFPG 130500Z 02130KT 9999 FEW030 28/15 Q1020
GG LFPOYYYX LFPGYYYX 131200 METAR LFPG 131200Z 29931KT 9999 FEW030 1/-3 Q1091
GG LFPGYYYX LFPNYYYX LFPGYYYX LFPBYYYX 070252 METAR LFPG 070252Z 00313KT 9999 FEW030 13/-10 Q1048
FF LFPOYYYX LFPNYYYX LFPBYYYX LFPGYYYX 281036 METAR LFPG 281036Z 24412KT 9999 FEW030 9/24 Q1009
GG LFPGYYYX LFPOYYYX 261413 METAR LFPG 261413Z 26531KT 9999 FEW030 35/24 Q1074
KK EDDFYYYX EGLLYYYX EDDFYYYX 112032 METAR LFPG 112032Z 35040KT 9999 FEW030 11/16 Q1010
LL EGLLYYYX LFPOYYYX LFPNYYYX LFPGYYYX 130006 METAR LFPG 130006Z 35426KT 9999 FEW030 12/10 Q1016
FF LFPOYYYX LFPOYYYX EDDFYYYX EGLLYYYX 190948 METAR LFPG 190948Z 24639KT 9999 FEW030 -3/-7 Q1088
LL LFPGYYYX EDDFYYYX LFPNYYYX LFPBYYYX 150216 METAR LFPG 150216Z 22442KT 9999 FEW030 14/-9 Q1032
DD LFPGYYYX EGLLYYYX EDDFYYYX LFPOYYYX 111801 METAR LFPG 111801Z 21541KT 9999 FEW030 27/25 Q1084
SS LFPBYYYX EDDFYYYX 011542 METAR LFPG 011542Z 30918KT 9999 FEW030 6/22 Q1072
SS EDDFYYYX LFPBYYYX LFPOYYYX EDDFYYYX 230858 METAR LFPG 230858Z 15939KT 9999 FEW030 13/8 Q1095
SS EGLLYYYX EDDFYYYX LFPNYYYX EGLLYYYX 241925 METAR LFPG 241925Z 34812KT 9999 FEW030 6/-8 Q1034
GG LFPOYYYX LFPGYYYX LFPOYYYX EGLLYYYX 181551 METAR LFPG 181551Z 03935KT 9999 FEW030 30/11 Q1076
SS LFPNYYYX EGLLYYYX LFPNYYYX LFPOYYYX 251618 METAR LFPG 251618Z 27827KT 9999 FEW030 23/11 Q1093
GG LFPGYYYX LFPBYYYX LFPGYYYX LFPNYYYX 040154 METAR LFPG 040154Z 11847KT 9999 FEW030 34/0 Q1009
KK LFPOYYYX EDDFYYYX LFPBYYYX 031931 METAR LFPG 031931Z 20810KT 9999 FEW030 11/14 Q1094
GG LFPGYYYX LFPBYYYX EDDFYYYX LFPOYYYX 262142 METAR LFPG 262142Z 03642KT 9999 FEW030 25/18 Q1080
GG LFPNYYYX EGLLYYYX LFPGYYYX 011423 METAR LFPG 011423Z 29620KT 9999 FEW030 -3/6 Q1017
FF LFPNYYYX EGLLYYYX LFPGYYYX EDDFYYYX 231530 METAR LFPG 231530Z 35715KT 9999 FEW030 -10/11 Q1005
FF EDDFYYYX LFPBYYYX LFPGYYYX 100502 METAR LFPG 100502Z 16741KT 9999 FEW030 3/17 Q1040
GG EGLLYYYX EGLLYYYX LFPGYYYX EDDFYYYX 020035 METAR LFPG 020035Z 19711KT 9999 FEW030 32/2 Q1034
LL LFPBYYYX EDDFYYYX 080139 METAR LFPG 080139Z 35137KT 9999 FEW030 -1/13 Q1015
SS LFPGYYYX LFPGYYYX LFPBYYYX LFPOYYYX 180730 METAR LFPG 180730Z 17134KT 9999 FEW030 1/17 Q1083
DD EDDFYYYX LFPGYYYX EGLLYYYX LFPOYYYX 031540 METAR LFPG 031540Z 05517KT 9999 FEW030 32/-5 Q1029
DD EGLLYYYX LFPOYYYX 171758 METAR LFPG 171758Z 09733KT 9999 FEW030 -7/22 Q1086
SS EGLLYYYX LFPNYYYX EGLLYYYX EDDFYYYX 201400 METAR LFPG 201400Z 24850KT 9999 FEW030 25/7 Q1064
GG LFPOYYYX EGLLYYYX EDDFYYYX LFPOYYYX 151233 METAR LFPG 151233Z 06328KT 9999 FEW030 22/14 Q1032
KK LFPOYYYX LFPGYYYX EGLLYYYX 091429 METAR LFPG 091429Z 27144KT 9999 FEW030 0/23 Q1012
KK EGLLYYYX LFPBYYYX LFPNYYYX 010005 METAR LFPG 010005Z 04648KT 9999 FEW030 11/24 Q1091
FF LFPGYYYX LFPBYYYX EDDFYYYX LFPOYYYX 281303 METAR LFPG 281303Z 22130KT 9999 FEW030 34/8 Q1026
FF LFPOYYYX LFPOYYYX LFPNYYYX 021225 METAR LFPG 021225Z 22337KT 9999 FEW030 -4/24 Q1030
SS EGLLYYYX LFPGYYYX EGLLYYYX 221325 METAR LFPG 221325Z 08343KT 9999 FEW030 19/9 Q1011
KK EDDFYYYX EGLLYYYX 041323 METAR LFPG 041323Z 13910KT 9999 FEW030 34/14 Q1089
KK EGLLYYYX LFPBYYYX 100021 METAR LFPG 100021Z 04111KT 9999 FEW030 7/7 Q1060
SS LFPGYYYX LFPNYYYX EGLLYYYX 150929 METAR LFPG 150929Z 21832KT 9999 FEW030 25/8 Q1042
FF LFPGYYYX EGLLYYYX 101553 METAR LFPG 101553Z 27333KT 9999 FEW030 10/3 Q1029
SS LFPNYYYX LFPOYYYX EDDFYYYX EGLLYYYX 110504 METAR LFPG 110504Z 03523KT 9999 FEW030 13/13 Q1052
LL LFPBYYYX LFPGYYYX EGLLYYYX 071402 METAR LFPG 071402Z 28712KT 9999 FEW030 5/6 Q1038
SS LFPNYYYX LFPNYYYX LFPGYYYX 201847 METAR LFPG 201847Z 27044KT 9999 FEW030 23/25 Q1055
GG EGLLYYYX LFPNYYYX 190810 METAR LFPG 190810Z 24645KT 9999 FEW030 24/6 Q1016
FF EGLLYYYX LFPNYYYX 071933 METAR LFPG 071933Z 09618KT 9999 FEW030 -9/22 Q1032
FF EDDFYYYX LFPGYYYX EGLLYYYX LFPBYYYX 201001 METAR LFPG 201001Z 12514KT 9999 FEW030 -3/1 Q1025
FF LFPBYYYX LFPGYYYX 240044 METAR LFPG 240044Z 09815KT 9999 FEW030 14/25 Q1064
LL EDDFYYYX LFPNYYYX 091348 METAR LFPG 091348Z 09827KT 9999 FEW030 25/2 Q1042
LL LFPBYYYX LFPGYYYX 090521 METAR LFPG 090521Z 04715KT 9999 FEW030 33/-1 Q1036
KK EGLLYYYX LFPNYYYX 250459 METAR LFPG 250459Z 27510KT 9999 FEW030 35/0 Q1062
KK EGLLYYYX LFPGYYYX EGLLYYYX 181025 METAR LFPG 181025Z 32528KT 9999 FEW030 -8/7 Q1083
FF LFPOYYYX EGLLYYYX 022336 METAR LFPG 022336Z 12725KT 9999 FEW030 12/-2 Q1088
DD EGLLYYYX LFPOYYYX 211631 METAR LFPG 211631Z 01529KT 9999 FEW030 26/15 Q1028
FF LFPBYYYX LFPNYYYX 141145 METAR LFPG 141145Z 12539KT 9999 FEW030 7/4 Q1070
DD EDDFYYYX EDDFYYYX LFPGYYYX LFPOYYYX 162203 METAR LFPG 162203Z 20947KT 9999 FEW030 16/0 Q1014
KK EGLLYYYX LFPBYYYX EGLLYYYX 062210 METAR LFPG 062210Z 05219KT 9999 FEW030 -4/16 Q1049
LL EDDFYYYX LFPNYYYX 070223 METAR LFPG 070223Z 26646KT 9999 FEW030 28/-3 Q1099
DD EDDFYYYX LFPOYYYX LFPNYYYX EDDFYYYX 240343 METAR LFPG 240343Z 25421KT 9999 FEW030 1/6 Q1057
KK EGLLYYYX EDDFYYYX 230044 METAR LFPG 230044Z 12250KT 9999 FEW030 23/23 Q1033
KK LFPNYYYX LFPGYYYX LFPNYYYX 140348 METAR LFPG 140348Z 23543KT 9999 FEW030 25/8 Q1010
FF LFPGYYYX EDDFYYYX LFPOYYYX 012301 METAR LFPG 012301Z 34338KT 9999 FEW030 29/-1 Q1005
FF EGLLYYYX LFPBYYYX LFPGYYYX EGLLYYYX 221322 METAR LFPG 221322Z 08623KT 9999 FEW030 -4/8 Q1078
KK LFPGYYYX LFPBYYYX EDDFYYYX 220820 METAR LFPG 220820Z 26124KT 9999 FEW030 9/9 Q1096
DD LFPBYYYX LFPOYYYX LFPBYYYX 111724 METAR LFPG 111724Z 00020KT 9999 FEW030 27/-7 Q1071
KK EGLLYYYX EDDFYYYX 190752 METAR LFPG 190752Z 24429KT 9999 FEW030 20/18 Q1087
KK LFPGYYYX LFPOYYYX EDDFYYYX 081106 METAR LFPG 081106Z 00034KT 9999 FEW030 5/0 Q1017
KK LFPNYYYX LFPNYYYX LFPBYYYX 180639 METAR LFPG 180639Z 08133KT 9999 FEW030 -8/12 Q1079
SS LFPBYYYX LFPNYYYX 241937 METAR LFPG 241937Z 22530KT 9999 FEW030 15/5 Q1035
KK LFPBYYYX LFPOYYYX LFPNYYYX 041044 METAR LFPG 041044Z 18027KT 9999 FEW030 30/23 Q1020
SS LFPOYYYX LFPNYYYX LFPBYYYX 032126 METAR LFPG 032126Z 32933KT 9999 FEW030 8/6 Q1067
FF EGLLYYYX LFPBYYYX 162156 METAR LFPG 162156Z 13327KT 9999 FEW030 -8/-4 Q1043
KK LFPBYYYX LFPBYYYX LFPGYYYX 110217 METAR LFPG 110217Z 23116KT 9999 FEW030 -8/19 Q1079
LL LFPNYYYX LFPGYYYX EDDFYYYX 142326 METAR LFPG 142326Z 28131KT 9999 FEW030 22/6 Q1087
SS LFPBYYYX LFPGYYYX 121346 METAR LFPG 121346Z 32018KT 9999 FEW030 8/13 Q1080
SS LFPGYYYX LFPOYYYX 110200 METAR LFPG 110200Z 35010KT 9999 FEW030 35/25 Q1042
SS LFPGYYYX LFPGYYYX 090439 METAR LFPG 090439Z 13745KT 9999 FEW030 15/21 Q1010
FF LFPGYYYX LFPGYYYX 150145 METAR LFPG 150145Z 00443KT 9999 FEW030 29/19 Q1014
LL LFPNYYYX LFPNYYYX 170826 METAR LFPG 170826Z 08622KT 9999 FEW030 30/15 Q1003
SS LFPNYYYX LFPGYYYX 070554 METAR LFPG 070554Z 30227KT 9999 FEW030 9/5 Q1075
DD LFPOYYYX LFPNYYYX EDDFYYYX LFPGYYYX 141001 METAR LFPG 141001Z 07942KT 9999 FEW030 23/-5 Q1058
GG LFPOYYYX LFPBYYYX LFPGYYYX EDDFYYYX 161220 METAR LFPG 161220Z 27240KT 9999 FEW030 4/9 Q1062
LL LFPBYYYX EDDFYYYX LFPOYYYX LFPNYYYX 170954 METAR LFPG 170954Z 10527KT 9999 FEW030 -7/1 Q1095
SS LFPGYYYX LFPGYYYX LFPNYYYX EGLLYYYX 082341 METAR LFPG 082341Z 25218KT 9999 FEW030 26/6 Q1048
LL LFPNYYYX EDDFYYYX 022320 METAR LFPG 022320Z 28818KT 9999 FEW030 34/21 Q1060
DD EDDFYYYX EGLLYYYX LFPNYYYX 190020 METAR LFPG 190020Z 34229KT 9999 FEW030 14/23 Q1084
LL LFPGYYYX EGLLYYYX LFPNYYYX EDDFYYYX 222057 METAR LFPG 222057Z 12513KT 9999 FEW030 35/7 Q1063
SS EDDFYYYX LFPOYYYX 080310 METAR LFPG 080310Z 22612KT 9999 FEW030 23/16 Q1090
KK LFPGYYYX LFPNYYYX LFPBYYYX EGLLYYYX 221317 METAR LFPG 221317Z 32625KT 9999 FEW030 24/2 Q1009
KK LFPGYYYX LFPGYYYX LFPOYYYX 260437 METAR LFPG 260437Z 00611KT 9999 FEW030 17/1 Q1041
DD LFPBYYYX LFPNYYYX EGLLYYYX 241806 METAR LFPG 241806Z 07543KT 9999 FEW030 3/10 Q1003
GG LFPOYYYX LFPBYYYX LFPOYYYX 152314 METAR LFPG 152314Z 02423KT 9999 FEW030 18/11 Q1085
FF EGLLYYYX EGLLYYYX LFPGYYYX 121608 METAR LFPG 121608Z 26750KT 9999 FEW030 35/4 Q1028
FF LFPOYYYX LFPBYYYX EDDFYYYX LFPGYYYX 100247 METAR LFPG 100247Z 20634KT 9999 FEW030 34/-5 Q1012
DD LFPNYYYX LFPOYYYX LFPNYYYX LFPBYYYX 011121 METAR LFPG 011121Z 34448KT 9999 FEW030 21/-1 Q1037
KK LFPNYYYX LFPGYYYX LFPBYYYX 201129 METAR LFPG 201129Z 27450KT 9999 FEW030 22/-3 Q1056
DD LFPBYYYX LFPNYYYX EDDFYYYX EGLLYYYX 201446 METAR LFPG 201446Z 23840KT 9999 FEW030 24/10 Q1067
DD EGLLYYYX LFPNYYYX LFPBYYYX EGLLYYYX 020244 METAR LFPG 020244Z 06828KT 9999 FEW030 9/-6 Q1059
LL LFPBYYYX LFPOYYYX LFPNYYYX 170645 METAR LFPG 170645Z 17636KT 9999 FEW030 13/-5 Q1037
FF LFPGYYYX LFPBYYYX EGLLYYYX 090606 METAR LFPG 090606Z 23213KT 9999 FEW030 -4/23 Q1065
GG LFPBYYYX EDDFYYYX 180027 METAR LFPG 180027Z 33844KT 9999 FEW030 -2/24 Q1042
SS LFPNYYYX LFPOYYYX LFPBYYYX EDDFYYYX 060952 METAR LFPG 060952Z 02643KT 9999 FEW030 27/15 Q1045
KK LFPBYYYX LFPNYYYX 282212 METAR LFPG 282212Z 02741KT 9999 FEW030 25/1 Q1022
FF LFPGYYYX LFPBYYYX 112009 METAR LFPG 112009Z 28623KT 9999 FEW030 27/-4 Q1099
DD LFPNYYYX EGLLYYYX LFPNYYYX EDDFYYYX 030534 METAR LFPG 030534Z 00728KT 9999 FEW030 12/8 Q1058
SS LFPGYYYX EDDFYYYX LFPNYYYX 072351 METAR LFPG 072351Z 18043KT 9999 FEW030 27/24 Q1044
DD LFPNYYYX LFPGYYYX 050938 METAR LFPG 050938Z 06145KT 9999 FEW030 5/7 Q1032
KK LFPNYYYX LFPOYYYX EGLLYYYX LFPBYYYX 251930 METAR LFPG 251930Z 13111KT 9999 FEW030 25/16 Q1040
SS EDDFYYYX EGLLYYYX LFPOYYYX LFPBYYYX 071641 METAR LFPG 071641Z 26113KT 9999 FEW030 24/24 Q1050
LL LFPNYYYX EGLLYYYX LFPNYYYX 061556 METAR LFPG 061556Z 03413KT 9999 FEW030 0/15 Q1084
KK LFPBYYYX LFPGYYYX LFPOYYYX EGLLYYYX 122104 METAR LFPG 122104Z 12926KT 9999 FEW030 32/4 Q1024
GG LFPBYYYX EGLLYYYX EDDFYYYX 061607 METAR LFPG 061607Z 18213KT 9999 FEW030 13/22 Q1075
DD EDDFYYYX EDDFYYYX LFPBYYYX 200525 METAR LFPG 200525Z 31414KT 9999 FEW030 32/24 Q1075
DD LFPBYYYX LFPNYYYX LFPBYYYX LFPGYYYX 271915 METAR LFPG 271915Z 33849KT 9999 FEW030 33/15 Q1034
SS LFPBYYYX LFPOYYYX 070240 METAR LFPG 070240Z 15032KT 9999 FEW030 32/6 Q1015
SS LFPNYYYX LFPNYYYX LFPGYYYX LFPBYYYX 160142 METAR LFPG 160142Z 31424KT 9999 FEW030 35/6 Q1034
DD EDDFYYYX LFPGYYYX 262215 METAR LFPG 262215Z 21023KT 9999 FEW030 35/-7 Q1054
LL LFPNYYYX LFPOYYYX 280030 METAR LFPG 280030Z 29743KT 9999 FEW030 31/0 Q1036
DD LFPNYYYX LFPBYYYX LFPOYYYX 110458 METAR LFPG 110458Z 24131KT 9999 FEW030 0/13 Q1026
KK LFPNYYYX LFPGYYYX 170347 METAR LFPG 170347Z 08634KT 9999 FEW030 31/22 Q1002
DD EDDFYYYX EDDFYYYX LFPNYYYX LFPBYYYX 211744 METAR LFPG 211744Z 12123KT 9999 FEW030 -2/12 Q1073
DD LFPOYYYX LFPGYYYX LFPBYYYX 050317 METAR LFPG 050317Z 12649KT 9999 FEW030 23/-10 Q1094
LL LFPGYYYX LFPOYYYX 012111 METAR LFPG 012111Z 08820KT 9999 FEW030 -7/22 Q1073
FF EGLLYYYX LFPGYYYX LFPOYYYX EDDFYYYX 201920 METAR LFPG 201920Z 35530KT 9999 FEW030 19/-3 Q1030
KK LFPNYYYX LFPOYYYX LFPNYYYX EDDFYYYX 270917 METAR LFPG 270917Z 26324KT 9999 FEW030 20/7 Q1038
DD EDDFYYYX LFPBYYYX EGLLYYYX 050039 METAR LFPG 050039Z 06550KT 9999 FEW030 4/17 Q1011
DD LFPOYYYX LFPBYYYX LFPNYYYX EDDFYYYX 201124 METAR LFPG 201124Z 14942KT 9999 FEW030 26/1 Q1070
FF EGLLYYYX LFPOYYYX 141701 METAR LFPG 141701Z 18427KT 9999 FEW030 11/9 Q1002
SS EDDFYYYX LFPNYYYX LFPGYYYX 182247 METAR LFPG 182247Z 04813KT 9999 FEW030 24/5 Q1096
KK LFPNYYYX EDDFYYYX 051930 METAR LFPG 051930Z 05431KT 9999 FEW030 26/-2 Q1059
KK LFPGYYYX LFPNYYYX 081937 METAR LFPG 081937Z 24733KT 9999 FEW030 3/7 Q1019
KK EGLLYYYX EDDFYYYX 021513 METAR LFPG 021513Z 34826KT 9999 FEW030 30/-5 Q1048
GG LFPBYYYX LFPBYYYX LFPGYYYX 180819 METAR LFPG 180819Z 22429KT 9999 FEW030 4/-2 Q1002
SS EDDFYYYX EGLLYYYX LFPOYYYX 041027 METAR LFPG 041027Z 28950KT 9999 FEW030 5/4 Q1082
KK LFPOYYYX LFPNYYYX EDDFYYYX LFPGYYYX 281924 METAR LFPG 281924Z 27729KT 9999 FEW030 14/11 Q1070
KK EDDFYYYX EGLLYYYX LFPNYYYX LFPOYYYX 171649 METAR LFPG 171649Z 22117KT 9999 FEW030 25/19 Q1071
DD LFPNYYYX LFPBYYYX LFPGYYYX 150339 METAR LFPG 150339Z 08328KT 9999 FEW030 -4/23 Q1016
SS EGLLYYYX LFPGYYYX EDDFYYYX EGLLYYYX 071246 METAR LFPG 071246Z 22521KT 9999 FEW030 32/15 Q1097
KK EGLLYYYX LFPOYYYX LFPBYYYX 281100 METAR LFPG 281100Z 23128KT 9999 FEW030 25/22 Q1045
DD LFPOYYYX EDDFYYYX LFPBYYYX EGLLYYYX 141300 METAR LFPG 141300Z 34527KT 9999 FEW030 16/10 Q1097
KK LFPGYYYX LFPGYYYX EGLLYYYX LFPBYYYX 091946 METAR LFPG 091946Z 10739KT 9999 FEW030 29/22 Q1084
FF LFPNYYYX LFPOYYYX EDDFYYYX 190118 METAR LFPG 190118Z 35221KT 9999 FEW030 22/-3 Q1080
KK LFPBYYYX LFPNYYYX EGLLYYYX LFPBYYYX 030017 METAR LFPG 030017Z 25821KT 9999 FEW030 -3/3 Q1018
SS EDDFYYYX LFPOYYYX EGLLYYYX 251525 METAR LFPG 251525Z 29719KT 9999 FEW030 7/10 Q1028
SS LFPGYYYX LFPBYYYX LFPGYYYX LFPNYYYX 200121 METAR LFPG 200121Z 29746KT 9999 FEW030 -5/-9 Q1037
LL LFPOYYYX LFPBYYYX EDDFYYYX EGLLYYYX 082049 METAR LFPG 082049Z 12434KT 9999 FEW030 34/5 Q1001
DD EDDFYYYX EDDFYYYX 281258 METAR LFPG 281258Z 17011KT 9999 FEW030 27/15 Q1085
LL EGLLYYYX EGLLYYYX LFPNYYYX EDDFYYYX 282205 METAR LFPG 282205Z 25427KT 9999 FEW030 -5/-3 Q1052
LL LFPNYYYX EDDFYYYX 141630 METAR LFPG 141630Z 18845KT 9999 FEW030 -3/1 Q1019
FF LFPOYYYX LFPBYYYX 221455 METAR LFPG 221455Z 21050KT 9999 FEW030 -7/18 Q1009
KK LFPOYYYX LFPNYYYX EDDFYYYX 041953 METAR LFPG 041953Z 20046KT 9999 FEW030 13/-1 Q1073
FF EGLLYYYX LFPGYYYX LFPBYYYX 030403 METAR LFPG 030403Z 23749KT 9999 FEW030 22/19 Q1100
SS EDDFYYYX LFPGYYYX LFPNYYYX 220400 METAR LFPG 220400Z 02132KT 9999 FEW030 -7/21 Q1035
SS LFPNYYYX LFPOYYYX LFPBYYYX EDDFYYYX 251954 METAR LFPG 251954Z 16235KT 9999 FEW030 -10/25 Q1003
KK EDDFYYYX EGLLYYYX EDDFYYYX 251015 METAR LFPG 251015Z 16836KT 9999 FEW030 9/12 Q1060
KK LFPBYYYX EDDFYYYX LFPGYYYX 200418 METAR LFPG 200418Z 29017KT 9999 FEW030 5/0 Q1006
LL LFPGYYYX LFPOYYYX 231314 METAR LFPG 231314Z 30733KT 9999 FEW030 33/23 Q1015
DD LFPBYYYX EDDFYYYX 010943 METAR LFPG 010943Z 09627KT 9999 FEW030 11/-6 Q1097
FF LFPGYYYX EGLLYYYX LFPGYYYX 110533 METAR LFPG 110533Z 00750KT 9999 FEW030 26/-10 Q1031
KK LFPNYYYX EDDFYYYX EGLLYYYX 050710 METAR LFPG 050710Z 28337KT 9999 FEW030 -8/7 Q1012
DD LFPNYYYX EDDFYYYX 091344 METAR LFPG 091344Z 15813KT 9999 FEW030 10/18 Q1071
DD LFPNYYYX LFPNYYYX EDDFYYYX LFPGYYYX 030643 METAR LFPG 030643Z 21022KT 9999 FEW030 22/-4 Q1049
FF EGLLYYYX EDDFYYYX LFPOYYYX 122312 METAR LFPG 122312Z 04617KT 9999 FEW030 17/-4 Q1058
SS EGLLYYYX LFPNYYYX EDDFYYYX 120813 METAR LFPG 120813Z 28612KT 9999 FEW030 19/6 Q1046
GG EDDFYYYX LFPBYYYX LFPOYYYX 112354 METAR LFPG 112354Z 04827KT 9999 FEW030 24/18 Q1040
FF LFPOYYYX LFPOYYYX LFPBYYYX EDDFYYYX 172210 METAR LFPG 172210Z 05624KT 9999 FEW030 26/4 Q1091
DD LFPGYYYX EGLLYYYX LFPBYYYX EDDFYYYX 250851 METAR LFPG 250851Z 21321KT 9999 FEW030 3/10 Q1063
SS LFPGYYYX LFPNYYYX 091003 METAR LFPG 091003Z 30933KT 9999 FEW030 13/0 Q1019
GG LFPOYYYX LFPBYYYX 161205 METAR LFPG 161205Z 17047KT 9999 FEW030 1/-9 Q1001
FF LFPGYYYX EDDFYYYX LFPNYYYX 220106 METAR LFPG 220106Z 34728KT 9999 FEW030 35/14 Q1010
GG EDDFYYYX EGLLYYYX LFPOYYYX LFPNYYYX 141552 METAR LFPG 141552Z 30933KT 9999 FEW030 31/13 Q1027
LL LFPGYYYX EGLLYYYX EDDFYYYX 141943 METAR LFPG 141943Z 02650KT 9999 FEW030 13/15 Q1061
FF LFPGYYYX LFPBYYYX LFPOYYYX EDDFYYYX 011018 METAR LFPG 011018Z 29422KT 9999 FEW030 9/22 Q1074
SS LFPNYYYX EGLLYYYX LFPNYYYX EDDFYYYX 140823 METAR LFPG 140823Z 06916KT 9999 FEW030 20/14 Q1022
LL LFPOYYYX LFPNYYYX 060623 METAR LFPG 060623Z 35139KT 9999 FEW030 32/9 Q1022
LL LFPNYYYX LFPNYYYX LFPGYYYX LFPBYYYX 171904 METAR LFPG 171904Z 13228KT 9999 FEW030 18/-6 Q1013
FF LFPBYYYX LFPOYYYX 251530 METAR LFPG 251530Z 35911KT 9999 FEW030 27/-5 Q1011
LL EDDFYYYX EGLLYYYX 281227 METAR LFPG 281227Z 27749KT 9999 FEW030 18/4 Q1039
LL LFPNYYYX LFPGYYYX LFPNYYYX LFPOYYYX 120801 METAR LFPG 120801Z 07924KT 9999 FEW030 -5/-3 Q1046
SS EGLLYYYX EDDFYYYX LFPOYYYX LFPBYYYX 091053 METAR LFPG 091053Z 20944KT 9999 FEW030 32/-8 Q1065
LL LFPNYYYX LFPBYYYX LFPGYYYX LFPOYYYX 262254 METAR LFPG 262254Z 34050KT 9999 FEW030 10/24 Q1051
GG LFPOYYYX LFPNYYYX LFPOYYYX LFPGYYYX 280302 METAR LFPG 280302Z 30347KT 9999 FEW030 2/5 Q1021
SS LFPOYYYX LFPGYYYX LFPNYYYX EGLLYYYX 122021 METAR LFPG 122021Z 07932KT 9999 FEW030 16/4 Q1042
SS LFPBYYYX EDDFYYYX EGLLYYYX 121114 METAR LFPG 121114Z 13923KT 9999 FEW030 1/2 Q1078
SS LFPOYYYX EGLLYYYX 141607 METAR LFPG 141607Z 18548KT 9999 FEW030 -4/-10 Q1053
KK LFPGYYYX EGLLYYYX LFPOYYYX LFPGYYYX 110501 METAR LFPG 110501Z 15839KT 9999 FEW030 -10/17 Q1047
GG EGLLYYYX LFPOYYYX 071621 METAR LFPG 071621Z 18831KT 9999 FEW030 7/-7 Q1055
SS LFPOYYYX LFPNYYYX 070631 METAR LFPG 070631Z 24949KT 9999 FEW030 -4/0 Q1027
SS LFPBYYYX LFPNYYYX EGLLYYYX LFPBYYYX 111916 METAR LFPG 111916Z 11321KT 9999 FEW030 22/12 Q1043
DD LFPGYYYX LFPNYYYX EDDFYYYX 242152 METAR LFPG 242152Z 11131KT 9999 FEW030 23/-8 Q1043
GG EGLLYYYX EDDFYYYX EGLLYYYX LFPBYYYX 122304 METAR LFPG 122304Z 22935KT 9999 FEW030 -4/-5 Q1014
GG EDDFYYYX LFPNYYYX EDDFYYYX LFPGYYYX 231051 METAR LFPG 231051Z 19129KT 9999 FEW030 34/-10 Q1064
KK LFPGYYYX LFPOYYYX LFPNYYYX EDDFYYYX 061638 METAR LFPG 061638Z 13632KT 9999 FEW030 30/10 Q1025
FF LFPBYYYX LFPOYYYX EDDFYYYX LFPNYYYX 210256 METAR LFPG 210256Z 03047KT 9999 FEW030 -8/14 Q1062
SS EGLLYYYX LFPOYYYX 111406 METAR LFPG 111406Z 11922KT 9999 FEW030 10/20 Q1019
LL EDDFYYYX LFPNYYYX EDDFYYYX 090913 METAR LFPG 090913Z 31013KT 9999 FEW030 35/22 Q1016
DD LFPBYYYX EDDFYYYX EGLLYYYX LFPNYYYX 210309 METAR LFPG 210309Z 26237KT 9999 FEW030 6/14 Q1083
GG EDDFYYYX LFPGYYYX EGLLYYYX LFPBYYYX 220035 METAR LFPG 220035Z 01242KT 9999 FEW030 9/6 Q1034
FF LFPBYYYX EGLLYYYX 251736 METAR LFPG 251736Z 34313KT 9999 FEW030 30/24 Q1071
GG EGLLYYYX LFPNYYYX LFPGYYYX LFPBYYYX 120218 METAR LFPG 120218Z 35036KT 9999 FEW030 22/19 Q1021
KK EDDFYYYX EGLLYYYX 282028 METAR LFPG 282028Z 00011KT 9999 FEW030 20/3 Q1019
KK EGLLYYYX LFPNYYYX EDDFYYYX 051309 METAR LFPG 051309Z 04014KT 9999 FEW030 8/1 Q1039
DD LFPGYYYX EDDFYYYX LFPNYYYX LFPGYYYX 130817 METAR LFPG 130817Z 25427KT 9999 FEW030 9/-8 Q1057
DD EDDFYYYX LFPBYYYX LFPOYYYX 060045 METAR LFPG 060045Z 12119KT 9999 FEW030 15/21 Q1099
SS LFPOYYYX EDDFYYYX LFPBYYYX EGLLYYYX 210652 METAR LFPG 210652Z 35249KT 9999 FEW030 21/7 Q1007
LL LFPNYYYX EDDFYYYX LFPNYYYX LFPBYYYX 190000 METAR LFPG 190000Z 00147KT 9999 FEW030 31/8 Q1095
KK LFPNYYYX EGLLYYYX 232015 METAR LFPG 232015Z 05030KT 9999 FEW030 -9/2 Q1098
SS LFPNYYYX LFPNYYYX 120950 METAR LFPG 120950Z 24247KT 9999 FEW030 -10/0 Q1045
FF LFPBYYYX LFPOYYYX 070221 METAR LFPG 070221Z 04738KT 9999 FEW030 25/25 Q1019
GG EDDFYYYX LFPOYYYX 191043 METAR LFPG 191043Z 11022KT 9999 FEW030 -2/18 Q1034
FF LFPOYYYX LFPOYYYX EGLLYYYX 242212 METAR LFPG 242212Z 01236KT 9999 FEW030 3/-9 Q1036
DD LFPGYYYX EGLLYYYX LFPBYYYX LFPOYYYX 250853 METAR LFPG 250853Z 08615KT 9999 FEW030 -9/23 Q1044
LL LFPBYYYX LFPGYYYX LFPBYYYX EDDFYYYX 231447 METAR LFPG 231447Z 18532KT 9999 FEW030 19/12 Q1077
GG LFPGYYYX EGLLYYYX 160337 METAR LFPG 160337Z 00843KT 9999 FEW030 -5/15 Q1030
DD LFPOYYYX LFPGYYYX EGLLYYYX EDDFYYYX 271702 METAR LFPG 271702Z 12944KT 9999 FEW030 13/13 Q1079
DD EDDFYYYX EDDFYYYX LFPNYYYX 171248 METAR LFPG 171248Z 32812KT 9999 FEW030 30/14 Q1024
SS LFPGYYYX LFPOYYYX 100630 METAR LFPG 100630Z 33723KT 9999 FEW030 27/-8 Q1020
SS EDDFYYYX LFPNYYYX LFPOYYYX LFPBYYYX 150908 METAR LFPG 150908Z 28330KT 9999 FEW030 14/-6 Q1005
LL LFPGYYYX LFPBYYYX 171428 METAR LFPG 171428Z 21543KT 9999 FEW030 14/-4 Q1029
DD EGLLYYYX LFPBYYYX LFPGYYYX 260723 METAR LFPG 260723Z 29241KT 9999 FEW030 -7/12 Q1062
SS LFPBYYYX EDDFYYYX 100541 METAR LFPG 100541Z 06245KT 9999 FEW030 6/20 Q1035
LL LFPOYYYX LFPOYYYX 220259 METAR LFPG 220259Z 30531KT 9999 FEW030 3/22 Q1046
KK LFPNYYYX LFPGYYYX 261625 METAR LFPG 261625Z 28211KT 9999 FEW030 4/12 Q1084
SS EGLLYYYX EGLLYYYX EDDFYYYX 041009 METAR LFPG 041009Z 18635KT 9999 FEW030 34/9 Q1007
FF EGLLYYYX LFPBYYYX 191531 METAR LFPG 191531Z 11311KT 9999 FEW030 0/7 Q1089
SS LFPBYYYX LFPOYYYX EGLLYYYX 221201 METAR LFPG 221201Z 31326KT 9999 FEW030 22/18 Q1044
GG LFPNYYYX LFPBYYYX LFPGYYYX 152116 METAR LFPG 152116Z 12319KT 9999 FEW030 30/6 Q1046
KK LFPBYYYX LFPBYYYX EDDFYYYX 190859 METAR LFPG 190859Z 04350KT 9999 FEW030 -6/13 Q1003
DD LFPNYYYX LFPOYYYX LFPNYYYX 162252 METAR LFPG 162252Z 11828KT 9999 FEW030 7/0 Q1043
KK LFPNYYYX LFPGYYYX LFPNYYYX EGLLYYYX 070317 METAR LFPG 070317Z 10326KT 9999 FEW030 -2/21 Q1090
KK LFPOYYYX EGLLYYYX 272308 METAR LFPG 272308Z 30837KT 9999 FEW030 30/2 Q1035
KK LFPNYYYX LFPOYYYX 281126 METAR LFPG 281126Z 07019KT 9999 FEW030 24/16 Q1014
FF EDDFYYYX LFPGYYYX 272054 METAR LFPG 272054Z 35322KT 9999 FEW030 19/-8 Q1099
KK LFPNYYYX EGLLYYYX 071209 METAR LFPG 071209Z 13016KT 9999 FEW030 10/-3 Q1004
FF LFPBYYYX EDDFYYYX 130522 METAR LFPG 130522Z 17835KT 9999 FEW030 32/4 Q1062
KK EGLLYYYX EDDFYYYX 111821 METAR LFPG 111821Z 24123KT 9999 FEW030 28/16 Q1078
GG LFPOYYYX LFPGYYYX LFPBYYYX 252013 METAR LFPG 252013Z 29750KT 9999 FEW030 -9/14 Q1092
FF EDDFYYYX LFPGYYYX EDDFYYYX 160120 METAR LFPG 160120Z 15317KT 9999 FEW030 33/-10 Q1042
FF EDDFYYYX LFPNYYYX EGLLYYYX 180325 METAR LFPG 180325Z 27032KT 9999 FEW030 7/25 Q1041
GG LFPOYYYX LFPOYYYX EDDFYYYX LFPBYYYX 010330 METAR LFPG 010330Z 35121KT 9999 FEW030 6/9 Q1084
DD LFPBYYYX LFPNYYYX LFPBYYYX LFPGYYYX 272221 METAR LFPG 272221Z 21526KT 9999 FEW030 3/19 Q1015
DD LFPBYYYX EGLLYYYX LFPNYYYX 010102 METAR LFPG 010102Z 27238KT 9999 FEW030 30/13 Q1042
FF LFPNYYYX LFPOYYYX 052053 METAR LFPG 052053Z 16039KT 9999 FEW030 -3/24 Q1073
GG EGLLYYYX EDDFYYYX LFPBYYYX 090515 METAR LFPG 090515Z 05233KT 9999 FEW030 12/-7 Q1046
DD LFPOYYYX EDDFYYYX LFPBYYYX 092134 METAR LFPG 092134Z 25420KT 9999 FEW030 19/0 Q1070
GG LFPNYYYX LFPOYYYX 250851 METAR LFPG 250851Z 13012KT 9999 FEW030 29/11 Q1061
KK EDDFYYYX LFPGYYYX LFPOYYYX EDDFYYYX 241637 METAR LFPG 241637Z 29545KT 9999 FEW030 2/22 Q1076
LL LFPBYYYX EDDFYYYX LFPGYYYX 170619 METAR LFPG 170619Z 28631KT 9999 FEW030 18/-5 Q1063
FF EDDFYYYX EDDFYYYX EGLLYYYX 050042 METAR LFPG 050042Z 30821KT 9999 FEW030 14/17 Q1087
LL LFPBYYYX LFPGYYYX 260454 METAR LFPG 260454Z 14428KT 9999 FEW030 -1/16 Q1058
LL LFPBYYYX EDDFYYYX 030314 METAR LFPG 030314Z 16419KT 9999 FEW030 33/17 Q1022
KK EGLLYYYX LFPOYYYX EDDFYYYX LFPBYYYX 090008 METAR LFPG 090008Z 17417KT 9999 FEW030 -6/20 Q1038
LL LFPGYYYX EDDFYYYX 242357 METAR LFPG 242357Z 31310KT 9999 FEW030 17/0 Q1075
KK EGLLYYYX LFPOYYYX LFPNYYYX 230332 METAR LFPG 230332Z 03225KT 9999 FEW030 9/8 Q1051
KK EDDFYYYX LFPBYYYX LFPNYYYX 120042 METAR LFPG 120042Z 07031KT 9999 FEW030 27/20 Q1073
GG LFPNYYYX EGLLYYYX LFPNYYYX LFPGYYYX 101047 METAR LFPG 101047Z 17135KT 9999 FEW030 31/13 Q1097
GG LFPBYYYX LFPNYYYX EGLLYYYX LFPBYYYX 190216 METAR LFPG 190216Z 33443KT 9999 FEW030 0/22 Q1026
KK LFPOYYYX LFPNYYYX 061435 METAR LFPG 061435Z 21024KT 9999 FEW030 7/7 Q1088
SS EDDFYYYX EDDFYYYX 270835 METAR LFPG 270835Z 32033KT 9999 FEW030 5/1 Q1067
FF EGLLYYYX LFPOYYYX LFPGYYYX 060608 METAR LFPG 060608Z 32124KT 9999 FEW030 -3/25 Q1050
FF LFPOYYYX LFPGYYYX LFPOYYYX LFPNYYYX 040309 METAR LFPG 040309Z 19816KT 9999 FEW030 8/18 Q1085
DD LFPGYYYX LFPOYYYX LFPGYYYX LFPBYYYX 160433 METAR LFPG 160433Z 24615KT 9999 FEW030 28/-4 Q1036
DD EDDFYYYX LFPBYYYX 271710 METAR LFPG 271710Z 11347KT 9999 FEW030 6/23 Q1085
DD EGLLYYYX LFPGYYYX EDDFYYYX EGLLYYYX 161013 METAR LFPG 161013Z 34737KT 9999 FEW030 35/21 Q1019
FF LFPBYYYX EGLLYYYX 152247 METAR LFPG 152247Z 35543KT 9999 FEW030 23/1 Q1019
SS LFPGYYYX LFPOYYYX 131503 METAR LFPG 131503Z 15613KT 9999 FEW030 7/10 Q1009
GG LFPNYYYX LFPOYYYX EDDFYYYX 202305 METAR LFPG 202305Z 13821KT 9999 FEW030 -4/-3 Q1016
DD EGLLYYYX LFPGYYYX EDDFYYYX 150320 METAR LFPG 150320Z 04743KT 9999 FEW030 20/3 Q1012
KK EDDFYYYX LFPNYYYX LFPOYYYX EDDFYYYX 181055 METAR LFPG 181055Z 05934KT 9999 FEW030 -4/2 Q1091
LL LFPGYYYX EGLLYYYX 191201 METAR LFPG 191201Z 19627KT 9999 FEW030 -8/8 Q1064
GG EGLLYYYX EDDFYYYX LFPGYYYX EGLLYYYX 270426 METAR LFPG 270426Z 32611KT 9999 FEW030 15/16 Q1014
GG EDDFYYYX LFPNYYYX LFPGYYYX 220123 METAR LFPG 220123Z 07340KT 9999 FEW030 8/5 Q1071
DD LFPOYYYX LFPBYYYX LFPOYYYX EDDFYYYX 180323 METAR LFPG 180323Z 23416KT 9999 FEW030 32/13 Q1073
DD LFPOYYYX LFPBYYYX EGLLYYYX 090952 METAR LFPG 090952Z 08333KT 9999 FEW030 11/21 Q1050
FF LFPBYYYX LFPNYYYX LFPBYYYX LFPOYYYX 161356 METAR LFPG 161356Z 35017KT 9999 FEW030 35/13 Q1007
LL EGLLYYYX LFPNYYYX EGLLYYYX LFPGYYYX 170636 METAR LFPG 170636Z 08016KT 9999 FEW030 -9/-7 Q1016
FF EDDFYYYX EDDFYYYX LFPNYYYX 151331 METAR LFPG 151331Z 07417KT 9999 FEW030 7/8 Q1031
FF EDDFYYYX LFPOYYYX 111333 METAR LFPG 111333Z 32917KT 9999 FEW030 0/-10 Q1071
FF LFPOYYYX LFPGYYYX 101434 METAR LFPG 101434Z 03043KT 9999 FEW030 15/13 Q1021
GG LFPGYYYX EDDFYYYX LFPOYYYX 280819 METAR LFPG 280819Z 12145KT 9999 FEW030 -1/24 Q1057
KK EDDFYYYX LFPOYYYX 011657 METAR LFPG 011657Z 15122KT 9999 FEW030 23/25 Q1082
GG LFPNYYYX LFPNYYYX EGLLYYYX LFPGYYYX 092111 METAR LFPG 092111Z 14231KT 9999 FEW030 15/7 Q1069
SS EDDFYYYX LFPOYYYX LFPNYYYX 141556 METAR LFPG 141556Z 01447KT 9999 FEW030 26/0 Q1094
GG LFPNYYYX LFPNYYYX 020956 METAR LFPG 020956Z 32623KT 9999 FEW030 9/-5 Q1069
SS LFPGYYYX EGLLYYYX LFPOYYYX LFPBYYYX 081347 METAR LFPG 081347Z 26230KT 9999 FEW030 27/20 Q1020
SS EDDFYYYX LFPOYYYX EGLLYYYX EDDFYYYX 090953 METAR LFPG 090953Z 34536KT 9999 FEW030 -9/12 Q1022
FF LFPGYYYX LFPNYYYX 100446 METAR LFPG 100446Z 21735KT 9999 FEW030 32/2 Q1015
LL LFPGYYYX EGLLYYYX LFPBYYYX LFPGYYYX 261848 METAR LFPG 261848Z 27936KT 9999 FEW030 1/11 Q1052
DD LFPBYYYX LFPNYYYX LFPBYYYX LFPOYYYX 131805 METAR LFPG 131805Z 02914KT 9999 FEW030 31/-10 Q1034
KK EGLLYYYX EDDFYYYX EGLLYYYX 041506 METAR LFPG 041506Z 21311KT 9999 FEW030 10/24 Q1011
KK LFPBYYYX LFPGYYYX LFPBYYYX LFPOYYYX 102237 METAR LFPG 102237Z 21715KT 9999 FEW030 30/16 Q1099
DD EDDFYYYX EGLLYYYX LFPOYYYX LFPGYYYX 172102 METAR LFPG 172102Z 08033KT 9999 FEW030 0/4 Q1079
LL EGLLYYYX LFPOYYYX LFPGYYYX LFPBYYYX 070354 METAR LFPG 070354Z 31011KT 9999 FEW030 -5/23 Q1072
DD EDDFYYYX EGLLYYYX 100510 METAR LFPG 100510Z 24613KT 9999 FEW030 -8/14 Q1089
DD EDDFYYYX LFPBYYYX 251011 METAR LFPG 251011Z 18515KT 9999 FEW030 31/2 Q1090
LL LFPBYYYX LFPOYYYX 250720 METAR LFPG 250720Z 14644KT 9999 FEW030 22/2 Q1071
LL EDDFYYYX LFPOYYYX LFPNYYYX LFPBYYYX 121851 METAR LFPG 121851Z 11947KT 9999 FEW030 11/17 Q1048
DD EDDFYYYX LFPGYYYX 262059 METAR LFPG 262059Z 19335KT 9999 FEW030 -9/22 Q1017
GG LFPOYYYX EGLLYYYX LFPBYYYX 092105 METAR LFPG 092105Z 26435KT 9999 FEW030 17/10 Q1090
FF LFPNYYYX LFPGYYYX LFPBYYYX 261432 METAR LFPG 261432Z 31235KT 9999 FEW030 -4/25 Q1096
DD LFPBYYYX LFPGYYYX LFPNYYYX 070133 METAR LFPG 070133Z 34335KT 9999 FEW030 4/16 Q1028
LL EDDFYYYX EGLLYYYX 231344 METAR LFPG 231344Z 27930KT 9999 FEW030 1/9 Q1009
LL LFPBYYYX EDDFYYYX LFPNYYYX LFPOYYYX 161158 METAR LFPG 161158Z 04519KT 9999 FEW030 7/8 Q1076
GG EDDFYYYX EGLLYYYX 251303 METAR LFPG 251303Z 29827KT 9999 FEW030 34/-6 Q1080
SS EDDFYYYX LFPNYYYX LFPOYYYX LFPGYYYX 050254 METAR LFPG 050254Z 09535KT 9999 FEW030 20/10 Q1001
SS LFPGYYYX EGLLYYYX 061820 METAR LFPG 061820Z 08639KT 9999 FEW030 34/-2 Q1024
SS EGLLYYYX LFPGYYYX LFPBYYYX EDDFYYYX 172334 METAR LFPG 172334Z 21334KT 9999 FEW030 31/24 Q1035
LL LFPGYYYX EDDFYYYX 020415 METAR LFPG 020415Z 07621KT 9999 FEW030 15/19 Q1057
SS LFPBYYYX LFPNYYYX LFPGYYYX 112004 METAR LFPG 112004Z 20111KT 9999 FEW030 2/4 Q1027
KK EDDFYYYX EDDFYYYX 120429 METAR LFPG 120429Z 12642KT 9999 FEW030 24/2 Q1098
LL EGLLYYYX EDDFYYYX 032245 METAR LFPG 032245Z 27641KT 9999 FEW030 6/21 Q1075
FF LFPBYYYX EGLLYYYX 051801 METAR LFPG 051801Z 06750KT 9999 FEW030 0/-1 Q1030
FF LFPGYYYX LFPBYYYX EGLLYYYX LFPGYYYX 131912 METAR LFPG 131912Z 35641KT 9999 FEW030 28/12 Q1027
SS LFPNYYYX LFPNYYYX EGLLYYYX 030835 METAR LFPG 030835Z 20149KT 9999 FEW030 19/18 Q1015
DD LFPOYYYX LFPGYYYX EDDFYYYX LFPNYYYX 261446 METAR LFPG 261446Z 28743KT 9999 FEW030 0/-2 Q1058
FF LFPGYYYX LFPBYYYX 070201 METAR LFPG 070201Z 31634KT 9999 FEW030 -3/-2 Q1017
LL EDDFYYYX LFPNYYYX LFPOYYYX 152327 METAR LFPG 152327Z 28536KT 9999 FEW030 -8/-1 Q1081
FF LFPBYYYX LFPNYYYX LFPOYYYX 232003 METAR LFPG 232003Z 10317KT 9999 FEW030 -2/22 Q1061
DD LFPNYYYX LFPGYYYX EGLLYYYX EDDFYYYX 042126 METAR LFPG 042126Z 04421KT 9999 FEW030 -7/-9 Q1076
LL EDDFYYYX LFPOYYYX 110352 METAR LFPG 110352Z 22226KT 9999 FEW030 20/10 Q1011
LL EGLLYYYX EDDFYYYX EGLLYYYX LFPNYYYX 280227 METAR LFPG 280227Z 32347KT 9999 FEW030 7/-1 Q1044
FF LFPOYYYX EGLLYYYX LFPNYYYX 140808 METAR LFPG 140808Z 24328KT 9999 FEW030 3/13 Q1046
GG LFPBYYYX EDDFYYYX LFPNYYYX LFPBYYYX 012256 METAR LFPG 012256Z 02321KT 9999 FEW030 21/10 Q1005
LL LFPOYYYX EGLLYYYX LFPBYYYX EDDFYYYX 201723 METAR LFPG 201723Z 08047KT 9999 FEW030 2/20 Q1049
GG LFPBYYYX LFPBYYYX 100554 METAR LFPG 100554Z 09431KT 9999 FEW030 8/4 Q1010
SS EGLLYYYX LFPOYYYX LFPGYYYX 210129 METAR LFPG 210129Z 27639KT 9999 FEW030 1/20 Q1098
GG EGLLYYYX LFPNYYYX LFPBYYYX 112223 METAR LFPG 112223Z 10050KT 9999 FEW030 13/-5 Q1000
GG LFPBYYYX LFPNYYYX EGLLYYYX 250844 METAR LFPG 250844Z 29046KT 9999 FEW030 21/11 Q1018
DD EGLLYYYX EGLLYYYX LFPOYYYX LFPBYYYX 141353 METAR LFPG 141353Z 21433KT 9999 FEW030 8/11 Q1019
KK LFPBYYYX LFPGYYYX EDDFYYYX LFPNYYYX 050014 METAR LFPG 050014Z 32027KT 9999 FEW030 17/-5 Q1026
GG EGLLYYYX LFPNYYYX EGLLYYYX 130758 METAR LFPG 130758Z 25521KT 9999 FEW030 19/-6 Q1051
FF EGLLYYYX LFPNYYYX EGLLYYYX EDDFYYYX 101750 METAR LFPG 101750Z 01836KT 9999 FEW030 35/8 Q1039
DD LFPNYYYX EDDFYYYX LFPNYYYX LFPBYYYX 140834 METAR LFPG 140834Z 03248KT 9999 FEW030 23/-8 Q1042
LL LFPNYYYX EDDFYYYX LFPNYYYX LFPBYYYX 020201 METAR LFPG 020201Z 05339KT 9999 FEW030 20/-5 Q1072
GG LFPOYYYX LFPNYYYX EGLLYYYX LFPOYYYX 050908 METAR LFPG 050908Z 10314KT 9999 FEW030 24/20 Q1009
FF EDDFYYYX LFPNYYYX LFPBYYYX EDDFYYYX 030335 METAR LFPG 030335Z 28718KT 9999 FEW030 17/19 Q1076
SS LFPBYYYX LFPNYYYX LFPGYYYX LFPOYYYX 200034 METAR LFPG 200034Z 10726KT 9999 FEW030 1/-9 Q1087
DD LFPNYYYX LFPNYYYX 191801 METAR LFPG 191801Z 28449KT 9999 FEW030 27/13 Q1040
DD EGLLYYYX LFPNYYYX EGLLYYYX 160126 METAR LFPG 160126Z 31741KT 9999 FEW030 31/23 Q1012
DD EGLLYYYX EGLLYYYX LFPBYYYX 230738 METAR LFPG 230738Z 02310KT 9999 FEW030 33/-9 Q1024
LL EGLLYYYX EGLLYYYX LFPGYYYX LFPOYYYX 110704 METAR LFPG 110704Z 12038KT 9999 FEW030 8/8 Q1058
KK EGLLYYYX LFPNYYYX 232000 METAR LFPG 232000Z 08047KT 9999 FEW030 3/23 Q1098
FF LFPOYYYX LFPBYYYX LFPGYYYX EDDFYYYX 020643 METAR LFPG 020643Z 07840KT 9999 FEW030 3/-8 Q1060
KK LFPGYYYX LFPGYYYX 221903 METAR LFPG 221903Z 27247KT 9999 FEW030 9/13 Q1044
FF EGLLYYYX LFPNYYYX EGLLYYYX LFPBYYYX 182307 METAR LFPG 182307Z 15038KT 9999 FEW030 -6/5 Q1044
SS LFPBYYYX EDDFYYYX LFPNYYYX 260509 METAR LFPG 260509Z 12535KT 9999 FEW030 32/-5 Q1031
FF EDDFYYYX EGLLYYYX 071826 METAR LFPG 071826Z 32326KT 9999 FEW030 4/-9 Q1073
DD EDDFYYYX LFPGYYYX LFPOYYYX EGLLYYYX 080330 METAR LFPG 080330Z 00818KT 9999 FEW030 16/-6 Q1095
LL EGLLYYYX EGLLYYYX 191200 METAR LFPG 191200Z 08334KT 9999 FEW030 20/-5 Q1093
GG LFPOYYYX LFPGYYYX 110038 METAR LFPG 110038Z 02211KT 9999 FEW030 34/1 Q1079
GG LFPNYYYX LFPGYYYX LFPOYYYX 030327 METAR LFPG 030327Z 27314KT 9999 FEW030 31/2 Q1100
LL LFPGYYYX EGLLYYYX 040305 METAR LFPG 040305Z 07827KT 9999 FEW030 28/-10 Q1049
FF EDDFYYYX LFPOYYYX LFPBYYYX 171818 METAR LFPG 171818Z 21329KT 9999 FEW030 5/10 Q1002
DD LFPBYYYX EGLLYYYX LFPGYYYX LFPNYYYX 132244 METAR LFPG 132244Z 04212KT 9999 FEW030 -7/-5 Q1082
LL LFPBYYYX LFPNYYYX EDDFYYYX LFPOYYYX 120946 METAR LFPG 120946Z 04813KT 9999 FEW030 32/15 Q1045
DD LFPNYYYX EDDFYYYX LFPBYYYX LFPGYYYX 240831 METAR LFPG 240831Z 09738KT 9999 FEW030 6/21 Q1079
SS EDDFYYYX LFPOYYYX LFPBYYYX 230037 METAR LFPG 230037Z 23923KT 9999 FEW030 23/18 Q1079
DD EDDFYYYX LFPBYYYX LFPGYYYX 260546 METAR LFPG 260546Z 24631KT 9999 FEW030 1/11 Q1081
DD EDDFYYYX EDDFYYYX LFPNYYYX 092152 METAR LFPG 092152Z 18820KT 9999 FEW030 21/5 Q1081
FF LFPGYYYX LFPNYYYX LFPGYYYX LFPBYYYX 191653 METAR LFPG 191653Z 30237KT 9999 FEW030 13/2 Q1016
LL LFPNYYYX LFPBYYYX LFPOYYYX 210524 METAR LFPG 210524Z 14114KT 9999 FEW030 24/9 Q1072
KK LFPOYYYX LFPGYYYX LFPOYYYX EGLLYYYX 011404 METAR LFPG 011404Z 07322KT 9999 FEW030 35/2 Q1004
KK LFPGYYYX LFPOYYYX 020302 METAR LFPG 020302Z 05035KT 9999 FEW030 -10/12 Q1037
DD LFPBYYYX LFPBYYYX LFPGYYYX LFPNYYYX 210048 METAR LFPG 210048Z 01115KT 9999 FEW030 -4/-1 Q1079
SS EDDFYYYX EDDFYYYX EGLLYYYX 241315 METAR LFPG 241315Z 02636KT 9999 FEW030 19/4 Q1013
GG LFPGYYYX LFPGYYYX LFPOYYYX 101854 METAR LFPG 101854Z 09226KT 9999 FEW030 2/-6 Q1046
KK EDDFYYYX LFPGYYYX 271024 METAR LFPG 271024Z 26217KT 9999 FEW030 27/-6 Q1007
FF EGLLYYYX LFPGYYYX LFPOYYYX 160120 METAR LFPG 160120Z 10138KT 9999 FEW030 25/-10 Q1023
FF LFPNYYYX LFPOYYYX 170626 METAR LFPG 170626Z 34940KT 9999 FEW030 -1/-3 Q1069
LL LFPNYYYX LFPGYYYX LFPNYYYX LFPBYYYX 230542 METAR LFPG 230542Z 28028KT 9999 FEW030 12/6 Q1031
GG EGLLYYYX LFPGYYYX LFPNYYYX EGLLYYYX 251004 METAR LFPG 251004Z 23330KT 9999 FEW030 18/4 Q1069
GG LFPGYYYX LFPOYYYX 121010 METAR LFPG 121010Z 10413KT 9999 FEW030 23/18 Q1035
SS LFPGYYYX LFPOYYYX 230025 METAR LFPG 230025Z 33949KT 9999 FEW030 31/23 Q1019
DD LFPBYYYX EDDFYYYX LFPNYYYX 152136 METAR LFPG 152136Z 15326KT 9999 FEW030 5/12 Q1031
DD LFPBYYYX EGLLYYYX EDDFYYYX LFPNYYYX 280915 METAR LFPG 280915Z 22937KT 9999 FEW030 35/24 Q1056
KK LFPGYYYX LFPGYYYX LFPOYYYX 250421 METAR LFPG 250421Z 16448KT 9999 FEW030 -7/-8 Q1047
KK EDDFYYYX LFPOYYYX 170523 METAR LFPG 170523Z 04443KT 9999 FEW030 12/8 Q1078
LL LFPOYYYX LFPNYYYX 192211 METAR LFPG 192211Z 22513KT 9999 FEW030 18/19 Q1071
SS LFPNYYYX EDDFYYYX LFPOYYYX LFPGYYYX 010410 METAR LFPG 010410Z 32813KT 9999 FEW030 21/18 Q1000
FF LFPNYYYX LFPNYYYX 050632 METAR LFPG 050632Z 35129KT 9999 FEW030 1/8 Q1093
GG EDDFYYYX LFPBYYYX 202255 METAR LFPG 202255Z 04133KT 9999 FEW030 -10/17 Q1019
KK LFPOYYYX LFPOYYYX 120328 METAR LFPG 120328Z 02039KT 9999 FEW030 1/12 Q1062
LL EGLLYYYX LFPGYYYX LFPBYYYX EGLLYYYX 132135 METAR LFPG 132135Z 20419KT 9999 FEW030 28/11 Q1090
DD EDDFYYYX LFPNYYYX 160756 METAR LFPG 160756Z 22317KT 9999 FEW030 18/16 Q1057
DD LFPGYYYX LFPOYYYX LFPGYYYX 210849 METAR LFPG 210849Z 27620KT 9999 FEW030 26/3 Q1053
SS EDDFYYYX LFPOYYYX EGLLYYYX LFPNYYYX 030458 METAR LFPG 030458Z 03626KT 9999 FEW030 -7/12 Q1075
LL LFPGYYYX LFPGYYYX LFPOYYYX 211417 METAR LFPG 211417Z 05630KT 9999 FEW030 4/-9 Q1040
LL EDDFYYYX LFPNYYYX EDDFYYYX LFPGYYYX 232242 METAR LFPG 232242Z 29110KT 9999 FEW030 0/23 Q1072
LL LFPOYYYX LFPBYYYX LFPOYYYX 022236 METAR LFPG 022236Z 31125KT 9999 FEW030 0/-2 Q1040
LL LFPOYYYX LFPGYYYX LFPOYYYX EGLLYYYX 260923 METAR LFPG 260923Z 29432KT 9999 FEW030 -1/3 Q1035
FF EDDFYYYX EGLLYYYX 281637 METAR LFPG 281637Z 26649KT 9999 FEW030 30/-2 Q1043
GG EGLLYYYX EDDFYYYX 152128 METAR LFPG 152128Z 24649KT 9999 FEW030 7/16 Q1074
FF EGLLYYYX LFPOYYYX LFPNYYYX LFPGYYYX 231708 METAR LFPG 231708Z 21235KT 9999 FEW030 33/5 Q1050
LL EGLLYYYX LFPBYYYX LFPGYYYX LFPNYYYX 230512 METAR LFPG 230512Z 20737KT 9999 FEW030 33/15 Q1039
GG LFPNYYYX LFPOYYYX EGLLYYYX 280707 METAR LFPG 280707Z 10713KT 9999 FEW030 23/22 Q1003
FF EGLLYYYX LFPOYYYX LFPBYYYX EGLLYYYX 012306 METAR LFPG 012306Z 08134KT 9999 FEW030 -8/13 Q1039
LL LFPGYYYX LFPOYYYX EGLLYYYX LFPNYYYX 280803 METAR LFPG 280803Z 02137KT 9999 FEW030 8/22 Q1048
LL LFPBYYYX LFPOYYYX 141048 METAR LFPG 141048Z 33622KT 9999 FEW030 -1/24 Q1078
FF LFPOYYYX LFPOYYYX 230306 METAR LFPG 230306Z 17435KT 9999 FEW030 -5/10 Q1007
LL LFPNYYYX EDDFYYYX LFPGYYYX LFPNYYYX 140521 METAR LFPG 140521Z 20813KT 9999 FEW030 -9/8 Q1027
GG LFPOYYYX LFPBYYYX LFPNYYYX 140829 METAR LFPG 140829Z 17727KT 9999 FEW030 13/4 Q1002
GG EDDFYYYX LFPOYYYX LFPNYYYX 020236 METAR LFPG 020236Z 02015KT 9999 FEW030 32/-9 Q1000
KK LFPGYYYX LFPNYYYX 031843 METAR LFPG 031843Z 03848KT 9999 FEW030 8/-8 Q1058
LL LFPGYYYX LFPGYYYX EGLLYYYX 211457 METAR LFPG 211457Z 22728KT 9999 FEW030 32/8 Q1089
GG EGLLYYYX LFPNYYYX 102236 METAR LFPG 102236Z 03731KT 9999 FEW030 9/9 Q1088
KK LFPGYYYX LFPNYYYX LFPGYYYX 040122 METAR LFPG 040122Z 02821KT 9999 FEW030 26/2 Q1087
DD EGLLYYYX LFPNYYYX EDDFYYYX 021134 METAR LFPG 021134Z 07623KT 9999 FEW030 14/0 Q1041
LL LFPNYYYX EDDFYYYX LFPGYYYX EGLLYYYX 281703 METAR LFPG 281703Z 05143KT 9999 FEW030 5/16 Q1025
GG EGLLYYYX EDDFYYYX LFPGYYYX 092020 METAR LFPG 092020Z 12836KT 9999 FEW030 28/9 Q1013
DD LFPBYYYX LFPGYYYX 281833 METAR LFPG 281833Z 08824KT 9999 FEW030 13/-3 Q1061
GG EDDFYYYX LFPBYYYX LFPOYYYX 221027 METAR LFPG 221027Z 07649KT 9999 FEW030 31/10 Q1038
SS LFPNYYYX EGLLYYYX LFPOYYYX 100426 METAR LFPG 100426Z 11237KT 9999 FEW030 -10/20 Q1051
FF EDDFYYYX EGLLYYYX 041235 METAR LFPG 041235Z 11543KT 9999 FEW030 27/10 Q1076
FF EDDFYYYX LFPGYYYX LFPOYYYX 080010 METAR LFPG 080010Z 29445KT 9999 FEW030 7/-4 Q1008
KK LFPGYYYX EDDFYYYX LFPBYYYX LFPOYYYX 200402 METAR LFPG 200402Z 10635KT 9999 FEW030 28/24 Q1048
DD LFPNYYYX LFPGYYYX LFPBYYYX 211100 METAR LFPG 211100Z 03311KT 9999 FEW030 3/-5 Q1090
KK LFPNYYYX LFPOYYYX EGLLYYYX EDDFYYYX 080500 METAR LFPG 080500Z 24722KT 9999 FEW030 35/-2 Q1044
FF EGLLYYYX LFPOYYYX EDDFYYYX LFPGYYYX 151102 METAR LFPG 151102Z 09827KT 9999 FEW030 33/3 Q1014
FF EGLLYYYX LFPNYYYX 180952 METAR LFPG 180952Z 03333KT 9999 FEW030 4/-9 Q1081
FF LFPBYYYX LFPBYYYX LFPGYYYX 110929 METAR LFPG 110929Z 22133KT 9999 FEW030 -7/-5 Q1022
DD EDDFYYYX EGLLYYYX LFPOYYYX LFPBYYYX 241932 METAR LFPG 241932Z 20939KT 9999 FEW030 24/25 Q1093
GG EGLLYYYX EDDFYYYX 111514 METAR LFPG 111514Z 23937KT 9999 FEW030 -3/4 Q1072
GG EDDFYYYX LFPBYYYX 100343 METAR LFPG 100343Z 25321KT 9999 FEW030 1/-8 Q1054
SS LFPOYYYX LFPOYYYX 211137 METAR LFPG 211137Z 30219KT 9999 FEW030 -10/24 Q1030
LL EGLLYYYX LFPBYYYX EGLLYYYX LFPGYYYX 201250 METAR LFPG 201250Z 04813KT 9999 FEW030 7/17 Q1036
DD EGLLYYYX LFPBYYYX 221222 METAR LFPG 221222Z 15311KT 9999 FEW030 -8/-7 Q1070
KK LFPBYYYX LFPBYYYX LFPGYYYX 221143 METAR LFPG 221143Z 11624KT 9999 FEW030 -4/13 Q1057
DD LFPNYYYX LFPBYYYX LFPGYYYX 200517 METAR LFPG 200517Z 15133KT 9999 FEW030 17/18 Q1052
KK EGLLYYYX LFPOYYYX 130237 METAR LFPG 130237Z 11135KT 9999 FEW030 8/8 Q1007
DD EGLLYYYX EGLLYYYX LFPBYYYX 220614 METAR LFPG 220614Z 32543KT 9999 FEW030 5/-5 Q1071
LL EGLLYYYX EGLLYYYX 150501 METAR LFPG 150501Z 08149KT 9999 FEW030 31/22 Q1057
KK LFPOYYYX LFPOYYYX 282003 METAR LFPG 282003Z 15747KT 9999 FEW030 16/-4 Q1008
KK EDDFYYYX LFPOYYYX EGLLYYYX 082355 METAR LFPG 082355Z 17134KT 9999 FEW030 0/-2 Q1072
DD LFPNYYYX LFPGYYYX LFPNYYYX EDDFYYYX 241751 METAR LFPG 241751Z 00226KT 9999 FEW030 20/0 Q1093
KK LFPBYYYX LFPNYYYX EGLLYYYX EDDFYYYX 131557 METAR LFPG 131557Z 27439KT 9999 FEW030 24/-1 Q1007
LL EDDFYYYX EDDFYYYX 240550 METAR LFPG 240550Z 13235KT 9999 FEW030 -1/17 Q1083
LL EGLLYYYX EGLLYYYX LFPGYYYX 130333 METAR LFPG 130333Z 26850KT 9999 FEW030 -6/11 Q1064
GG EGLLYYYX LFPBYYYX LFPGYYYX EGLLYYYX 090256 METAR LFPG 090256Z 00932KT 9999 FEW030 -8/21 Q1081
FF EDDFYYYX LFPGYYYX LFPOYYYX 042138 METAR LFPG 042138Z 31830KT 9999 FEW030 7/11 Q1022
SS LFPGYYYX EDDFYYYX EGLLYYYX LFPNYYYX 240612 METAR LFPG 240612Z 11944KT 9999 FEW030 15/-5 Q1048
GG LFPNYYYX LFPGYYYX EGLLYYYX 081016 METAR LFPG 081016Z 10711KT 9999 FEW030 -3/3 Q1055
DD EDDFYYYX LFPBYYYX LFPNYYYX LFPOYYYX 192352 METAR LFPG 192352Z 21517KT 9999 FEW030 22/7 Q1037
SS EGLLYYYX LFPOYYYX LFPBYYYX 202245 METAR LFPG 202245Z 06130KT 9999 FEW030 32/25 Q1094
GG EDDFYYYX LFPNYYYX EGLLYYYX 092321 METAR LFPG 092321Z 17929KT 9999 FEW030 32/-7 Q1065
GG LFPGYYYX LFPBYYYX LFPGYYYX 281714 METAR LFPG 281714Z 00229KT 9999 FEW030 0/4 Q1069
FF LFPGYYYX LFPGYYYX LFPOYYYX LFPBYYYX 252154 METAR LFPG 252154Z 09930KT 9999 FEW030 22/-7 Q1037
DD EGLLYYYX LFPGYYYX LFPBYYYX LFPOYYYX 182100 METAR LFPG 182100Z 32118KT 9999 FEW030 -3/7 Q1054
SS LFPOYYYX LFPOYYYX 150130 METAR LFPG 150130Z 11119KT 9999 FEW030 -7/11 Q1003
FF EGLLYYYX LFPOYYYX LFPNYYYX 210930 METAR LFPG 210930Z 23241KT 9999 FEW030 26/7 Q1032
SS LFPOYYYX LFPOYYYX LFPBYYYX 190025 METAR LFPG 190025Z 15317KT 9999 FEW030 31/20 Q1048
FF LFPNYYYX LFPBYYYX 050434 METAR LFPG 050434Z 20212KT 9999 FEW030 30/-9 Q1058
FF EGLLYYYX LFPOYYYX 011635 METAR LFPG 011635Z 05811KT 9999 FEW030 2/23 Q1024
LL LFPBYYYX LFPGYYYX 110912 METAR LFPG 110912Z 30010KT 9999 FEW030 31/-5 Q1087
DD LFPGYYYX LFPGYYYX EGLLYYYX 192022 METAR LFPG 192022Z 21941KT 9999 FEW030 16/-4 Q1073
LL LFPNYYYX LFPOYYYX 031759 METAR LFPG 031759Z 05423KT 9999 FEW030 31/15 Q1029
LL LFPOYYYX LFPNYYYX LFPBYYYX LFPOYYYX 091521 METAR LFPG 091521Z 26419KT 9999 FEW030 2/0 Q1037
KK LFPBYYYX EGLLYYYX 162027 METAR LFPG 162027Z 17122KT 9999 FEW030 10/-7 Q1030
FF EGLLYYYX EGLLYYYX LFPNYYYX 201432 METAR LFPG 201432Z 13815KT 9999 FEW030 29/4 Q1037
GG EGLLYYYX LFPBYYYX 281831 METAR LFPG 281831Z 27634KT 9999 FEW030 24/10 Q1051
KK LFPBYYYX EGLLYYYX LFPNYYYX EDDFYYYX 190335 METAR LFPG 190335Z 03321KT 9999 FEW030 10/-3 Q1016
GG EDDFYYYX EGLLYYYX 160640 METAR LFPG 160640Z 22016KT 9999 FEW030 -3/16 Q1038
DD LFPNYYYX EDDFYYYX LFPBYYYX LFPGYYYX 181253 METAR LFPG 181253Z 03748KT 9999 FEW030 1/2 Q1046
SS LFPGYYYX LFPOYYYX 201210 METAR LFPG 201210Z 07549KT 9999 FEW030 5/-1 Q1080
GG EGLLYYYX EGLLYYYX 161147 METAR LFPG 161147Z 16335KT 9999 FEW030 35/-10 Q1044
GG LFPGYYYX EDDFYYYX LFPBYYYX 131526 METAR LFPG 131526Z 20612KT 9999 FEW030 30/5 Q1057
KK LFPNYYYX EGLLYYYX LFPGYYYX 280244 METAR LFPG 280244Z 12248KT 9999 FEW030 14/-1 Q1067
DD LFPBYYYX LFPBYYYX EDDFYYYX LFPOYYYX 220824 METAR LFPG 220824Z 25411KT 9999 FEW030 -1/-6 Q1100
FF LFPOYYYX LFPBYYYX LFPNYYYX 081630 METAR LFPG 081630Z 28412KT 9999 FEW030 30/17 Q1089
GG EGLLYYYX EGLLYYYX LFPNYYYX 162253 METAR LFPG 162253Z 17416KT 9999 FEW030 15/-7 Q1042
GG LFPBYYYX LFPBYYYX LFPOYYYX LFPNYYYX 241147 METAR LFPG 241147Z 16644KT 9999 FEW030 18/18 Q1007
KK LFPNYYYX EGLLYYYX EDDFYYYX 060518 METAR LFPG 060518Z 27324KT 9999 FEW030 27/9 Q1084
KK LFPGYYYX LFPOYYYX LFPBYYYX EDDFYYYX 280931 METAR LFPG 280931Z 10910KT 9999 FEW030 3/14 Q1031
FF LFPBYYYX LFPGYYYX 011640 METAR LFPG 011640Z 21443KT 9999 FEW030 4/13 Q1036
KK LFPNYYYX LFPOYYYX LFPNYYYX 230412 METAR LFPG 230412Z 28050KT 9999 FEW030 17/3 Q1007
GG LFPGYYYX LFPBYYYX EDDFYYYX LFPGYYYX 131459 METAR LFPG 131459Z 28924KT 9999 FEW030 -2/2 Q1091
DD EDDFYYYX LFPNYYYX LFPBYYYX LFPGYYYX 010242 METAR LFPG 010242Z 14217KT 9999 FEW030 2/1 Q1029
KK LFPOYYYX LFPGYYYX LFPBYYYX EGLLYYYX 061400 METAR LFPG 061400Z 08924KT 9999 FEW030 26/23 Q1033
FF EDDFYYYX LFPNYYYX LFPBYYYX 191756 METAR LFPG 191756Z 03444KT 9999 FEW030 3/19 Q1019
DD EGLLYYYX LFPOYYYX 151020 METAR LFPG 151020Z 09719KT 9999 FEW030 11/-6 Q1086
DD LFPGYYYX LFPBYYYX LFPOYYYX 201522 METAR LFPG 201522Z 21737KT 9999 FEW030 32/-2 Q1062
KK LFPOYYYX EDDFYYYX LFPOYYYX LFPNYYYX 262150 METAR LFPG 262150Z 18637KT 9999 FEW030 -8/14 Q1003
SS LFPNYYYX LFPNYYYX EDDFYYYX LFPOYYYX 131523 METAR LFPG 131523Z 12541KT 9999 FEW030 -2/-2 Q1046
GG LFPOYYYX LFPBYYYX 110220 METAR LFPG 110220Z 17110KT 9999 FEW030 34/-3 Q1046
KK LFPGYYYX LFPGYYYX EGLLYYYX LFPNYYYX 021455 METAR LFPG 021455Z 07716KT 9999 FEW030 23/16 Q1043
DD EDDFYYYX LFPBYYYX 142113 METAR LFPG 142113Z 32510KT 9999 FEW030 -4/19 Q1071
GG EGLLYYYX EDDFYYYX 170442 METAR LFPG 170442Z 22912KT 9999 FEW030 20/9 Q1077
SS LFPBYYYX LFPNYYYX LFPOYYYX 072007 METAR LFPG 072007Z 20421KT 9999 FEW030 31/19 Q1076
FF EGLLYYYX LFPGYYYX LFPOYYYX LFPBYYYX 122126 METAR LFPG 122126Z 31545KT 9999 FEW030 23/9 Q1096
GG LFPNYYYX LFPGYYYX EGLLYYYX LFPBYYYX 051656 METAR LFPG 051656Z 17638KT 9999 FEW030 -5/6 Q1091
KK LFPNYYYX LFPGYYYX LFPOYYYX LFPBYYYX 220101 METAR LFPG 220101Z 18511KT 9999 FEW030 4/9 Q1008
LL LFPGYYYX LFPNYYYX EDDFYYYX 142328 METAR LFPG 142328Z 02549KT 9999 FEW030 13/1 Q1015
GG EDDFYYYX LFPBYYYX EGLLYYYX 122110 METAR LFPG 122110Z 16241KT 9999 FEW030 28/21 Q1002
SS EGLLYYYX LFPGYYYX 120318 METAR LFPG 120318Z 33616KT 9999 FEW030 28/20 Q1087
FF EGLLYYYX LFPGYYYX LFPOYYYX 232234 METAR LFPG 232234Z 33936KT 9999 FEW030 26/25 Q1089
SS LFPOYYYX LFPOYYYX LFPNYYYX LFPBYYYX 012239 METAR LFPG 012239Z 02342KT 9999 FEW030 8/-8 Q1080
GG LFPOYYYX LFPGYYYX LFPOYYYX EGLLYYYX 201457 METAR LFPG 201457Z 23125KT 9999 FEW030 -3/-8 Q1048
FF LFPOYYYX EDDFYYYX 200347 METAR LFPG 200347Z 17921KT 9999 FEW030 -3/-6 Q1041
SS LFPNYYYX EDDFYYYX LFPNYYYX LFPOYYYX 282233 METAR LFPG 282233Z 14328KT 9999 FEW030 -10/-7 Q1049
FF LFPOYYYX LFPGYYYX LFPBYYYX EDDFYYYX 102054 METAR LFPG 102054Z 29925KT 9999 FEW030 30/9 Q1097
LL LFPBYYYX LFPGYYYX EGLLYYYX LFPNYYYX 080609 METAR LFPG 080609Z 22546KT 9999 FEW030 -3/22 Q1070
SS LFPOYYYX LFPOYYYX LFPGYYYX 160355 METAR LFPG 160355Z 17226KT 9999 FEW030 -1/-8 Q1050
GG LFPOYYYX EGLLYYYX LFPNYYYX LFPOYYYX 111820 METAR LFPG 111820Z 32440KT 9999 FEW030 1/-5 Q1067
DD EDDFYYYX EDDFYYYX LFPGYYYX 160703 METAR LFPG 160703Z 13940KT 9999 FEW030 -9/23 Q1032
KK LFPGYYYX EGLLYYYX 140625 METAR LFPG 140625Z 04326KT 9999 FEW030 31/13 Q1010
FF LFPGYYYX LFPBYYYX 031551 METAR LFPG 031551Z 13710KT 9999 FEW030 32/5 Q1086
DD EGLLYYYX LFPBYYYX 131438 METAR LFPG 131438Z 35432KT 9999 FEW030 22/23 Q1084
FF LFPGYYYX LFPNYYYX 010024 METAR LFPG 010024Z 06342KT 9999 FEW030 20/6 Q1062
SS LFPOYYYX LFPOYYYX LFPNYYYX LFPGYYYX 091535 METAR LFPG 091535Z 02220KT 9999 FEW030 5/-8 Q1038
LL LFPOYYYX EGLLYYYX 090056 METAR LFPG 090056Z 18413KT 9999 FEW030 18/22 Q1042
GG LFPOYYYX EGLLYYYX LFPOYYYX 270543 METAR LFPG 270543Z 07226KT 9999 FEW030 12/15 Q1078
KK EDDFYYYX EGLLYYYX LFPGYYYX 100129 METAR LFPG 100129Z 19533KT 9999 FEW030 2/-7 Q1080
FF LFPBYYYX EDDFYYYX 122107 METAR LFPG 122107Z 12721KT 9999 FEW030 29/24 Q1071
FF LFPGYYYX LFPGYYYX LFPBYYYX 060532 METAR LFPG 060532Z 31244KT 9999 FEW030 -1/-8 Q1099
DD LFPBYYYX LFPBYYYX LFPGYYYX 190436 METAR LFPG 190436Z 29610KT 9999 FEW030 9/-1 Q1009
LL LFPNYYYX LFPNYYYX LFPGYYYX LFPBYYYX 252303 METAR LFPG 252303Z 25119KT 9999 FEW030 23/-7 Q1028
GG LFPOYYYX EDDFYYYX 030430 METAR LFPG 030430Z 23620KT 9999 FEW030 25/12 Q1006
DD LFPOYYYX LFPOYYYX EGLLYYYX LFPBYYYX 101730 METAR LFPG 101730Z 25522KT 9999 FEW030 16/12 Q1036
DD EDDFYYYX LFPBYYYX 061518 METAR LFPG 061518Z 13928KT 9999 FEW030 1/-5 Q1002
DD LFPGYYYX LFPOYYYX 120923 METAR LFPG 120923Z 27448KT 9999 FEW030 32/0 Q1024
KK LFPBYYYX LFPOYYYX 140231 METAR LFPG 140231Z 17436KT 9999 FEW030 -7/13 Q1012
FF EDDFYYYX LFPNYYYX LFPGYYYX EDDFYYYX 041856 METAR LFPG 041856Z 30716KT 9999 FEW030 0/17 Q1050
GG LFPBYYYX LFPGYYYX LFPBYYYX LFPOYYYX 231034 METAR LFPG 231034Z 26234KT 9999 FEW030 4/21 Q1051
FF EGLLYYYX LFPNYYYX 101201 METAR LFPG 101201Z 22150KT 9999 FEW030 15/-7 Q1036
FF LFPGYYYX LFPNYYYX LFPBYYYX 201502 METAR LFPG 201502Z 19018KT 9999 FEW030 -9/-4 Q1043
KK LFPNYYYX EGLLYYYX 112345 METAR LFPG 112345Z 01921KT 9999 FEW030 10/16 Q1027
KK EDDFYYYX EDDFYYYX LFPNYYYX LFPBYYYX 122325 METAR LFPG 122325Z 04144KT 9999 FEW030 -2/-6 Q1087
KK LFPNYYYX LFPOYYYX 031622 METAR LFPG 031622Z 05231KT 9999 FEW030 29/15 Q1060
FF LFPGYYYX EDDFYYYX 201720 METAR LFPG 201720Z 28442KT 9999 FEW030 27/17 Q1067
GG EGLLYYYX LFPNYYYX EDDFYYYX 030719 METAR LFPG 030719Z 34430KT 9999 FEW030 10/18 Q1031
DD LFPBYYYX LFPBYYYX 261522 METAR LFPG 261522Z 31837KT 9999 FEW030 1/7 Q1023
KK LFPNYYYX LFPOYYYX LFPNYYYX 100358 METAR LFPG 100358Z 22438KT 9999 FEW030 25/5 Q1035
GG EDDFYYYX EGLLYYYX LFPOYYYX EDDFYYYX 170747 METAR LFPG 170747Z 01522KT 9999 FEW030 -2/17 Q1055
DD LFPOYYYX EGLLYYYX 280657 METAR LFPG 280657Z 05640KT 9999 FEW030 10/12 Q1015
FF LFPNYYYX LFPGYYYX LFPNYYYX LFPBYYYX 211836 METAR LFPG 211836Z 34512KT 9999 FEW030 -7/16 Q1081
GG LFPOYYYX LFPBYYYX LFPGYYYX 251318 METAR LFPG 251318Z 33524KT 9999 FEW030 -1/1 Q1080
LL LFPNYYYX LFPNYYYX LFPGYYYX 130650 METAR LFPG 130650Z 00743KT 9999 FEW030 28/1 Q1024
KK LFPNYYYX LFPOYYYX LFPBYYYX EGLLYYYX 260136 METAR LFPG 260136Z 23115KT 9999 FEW030 -7/-7 Q1051
KK LFPNYYYX LFPOYYYX LFPGYYYX EDDFYYYX 221806 METAR LFPG 221806Z 20212KT 9999 FEW030 16/-4 Q1056
FF EDDFYYYX EGLLYYYX LFPBYYYX 191220 METAR LFPG 191220Z 32828KT 9999 FEW030 -5/-5 Q1042
KK EGLLYYYX EDDFYYYX 191045 METAR LFPG 191045Z 04315KT 9999 FEW030 15/15 Q1093
KK LFPNYYYX LFPOYYYX 122243 METAR LFPG 122243Z 12441KT 9999 FEW030 11/5 Q1023
DD LFPGYYYX LFPOYYYX EGLLYYYX 240947 METAR LFPG 240947Z 32422KT 9999 FEW030 19/-10 Q1053
GG EDDFYYYX EGLLYYYX 162012 METAR LFPG 162012Z 00535KT 9999 FEW030 24/-3 Q1037
KK LFPNYYYX EDDFYYYX 240705 METAR LFPG 240705Z 02813KT 9999 FEW030 0/-10 Q1014
LL EDDFYYYX LFPBYYYX LFPNYYYX 032045 METAR LFPG 032045Z 23421KT 9999 FEW030 12/-7 Q1020
LL EGLLYYYX EDDFYYYX LFPOYYYX 202032 METAR LFPG 202032Z 28530KT 9999 FEW030 7/9 Q1020
GG EDDFYYYX EGLLYYYX 241851 METAR LFPG 241851Z 09241KT 9999 FEW030 22/-9 Q1053
DD EDDFYYYX LFPGYYYX LFPOYYYX 220052 METAR LFPG 220052Z 13535KT 9999 FEW030 21/3 Q1009
FF LFPBYYYX LFPNYYYX 250223 METAR LFPG 250223Z 03711KT 9999 FEW030 30/2 Q1054
GG EDDFYYYX LFPGYYYX LFPNYYYX LFPBYYYX 010237 METAR LFPG 010237Z 11814KT 9999 FEW030 -7/-4 Q1080
GG LFPNYYYX LFPNYYYX LFPGYYYX 020526 METAR LFPG 020526Z 26919KT 9999 FEW030 33/-4 Q1067
FF LFPNYYYX LFPGYYYX EGLLYYYX LFPBYYYX 071655 METAR LFPG 071655Z 34321KT 9999 FEW030 20/-2 Q1080
FF EGLLYYYX EDDFYYYX LFPBYYYX 062242 METAR LFPG 062242Z 24330KT 9999 FEW030 35/-3 Q1032
FF LFPGYYYX LFPGYYYX 081836 METAR LFPG 081836Z 35333KT 9999 FEW030 1/-7 Q1062
LL LFPNYYYX LFPNYYYX LFPOYYYX 190918 METAR LFPG 190918Z 02833KT 9999 FEW030 13/12 Q1048
SS LFPOYYYX LFPGYYYX LFPNYYYX 070213 METAR LFPG 070213Z 19543KT 9999 FEW030 17/3 Q1058
DD LFPBYYYX EDDFYYYX 101107 METAR LFPG 101107Z 25715KT 9999 FEW030 16/4 Q1056
GG EGLLYYYX LFPOYYYX LFPNYYYX 211047 METAR LFPG 211047Z 30739KT 9999 FEW030 2/22 Q1004
DD LFPBYYYX EGLLYYYX 090034 METAR LFPG 090034Z 02834KT 9999 FEW030 20/4 Q1023
DD LFPOYYYX LFPOYYYX EDDFYYYX LFPGYYYX 061252 METAR LFPG 061252Z 04332KT 9999 FEW030 32/9 Q1018
LL LFPNYYYX LFPGYYYX EDDFYYYX LFPBYYYX 251134 METAR LFPG 251134Z 13525KT 9999 FEW030 -10/-3 Q1032
LL LFPGYYYX LFPGYYYX EGLLYYYX LFPNYYYX 160455 METAR LFPG 160455Z 15640KT 9999 FEW030 11/23 Q1052
KK LFPBYYYX LFPGYYYX EDDFYYYX 220538 METAR LFPG 220538Z 11348KT 9999 FEW030 28/-8 Q1000
FF EDDFYYYX LFPBYYYX EGLLYYYX LFPOYYYX 261257 METAR LFPG 261257Z 15542KT 9999 FEW030 8/1 Q1062
GG LFPNYYYX LFPGYYYX EDDFYYYX EGLLYYYX 140328 METAR LFPG 140328Z 17345KT 9999 FEW030 -3/22 Q1073
SS LFPOYYYX LFPOYYYX LFPNYYYX 080550 METAR LFPG 080550Z 25529KT 9999 FEW030 -1/5 Q1003
DD LFPBYYYX LFPBYYYX 030832 METAR LFPG 030832Z 12519KT 9999 FEW030 29/-1 Q1041
SS EGLLYYYX LFPBYYYX 012050 METAR LFPG 012050Z 17746KT 9999 FEW030 27/-1 Q1049
GG EGLLYYYX LFPBYYYX EDDFYYYX 012154 METAR LFPG 012154Z 00629KT 9999 FEW030 21/4 Q1000
SS EDDFYYYX LFPNYYYX 280405 METAR LFPG 280405Z 04544KT 9999 FEW030 15/-5 Q1028
DD LFPOYYYX EDDFYYYX LFPBYYYX 240626 METAR LFPG 240626Z 21611KT 9999 FEW030 32/7 Q1100
FF LFPNYYYX LFPGYYYX EGLLYYYX LFPBYYYX 252210 METAR LFPG 252210Z 20828KT 9999 FEW030 -3/12 Q1034
GG LFPNYYYX LFPNYYYX LFPGYYYX 020446 METAR LFPG 020446Z 24221KT 9999 FEW030 10/21 Q1049
LL LFPOYYYX LFPGYYYX LFPNYYYX 040934 METAR LFPG 040934Z 01818KT 9999 FEW030 19/-8 Q1009
LL LFPGYYYX EGLLYYYX LFPBYYYX 231112 METAR LFPG 231112Z 24831KT 9999 FEW030 -2/5 Q1088
KK LFPBYYYX EGLLYYYX LFPBYYYX LFPOYYYX 180030 METAR LFPG 180030Z 34017KT 9999 FEW030 5/7 Q1063
KK EDDFYYYX LFPOYYYX 232246 METAR LFPG 232246Z 04322KT 9999 FEW030 4/-4 Q1018
DD LFPNYYYX LFPBYYYX EGLLYYYX LFPGYYYX 251312 METAR LFPG 251312Z 25345KT 9999 FEW030 16/8 Q1060
KK EDDFYYYX LFPBYYYX 091853 METAR LFPG 091853Z 24128KT 9999 FEW030 18/21 Q1084
FF EDDFYYYX LFPGYYYX LFPOYYYX 030503 METAR LFPG 030503Z 29844KT 9999 FEW030 5/14 Q1100
DD LFPGYYYX EDDFYYYX 261439 METAR LFPG 261439Z 14433KT 9999 FEW030 7/-6 Q1003
FF EDDFYYYX EDDFYYYX LFPNYYYX 051328 METAR LFPG 051328Z 07010KT 9999 FEW030 22/3 Q1009
SS LFPBYYYX LFPBYYYX LFPOYYYX 050819 METAR LFPG 050819Z 04425KT 9999 FEW030 17/-9 Q1014
GG EGLLYYYX LFPBYYYX LFPGYYYX 081952 METAR LFPG 081952Z 16148KT 9999 FEW030 -5/-10 Q1000
GG EDDFYYYX LFPOYYYX 260835 METAR LFPG 260835Z 20746KT 9999 FEW030 2/-8 Q1061
KK EGLLYYYX LFPGYYYX EGLLYYYX 050244 METAR LFPG 050244Z 24122KT 9999 FEW030 2/21 Q1074
LL EGLLYYYX LFPNYYYX 242121 METAR LFPG 242121Z 26324KT 9999 FEW030 27/6 Q1039
GG LFPNYYYX LFPGYYYX 072309 METAR LFPG 072309Z 10647KT 9999 FEW030 25/-2 Q1012
FF LFPNYYYX EGLLYYYX LFPNYYYX EDDFYYYX 212332 METAR LFPG 212332Z 19640KT 9999 FEW030 27/20 Q1012
FF LFPNYYYX LFPBYYYX 251339 METAR LFPG 251339Z 24412KT 9999 FEW030 5/21 Q1057
FF EGLLYYYX EDDFYYYX 192136 METAR LFPG 192136Z 22721KT 9999 FEW030 3/10 Q1036
GG EDDFYYYX LFPNYYYX EDDFYYYX LFPBYYYX 220039 METAR LFPG 220039Z 30536KT 9999 FEW030 6/7 Q1060
LL EGLLYYYX LFPBYYYX EGLLYYYX 070020 METAR LFPG 070020Z 09849KT 9999 FEW030 10/16 Q1061
SS LFPNYYYX LFPNYYYX LFPGYYYX LFPBYYYX 202125 METAR LFPG 202125Z 34041KT 9999 FEW030 23/0 Q1007
DD EDDFYYYX EGLLYYYX 080934 METAR LFPG 080934Z 32725KT 9999 FEW030 -7/23 Q1051
FF LFPOYYYX LFPBYYYX 182155 METAR LFPG 182155Z 15023KT 9999 FEW030 5/8 Q1061
SS LFPGYYYX EDDFYYYX 090255 METAR LFPG 090255Z 28721KT 9999 FEW030 3/17 Q1042
SS EGLLYYYX LFPOYYYX EDDFYYYX EGLLYYYX 051718 METAR LFPG 051718Z 27922KT 9999 FEW030 8/5 Q1074
SS LFPOYYYX EDDFYYYX LFPGYYYX 282237 METAR LFPG 282237Z 26849KT 9999 FEW030 3/11 Q1022
KK LFPNYYYX LFPBYYYX EDDFYYYX LFPGYYYX 090133 METAR LFPG 090133Z 32231KT 9999 FEW030 30/18 Q1088
FF LFPGYYYX LFPOYYYX LFPGYYYX 051755 METAR LFPG 051755Z 35230KT 9999 FEW030 20/25 Q1042
KK LFPNYYYX EGLLYYYX 091351 METAR LFPG 091351Z 31913KT 9999 FEW030 -9/5 Q1042
FF EDDFYYYX LFPNYYYX LFPGYYYX LFPBYYYX 281530 METAR LFPG 281530Z 26628KT 9999 FEW030 -8/8 Q1015
SS EGLLYYYX EDDFYYYX 112234 METAR LFPG 112234Z 09550KT 9999 FEW030 24/-6 Q1044
FF LFPGYYYX LFPOYYYX 120823 METAR LFPG 120823Z 29635KT 9999 FEW030 9/14 Q1082
SS EGLLYYYX EGLLYYYX LFPBYYYX 130355 METAR LFPG 130355Z 12920KT 9999 FEW030 12/20 Q1030
DD LFPOYYYX LFPGYYYX EGLLYYYX LFPBYYYX 252056 METAR LFPG 252056Z 21624KT 9999 FEW030 20/16 Q1072
KK EGLLYYYX LFPBYYYX LFPGYYYX LFPNYYYX 252002 METAR LFPG 252002Z 12011KT 9999 FEW030 19/22 Q1032
FF EDDFYYYX EDDFYYYX LFPOYYYX LFPGYYYX 180054 METAR LFPG 180054Z 07819KT 9999 FEW030 1/22 Q1053
SS LFPBYYYX LFPOYYYX LFPNYYYX LFPGYYYX 191950 METAR LFPG 191950Z 14414KT 9999 FEW030 31/18 Q1077
FF LFPNYYYX EDDFYYYX LFPNYYYX 102153 METAR LFPG 102153Z 14917KT 9999 FEW030 7/14 Q1044
KK LFPBYYYX LFPNYYYX 231943 METAR LFPG 231943Z 24628KT 9999 FEW030 2/-7 Q1094
GG LFPOYYYX EGLLYYYX EDDFYYYX LFPOYYYX 221851 METAR LFPG 221851Z 27940KT 9999 FEW030 24/10 Q1003
GG EGLLYYYX LFPGYYYX EDDFYYYX LFPOYYYX 030047 METAR LFPG 030047Z 23048KT 9999 FEW030 32/11 Q1081
SS LFPNYYYX LFPNYYYX EGLLYYYX EDDFYYYX 061549 METAR LFPG 061549Z 12421KT 9999 FEW030 -1/19 Q1029
FF LFPNYYYX EDDFYYYX 112059 METAR LFPG 112059Z 09740KT 9999 FEW030 -7/12 Q1009
LL LFPOYYYX LFPOYYYX 151750 METAR LFPG 151750Z 07543KT 9999 FEW030 28/5 Q1084
SS EDDFYYYX LFPOYYYX LFPBYYYX EDDFYYYX 250955 METAR LFPG 250955Z 26517KT 9999 FEW030 -10/-7 Q1007
DD LFPGYYYX LFPOYYYX LFPBYYYX EGLLYYYX 220335 METAR LFPG 220335Z 20123KT 9999 FEW030 3/20 Q1050
LL LFPNYYYX LFPBYYYX LFPOYYYX 141700 METAR LFPG 141700Z 06050KT 9999 FEW030 -10/-8 Q1062
FF LFPBYYYX EDDFYYYX LFPNYYYX 240143 METAR LFPG 240143Z 25623KT 9999 FEW030 2/17 Q1062
GG LFPBYYYX LFPOYYYX EGLLYYYX LFPBYYYX 081031 METAR LFPG 081031Z 26550KT 9999 FEW030 30/18 Q1057
GG LFPBYYYX EGLLYYYX LFPBYYYX 161439 METAR LFPG 161439Z 29038KT 9999 FEW030 11/4 Q1007
GG LFPGYYYX LFPBYYYX 210113 METAR LFPG 210113Z 28012KT 9999 FEW030 23/-10 Q1049
DD LFPNYYYX LFPBYYYX 061917 METAR LFPG 061917Z 04536KT 9999 FEW030 19/-5 Q1084
FF LFPOYYYX LFPBYYYX 180207 METAR LFPG 180207Z 31229KT 9999 FEW030 26/-5 Q1076
GG LFPNYYYX LFPGYYYX LFPNYYYX EGLLYYYX 261945 METAR LFPG 261945Z 15045KT 9999 FEW030 20/5 Q1017
SS LFPBYYYX EGLLYYYX EDDFYYYX LFPGYYYX 070035 METAR LFPG 070035Z 32225KT 9999 FEW030 25/-3 Q1034
GG LFPOYYYX LFPNYYYX EDDFYYYX LFPBYYYX 171451 METAR LFPG 171451Z 31118KT 9999 FEW030 19/20 Q1085
LL EGLLYYYX LFPNYYYX 191726 METAR LFPG 191726Z 02912KT 9999 FEW030 2/-10 Q1065
GG EDDFYYYX LFPNYYYX LFPOYYYX LFPBYYYX 272250 METAR LFPG 272250Z 00546KT 9999 FEW030 17/6 Q1037
GG LFPBYYYX EGLLYYYX LFPNYYYX EDDFYYYX 111250 METAR LFPG 111250Z 32445KT 9999 FEW030 1/-4 Q1029
KK LFPOYYYX EGLLYYYX EDDFYYYX 041144 METAR LFPG 041144Z 07027KT 9999 FEW030 32/-3 Q1096
KK LFPNYYYX LFPGYYYX EDDFYYYX EGLLYYYX 072258 METAR LFPG 072258Z 14947KT 9999 FEW030 16/6 Q1042
KK LFPOYYYX LFPOYYYX EGLLYYYX LFPNYYYX 021328 METAR LFPG 021328Z 13937KT 9999 FEW030 3/19 Q1017
FF LFPOYYYX LFPGYYYX EGLLYYYX 270956 METAR LFPG 270956Z 03834KT 9999 FEW030 26/-9 Q1020
LL LFPBYYYX LFPGYYYX 160111 METAR LFPG 160111Z 07641KT 9999 FEW030 -5/2 Q1088
LL LFPBYYYX LFPGYYYX LFPNYYYX 281004 METAR LFPG 281004Z 10843KT 9999 FEW030 13/0 Q1033
KK LFPNYYYX LFPGYYYX EDDFYYYX 121800 METAR LFPG 121800Z 20632KT 9999 FEW030 8/24 Q1097
DD EDDFYYYX LFPBYYYX 111258 METAR LFPG 111258Z 34923KT 9999 FEW030 26/9 Q1070
GG EDDFYYYX LFPBYYYX LFPGYYYX 231510 METAR LFPG 231510Z 07515KT 9999 FEW030 8/16 Q1052
FF LFPOYYYX LFPNYYYX LFPGYYYX 220551 METAR LFPG 220551Z 29526KT 9999 FEW030 35/-9 Q1031
LL LFPOYYYX EDDFYYYX LFPNYYYX 140209 METAR LFPG 140209Z 23310KT 9999 FEW030 12/19 Q1088
FF LFPOYYYX LFPBYYYX 181312 METAR LFPG 181312Z 35246KT 9999 FEW030 24/15 Q1008
SS EGLLYYYX EDDFYYYX 110949 METAR LFPG 110949Z 06344KT 9999 FEW030 15/19 Q1085
GG EDDFYYYX LFPBYYYX LFPGYYYX 101159 METAR LFPG 101159Z 25534KT 9999 FEW030 22/-7 Q1097
GG EDDFYYYX LFPNYYYX LFPBYYYX LFPGYYYX 021147 METAR LFPG 021147Z 04046KT 9999 FEW030 34/19 Q1001
FF LFPGYYYX LFPNYYYX 151516 METAR LFPG 151516Z 02113KT 9999 FEW030 35/16 Q1004
LL LFPOYYYX LFPBYYYX EGLLYYYX LFPNYYYX 050544 METAR LFPG 050544Z 03733KT 9999 FEW030 -10/0 Q1082
FF LFPGYYYX LFPNYYYX 192327 METAR LFPG 192327Z 28426KT 9999 FEW030 1/0 Q1088
FF LFPNYYYX LFPGYYYX EGLLYYYX 221701 METAR LFPG 221701Z 31517KT 9999 FEW030 21/-8 Q1094
GG LFPGYYYX LFPOYYYX LFPGYYYX LFPNYYYX 220941 METAR LFPG 220941Z 18337KT 9999 FEW030 -9/3 Q1098
SS LFPGYYYX EDDFYYYX 021949 METAR LFPG 021949Z 03843KT 9999 FEW030 27/15 Q1069
LL EGLLYYYX LFPGYYYX EGLLYYYX 022040 METAR LFPG 022040Z 00023KT 9999 FEW030 -9/1 Q1071
FF LFPBYYYX EDDFYYYX 210622 METAR LFPG 210622Z 02141KT 9999 FEW030 8/10 Q1079
GG EDDFYYYX LFPGYYYX EGLLYYYX EDDFYYYX 172215 METAR LFPG 172215Z 07235KT 9999 FEW030 -4/-6 Q1009
DD LFPGYYYX LFPGYYYX LFPNYYYX LFPBYYYX 180043 METAR LFPG 180043Z 21836KT 9999 FEW030 -8/6 Q1042
FF LFPBYYYX LFPBYYYX LFPGYYYX 190756 METAR LFPG 190756Z 06335KT 9999 FEW030 23/-8 Q1071
GG LFPBYYYX EDDFYYYX LFPNYYYX LFPOYYYX 130458 METAR LFPG 130458Z 35814KT 9999 FEW030 26/16 Q1083
GG EGLLYYYX LFPGYYYX EGLLYYYX EDDFYYYX 120605 METAR LFPG 120605Z 29948KT 9999 FEW030 29/9 Q1010
SS LFPNYYYX EGLLYYYX LFPGYYYX LFPOYYYX 051052 METAR LFPG 051052Z 25645KT 9999 FEW030 -8/21 Q1018
LL LFPBYYYX LFPGYYYX EDDFYYYX EGLLYYYX 150214 METAR LFPG 150214Z 31120KT 9999 FEW030 33/17 Q1095
KK LFPOYYYX LFPGYYYX LFPBYYYX 261256 METAR LFPG 261256Z 24215KT 9999 FEW030 22/20 Q1080
GG LFPNYYYX LFPOYYYX LFPGYYYX LFPNYYYX 150058 METAR LFPG 150058Z 05637KT 9999 FEW030 23/16 Q1009
LL EGLLYYYX EDDFYYYX LFPNYYYX LFPOYYYX 170020 METAR LFPG 170020Z 08937KT 9999 FEW030 4/-7 Q1010
GG EDDFYYYX EGLLYYYX LFPGYYYX LFPBYYYX 080830 METAR LFPG 080830Z 25950KT 9999 FEW030 -4/10 Q1055
GG EGLLYYYX LFPGYYYX LFPNYYYX 171620 METAR LFPG 171620Z 01950KT 9999 FEW030 23/-8 Q1041
DD EDDFYYYX EDDFYYYX LFPGYYYX LFPBYYYX 130450 METAR LFPG 130450Z 21150KT 9999 FEW030 -9/7 Q1006
FF LFPOYYYX LFPOYYYX 020117 METAR LFPG 020117Z 10446KT 9999 FEW030 22/13 Q1062
DD LFPOYYYX LFPNYYYX LFPGYYYX LFPBYYYX 050420 METAR LFPG 050420Z 14123KT 9999 FEW030 -7/3 Q1008
FF LFPOYYYX EDDFYYYX LFPNYYYX 271328 METAR LFPG 271328Z 28432KT 9999 FEW030 0/21 Q1013
SS EGLLYYYX LFPOYYYX 010222 METAR LFPG 010222Z 14838KT 9999 FEW030 0/-5 Q1008
LL EGLLYYYX LFPBYYYX EGLLYYYX 201443 METAR LFPG 201443Z 02522KT 9999 FEW030 0/17 Q1028
SS EDDFYYYX LFPBYYYX 271423 METAR LFPG 271423Z 14430KT 9999 FEW030 18/4 Q1001
GG EGLLYYYX LFPOYYYX 271456 METAR LFPG 271456Z 01518KT 9999 FEW030 12/14 Q1058
KK LFPNYYYX EGLLYYYX LFPBYYYX 271209 METAR LFPG 271209Z 24610KT 9999 FEW030 29/-3 Q1050
GG EDDFYYYX LFPGYYYX 151157 METAR LFPG 151157Z 30339KT 9999 FEW030 16/19 Q1010
LL EGLLYYYX LFPNYYYX 152230 METAR LFPG 152230Z 15521KT 9999 FEW030 -10/5 Q1092
SS EDDFYYYX EGLLYYYX LFPOYYYX LFPNYYYX 280453 METAR LFPG 280453Z 09927KT 9999 FEW030 24/16 Q1041
GG LFPOYYYX LFPOYYYX LFPGYYYX EDDFYYYX 061331 METAR LFPG 061331Z 11824KT 9999 FEW030 18/4 Q1007
KK LFPGYYYX LFPGYYYX LFPOYYYX EGLLYYYX 260031 METAR LFPG 260031Z 29747KT 9999 FEW030 11/8 Q1097
KK EGLLYYYX LFPNYYYX LFPGYYYX 040914 METAR LFPG 040914Z 29725KT 9999 FEW030 35/23 Q1001
SS LFPNYYYX EGLLYYYX LFPGYYYX LFPNYYYX 110133 METAR LFPG 110133Z 17526KT 9999 FEW030 31/6 Q1088
LL LFPGYYYX EGLLYYYX EDDFYYYX LFPBYYYX 050533 METAR LFPG 050533Z 22940KT 9999 FEW030 -4/21 Q1084
GG LFPOYYYX EGLLYYYX EDDFYYYX 230538 METAR LFPG 230538Z 04736KT 9999 FEW030 -1/12 Q1043
DD EDDFYYYX LFPNYYYX 260634 METAR LFPG 260634Z 03641KT 9999 FEW030 27/15 Q1061
GG LFPOYYYX LFPGYYYX LFPNYYYX EGLLYYYX 250611 METAR LFPG 250611Z 03626KT 9999 FEW030 28/17 Q1035
GG LFPGYYYX LFPGYYYX 240024 METAR LFPG 240024Z 34722KT 9999 FEW030 -7/16 Q1081
DD LFPNYYYX LFPGYYYX LFPOYYYX LFPBYYYX 021359 METAR LFPG 021359Z 04143KT 9999 FEW030 28/11 Q1011
GG EGLLYYYX LFPGYYYX LFPNYYYX 091850 METAR LFPG 091850Z 06941KT 9999 FEW030 -2/16 Q1005
LL EDDFYYYX LFPOYYYX LFPGYYYX LFPBYYYX 021402 METAR LFPG 021402Z 07033KT 9999 FEW030 6/-1 Q1021
DD LFPGYYYX LFPGYYYX 081749 METAR LFPG 081749Z 22345KT 9999 FEW030 1/4 Q1022
KK LFPGYYYX LFPGYYYX LFPOYYYX 120409 METAR LFPG 120409Z 00943KT 9999 FEW030 -7/-6 Q1058
DD LFPBYYYX EGLLYYYX EDDFYYYX LFPGYYYX 211938 METAR LFPG 211938Z 17634KT 9999 FEW030 22/23 Q1009
DD EDDFYYYX LFPNYYYX EGLLYYYX LFPOYYYX 061306 METAR LFPG 061306Z 22917KT 9999 FEW030 -2/15 Q1071
DD EDDFYYYX LFPBYYYX EGLLYYYX 052312 METAR LFPG 052312Z 35044KT 9999 FEW030 1/21 Q1049
DD LFPNYYYX EDDFYYYX LFPOYYYX LFPBYYYX 250339 METAR LFPG 250339Z 21510KT 9999 FEW030 -10/5 Q1036
LL LFPOYYYX EDDFYYYX 071938 METAR LFPG 071938Z 35919KT 9999 FEW030 21/-5 Q1053
DD EDDFYYYX LFPGYYYX EDDFYYYX 082203 METAR LFPG 082203Z 19927KT 9999 FEW030 35/10 Q1032
SS LFPOYYYX EGLLYYYX LFPGYYYX LFPNYYYX 061420 METAR LFPG 061420Z 17414KT 9999 FEW030 3/14 Q1004
KK EDDFYYYX LFPGYYYX EGLLYYYX LFPOYYYX 160528 METAR LFPG 160528Z 19545KT 9999 FEW030 -8/17 Q1095
SS EDDFYYYX LFPGYYYX EGLLYYYX LFPOYYYX 111445 METAR LFPG 111445Z 11149KT 9999 FEW030 -5/6 Q1053
SS LFPBYYYX EDDFYYYX LFPNYYYX LFPOYYYX 050406 METAR LFPG 050406Z 02414KT 9999 FEW030 18/2 Q1011
LL EGLLYYYX LFPGYYYX LFPBYYYX 030741 METAR LFPG 030741Z 18830KT 9999 FEW030 -6/-9 Q1049
DD EGLLYYYX LFPBYYYX LFPNYYYX 130835 METAR LFPG 130835Z 27914KT 9999 FEW030 -4/2 Q1044
LL LFPNYYYX LFPGYYYX 081436 METAR LFPG 081436Z 00922KT 9999 FEW030 -1/16 Q1022
DD EGLLYYYX EGLLYYYX LFPBYYYX LFPNYYYX 011903 METAR LFPG 011903Z 29340KT 9999 FEW030 -5/13 Q1081
LL LFPOYYYX LFPBYYYX 241855 METAR LFPG 241855Z 04721KT 9999 FEW030 28/5 Q1077
LL EDDFYYYX LFPGYYYX 221107 METAR LFPG 221107Z 23224KT 9999 FEW030 -2/8 Q1083
FF EDDFYYYX LFPOYYYX LFPGYYYX 231843 METAR LFPG 231843Z 21330KT 9999 FEW030 -6/4 Q1011
LL EGLLYYYX EGLLYYYX LFPOYYYX 021306 METAR LFPG 021306Z 17331KT 9999 FEW030 18/7 Q1003
KK LFPNYYYX EDDFYYYX 120447 METAR LFPG 120447Z 10613KT 9999 FEW030 0/-2 Q1022
GG LFPOYYYX LFPNYYYX EGLLYYYX LFPGYYYX 272310 METAR LFPG 272310Z 25129KT 9999 FEW030 34/-7 Q1096
KK EGLLYYYX LFPBYYYX EDDFYYYX EGLLYYYX 101628 METAR LFPG 101628Z 19447KT 9999 FEW030 5/25 Q1086
SS EGLLYYYX EDDFYYYX LFPGYYYX LFPOYYYX 152037 METAR LFPG 152037Z 10339KT 9999 FEW030 -7/-8 Q1029
KK LFPNYYYX EDDFYYYX EGLLYYYX 070059 METAR LFPG 070059Z 18246KT 9999 FEW030 0/12 Q1087
GG EDDFYYYX EDDFYYYX LFPBYYYX 251219 METAR LFPG 251219Z 22034KT 9999 FEW030 1/18 Q1054
LL LFPBYYYX EDDFYYYX 021510 METAR LFPG 021510Z 34240KT 9999 FEW030 -1/-10 Q1004
LL LFPOYYYX LFPGYYYX LFPNYYYX 171407 METAR LFPG 171407Z 06944KT 9999 FEW030 0/2 Q1005
FF LFPBYYYX LFPOYYYX EDDFYYYX 110701 METAR LFPG 110701Z 05748KT 9999 FEW030 4/24 Q1019
DD LFPBYYYX LFPOYYYX EDDFYYYX 061253 METAR LFPG 061253Z 18340KT 9999 FEW030 30/15 Q1049
DD LFPNYYYX LFPGYYYX 050031 METAR LFPG 050031Z 19312KT 9999 FEW030 30/-4 Q1075
GG LFPNYYYX LFPNYYYX LFPGYYYX 071347 METAR LFPG 071347Z 12012KT 9999 FEW030 -10/9 Q1014
SS EDDFYYYX LFPNYYYX LFPBYYYX EGLLYYYX 060524 METAR LFPG 060524Z 04325KT 9999 FEW030 13/25 Q1026
GG EDDFYYYX LFPNYYYX LFPOYYYX LFPGYYYX 031231 METAR LFPG 031231Z 25511KT 9999 FEW030 1/17 Q1053
KK LFPNYYYX EDDFYYYX LFPNYYYX 112235 METAR LFPG 112235Z 16333KT 9999 FEW030 0/-1 Q1038
GG EDDFYYYX EGLLYYYX 180215 METAR LFPG 180215Z 33743KT 9999 FEW030 -9/-6 Q1083
LL LFPGYYYX LFPGYYYX LFPNYYYX 200742 METAR LFPG 200742Z 31831KT 9999 FEW030 -1/-8 Q1081
SS EDDFYYYX LFPGYYYX EDDFYYYX 140828 METAR LFPG 140828Z 34447KT 9999 FEW030 17/-3 Q1067
KK EGLLYYYX LFPBYYYX LFPGYYYX 090752 METAR LFPG 090752Z 13642KT 9999 FEW030 13/-6 Q1010
LL LFPOYYYX LFPGYYYX LFPNYYYX 242051 METAR LFPG 242051Z 08018KT 9999 FEW030 -9/13 Q1029
DD LFPNYYYX LFPGYYYX LFPBYYYX EGLLYYYX 210408 METAR LFPG 210408Z 14611KT 9999 FEW030 -10/7 Q1089
KK EDDFYYYX LFPOYYYX LFPGYYYX 240640 METAR LFPG 240640Z 16819KT 9999 FEW030 2/11 Q1008
KK EGLLYYYX LFPGYYYX EGLLYYYX LFPBYYYX 260026 METAR LFPG 260026Z 13832KT 9999 FEW030 3/4 Q1020
SS EDDFYYYX LFPBYYYX EDDFYYYX LFPNYYYX 281414 METAR LFPG 281414Z 07442KT 9999 FEW030 30/-7 Q1091
GG EGLLYYYX LFPGYYYX LFPOYYYX EDDFYYYX 162348 METAR LFPG 162348Z 28117KT 9999 FEW030 25/1 Q1024
SS LFPGYYYX LFPOYYYX EGLLYYYX LFPBYYYX 180851 METAR LFPG 180851Z 18726KT 9999 FEW030 -8/-3 Q1093
DD EDDFYYYX LFPNYYYX LFPGYYYX 261304 METAR LFPG 261304Z 31420KT 9999 FEW030 13/14 Q1008
DD EDDFYYYX EGLLYYYX LFPGYYYX LFPBYYYX 201900 METAR LFPG 201900Z 20328KT 9999 FEW030 1/18 Q1062
KK EDDFYYYX EGLLYYYX 121344 METAR LFPG 121344Z 13342KT 9999 FEW030 5/-5 Q1098
DD EDDFYYYX LFPGYYYX 200802 METAR LFPG 200802Z 25947KT 9999 FEW030 -8/16 Q1061
GG LFPGYYYX EGLLYYYX LFPGYYYX 280806 METAR LFPG 280806Z 25043KT 9999 FEW030 19/-4 Q1023
FF LFPNYYYX EDDFYYYX LFPOYYYX LFPNYYYX 110217 METAR LFPG 110217Z 21150KT 9999 FEW030 -2/-7 Q1031
SS LFPBYYYX EDDFYYYX LFPBYYYX EGLLYYYX 171853 METAR LFPG 171853Z 32229KT 9999 FEW030 -1/-1 Q1026
GG LFPNYYYX LFPGYYYX EDDFYYYX 182325 METAR LFPG 182325Z 19739KT 9999 FEW030 -1/10 Q1099
LL LFPBYYYX EDDFYYYX LFPBYYYX 141536 METAR LFPG 141536Z 02510KT 9999 FEW030 16/-1 Q1095
KK LFPNYYYX EGLLYYYX LFPBYYYX 240744 METAR LFPG 240744Z 09349KT 9999 FEW030 23/-8 Q1067
LL LFPOYYYX EDDFYYYX LFPOYYYX LFPNYYYX 230815 METAR LFPG 230815Z 22246KT 9999 FEW030 6/-8 Q1021
KK LFPGYYYX LFPOYYYX 051123 METAR LFPG 051123Z 15537KT 9999 FEW030 32/-1 Q1098
GG LFPOYYYX LFPBYYYX EGLLYYYX 071324 METAR LFPG 071324Z 05450KT 9999 FEW030 13/6 Q1097
GG LFPGYYYX EDDFYYYX LFPOYYYX 090211 METAR LFPG 090211Z 15017KT 9999 FEW030 7/16 Q1070
GG LFPOYYYX LFPNYYYX EGLLYYYX 030224 METAR LFPG 030224Z 04540KT 9999 FEW030 -9/7 Q1090
FF LFPGYYYX LFPOYYYX LFPNYYYX LFPGYYYX 040850 METAR LFPG 040850Z 03817KT 9999 FEW030 27/5 Q1017
SS LFPBYYYX EGLLYYYX LFPNYYYX 140555 METAR LFPG 140555Z 01913KT 9999 FEW030 -6/24 Q1015
GG LFPBYYYX LFPGYYYX LFPNYYYX EGLLYYYX 031755 METAR LFPG 031755Z 22050KT 9999 FEW030 6/10 Q1047
LL EGLLYYYX EGLLYYYX LFPOYYYX 271246 METAR LFPG 271246Z 24836KT 9999 FEW030 20/3 Q1020
DD LFPGYYYX LFPBYYYX 081501 METAR LFPG 081501Z 31135KT 9999 FEW030 -3/2 Q1051
FF LFPGYYYX LFPOYYYX EDDFYYYX EGLLYYYX 150048 METAR LFPG 150048Z 01731KT 9999 FEW030 -9/11 Q1036
KK EGLLYYYX EDDFYYYX LFPGYYYX 200723 METAR LFPG 200723Z 24748KT 9999 FEW030 10/25 Q1085
DD EDDFYYYX EGLLYYYX LFPOYYYX EDDFYYYX 242138 METAR LFPG 242138Z 11216KT 9999 FEW030 -5/8 Q1003
DD EDDFYYYX LFPOYYYX 040807 METAR LFPG 040807Z 12914KT 9999 FEW030 8/11 Q1068
LL LFPOYYYX LFPBYYYX 041212 METAR LFPG 041212Z 12830KT 9999 FEW030 4/20 Q1028
GG LFPNYYYX LFPBYYYX 231547 METAR LFPG 231547Z 19949KT 9999 FEW030 -8/1 Q1038
FF EGLLYYYX LFPBYYYX LFPNYYYX 120527 METAR LFPG 120527Z 21439KT 9999 FEW030 26/2 Q1024
SS EDDFYYYX LFPNYYYX LFPGYYYX EDDFYYYX 150428 METAR LFPG 150428Z 01742KT 9999 FEW030 -1/5 Q1038
LL EGLLYYYX EDDFYYYX LFPBYYYX EGLLYYYX 101441 METAR LFPG 101441Z 17345KT 9999 FEW030 30/21 Q1089
SS LFPNYYYX LFPBYYYX LFPOYYYX EGLLYYYX 131715 METAR LFPG 131715Z 20324KT 9999 FEW030 17/15 Q1094
SS LFPGYYYX EDDFYYYX 202017 METAR LFPG 202017Z 25818KT 9999 FEW030 24/22 Q1088
FF LFPGYYYX LFPNYYYX LFPBYYYX LFPGYYYX 191454 METAR LFPG 191454Z 28629KT 9999 FEW030 6/22 Q1034
DD EGLLYYYX LFPOYYYX 092033 METAR LFPG 092033Z 03611KT 9999 FEW030 8/8 Q1041
KK LFPNYYYX EGLLYYYX LFPOYYYX 170138 METAR LFPG 170138Z 20937KT 9999 FEW030 17/22 Q1087
KK LFPNYYYX EGLLYYYX LFPOYYYX LFPBYYYX 140522 METAR LFPG 140522Z 08230KT 9999 FEW030 30/19 Q1053
FF EDDFYYYX LFPNYYYX EGLLYYYX EDDFYYYX 031013 METAR LFPG 031013Z 22740KT 9999 FEW030 -2/12 Q1070
GG LFPGYYYX LFPNYYYX LFPGYYYX 110533 METAR LFPG 110533Z 19345KT 9999 FEW030 20/25 Q1090
KK LFPBYYYX EDDFYYYX 150549 METAR LFPG 150549Z 17141KT 9999 FEW030 5/11 Q1059
DD LFPOYYYX EDDFYYYX LFPOYYYX 260611 METAR LFPG 260611Z 07849KT 9999 FEW030 -2/-2 Q1011
GG LFPNYYYX LFPBYYYX EDDFYYYX LFPNYYYX 090206 METAR LFPG 090206Z 22531KT 9999 FEW030 1/-3 Q1063
DD LFPBYYYX EGLLYYYX LFPOYYYX EDDFYYYX 100439 METAR LFPG 100439Z 17541KT 9999 FEW030 26/6 Q1045
FF LFPGYYYX EGLLYYYX EDDFYYYX LFPGYYYX 270533 METAR LFPG 270533Z 15728KT 9999 FEW030 8/6 Q1061
DD LFPOYYYX LFPOYYYX 100841 METAR LFPG 100841Z 00835KT 9999 FEW030 9/14 Q1092
SS LFPBYYYX LFPOYYYX 142157 METAR LFPG 142157Z 17713KT 9999 FEW030 -6/0 Q1012
SS LFPBYYYX LFPBYYYX LFPNYYYX 231735 METAR LFPG 231735Z 26732KT 9999 FEW030 28/2 Q1062
FF EGLLYYYX LFPGYYYX EDDFYYYX 201736 METAR LFPG 201736Z 00629KT 9999 FEW030 -7/4 Q1052
LL LFPBYYYX LFPGYYYX 231951 METAR LFPG 231951Z 08611KT 9999 FEW030 25/-3 Q1004
LL EDDFYYYX LFPBYYYX 020607 METAR LFPG 020607Z 00032KT 9999 FEW030 -4/16 Q1067
FF LFPNYYYX EGLLYYYX LFPNYYYX LFPOYYYX 091632 METAR LFPG 091632Z 22547KT 9999 FEW030 3/9 Q1010
FF LFPOYYYX LFPGYYYX EGLLYYYX 081350 METAR LFPG 081350Z 20714KT 9999 FEW030 -8/-6 Q1015
FF EGLLYYYX LFPOYYYX LFPNYYYX 132117 METAR LFPG 132117Z 32639KT 9999 FEW030 29/0 Q1011
GG LFPGYYYX LFPOYYYX LFPGYYYX 132045 METAR LFPG 132045Z 21619KT 9999 FEW030 8/-4 Q1089
GG EDDFYYYX LFPOYYYX EGLLYYYX LFPGYYYX 160043 METAR LFPG 160043Z 08723KT 9999 FEW030 11/24 Q1061
DD EDDFYYYX EDDFYYYX EGLLYYYX 131418 METAR LFPG 131418Z 19343KT 9999 FEW030 -1/18 Q1072
FF EDDFYYYX LFPBYYYX LFPGYYYX LFPOYYYX 281658 METAR LFPG 281658Z 02422KT 9999 FEW030 7/0 Q1076
DD LFPOYYYX LFPNYYYX EDDFYYYX 190629 METAR LFPG 190629Z 14033KT 9999 FEW030 10/0 Q1047
FF EDDFYYYX EDDFYYYX LFPBYYYX EGLLYYYX 150823 METAR LFPG 150823Z 15446KT 9999 FEW030 12/15 Q1071
LL LFPBYYYX LFPNYYYX EDDFYYYX 110108 METAR LFPG 110108Z 23249KT 9999 FEW030 24/25 Q1082
DD LFPOYYYX LFPBYYYX 162141 METAR LFPG 162141Z 00248KT 9999 FEW030 14/0 Q1064
DD EDDFYYYX LFPOYYYX 270029 METAR LFPG 270029Z 22838KT 9999 FEW030 29/-2 Q1012
FF EGLLYYYX LFPOYYYX LFPNYYYX 022017 METAR LFPG 022017Z 09027KT 9999 FEW030 12/17 Q1004
LL LFPOYYYX LFPGYYYX LFPBYYYX EDDFYYYX 010628 METAR LFPG 010628Z 30844KT 9999 FEW030 23/-7 Q1055
SS LFPGYYYX EDDFYYYX LFPGYYYX LFPNYYYX 191335 METAR LFPG 191335Z 11319KT 9999 FEW030 21/19 Q1074
FF EGLLYYYX LFPOYYYX 281937 METAR LFPG 281937Z 20813KT 9999 FEW030 -1/-5 Q1088
FF LFPOYYYX EGLLYYYX LFPBYYYX LFPNYYYX 191719 METAR LFPG 191719Z 32128KT 9999 FEW030 26/19 Q1028
KK EDDFYYYX LFPNYYYX 162141 METAR LFPG 162141Z 10139KT 9999 FEW030 24/4 Q1034
GG EGLLYYYX EGLLYYYX LFPGYYYX LFPNYYYX 122329 METAR LFPG 122329Z 25648KT 9999 FEW030 17/16 Q1014
LL EGLLYYYX LFPGYYYX LFPOYYYX EGLLYYYX 120459 METAR LFPG 120459Z 05938KT 9999 FEW030 6/2 Q1014
KK EDDFYYYX LFPBYYYX LFPGYYYX 151030 METAR LFPG 151030Z 05048KT 9999 FEW030 -9/-10 Q1090
DD LFPGYYYX LFPGYYYX 140241 METAR LFPG 140241Z 14834KT 9999 FEW030 33/-10 Q1072
GG LFPOYYYX LFPOYYYX 100704 METAR LFPG 100704Z 15730KT 9999 FEW030 7/-9 Q1015
SS EGLLYYYX LFPOYYYX LFPNYYYX 240305 METAR LFPG 240305Z 05140KT 9999 FEW030 5/-9 Q1001
SS EDDFYYYX LFPNYYYX EDDFYYYX 020325 METAR LFPG 020325Z 32714KT 9999 FEW030 12/22 Q1089
DD LFPGYYYX LFPGYYYX 281437 METAR LFPG 281437Z 01840KT 9999 FEW030 -8/-4 Q1057
DD LFPOYYYX LFPNYYYX LFPOYYYX 270431 METAR LFPG 270431Z 28446KT 9999 FEW030 27/13 Q1084
GG EGLLYYYX LFPOYYYX 200318 METAR LFPG 200318Z 03534KT 9999 FEW030 28/-1 Q1043
FF LFPNYYYX EDDFYYYX EGLLYYYX 151626 METAR LFPG 151626Z 05143KT 9999 FEW030 3/11 Q1005
SS LFPBYYYX LFPOYYYX EDDFYYYX LFPBYYYX 141237 METAR LFPG 141237Z 21526KT 9999 FEW030 17/14 Q1017
LL EDDFYYYX LFPBYYYX 241729 METAR LFPG 241729Z 25142KT 9999 FEW030 16/24 Q1000
FF LFPGYYYX EDDFYYYX 091050 METAR LFPG 091050Z 32114KT 9999 FEW030 26/0 Q1092
GG LFPNYYYX EDDFYYYX 070653 METAR LFPG 070653Z 26911KT 9999 FEW030 15/-5 Q1028
GG LFPOYYYX LFPGYYYX 132031 METAR LFPG 132031Z 22614KT 9999 FEW030 -2/-2 Q1004
LL LFPBYYYX LFPBYYYX EGLLYYYX LFPNYYYX 181442 METAR LFPG 181442Z 21841KT 9999 FEW030 2/4 Q1035
LL LFPNYYYX LFPOYYYX 111630 METAR LFPG 111630Z 21434KT 9999 FEW030 35/6 Q1017
FF EDDFYYYX LFPNYYYX LFPOYYYX 121205 METAR LFPG 121205Z 16730KT 9999 FEW030 10/11 Q1070
LL LFPOYYYX EDDFYYYX LFPOYYYX 221825 METAR LFPG 221825Z 14820KT 9999 FEW030 30/-4 Q1032
KK LFPNYYYX LFPBYYYX EGLLYYYX 240914 METAR LFPG 240914Z 21418KT 9999 FEW030 31/13 Q1064
FF LFPNYYYX LFPBYYYX EGLLYYYX 150509 METAR LFPG 150509Z 26243KT 9999 FEW030 6/20 Q1067
SS LFPNYYYX LFPGYYYX 072002 METAR LFPG 072002Z 16632KT 9999 FEW030 0/3 Q1011
LL LFPGYYYX LFPGYYYX EGLLYYYX 080207 METAR LFPG 080207Z 21341KT 9999 FEW030 5/19 Q1081
SS LFPNYYYX EDDFYYYX LFPGYYYX 140903 METAR LFPG 140903Z 21217KT 9999 FEW030 30/25 Q1004
LL EGLLYYYX LFPOYYYX EGLLYYYX 091937 METAR LFPG 091937Z 31126KT 9999 FEW030 34/4 Q1010
KK LFPNYYYX LFPNYYYX EGLLYYYX 022017 METAR LFPG 022017Z 13625KT 9999 FEW030 15/23 Q1005
KK EGLLYYYX LFPOYYYX LFPNYYYX 041201 METAR LFPG 041201Z 21514KT 9999 FEW030 0/10 Q1046
LL LFPOYYYX LFPGYYYX 262007 METAR LFPG 262007Z 25327KT 9999 FEW030 -2/1 Q1005
FF LFPNYYYX EDDFYYYX 110248 METAR LFPG 110248Z 14637KT 9999 FEW030 35/21 Q1063
KK EDDFYYYX EGLLYYYX LFPNYYYX 051641 METAR LFPG 051641Z 22929KT 9999 FEW030 -10/17 Q1035
KK LFPBYYYX EDDFYYYX 080122 METAR LFPG 080122Z 22650KT 9999 FEW030 33/2 Q1038
DD LFPGYYYX LFPBYYYX EDDFYYYX 271023 METAR LFPG 271023Z 34420KT 9999 FEW030 21/-8 Q1008
FF EDDFYYYX LFPNYYYX 242125 METAR LFPG 242125Z 28548KT 9999 FEW030 23/-1 Q1075
GG LFPOYYYX LFPBYYYX EGLLYYYX 142224 METAR LFPG 142224Z 13638KT 9999 FEW030 24/-8 Q1080
LL LFPGYYYX LFPNYYYX LFPGYYYX EGLLYYYX 100454 METAR LFPG 100454Z 30240KT 9999 FEW030 4/1 Q1067
LL LFPGYYYX LFPNYYYX EDDFYYYX EGLLYYYX 180414 METAR LFPG 180414Z 12623KT 9999 FEW030 9/3 Q1002
SS EGLLYYYX EDDFYYYX LFPBYYYX LFPGYYYX 220525 METAR LFPG 220525Z 31929KT 9999 FEW030 18/9 Q1075
LL LFPGYYYX LFPOYYYX 080629 METAR LFPG 080629Z 34314KT 9999 FEW030 28/13 Q1091
FF LFPBYYYX LFPBYYYX EGLLYYYX LFPNYYYX 141012 METAR LFPG 141012Z 35535KT 9999 FEW030 -8/-5 Q1017
SS EGLLYYYX LFPOYYYX 110018 METAR LFPG 110018Z 01429KT 9999 FEW030 -6/25 Q1016
GG LFPOYYYX LFPNYYYX EGLLYYYX EDDFYYYX 171840 METAR LFPG 171840Z 13050KT 9999 FEW030 12/16 Q1047
KK LFPNYYYX LFPGYYYX 080538 METAR LFPG 080538Z 23424KT 9999 FEW030 16/-6 Q1083
GG LFPOYYYX LFPOYYYX LFPGYYYX 190948 METAR LFPG 190948Z 24217KT 9999 FEW030 17/22 Q1043
GG EDDFYYYX LFPOYYYX EGLLYYYX 062123 METAR LFPG 062123Z 20825KT 9999 FEW030 -2/-10 Q1086
LL EGLLYYYX LFPOYYYX 210240 METAR LFPG 210240Z 15928KT 9999 FEW030 -4/14 Q1035
FF EGLLYYYX LFPOYYYX LFPGYYYX EGLLYYYX 070658 METAR LFPG 070658Z 02917KT 9999 FEW030 21/21 Q1035
SS LFPNYYYX LFPNYYYX LFPGYYYX 060457 METAR LFPG 060457Z 13450KT 9999 FEW030 17/12 Q1097
GG LFPBYYYX LFPBYYYX EDDFYYYX LFPNYYYX 060530 METAR LFPG 060530Z 18716KT 9999 FEW030 21/22 Q1100
DD LFPBYYYX EGLLYYYX LFPOYYYX 140524 METAR LFPG 140524Z 04343KT 9999 FEW030 25/0 Q1042
KK LFPOYYYX EDDFYYYX LFPBYYYX 060237 METAR LFPG 060237Z 27547KT 9999 FEW030 34/20 Q1037
GG LFPGYYYX LFPOYYYX EDDFYYYX EGLLYYYX 221629 METAR LFPG 221629Z 32040KT 9999 FEW030 3/3 Q1048
SS EGLLYYYX EGLLYYYX 050316 METAR LFPG 050316Z 24340KT 9999 FEW030 18/-5 Q1058
SS LFPGYYYX LFPBYYYX 061048 METAR LFPG 061048Z 03619KT 9999 FEW030 32/2 Q1069
FF LFPBYYYX LFPOYYYX LFPBYYYX LFPGYYYX 151814 METAR LFPG 151814Z 35721KT 9999 FEW030 13/-1 Q1074
SS LFPBYYYX LFPBYYYX EGLLYYYX LFPOYYYX 170454 METAR LFPG 170454Z 09614KT 9999 FEW030 10/2 Q1043
KK LFPOYYYX LFPNYYYX LFPBYYYX 121258 METAR LFPG 121258Z 08935KT 9999 FEW030 5/-8 Q1048
LL LFPBYYYX LFPOYYYX EGLLYYYX EDDFYYYX 120731 METAR LFPG 120731Z 10529KT 9999 FEW030 -8/-10 Q1076
DD LFPNYYYX LFPBYYYX LFPNYYYX EGLLYYYX 171826 METAR LFPG 171826Z 27641KT 9999 FEW030 8/-5 Q1019
FF LFPGYYYX EDDFYYYX EGLLYYYX 091833 METAR LFPG 091833Z 08933KT 9999 FEW030 12/5 Q1054
DD LFPNYYYX LFPGYYYX LFPBYYYX EGLLYYYX 112057 METAR LFPG 112057Z 19429KT 9999 FEW030 -7/-6 Q1074
DD LFPGYYYX LFPNYYYX LFPBYYYX 242324 METAR LFPG 242324Z 15540KT 9999 FEW030 -7/25 Q1089
KK LFPNYYYX LFPGYYYX EGLLYYYX 171138 METAR LFPG 171138Z 03135KT 9999 FEW030 12/0 Q1016
SS LFPNYYYX EGLLYYYX LFPBYYYX 210744 METAR LFPG 210744Z 11548KT 9999 FEW030 17/15 Q1070
SS LFPBYYYX LFPGYYYX LFPBYYYX LFPNYYYX 071939 METAR LFPG 071939Z 00321KT 9999 FEW030 35/-8 Q1040
SS LFPBYYYX LFPGYYYX 230200 METAR LFPG 230200Z 35447KT 9999 FEW030 12/12 Q1063
FF EDDFYYYX LFPOYYYX LFPBYYYX EGLLYYYX 240816 METAR LFPG 240816Z 17750KT 9999 FEW030 32/-4 Q1046
SS LFPOYYYX EDDFYYYX LFPOYYYX LFPNYYYX 052312 METAR LFPG 052312Z 33335KT 9999 FEW030 -5/21 Q1019
GG EGLLYYYX LFPGYYYX 061554 METAR LFPG 061554Z 29944KT 9999 FEW030 16/11 Q1005
FF EGLLYYYX EGLLYYYX LFPBYYYX EDDFYYYX 021418 METAR LFPG 021418Z 02746KT 9999 FEW030 16/11 Q1100
LL LFPGYYYX LFPBYYYX LFPOYYYX 180638 METAR LFPG 180638Z 06150KT 9999 FEW030 26/19 Q1008
FF EDDFYYYX LFPGYYYX 141452 METAR LFPG 141452Z 32943KT 9999 FEW030 15/6 Q1024
DD EDDFYYYX EDDFYYYX 010925 METAR LFPG 010925Z 07037KT 9999 FEW030 16/-5 Q1010
LL LFPBYYYX LFPNYYYX EDDFYYYX 011138 METAR LFPG 011138Z 20630KT 9999 FEW030 33/4 Q1081
GG LFPOYYYX EDDFYYYX 120032 METAR LFPG 120032Z 12314KT 9999 FEW030 7/2 Q1056
DD EDDFYYYX EGLLYYYX LFPGYYYX 171720 METAR LFPG 171720Z 31139KT 9999 FEW030 5/16 Q1040
KK LFPGYYYX LFPBYYYX 161012 METAR LFPG 161012Z 03532KT 9999 FEW030 26/22 Q1085
GG LFPNYYYX LFPGYYYX LFPOYYYX EGLLYYYX 210018 METAR LFPG 210018Z 34733KT 9999 FEW030 33/1 Q1015
FF EDDFYYYX EGLLYYYX LFPNYYYX LFPOYYYX 142256 METAR LFPG 142256Z 18315KT 9999 FEW030 35/12 Q1009
DD LFPOYYYX LFPGYYYX 012255 METAR LFPG 012255Z 35823KT 9999 FEW030 21/9 Q1027
DD EDDFYYYX LFPGYYYX 051556 METAR LFPG 051556Z 19249KT 9999 FEW030 18/-6 Q1077
FF LFPBYYYX LFPOYYYX 251415 METAR LFPG 251415Z 27120KT 9999 FEW030 -2/19 Q1087
FF LFPGYYYX LFPBYYYX 040434 METAR LFPG 040434Z 30820KT 9999 FEW030 32/5 Q1064
DD LFPOYYYX EGLLYYYX LFPGYYYX 160815 METAR LFPG 160815Z 10946KT 9999 FEW030 14/11 Q1073
KK LFPOYYYX LFPBYYYX LFPNYYYX EGLLYYYX 060156 METAR LFPG 060156Z 31043KT 9999 FEW030 2/15 Q1041
GG LFPBYYYX EGLLYYYX LFPOYYYX EDDFYYYX 190428 METAR LFPG 190428Z 24836KT 9999 FEW030 10/8 Q1021
KK LFPGYYYX LFPGYYYX EDDFYYYX 022006 METAR LFPG 022006Z 08449KT 9999 FEW030 32/3 Q1096
LL LFPOYYYX EDDFYYYX 051901 METAR LFPG 051901Z 07828KT 9999 FEW030 10/18 Q1076
KK LFPGYYYX LFPNYYYX 050237 METAR LFPG 050237Z 14722KT 9999 FEW030 -9/-9 Q1094
LL LFPNYYYX EDDFYYYX EGLLYYYX LFPNYYYX 241706 METAR LFPG 241706Z 14111KT 9999 FEW030 0/-10 Q1077
SS LFPOYYYX EDDFYYYX EGLLYYYX 232029 METAR LFPG 232029Z 16449KT 9999 FEW030 -1/10 Q1060
FF LFPBYYYX LFPBYYYX EDDFYYYX 252358 METAR LFPG 252358Z 17830KT 9999 FEW030 13/-7 Q1032
GG EGLLYYYX LFPGYYYX LFPBYYYX EGLLYYYX 151243 METAR LFPG 151243Z 29835KT 9999 FEW030 31/-6 Q1072
GG LFPGYYYX EDDFYYYX LFPOYYYX LFPBYYYX 181401 METAR LFPG 181401Z 07132KT 9999 FEW030 -4/0 Q1090
GG LFPBYYYX LFPGYYYX EDDFYYYX EGLLYYYX 060058 METAR LFPG 060058Z 23141KT 9999 FEW030 9/-6 Q1018
GG LFPOYYYX LFPGYYYX EDDFYYYX 240618 METAR LFPG 240618Z 21412KT 9999 FEW030 7/20 Q1083
DD LFPOYYYX LFPOYYYX 221747 METAR LFPG 221747Z 07129KT 9999 FEW030 22/19 Q1038
SS LFPNYYYX EGLLYYYX LFPGYYYX 221923 METAR LFPG 221923Z 03748KT 9999 FEW030 15/18 Q1029
KK LFPOYYYX LFPNYYYX EDDFYYYX 202212 METAR LFPG 202212Z 32731KT 9999 FEW030 0/-10 Q1014
GG LFPOYYYX EGLLYYYX LFPGYYYX LFPBYYYX 070055 METAR LFPG 070055Z 23224KT 9999 FEW030 27/2 Q1083
FF LFPOYYYX EDDFYYYX LFPNYYYX LFPGYYYX 020953 METAR LFPG 020953Z 12545KT 9999 FEW030 18/22 Q1022
SS LFPOYYYX LFPOYYYX EDDFYYYX 260532 METAR LFPG 260532Z 09021KT 9999 FEW030 8/18 Q1007
DD EGLLYYYX EGLLYYYX LFPNYYYX LFPOYYYX 010631 METAR LFPG 010631Z 31639KT 9999 FEW030 22/-9 Q1045
SS EGLLYYYX EDDFYYYX 080518 METAR LFPG 080518Z 13838KT 9999 FEW030 15/-10 Q1015
FF EDDFYYYX EDDFYYYX LFPOYYYX EGLLYYYX 052038 METAR LFPG 052038Z 29726KT 9999 FEW030 -7/5 Q1088
GG EGLLYYYX EGLLYYYX EDDFYYYX 041054 METAR LFPG 041054Z 09236KT 9999 FEW030 22/17 Q1093
LL LFPGYYYX EDDFYYYX 201947 METAR LFPG 201947Z 33731KT 9999 FEW030 22/-6 Q1036
KK LFPGYYYX LFPGYYYX EDDFYYYX LFPNYYYX 200532 METAR LFPG 200532Z 12236KT 9999 FEW030 4/19 Q1082
FF LFPGYYYX EDDFYYYX 061316 METAR LFPG 061316Z 21221KT 9999 FEW030 30/21 Q1079
KK LFPNYYYX LFPBYYYX LFPOYYYX 090928 METAR LFPG 090928Z 29140KT 9999 FEW030 14/-5 Q1091
KK LFPBYYYX LFPOYYYX LFPNYYYX 091419 METAR LFPG 091419Z 05636KT 9999 FEW030 32/-9 Q1064
SS EGLLYYYX LFPNYYYX LFPBYYYX 020055 METAR LFPG 020055Z 25124KT 9999 FEW030 34/23 Q1094
KK EDDFYYYX LFPGYYYX LFPBYYYX EGLLYYYX 281708 METAR LFPG 281708Z 02010KT 9999 FEW030 -6/-10 Q1001
DD EDDFYYYX LFPBYYYX 261218 METAR LFPG 261218Z 32010KT 9999 FEW030 28/-3 Q1037
GG LFPBYYYX LFPBYYYX EGLLYYYX 281019 METAR LFPG 281019Z 24611KT 9999 FEW030 7/1 Q1037
KK LFPGYYYX EDDFYYYX 041546 METAR LFPG 041546Z 35136KT 9999 FEW030 -6/-6 Q1096
FF LFPOYYYX LFPNYYYX 231158 METAR LFPG 231158Z 16840KT 9999 FEW030 -8/22 Q1024
FF EDDFYYYX LFPNYYYX 110625 METAR LFPG 110625Z 20336KT 9999 FEW030 -5/4 Q1033
GG EGLLYYYX EGLLYYYX LFPBYYYX EDDFYYYX 190555 METAR LFPG 190555Z 35037KT 9999 FEW030 20/-6 Q1034
GG LFPGYYYX EDDFYYYX 010409 METAR LFPG 010409Z 17129KT 9999 FEW030 27/-4 Q1003
LL LFPGYYYX LFPOYYYX LFPNYYYX 011708 METAR LFPG 011708Z 08711KT 9999 FEW030 31/17 Q1065
GG LFPNYYYX EDDFYYYX EGLLYYYX 132350 METAR LFPG 132350Z 24315KT 9999 FEW030 5/13 Q1065
FF LFPGYYYX LFPOYYYX EDDFYYYX LFPNYYYX 190403 METAR LFPG 190403Z 24223KT 9999 FEW030 26/-1 Q1031
KK LFPNYYYX EGLLYYYX 162100 METAR LFPG 162100Z 04028KT 9999 FEW030 1/-10 Q1005
SS LFPGYYYX LFPBYYYX 130718 METAR LFPG 130718Z 33130KT 9999 FEW030 12/7 Q1096
FF LFPGYYYX EDDFYYYX 260058 METAR LFPG 260058Z 26927KT 9999 FEW030 31/-2 Q1008
GG LFPNYYYX EGLLYYYX 261911 METAR LFPG 261911Z 10222KT 9999 FEW030 13/2 Q1096
KK EDDFYYYX EGLLYYYX EDDFYYYX 141617 METAR LFPG 141617Z 31539KT 9999 FEW030 29/12 Q1045
GG LFPNYYYX LFPOYYYX EDDFYYYX 140405 METAR LFPG 140405Z 06322KT 9999 FEW030 9/-2 Q1070
SS EGLLYYYX EDDFYYYX LFPGYYYX 080551 METAR LFPG 080551Z 31035KT 9999 FEW030 0/6 Q1047
LL EGLLYYYX LFPGYYYX LFPNYYYX 120434 METAR LFPG 120434Z 20746KT 9999 FEW030 2/15 Q1049
KK LFPBYYYX LFPGYYYX LFPOYYYX 211432 METAR LFPG 211432Z 12721KT 9999 FEW030 -5/22 Q1043
FF LFPOYYYX LFPGYYYX EGLLYYYX EDDFYYYX 042205 METAR LFPG 042205Z 19722KT 9999 FEW030 1/5 Q1000
SS EGLLYYYX LFPGYYYX 101737 METAR LFPG 101737Z 34920KT 9999 FEW030 -7/6 Q1005
FF LFPOYYYX LFPGYYYX LFPNYYYX 110346 METAR LFPG 110346Z 35512KT 9999 FEW030 2/7 Q1004
LL EGLLYYYX EGLLYYYX 080201 METAR LFPG 080201Z 24925KT 9999 FEW030 19/1 Q1069
DD LFPOYYYX LFPBYYYX LFPGYYYX 071459 METAR LFPG 071459Z 08639KT 9999 FEW030 31/20 Q1069
FF EDDFYYYX LFPOYYYX LFPGYYYX LFPNYYYX 042022 METAR LFPG 042022Z 03310KT 9999 FEW030 29/-7 Q1017
GG EDDFYYYX LFPBYYYX 211250 METAR LFPG 211250Z 11012KT 9999 FEW030 25/17 Q1058
FF EDDFYYYX LFPNYYYX EDDFYYYX 112152 METAR LFPG 112152Z 06321KT 9999 FEW030 -2/3 Q1010
KK LFPBYYYX LFPNYYYX LFPBYYYX 151226 METAR LFPG 151226Z 27118KT 9999 FEW030 12/11 Q1008
FF LFPBYYYX LFPOYYYX EDDFYYYX 071715 METAR LFPG 071715Z 31139KT 9999 FEW030 19/23 Q1072
GG LFPGYYYX EGLLYYYX 221740 METAR LFPG 221740Z 34724KT 9999 FEW030 20/-10 Q1097
KK LFPBYYYX EDDFYYYX LFPOYYYX LFPNYYYX 070315 METAR LFPG 070315Z 03833KT 9999 FEW030 26/0 Q1083
FF EGLLYYYX LFPNYYYX 142142 METAR LFPG 142142Z 27238KT 9999 FEW030 -1/17 Q1068
SS LFPNYYYX EDDFYYYX LFPBYYYX LFPOYYYX 061759 METAR LFPG 061759Z 16137KT 9999 FEW030 4/-4 Q1005
SS LFPOYYYX LFPBYYYX EDDFYYYX 140200 METAR LFPG 140200Z 18331KT 9999 FEW030 26/15 Q1059
DD LFPGYYYX EDDFYYYX LFPOYYYX EGLLYYYX 271910 METAR LFPG 271910Z 34314KT 9999 FEW030 8/21 Q1100
GG LFPOYYYX EGLLYYYX 071148 METAR LFPG 071148Z 34047KT 9999 FEW030 21/20 Q1085
GG LFPGYYYX LFPBYYYX LFPGYYYX LFPNYYYX 011714 METAR LFPG 011714Z 21812KT 9999 FEW030 -7/17 Q1063
KK LFPGYYYX LFPOYYYX LFPGYYYX 021330 METAR LFPG 021330Z 16415KT 9999 FEW030 22/18 Q1004
SS LFPNYYYX LFPOYYYX 121910 METAR LFPG 121910Z 29047KT 9999 FEW030 8/12 Q1095
SS LFPNYYYX LFPNYYYX EGLLYYYX 132150 METAR LFPG 132150Z 10248KT 9999 FEW030 10/20 Q1069
DD EDDFYYYX LFPGYYYX EGLLYYYX 031529 METAR LFPG 031529Z 28626KT 9999 FEW030 15/1 Q1050
SS EGLLYYYX LFPNYYYX 070023 METAR LFPG 070023Z 31727KT 9999 FEW030 3/8 Q1057
FF EDDFYYYX EDDFYYYX LFPOYYYX LFPBYYYX 220219 METAR LFPG 220219Z 22240KT 9999 FEW030 25/12 Q1022
DD LFPGYYYX LFPGYYYX 222235 METAR LFPG 222235Z 07823KT 9999 FEW030 6/24 Q1006
LL LFPGYYYX EDDFYYYX LFPGYYYX 051303 METAR LFPG 051303Z 35327KT 9999 FEW030 15/10 Q1077
DD LFPBYYYX EGLLYYYX LFPBYYYX LFPNYYYX 082216 METAR LFPG 082216Z 25731KT 9999 FEW030 5/0 Q1008
SS LFPNYYYX LFPBYYYX 101924 METAR LFPG 101924Z 14441KT 9999 FEW030 16/22 Q1055
DD LFPGYYYX LFPBYYYX LFPOYYYX LFPGYYYX 141324 METAR LFPG 141324Z 15442KT 9999 FEW030 2/18 Q1074
KK LFPGYYYX LFPNYYYX EDDFYYYX LFPGYYYX 100420 METAR LFPG 100420Z 18416KT 9999 FEW030 1/24 Q1088
DD LFPNYYYX LFPBYYYX LFPGYYYX EGLLYYYX 021213 METAR LFPG 021213Z 25026KT 9999 FEW030 8/13 Q1013
DD LFPBYYYX LFPGYYYX LFPBYYYX LFPOYYYX 280424 METAR LFPG 280424Z 13535KT 9999 FEW030 -9/24 Q1059
DD LFPNYYYX LFPOYYYX LFPGYYYX 062255 METAR LFPG 062255Z 17517KT 9999 FEW030 -8/2 Q1080
LL EGLLYYYX LFPBYYYX 131913 METAR LFPG 131913Z 28215KT 9999 FEW030 4/-3 Q1026
LL LFPNYYYX LFPOYYYX LFPBYYYX EGLLYYYX 080347 METAR LFPG 080347Z 27927KT 9999 FEW030 11/-7 Q1088
SS LFPBYYYX LFPGYYYX LFPNYYYX EGLLYYYX 061213 METAR LFPG 061213Z 16817KT 9999 FEW030 25/23 Q1052
FF LFPNYYYX LFPOYYYX EDDFYYYX LFPGYYYX 270242 METAR LFPG 270242Z 07446KT 9999 FEW030 14/-2 Q1018
SS EDDFYYYX EGLLYYYX LFPBYYYX 060953 METAR LFPG 060953Z 35047KT 9999 FEW030 2/21 Q1004
DD EDDFYYYX EDDFYYYX LFPNYYYX 080222 METAR LFPG 080222Z 11249KT 9999 FEW030 10/24 Q1011
LL EGLLYYYX LFPGYYYX LFPBYYYX 192225 METAR LFPG 192225Z 26146KT 9999 FEW030 18/23 Q1033
DD EDDFYYYX LFPBYYYX LFPNYYYX EDDFYYYX 091410 METAR LFPG 091410Z 03535KT 9999 FEW030 9/-2 Q1036
GG LFPOYYYX EGLLYYYX 031715 METAR LFPG 031715Z 28247KT 9999 FEW030 -6/-8 Q1058
LL LFPGYYYX LFPNYYYX 141259 METAR LFPG 141259Z 07427KT 9999 FEW030 19/4 Q1089
SS LFPGYYYX EGLLYYYX EDDFYYYX 271135 METAR LFPG 271135Z 29539KT 9999 FEW030 12/22 Q1060
LL LFPGYYYX LFPBYYYX 081045 METAR LFPG 081045Z 19333KT 9999 FEW030 31/8 Q1050
LL EGLLYYYX LFPNYYYX 210819 METAR LFPG 210819Z 15133KT 9999 FEW030 -3/-1 Q1023
KK LFPGYYYX LFPOYYYX LFPGYYYX 072312 METAR LFPG 072312Z 03610KT 9999 FEW030 25/25 Q1074
GG LFPNYYYX LFPNYYYX LFPBYYYX 252328 METAR LFPG 252328Z 00310KT 9999 FEW030 8/-5 Q1060
GG LFPNYYYX LFPOYYYX LFPGYYYX LFPBYYYX 260216 METAR LFPG 260216Z 04913KT 9999 FEW030 23/0 Q1099
DD LFPGYYYX LFPBYYYX 031841 METAR LFPG 031841Z 01525KT 9999 FEW030 10/-7 Q1080
FF LFPNYYYX LFPGYYYX 240217 METAR LFPG 240217Z 18847KT 9999 FEW030 31/0 Q1072
LL EDDFYYYX LFPBYYYX LFPGYYYX EGLLYYYX 031723 METAR LFPG 031723Z 11040KT 9999 FEW030 16/15 Q1076
DD LFPNYYYX LFPBYYYX EGLLYYYX 200331 METAR LFPG 200331Z 04135KT 9999 FEW030 6/4 Q1012
SS LFPBYYYX EGLLYYYX 151344 METAR LFPG 151344Z 14942KT 9999 FEW030 35/3 Q1082
LL LFPNYYYX EDDFYYYX LFPBYYYX LFPGYYYX 180958 METAR LFPG 180958Z 29628KT 9999 FEW030 11/22 Q1094
DD LFPGYYYX LFPGYYYX 221044 METAR LFPG 221044Z 35614KT 9999 FEW030 12/11 Q1014
FF EDDFYYYX LFPGYYYX LFPBYYYX EGLLYYYX 182018 METAR LFPG 182018Z 09515KT 9999 FEW030 22/20 Q1015
KK LFPBYYYX LFPGYYYX EDDFYYYX 242354 METAR LFPG 242354Z 25539KT 9999 FEW030 20/-1 Q1031
DD EGLLYYYX EGLLYYYX LFPGYYYX LFPNYYYX 120800 METAR LFPG 120800Z 32015KT 9999 FEW030 25/3 Q1084
DD EDDFYYYX EDDFYYYX LFPOYYYX 130219 METAR LFPG 130219Z 03740KT 9999 FEW030 7/8 Q1084
GG EGLLYYYX LFPOYYYX 141020 METAR LFPG 141020Z 25947KT 9999 FEW030 -9/2 Q1083
GG LFPNYYYX LFPNYYYX EDDFYYYX 042008 METAR LFPG 042008Z 06118KT 9999 FEW030 17/13 Q1045
GG LFPGYYYX EGLLYYYX LFPGYYYX LFPOYYYX 201919 METAR LFPG 201919Z 29628KT 9999 FEW030 9/19 Q1006
SS LFPGYYYX EGLLYYYX 152149 METAR LFPG 152149Z 34130KT 9999 FEW030 17/19 Q1020
SS LFPGYYYX LFPNYYYX EDDFYYYX 170025 METAR LFPG 170025Z 16650KT 9999 FEW030 28/9 Q1046
GG LFPOYYYX EGLLYYYX 242213 METAR LFPG 242213Z 30326KT 9999 FEW030 12/0 Q1052
FF EDDFYYYX LFPGYYYX 011751 METAR LFPG 011751Z 32735KT 9999 FEW030 13/20 Q1093
FF EDDFYYYX EDDFYYYX LFPNYYYX 251302 METAR LFPG 251302Z 24044KT 9999 FEW030 16/13 Q1044
GG LFPOYYYX EDDFYYYX LFPNYYYX 272033 METAR LFPG 272033Z 27047KT 9999 FEW030 32/24 Q1049
SS EDDFYYYX LFPGYYYX 150603 METAR LFPG 150603Z 34213KT 9999 FEW030 35/19 Q1025
SS EGLLYYYX LFPGYYYX 020032 METAR LFPG 020032Z 00746KT 9999 FEW030 34/24 Q1058
LL LFPNYYYX LFPNYYYX EGLLYYYX 200533 METAR LFPG 200533Z 22921KT 9999 FEW030 16/19 Q1075
FF LFPOYYYX LFPGYYYX EDDFYYYX 232200 METAR LFPG 232200Z 24425KT 9999 FEW030 16/6 Q1037
LL LFPNYYYX LFPBYYYX LFPGYYYX LFPOYYYX 051250 METAR LFPG 051250Z 08220KT 9999 FEW030 28/25 Q1021
KK LFPGYYYX EGLLYYYX 080738 METAR LFPG 080738Z 21049KT 9999 FEW030 -6/22 Q1071
KK EDDFYYYX EDDFYYYX LFPBYYYX 031854 METAR LFPG 031854Z 18933KT 9999 FEW030 17/13 Q1079
GG LFPOYYYX LFPGYYYX EGLLYYYX 061915 METAR LFPG 061915Z 27246KT 9999 FEW030 -9/-1 Q1062
FF EGLLYYYX EDDFYYYX LFPGYYYX 132049 METAR LFPG 132049Z 34347KT 9999 FEW030 19/0 Q1003
LL LFPBYYYX LFPOYYYX LFPNYYYX LFPBYYYX 230148 METAR LFPG 230148Z 22929KT 9999 FEW030 23/6 Q1049
LL LFPBYYYX EGLLYYYX LFPOYYYX 282049 METAR LFPG 282049Z 22934KT 9999 FEW030 17/5 Q1021
DD LFPBYYYX LFPBYYYX 090040 METAR LFPG 090040Z 21850KT 9999 FEW030 -7/-2 Q1088
KK EDDFYYYX LFPNYYYX LFPGYYYX EGLLYYYX 220242 METAR LFPG 220242Z 28234KT 9999 FEW030 18/-8 Q1042
DD EDDFYYYX LFPOYYYX EGLLYYYX 121626 METAR LFPG 121626Z 04943KT 9999 FEW030 14/-2 Q1056
LL LFPBYYYX LFPNYYYX LFPOYYYX EGLLYYYX 050738 METAR LFPG 050738Z 07533KT 9999 FEW030 31/21 Q1076
GG LFPOYYYX LFPOYYYX EDDFYYYX 020541 METAR LFPG 020541Z 15516KT 9999 FEW030 4/-8 Q1035
DD LFPNYYYX EGLLYYYX LFPBYYYX 181116 METAR LFPG 181116Z 04015KT 9999 FEW030 7/14 Q1017
DD EDDFYYYX LFPBYYYX LFPNYYYX LFPOYYYX 182140 METAR LFPG 182140Z 04038KT 9999 FEW030 -2/-1 Q1001
GG EGLLYYYX LFPGYYYX 232331 METAR LFPG 232331Z 08432KT 9999 FEW030 18/9 Q1091
FF LFPGYYYX LFPBYYYX EGLLYYYX 171123 METAR LFPG 171123Z 27538KT 9999 FEW030 18/8 Q1062
GG EDDFYYYX LFPBYYYX EDDFYYYX 081101 METAR LFPG 081101Z 21138KT 9999 FEW030 24/0 Q1010
GG EDDFYYYX EDDFYYYX 100408 METAR LFPG 100408Z 18528KT 9999 FEW030 25/21 Q1055
KK LFPOYYYX EGLLYYYX LFPOYYYX 262143 METAR LFPG 262143Z 20627KT 9999 FEW030 28/14 Q1084
GG EDDFYYYX LFPGYYYX 082024 METAR LFPG 082024Z 32420KT 9999 FEW030 22/11 Q1011
KK LFPBYYYX LFPOYYYX LFPNYYYX EGLLYYYX 140811 METAR LFPG 140811Z 30324KT 9999 FEW030 0/6 Q1027
FF LFPNYYYX EGLLYYYX EDDFYYYX LFPGYYYX 221939 METAR LFPG 221939Z 33236KT 9999 FEW030 27/-9 Q1021
GG LFPOYYYX EDDFYYYX LFPOYYYX 241956 METAR LFPG 241956Z 30144KT 9999 FEW030 19/24 Q1015
SS EDDFYYYX LFPNYYYX 060937 METAR LFPG 060937Z 05530KT 9999 FEW030 13/18 Q1015
LL EGLLYYYX EGLLYYYX LFPOYYYX 072321 METAR LFPG 072321Z 11918KT 9999 FEW030 34/17 Q1068
LL LFPOYYYX LFPBYYYX EGLLYYYX 231330 METAR LFPG 231330Z 18627KT 9999 FEW030 21/5 Q1033
FF LFPBYYYX EDDFYYYX LFPGYYYX 070727 METAR LFPG 070727Z 28113KT 9999 FEW030 -7/4 Q1031
LL LFPNYYYX EGLLYYYX LFPBYYYX 220048 METAR LFPG 220048Z 18539KT 9999 FEW030 8/-5 Q1073
LL EDDFYYYX LFPBYYYX LFPOYYYX 041108 METAR LFPG 041108Z 11918KT 9999 FEW030 34/22 Q1028
LL LFPNYYYX EDDFYYYX LFPOYYYX 021016 METAR LFPG 021016Z 19135KT 9999 FEW030 26/-10 Q1094
KK EDDFYYYX LFPNYYYX LFPGYYYX LFPBYYYX 281449 METAR LFPG 281449Z 09638KT 9999 FEW030 33/-10 Q1048
DD LFPBYYYX LFPNYYYX LFPBYYYX EDDFYYYX 250009 METAR LFPG 250009Z 27630KT 9999 FEW030 32/2 Q1069
FF LFPBYYYX LFPOYYYX EGLLYYYX LFPBYYYX 240317 METAR LFPG 240317Z 35622KT 9999 FEW030 30/24 Q1062
FF EGLLYYYX LFPOYYYX LFPNYYYX EDDFYYYX 132115 METAR LFPG 132115Z 23415KT 9999 FEW030 -4/19 Q1096
GG LFPBYYYX EDDFYYYX EGLLYYYX 231706 METAR LFPG 231706Z 34330KT 9999 FEW030 30/13 Q1013
DD LFPBYYYX EDDFYYYX LFPBYYYX 270629 METAR LFPG 270629Z 12940KT 9999 FEW030 21/5 Q1072
LL EGLLYYYX LFPOYYYX 111229 METAR LFPG 111229Z 00938KT 9999 FEW030 6/13 Q1082
KK LFPOYYYX LFPNYYYX LFPGYYYX 032144 METAR LFPG 032144Z 19543KT 9999 FEW030 13/14 Q1057
DD LFPGYYYX LFPBYYYX LFPNYYYX LFPOYYYX 270642 METAR LFPG 270642Z 01040KT 9999 FEW030 1/6 Q1093
DD EGLLYYYX LFPBYYYX LFPNYYYX 172327 METAR LFPG 172327Z 21538KT 9999 FEW030 30/-7 Q1022
KK LFPGYYYX EGLLYYYX LFPBYYYX 270124 METAR LFPG 270124Z 08136KT 9999 FEW030 14/0 Q1011
KK EGLLYYYX LFPNYYYX LFPGYYYX 262241 METAR LFPG 262241Z 25733KT 9999 FEW030 -6/5 Q1086
LL EDDFYYYX LFPBYYYX EGLLYYYX LFPGYYYX 151808 METAR LFPG 151808Z 30631KT 9999 FEW030 27/8 Q1030
FF EGLLYYYX EGLLYYYX LFPGYYYX EDDFYYYX 122128 METAR LFPG 122128Z 02618KT 9999 FEW030 28/17 Q1006
DD LFPOYYYX LFPNYYYX LFPOYYYX EDDFYYYX 261833 METAR LFPG 261833Z 05829KT 9999 FEW030 5/-4 Q1000
GG LFPOYYYX LFPNYYYX EGLLYYYX 172117 METAR LFPG 172117Z 20628KT 9999 FEW030 1/4 Q1009
SS LFPNYYYX LFPNYYYX LFPOYYYX EDDFYYYX 120555 METAR LFPG 120555Z 21119KT 9999 FEW030 29/-7 Q1067
DD LFPOYYYX LFPBYYYX 112220 METAR LFPG 112220Z 32234KT 9999 FEW030 19/-4 Q1067
SS LFPBYYYX LFPNYYYX LFPGYYYX 072306 METAR LFPG 072306Z 23036KT 9999 FEW030 19/11 Q1068
SS EGLLYYYX LFPNYYYX 022115 METAR LFPG 022115Z 35921KT 9999 FEW030 -2/11 Q1000
DD EGLLYYYX LFPNYYYX EGLLYYYX LFPGYYYX 130922 METAR LFPG 130922Z 16417KT 9999 FEW030 -10/11 Q1028
SS LFPGYYYX LFPOYYYX EDDFYYYX 061720 METAR LFPG 061720Z 04442KT 9999 FEW030 6/7 Q1040
SS EDDFYYYX LFPGYYYX 052211 METAR LFPG 052211Z 18933KT 9999 FEW030 -10/10 Q1052
FF LFPNYYYX LFPBYYYX EGLLYYYX EDDFYYYX 060209 METAR LFPG 060209Z 35119KT 9999 FEW030 5/-1 Q1099
FF LFPOYYYX LFPBYYYX 230812 METAR LFPG 230812Z 25819KT 9999 FEW030 -2/-8 Q1012
LL LFPOYYYX LFPBYYYX 220612 METAR LFPG 220612Z 31929KT 9999 FEW030 3/2 Q1083
LL LFPBYYYX EGLLYYYX 040612 METAR LFPG 040612Z 28328KT 9999 FEW030 7/17 Q1071
LL LFPGYYYX EGLLYYYX 111502 METAR LFPG 111502Z 17910KT 9999 FEW030 1/14 Q1032
SS LFPOYYYX LFPGYYYX EDDFYYYX 172215 METAR LFPG 172215Z 13731KT 9999 FEW030 -10/22 Q1084
FF LFPNYYYX EGLLYYYX 150813 METAR LFPG 150813Z 30648KT 9999 FEW030 21/17 Q1055
GG LFPOYYYX LFPOYYYX LFPBYYYX LFPNYYYX 130118 METAR LFPG 130118Z 04047KT 9999 FEW030 -7/7 Q1086
SS LFPBYYYX LFPOYYYX 142039 METAR LFPG 142039Z 08520KT 9999 FEW030 -8/-5 Q1082
KK LFPOYYYX EGLLYYYX LFPNYYYX 082054 METAR LFPG 082054Z 33421KT 9999 FEW030 6/24 Q1082
KK LFPOYYYX LFPBYYYX LFPNYYYX EGLLYYYX 112108 METAR LFPG 112108Z 16721KT 9999 FEW030 -5/3 Q1038
SS EDDFYYYX LFPGYYYX 200124 METAR LFPG 200124Z 03532KT 9999 FEW030 8/14 Q1054
FF EGLLYYYX LFPNYYYX EGLLYYYX 060006 METAR LFPG 060006Z 34229KT 9999 FEW030 26/5 Q1090
DD LFPNYYYX LFPNYYYX LFPOYYYX 171335 METAR LFPG 171335Z 24822KT 9999 FEW030 10/-2 Q1050
SS EDDFYYYX EGLLYYYX LFPGYYYX LFPBYYYX 051633 METAR LFPG 051633Z 24242KT 9999 FEW030 5/13 Q1018
GG LFPBYYYX LFPOYYYX LFPGYYYX 272155 METAR LFPG 272155Z 33537KT 9999 FEW030 10/21 Q1091
GG LFPOYYYX LFPBYYYX 260250 METAR LFPG 260250Z 29747KT 9999 FEW030 21/14 Q1093
KK LFPNYYYX LFPGYYYX LFPBYYYX EDDFYYYX 081306 METAR LFPG 081306Z 15116KT 9999 FEW030 8/1 Q1012
KK LFPNYYYX EDDFYYYX 100813 METAR LFPG 100813Z 27639KT 9999 FEW030 -5/11 Q1019
SS EGLLYYYX EDDFYYYX 180455 METAR LFPG 180455Z 14911KT 9999 FEW030 29/-1 Q1064
LL LFPBYYYX EGLLYYYX 211454 METAR LFPG 211454Z 08333KT 9999 FEW030 9/16 Q1006
KK LFPNYYYX LFPBYYYX LFPOYYYX EDDFYYYX 251848 METAR LFPG 251848Z 31734KT 9999 FEW030 17/-10 Q1008
DD LFPOYYYX LFPBYYYX 100131 METAR LFPG 100131Z 30913KT 9999 FEW030 -1/5 Q1074
KK EGLLYYYX EDDFYYYX EGLLYYYX 242241 METAR LFPG 242241Z 04422KT 9999 FEW030 25/12 Q1010
FF LFPNYYYX LFPNYYYX LFPBYYYX 161236 METAR LFPG 161236Z 09043KT 9999 FEW030 10/10 Q1097
GG LFPOYYYX LFPNYYYX LFPOYYYX LFPBYYYX 120506 METAR LFPG 120506Z 31838KT 9999 FEW030 -1/6 Q1061
GG LFPOYYYX LFPOYYYX EDDFYYYX 200438 METAR LFPG 200438Z 21316KT 9999 FEW030 -10/25 Q1074
FF LFPBYYYX EDDFYYYX LFPGYYYX LFPBYYYX 152156 METAR LFPG 152156Z 27123KT 9999 FEW030 10/13 Q1028
SS LFPOYYYX LFPNYYYX 260634 METAR LFPG 260634Z 08325KT 9999 FEW030 18/1 Q1057
KK LFPNYYYX LFPGYYYX LFPOYYYX 011544 METAR LFPG 011544Z 04350KT 9999 FEW030 19/-6 Q1024
SS LFPNYYYX LFPNYYYX EGLLYYYX 201727 METAR LFPG 201727Z 19948KT 9999 FEW030 2/9 Q1050
LL LFPBYYYX LFPNYYYX 010258 METAR LFPG 010258Z 12821KT 9999 FEW030 30/19 Q1055
DD EGLLYYYX LFPGYYYX LFPNYYYX EGLLYYYX 101929 METAR LFPG 101929Z 09945KT 9999 FEW030 8/24 Q1093
FF EDDFYYYX EDDFYYYX 041919 METAR LFPG 041919Z 08536KT 9999 FEW030 9/-2 Q1093
GG LFPOYYYX LFPNYYYX EGLLYYYX 150928 METAR LFPG 150928Z 02636KT 9999 FEW030 -3/14 Q1054
FF EGLLYYYX LFPGYYYX 190524 METAR LFPG 190524Z 12631KT 9999 FEW030 3/21 Q1079
KK EGLLYYYX EDDFYYYX LFPNYYYX LFPGYYYX 021516 METAR LFPG 021516Z 30138KT 9999 FEW030 31/9 Q1028
KK EDDFYYYX LFPOYYYX 020355 METAR LFPG 020355Z 33414KT 9999 FEW030 27/-7 Q1013
FF EGLLYYYX LFPOYYYX 211539 METAR LFPG 211539Z 18031KT 9999 FEW030 13/-5 Q1000
KK LFPOYYYX LFPBYYYX LFPGYYYX LFPOYYYX 110503 METAR LFPG 110503Z 34535KT 9999 FEW030 10/17 Q1033
FF EGLLYYYX LFPNYYYX LFPGYYYX 050123 METAR LFPG 050123Z 16113KT 9999 FEW030 25/3 Q1043
SS EDDFYYYX LFPGYYYX LFPOYYYX 130229 METAR LFPG 130229Z 24525KT 9999 FEW030 17/11 Q1041
LL EGLLYYYX LFPNYYYX LFPBYYYX EGLLYYYX 130558 METAR LFPG 130558Z 12630KT 9999 FEW030 24/23 Q1053
GG LFPNYYYX LFPBYYYX 040101 METAR LFPG 040101Z 15343KT 9999 FEW030 16/20 Q1039
SS EDDFYYYX LFPGYYYX 231132 METAR LFPG 231132Z 06233KT 9999 FEW030 26/1 Q1054
KK LFPOYYYX LFPGYYYX 102003 METAR LFPG 102003Z 06746KT 9999 FEW030 35/13 Q1079
LL LFPOYYYX LFPBYYYX LFPGYYYX EGLLYYYX 121452 METAR LFPG 121452Z 19616KT 9999 FEW030 9/14 Q1057
LL LFPNYYYX LFPBYYYX 151508 METAR LFPG 151508Z 30119KT 9999 FEW030 -8/-8 Q1099
LL LFPBYYYX EGLLYYYX LFPNYYYX 280715 METAR LFPG 280715Z 22038KT 9999 FEW030 26/0 Q1084
LL EDDFYYYX EDDFYYYX 051323 METAR LFPG 051323Z 06737KT 9999 FEW030 31/25 Q1052
DD LFPNYYYX LFPNYYYX 250704 METAR LFPG 250704Z 26336KT 9999 FEW030 18/15 Q1080
LL EDDFYYYX LFPNYYYX 131524 METAR LFPG 131524Z 33214KT 9999 FEW030 7/17 Q1057
FF EDDFYYYX LFPBYYYX 210510 METAR LFPG 210510Z 20248KT 9999 FEW030 13/4 Q1074
DD EGLLYYYX LFPBYYYX 200224 METAR LFPG 200224Z 29241KT 9999 FEW030 30/-7 Q1052
GG LFPBYYYX LFPNYYYX 140457 METAR LFPG 140457Z 06210KT 9999 FEW030 16/1 Q1034
FF LFPOYYYX LFPNYYYX 261637 METAR LFPG 261637Z 21940KT 9999 FEW030 24/23 Q1061
KK EGLLYYYX EDDFYYYX 170616 METAR LFPG 170616Z 32118KT 9999 FEW030 15/15 Q1038
GG LFPBYYYX EDDFYYYX LFPOYYYX 201423 METAR LFPG 201423Z 14225KT 9999 FEW030 34/7 Q1048
KK LFPBYYYX LFPNYYYX EDDFYYYX LFPOYYYX 011640 METAR LFPG 011640Z 04316KT 9999 FEW030 28/24 Q1070
FF LFPGYYYX LFPOYYYX EDDFYYYX LFPGYYYX 030510 METAR LFPG 030510Z 16150KT 9999 FEW030 22/14 Q1044
LL LFPOYYYX LFPBYYYX EDDFYYYX LFPNYYYX 042009 METAR LFPG 042009Z 30149KT 9999 FEW030 18/-1 Q1049
KK LFPBYYYX EGLLYYYX EDDFYYYX LFPBYYYX 251245 METAR LFPG 251245Z 04816KT 9999 FEW030 25/21 Q1005
DD EGLLYYYX LFPBYYYX LFPOYYYX 050310 METAR LFPG 050310Z 23740KT 9999 FEW030 -2/16 Q1089
KK LFPNYYYX LFPNYYYX 071703 METAR LFPG 071703Z 29120KT 9999 FEW030 16/13 Q1024
SS EDDFYYYX LFPOYYYX 261222 METAR LFPG 261222Z 22019KT 9999 FEW030 0/19 Q1061
LL LFPOYYYX EGLLYYYX 201719 METAR LFPG 201719Z 11816KT 9999 FEW030 3/-6 Q1056
GG LFPOYYYX EDDFYYYX EGLLYYYX 191854 METAR LFPG 191854Z 23649KT 9999 FEW030 10/21 Q1007
FF LFPGYYYX EDDFYYYX LFPNYYYX 222355 METAR LFPG 222355Z 10238KT 9999 FEW030 4/25 Q1081
FF LFPBYYYX EDDFYYYX EGLLYYYX 130740 METAR LFPG 130740Z 14546KT 9999 FEW030 0/3 Q1007
LL LFPBYYYX EGLLYYYX LFPOYYYX 190049 METAR LFPG 190049Z 24134KT 9999 FEW030 33/-1 Q1052
LL LFPOYYYX EDDFYYYX LFPNYYYX LFPBYYYX 102231 METAR LFPG 102231Z 32122KT 9999 FEW030 31/3 Q1013
FF EDDFYYYX EGLLYYYX LFPBYYYX 281244 METAR LFPG 281244Z 16115KT 9999 FEW030 18/-5 Q1007
FF LFPBYYYX LFPBYYYX EGLLYYYX 231632 METAR LFPG 231632Z 26834KT 9999 FEW030 24/-4 Q1020
SS LFPBYYYX LFPBYYYX LFPNYYYX 202226 METAR LFPG 202226Z 30134KT 9999 FEW030 16/3 Q1064
LL LFPNYYYX LFPBYYYX EDDFYYYX 241019 METAR LFPG 241019Z 20525KT 9999 FEW030 27/1 Q1046
SS LFPNYYYX LFPGYYYX LFPBYYYX EDDFYYYX 121625 METAR LFPG 121625Z 07918KT 9999 FEW030 16/3 Q1009
KK EGLLYYYX EGLLYYYX LFPBYYYX LFPOYYYX 210323 METAR LFPG 210323Z 08144KT 9999 FEW030 7/-9 Q1020
DD LFPBYYYX EGLLYYYX 081805 METAR LFPG 081805Z 22543KT 9999 FEW030 24/-9 Q1092
FF EGLLYYYX LFPGYYYX EDDFYYYX LFPOYYYX 141459 METAR LFPG 141459Z 21812KT 9999 FEW030 -9/16 Q1005
DD LFPNYYYX LFPBYYYX EGLLYYYX LFPNYYYX 152314 METAR LFPG 152314Z 01144KT 9999 FEW030 33/13 Q1060
KK LFPGYYYX LFPOYYYX 280423 METAR LFPG 280423Z 19839KT 9999 FEW030 25/22 Q1032
KK LFPNYYYX LFPBYYYX EDDFYYYX 100242 METAR LFPG 100242Z 09147KT 9999 FEW030 -2/8 Q1031
KK LFPNYYYX EDDFYYYX LFPNYYYX LFPBYYYX 021711 METAR LFPG 021711Z 00543KT 9999 FEW030 -7/7 Q1054
KK LFPOYYYX LFPOYYYX LFPNYYYX 041628 METAR LFPG 041628Z 22524KT 9999 FEW030 7/23 Q1014
SS EDDFYYYX LFPNYYYX 200421 METAR LFPG 200421Z 14447KT 9999 FEW030 5/19 Q1046
SS LFPOYYYX LFPBYYYX 020018 METAR LFPG 020018Z 13111KT 9999 FEW030 31/24 Q1082
GG LFPBYYYX EGLLYYYX LFPGYYYX LFPBYYYX 021919 METAR LFPG 021919Z 12746KT 9999 FEW030 31/-6 Q1071
KK EGLLYYYX EDDFYYYX EGLLYYYX LFPGYYYX 220635 METAR LFPG 220635Z 17825KT 9999 FEW030 -3/16 Q1072
KK LFPNYYYX LFPBYYYX LFPOYYYX LFPGYYYX 180223 METAR LFPG 180223Z 17124KT 9999 FEW030 32/-2 Q1094
GG LFPOYYYX EDDFYYYX LFPBYYYX LFPGYYYX 150413 METAR LFPG 150413Z 35837KT 9999 FEW030 20/7 Q1083
GG EDDFYYYX LFPBYYYX LFPGYYYX 241846 METAR LFPG 241846Z 14334KT 9999 FEW030 -8/15 Q1034
GG LFPBYYYX LFPGYYYX EGLLYYYX LFPOYYYX 082212 METAR LFPG 082212Z 21431KT 9999 FEW030 12/13 Q1028
DD LFPNYYYX LFPNYYYX 280220 METAR LFPG 280220Z 31427KT 9999 FEW030 0/16 Q1014
KK EGLLYYYX EGLLYYYX LFPOYYYX 211732 METAR LFPG 211732Z 11436KT 9999 FEW030 29/8 Q1014
KK LFPOYYYX LFPBYYYX 281536 METAR LFPG 281536Z 35915KT 9999 FEW030 -7/24 Q1050
LL LFPBYYYX EDDFYYYX LFPBYYYX 191458 METAR LFPG 191458Z 35814KT 9999 FEW030 31/-4 Q1089
GG LFPGYYYX EDDFYYYX LFPBYYYX LFPNYYYX 200030 METAR LFPG 200030Z 13222KT 9999 FEW030 3/24 Q1023
LL EDDFYYYX EGLLYYYX 010732 METAR LFPG 010732Z 31729KT 9999 FEW030 29/-3 Q1001
DD LFPBYYYX EDDFYYYX LFPNYYYX LFPOYYYX 241725 METAR LFPG 241725Z 30343KT 9999 FEW030 -7/6 Q1057
SS EGLLYYYX LFPBYYYX LFPOYYYX LFPNYYYX 070111 METAR LFPG 070111Z 28147KT 9999 FEW030 9/19 Q1026
LL EDDFYYYX LFPOYYYX EGLLYYYX 201110 METAR LFPG 201110Z 12629KT 9999 FEW030 25/4 Q1077
FF EDDFYYYX LFPBYYYX 171933 METAR LFPG 171933Z 19236KT 9999 FEW030 31/-4 Q1075
FF LFPBYYYX EDDFYYYX 120324 METAR LFPG 120324Z 29419KT 9999 FEW030 -8/-5 Q1009
LL EGLLYYYX EGLLYYYX 092004 METAR LFPG 092004Z 02644KT 9999 FEW030 -7/12 Q1091
KK EGLLYYYX EDDFYYYX LFPNYYYX EGLLYYYX 082222 METAR LFPG 082222Z 05847KT 9999 FEW030 6/9 Q1055
FF EDDFYYYX LFPGYYYX EGLLYYYX 190424 METAR LFPG 190424Z 28635KT 9999 FEW030 17/7 Q1067
FF LFPBYYYX LFPBYYYX EGLLYYYX LFPNYYYX 121821 METAR LFPG 121821Z 23825KT 9999 FEW030 28/18 Q1033
DD LFPOYYYX LFPGYYYX 020817 METAR LFPG 020817Z 02145KT 9999 FEW030 11/5 Q1053
SS LFPOYYYX LFPNYYYX LFPOYYYX EDDFYYYX 030631 METAR LFPG 030631Z 10748KT 9999 FEW030 30/-9 Q1020
SS LFPNYYYX LFPGYYYX 271526 METAR LFPG 271526Z 10443KT 9999 FEW030 -3/6 Q1059
FF EGLLYYYX EGLLYYYX 072020 METAR LFPG 072020Z 34615KT 9999 FEW030 10/3 Q1065
FF LFPOYYYX EDDFYYYX LFPNYYYX 080127 METAR LFPG 080127Z 13130KT 9999 FEW030 21/-6 Q1087
SS LFPGYYYX LFPOYYYX LFPBYYYX 090113 METAR LFPG 090113Z 04425KT 9999 FEW030 30/10 Q1092
FF EDDFYYYX EDDFYYYX LFPNYYYX 271305 METAR LFPG 271305Z 19833KT 9999 FEW030 16/4 Q1089
SS LFPBYYYX LFPOYYYX EDDFYYYX 070504 METAR LFPG 070504Z 12335KT 9999 FEW030 28/25 Q1002
DD LFPOYYYX LFPGYYYX 282001 METAR LFPG 282001Z 04023KT 9999 FEW030 30/16 Q1083
SS EGLLYYYX LFPNYYYX LFPBYYYX 281248 METAR LFPG 281248Z 25742KT 9999 FEW030 28/11 Q1049
LL LFPOYYYX LFPGYYYX LFPBYYYX EGLLYYYX 060737 METAR LFPG 060737Z 08436KT 9999 FEW030 17/-7 Q1096
FF LFPGYYYX LFPGYYYX 161047 METAR LFPG 161047Z 04735KT 9999 FEW030 34/10 Q1095
KK LFPBYYYX EGLLYYYX LFPNYYYX LFPBYYYX 180334 METAR LFPG 180334Z 02225KT 9999 FEW030 24/12 Q1086
LL LFPOYYYX LFPGYYYX LFPNYYYX EDDFYYYX 020123 METAR LFPG 020123Z 07237KT 9999 FEW030 25/9 Q1079
LL LFPOYYYX EGLLYYYX LFPOYYYX LFPBYYYX 261848 METAR LFPG 261848Z 16017KT 9999 FEW030 9/5 Q1028
SS EDDFYYYX LFPNYYYX 130054 METAR LFPG 130054Z 30532KT 9999 FEW030 19/20 Q1045
SS LFPGYYYX LFPGYYYX LFPOYYYX LFPNYYYX 030701 METAR LFPG 030701Z 33210KT 9999 FEW030 -6/19 Q1018
LL EDDFYYYX LFPGYYYX 012007 METAR LFPG 012007Z 03824KT 9999 FEW030 29/-8 Q1014
LL LFPNYYYX EDDFYYYX LFPBYYYX LFPNYYYX 270239 METAR LFPG 270239Z 16847KT 9999 FEW030 13/15 Q1039
GG LFPGYYYX LFPBYYYX EGLLYYYX LFPNYYYX 150145 METAR LFPG 150145Z 10638KT 9999 FEW030 13/6 Q1010
FF EGLLYYYX LFPGYYYX EGLLYYYX LFPNYYYX 190203 METAR LFPG 190203Z 08333KT 9999 FEW030 8/18 Q1086
SS LFPNYYYX LFPGYYYX LFPOYYYX EGLLYYYX 241034 METAR LFPG 241034Z 03413KT 9999 FEW030 16/25 Q1036
FF LFPOYYYX LFPGYYYX EGLLYYYX 111624 METAR LFPG 111624Z 14623KT 9999 FEW030 25/24 Q1031
SS LFPBYYYX LFPGYYYX LFPNYYYX LFPBYYYX 090433 METAR LFPG 090433Z 18437KT 9999 FEW030 20/-8 Q1077
SS EDDFYYYX LFPGYYYX 252212 METAR LFPG 252212Z 32532KT 9999 FEW030 31/8 Q1061
KK EGLLYYYX LFPOYYYX 140728 METAR LFPG 140728Z 21129KT 9999 FEW030 32/15 Q1074
KK LFPGYYYX LFPOYYYX LFPBYYYX EGLLYYYX 091311 METAR LFPG 091311Z 33150KT 9999 FEW030 20/1 Q1013
DD EGLLYYYX LFPBYYYX LFPGYYYX 191948 METAR LFPG 191948Z 11411KT 9999 FEW030 0/4 Q1085
SS LFPNYYYX LFPOYYYX 182135 METAR LFPG 182135Z 29919KT 9999 FEW030 34/19 Q1058
DD LFPGYYYX EDDFYYYX LFPBYYYX LFPOYYYX 111456 METAR LFPG 111456Z 13046KT 9999 FEW030 12/3 Q1059
KK LFPBYYYX EGLLYYYX 230010 METAR LFPG 230010Z 01828KT 9999 FEW030 17/20 Q1056
LL LFPGYYYX EDDFYYYX LFPOYYYX 160938 METAR LFPG 160938Z 12325KT 9999 FEW030 24/-8 Q1042
SS LFPBYYYX EGLLYYYX EDDFYYYX LFPGYYYX 200819 METAR LFPG 200819Z 01949KT 9999 FEW030 19/25 Q1000
FF EGLLYYYX EGLLYYYX LFPNYYYX LFPOYYYX 120420 METAR LFPG 120420Z 22112KT 9999 FEW030 33/-2 Q1008
LL LFPNYYYX LFPNYYYX 130139 METAR LFPG 130139Z 18137KT 9999 FEW030 16/8 Q1091
GG LFPBYYYX LFPGYYYX LFPNYYYX 140930 METAR LFPG 140930Z 05238KT 9999 FEW030 34/17 Q1082
LL LFPBYYYX LFPGYYYX EDDFYYYX LFPNYYYX 260138 METAR LFPG 260138Z 24818KT 9999 FEW030 -5/7 Q1001
FF LFPGYYYX LFPOYYYX LFPNYYYX LFPBYYYX 020320 METAR LFPG 020320Z 05941KT 9999 FEW030 6/7 Q1067
DD EDDFYYYX LFPGYYYX 202308 METAR LFPG 202308Z 10430KT 9999 FEW030 19/20 Q1058
KK EDDFYYYX EDDFYYYX 150511 METAR LFPG 150511Z 35721KT 9999 FEW030 2/-5 Q1083
SS EGLLYYYX LFPBYYYX LFPOYYYX 041836 METAR LFPG 041836Z 31122KT 9999 FEW030 22/-4 Q1099
KK LFPBYYYX EDDFYYYX 221805 METAR LFPG 221805Z 01819KT 9999 FEW030 12/-7 Q1021
GG LFPOYYYX LFPGYYYX LFPOYYYX EDDFYYYX 062159 METAR LFPG 062159Z 01135KT 9999 FEW030 29/17 Q1007
GG LFPOYYYX EGLLYYYX LFPOYYYX EDDFYYYX 052153 METAR LFPG 052153Z 19428KT 9999 FEW030 -4/24 Q1028
FF LFPNYYYX EDDFYYYX LFPBYYYX 040923 METAR LFPG 040923Z 29316KT 9999 FEW030 26/6 Q1022
DD LFPOYYYX EDDFYYYX LFPNYYYX 092354 METAR LFPG 092354Z 03011KT 9999 FEW030 13/10 Q1025
SS LFPNYYYX LFPNYYYX LFPGYYYX 030421 METAR LFPG 030421Z 24227KT 9999 FEW030 16/-3 Q1058
LL EGLLYYYX LFPBYYYX EDDFYYYX EGLLYYYX 100528 METAR LFPG 100528Z 02640KT 9999 FEW030 34/9 Q1077
DD LFPBYYYX EGLLYYYX LFPGYYYX 270217 METAR LFPG 270217Z 35537KT 9999 FEW030 12/9 Q1088
LL LFPOYYYX LFPNYYYX 161344 METAR LFPG 161344Z 09337KT 9999 FEW030 30/2 Q1017
GG LFPGYYYX LFPBYYYX EGLLYYYX 031317 METAR LFPG 031317Z 02221KT 9999 FEW030 -9/21 Q1092
DD LFPGYYYX EGLLYYYX LFPGYYYX 042005 METAR LFPG 042005Z 28716KT 9999 FEW030 12/-9 Q1070
FF LFPOYYYX EGLLYYYX 160206 METAR LFPG 160206Z 03134KT 9999 FEW030 31/-8 Q1017
FF EDDFYYYX LFPOYYYX LFPNYYYX EGLLYYYX 160439 METAR LFPG 160439Z 19335KT 9999 FEW030 29/10 Q1025
DD EGLLYYYX LFPNYYYX 101008 METAR LFPG 101008Z 11829KT 9999 FEW030 28/2 Q1008
SS LFPBYYYX LFPOYYYX EGLLYYYX 040533 METAR LFPG 040533Z 30418KT 9999 FEW030 5/16 Q1071
LL LFPNYYYX LFPGYYYX LFPBYYYX LFPOYYYX 020209 METAR LFPG 020209Z 23512KT 9999 FEW030 16/-1 Q1080
DD EGLLYYYX LFPBYYYX 151826 METAR LFPG 151826Z 01621KT 9999 FEW030 28/-1 Q1031
LL LFPNYYYX LFPOYYYX LFPBYYYX 111530 METAR LFPG 111530Z 27233KT 9999 FEW030 -10/24 Q1077
LL LFPGYYYX EGLLYYYX LFPGYYYX EDDFYYYX 181328 METAR LFPG 181328Z 20341KT 9999 FEW030 -6/-10 Q1037
DD EDDFYYYX LFPBYYYX EDDFYYYX LFPNYYYX 120145 METAR LFPG 120145Z 01015KT 9999 FEW030 6/-2 Q1010
DD EDDFYYYX LFPBYYYX LFPOYYYX 170935 METAR LFPG 170935Z 07631KT 9999 FEW030 17/25 Q1094
KK EDDFYYYX LFPGYYYX 040638 METAR LFPG 040638Z 09027KT 9999 FEW030 17/18 Q1069
FF EDDFYYYX EDDFYYYX LFPBYYYX 051653 METAR LFPG 051653Z 07318KT 9999 FEW030 3/11 Q1096
FF LFPNYYYX LFPBYYYX LFPNYYYX 161131 METAR LFPG 161131Z 15340KT 9999 FEW030 16/-5 Q1078
KK EGLLYYYX LFPBYYYX EGLLYYYX LFPGYYYX 041855 METAR LFPG 041855Z 12313KT 9999 FEW030 8/-8 Q1053
KK LFPGYYYX LFPNYYYX EDDFYYYX 042305 METAR LFPG 042305Z 35326KT 9999 FEW030 -1/11 Q1062
DD LFPNYYYX LFPBYYYX LFPOYYYX 220958 METAR LFPG 220958Z 28829KT 9999 FEW030 -5/19 Q1083
LL EGLLYYYX LFPOYYYX 270258 METAR LFPG 270258Z 35147KT 9999 FEW030 18/-4 Q1062
GG LFPOYYYX LFPGYYYX 110147 METAR LFPG 110147Z 11345KT 9999 FEW030 -9/15 Q1043
SS EDDFYYYX EDDFYYYX LFPGYYYX 190033 METAR LFPG 190033Z 07444KT 9999 FEW030 2/-6 Q1020
DD LFPNYYYX LFPGYYYX EDDFYYYX 160104 METAR LFPG 160104Z 03344KT 9999 FEW030 -7/22 Q1059
LL LFPBYYYX EDDFYYYX LFPOYYYX 261527 METAR LFPG 261527Z 29035KT 9999 FEW030 7/19 Q1074
LL EDDFYYYX LFPGYYYX LFPBYYYX LFPOYYYX 200545 METAR LFPG 200545Z 08748KT 9999 FEW030 0/21 Q1064
FF LFPBYYYX LFPNYYYX EGLLYYYX LFPGYYYX 012023 METAR LFPG 012023Z 23817KT 9999 FEW030 25/20 Q1088
SS LFPOYYYX LFPNYYYX LFPBYYYX 031031 METAR LFPG 031031Z 11023KT 9999 FEW030 3/-1 Q1016
LL LFPOYYYX EDDFYYYX LFPGYYYX 240205 METAR LFPG 240205Z 04219KT 9999 FEW030 4/-9 Q1002
SS LFPGYYYX EDDFYYYX LFPNYYYX LFPGYYYX 152225 METAR LFPG 152225Z 25744KT 9999 FEW030 -8/-4 Q1096
GG EDDFYYYX LFPGYYYX LFPNYYYX 160738 METAR LFPG 160738Z 13250KT 9999 FEW030 -2/14 Q1021
SS LFPNYYYX LFPOYYYX LFPBYYYX LFPGYYYX 172039 METAR LFPG 172039Z 35840KT 9999 FEW030 31/5 Q1070
DD LFPGYYYX EDDFYYYX 112028 METAR LFPG 112028Z 32744KT 9999 FEW030 28/23 Q1059
DD LFPGYYYX LFPBYYYX EDDFYYYX 230836 METAR LFPG 230836Z 24836KT 9999 FEW030 26/10 Q1023
LL LFPBYYYX LFPGYYYX LFPBYYYX LFPNYYYX 041614 METAR LFPG 041614Z 11911KT 9999 FEW030 15/-10 Q1017
GG LFPBYYYX LFPOYYYX EDDFYYYX LFPBYYYX 011022 METAR LFPG 011022Z 30618KT 9999 FEW030 17/16 Q1077
SS EGLLYYYX EGLLYYYX EDDFYYYX 131422 METAR LFPG 131422Z 26130KT 9999 FEW030 34/16 Q1038
FF EDDFYYYX LFPBYYYX LFPNYYYX LFPOYYYX 130956 METAR LFPG 130956Z 16738KT 9999 FEW030 29/17 Q1003
DD LFPBYYYX LFPBYYYX EDDFYYYX 130803 METAR LFPG 130803Z 11222KT 9999 FEW030 -8/16 Q1071
KK LFPGYYYX LFPGYYYX LFPNYYYX LFPOYYYX 011816 METAR LFPG 011816Z 00127KT 9999 FEW030 3/8 Q1030
SS LFPNYYYX LFPBYYYX EDDFYYYX LFPGYYYX 111514 METAR LFPG 111514Z 25713KT 9999 FEW030 18/25 Q1047
GG LFPNYYYX EGLLYYYX EDDFYYYX 280144 METAR LFPG 280144Z 20740KT 9999 FEW030 26/-1 Q1077
GG LFPNYYYX EDDFYYYX LFPNYYYX 260614 METAR LFPG 260614Z 25548KT 9999 FEW030 34/13 Q1008
GG EDDFYYYX EDDFYYYX EGLLYYYX 070955 METAR LFPG 070955Z 32811KT 9999 FEW030 0/4 Q1066
SS LFPOYYYX LFPBYYYX 262131 METAR LFPG 262131Z 24524KT 9999 FEW030 -9/6 Q1026
SS EDDFYYYX LFPBYYYX LFPNYYYX LFPOYYYX 042042 METAR LFPG 042042Z 27328KT 9999 FEW030 -3/5 Q1037
DD LFPBYYYX LFPBYYYX LFPOYYYX 122006 METAR LFPG 122006Z 06911KT 9999 FEW030 -10/24 Q1050
DD EDDFYYYX LFPNYYYX EGLLYYYX 041651 METAR LFPG 041651Z 15737KT 9999 FEW030 22/22 Q1013
KK LFPBYYYX LFPNYYYX LFPOYYYX LFPBYYYX 080656 METAR LFPG 080656Z 24334KT 9999 FEW030 33/24 Q1036
KK LFPGYYYX EGLLYYYX LFPBYYYX LFPNYYYX 071911 METAR LFPG 071911Z 35818KT 9999 FEW030 30/8 Q1071
SS LFPBYYYX LFPBYYYX EDDFYYYX LFPNYYYX 060228 METAR LFPG 060228Z 34624KT 9999 FEW030 -10/-2 Q1099
GG LFPOYYYX LFPBYYYX LFPGYYYX EDDFYYYX 270644 METAR LFPG 270644Z 19830KT 9999 FEW030 23/6 Q1003
FF LFPBYYYX LFPGYYYX 042050 METAR LFPG 042050Z 13550KT 9999 FEW030 8/8 Q1041
GG EGLLYYYX LFPOYYYX 160547 METAR LFPG 160547Z 02934KT 9999 FEW030 5/1 Q1037
SS EGLLYYYX LFPNYYYX 280141 METAR LFPG 280141Z 24629KT 9999 FEW030 21/-7 Q1084
DD LFPOYYYX LFPOYYYX LFPNYYYX 250137 METAR LFPG 250137Z 32930KT 9999 FEW030 1/0 Q1058
GG LFPNYYYX EDDFYYYX LFPOYYYX LFPNYYYX 051606 METAR LFPG 051606Z 02613KT 9999 FEW030 8/0 Q1006
LL LFPGYYYX EDDFYYYX 091357 METAR LFPG 091357Z 24040KT 9999 FEW030 15/-7 Q1025
DD LFPGYYYX EGLLYYYX 211717 METAR LFPG 211717Z 04534KT 9999 FEW030 3/-8 Q1034
GG LFPBYYYX LFPGYYYX LFPNYYYX EDDFYYYX 022119 METAR LFPG 022119Z 28447KT 9999 FEW030 34/8 Q1026
KK LFPOYYYX LFPGYYYX 012020 METAR LFPG 012020Z 26544KT 9999 FEW030 21/14 Q1017
LL LFPGYYYX LFPOYYYX EDDFYYYX 070050 METAR LFPG 070050Z 12246KT 9999 FEW030 21/22 Q1028
FF LFPOYYYX EGLLYYYX LFPGYYYX 040441 METAR LFPG 040441Z 31233KT 9999 FEW030 24/12 Q1039
LL EGLLYYYX LFPNYYYX LFPBYYYX EDDFYYYX 071659 METAR LFPG 071659Z 18415KT 9999 FEW030 30/9 Q1011
DD LFPOYYYX LFPOYYYX EGLLYYYX LFPNYYYX 071749 METAR LFPG 071749Z 31450KT 9999 FEW030 27/24 Q1044
SS LFPOYYYX EGLLYYYX LFPNYYYX 131636 METAR LFPG 131636Z 27922KT 9999 FEW030 35/-4 Q1063
GG LFPNYYYX LFPNYYYX LFPOYYYX 271706 METAR LFPG 271706Z 25626KT 9999 FEW030 2/3 Q1054
KK LFPBYYYX LFPOYYYX LFPNYYYX EGLLYYYX 242224 METAR LFPG 242224Z 08135KT 9999 FEW030 35/4 Q1011
SS EGLLYYYX LFPBYYYX 160849 METAR LFPG 160849Z 01840KT 9999 FEW030 24/-3 Q1024
LL LFPOYYYX LFPGYYYX 100346 METAR LFPG 100346Z 34224KT 9999 FEW030 2/-9 Q1019
LL EGLLYYYX EGLLYYYX EDDFYYYX LFPBYYYX 192119 METAR LFPG 192119Z 08947KT 9999 FEW030 15/-7 Q1062
KK LFPOYYYX LFPOYYYX 222226 METAR LFPG 222226Z 13741KT 9999 FEW030 10/-10 Q1034
KK LFPNYYYX EDDFYYYX LFPOYYYX LFPGYYYX 161225 METAR LFPG 161225Z 13817KT 9999 FEW030 -7/-1 Q1013
SS EDDFYYYX LFPOYYYX 020832 METAR LFPG 020832Z 29328KT 9999 FEW030 5/6 Q1017
LL LFPBYYYX LFPBYYYX EGLLYYYX LFPOYYYX 151350 METAR LFPG 151350Z 01710KT 9999 FEW030 19/16 Q1070
FF EGLLYYYX LFPNYYYX LFPGYYYX 011159 METAR LFPG 011159Z 19423KT 9999 FEW030 25/-4 Q1100
GG EGLLYYYX EDDFYYYX LFPOYYYX 030502 METAR LFPG 030502Z 05915KT 9999 FEW030 2/13 Q1063
DD EDDFYYYX LFPOYYYX LFPBYYYX 262235 METAR LFPG 262235Z 05120KT 9999 FEW030 1/-2 Q1010
FF LFPGYYYX LFPGYYYX EGLLYYYX LFPNYYYX 261623 METAR LFPG 261623Z 08817KT 9999 FEW030 31/14 Q1095
DD EGLLYYYX LFPBYYYX 062048 METAR LFPG 062048Z 08120KT 9999 FEW030 27/13 Q1039
KK EGLLYYYX EGLLYYYX 171640 METAR LFPG 171640Z 19912KT 9999 FEW030 35/25 Q1099
LL LFPNYYYX LFPOYYYX 160244 METAR LFPG 160244Z 31020KT 9999 FEW030 -10/-8 Q1002
LL LFPNYYYX LFPGYYYX 090054 METAR LFPG 090054Z 18949KT 9999 FEW030 19/18 Q1061
SS EGLLYYYX LFPOYYYX LFPBYYYX LFPNYYYX 121821 METAR LFPG 121821Z 07016KT 9999 FEW030 -1/-7 Q1001
LL LFPGYYYX LFPOYYYX 041636 METAR LFPG 041636Z 02427KT 9999 FEW030 9/8 Q1005
LL LFPNYYYX LFPBYYYX EGLLYYYX 111736 METAR LFPG 111736Z 24630KT 9999 FEW030 12/19 Q1081
LL LFPBYYYX EDDFYYYX LFPBYYYX LFPNYYYX 221205 METAR LFPG 221205Z 23046KT 9999 FEW030 19/-10 Q1017
DD LFPGYYYX LFPGYYYX LFPNYYYX EGLLYYYX 090311 METAR LFPG 090311Z 09635KT 9999 FEW030 0/-1 Q1015
LL EDDFYYYX LFPBYYYX EDDFYYYX LFPOYYYX 022219 METAR LFPG 022219Z 26032KT 9999 FEW030 13/18 Q1048
SS EGLLYYYX EGLLYYYX LFPGYYYX LFPBYYYX 282146 METAR LFPG 282146Z 35239KT 9999 FEW030 29/19 Q1007
FF EGLLYYYX LFPGYYYX 010019 METAR LFPG 010019Z 31621KT 9999 FEW030 24/17 Q1082
SS LFPBYYYX EDDFYYYX EGLLYYYX LFPBYYYX 161859 METAR LFPG 161859Z 22348KT 9999 FEW030 -8/15 Q1047
DD EGLLYYYX EDDFYYYX 211622 METAR LFPG 211622Z 25738KT 9999 FEW030 29/-5 Q1062
KK LFPBYYYX LFPNYYYX 110109 METAR LFPG 110109Z 12932KT 9999 FEW030 -10/-5 Q1076
DD LFPBYYYX LFPNYYYX 240107 METAR LFPG 240107Z 02219KT 9999 FEW030 23/16 Q1030
GG EDDFYYYX LFPNYYYX LFPGYYYX 161219 METAR LFPG 161219Z 00443KT 9999 FEW030 -3/14 Q1041
GG EGLLYYYX LFPBYYYX 102007 METAR LFPG 102007Z 30310KT 9999 FEW030 -1/1 Q1082
SS EDDFYYYX EGLLYYYX 200502 METAR LFPG 200502Z 32419KT 9999 FEW030 27/10 Q1006
GG EGLLYYYX EGLLYYYX LFPOYYYX 061112 METAR LFPG 061112Z 19650KT 9999 FEW030 0/1 Q1044
GG LFPOYYYX LFPGYYYX 120917 METAR LFPG 120917Z 31718KT 9999 FEW030 12/-2 Q1047
DD EDDFYYYX EDDFYYYX LFPNYYYX LFPBYYYX 221716 METAR LFPG 221716Z 10936KT 9999 FEW030 -8/8 Q1042
LL LFPGYYYX LFPOYYYX 161720 METAR LFPG 161720Z 24314KT 9999 FEW030 -5/10 Q1086
FF LFPNYYYX EDDFYYYX LFPOYYYX 130210 METAR LFPG 130210Z 11034KT 9999 FEW030 33/-10 Q1060
LL LFPBYYYX LFPGYYYX LFPBYYYX 141644 METAR LFPG 141644Z 25422KT 9999 FEW030 25/9 Q1084
GG LFPBYYYX LFPBYYYX 101442 METAR LFPG 101442Z 30148KT 9999 FEW030 30/25 Q1061
GG LFPBYYYX LFPGYYYX EDDFYYYX 260250 METAR LFPG 260250Z 10528KT 9999 FEW030 15/16 Q1092
KK LFPOYYYX EGLLYYYX EDDFYYYX 172334 METAR LFPG 172334Z 13322KT 9999 FEW030 4/-10 Q1045
KK LFPNYYYX EGLLYYYX 240206 METAR LFPG 240206Z 27343KT 9999 FEW030 11/2 Q1012
FF LFPNYYYX LFPBYYYX LFPGYYYX 091316 METAR LFPG 091316Z 07518KT 9999 FEW030 -5/21 Q1025
FF EDDFYYYX EGLLYYYX LFPOYYYX EDDFYYYX 200515 METAR LFPG 200515Z 25437KT 9999 FEW030 23/2 Q1021
LL LFPGYYYX LFPNYYYX 041625 METAR LFPG 041625Z 21929KT 9999 FEW030 23/21 Q1057
DD EDDFYYYX LFPOYYYX 201754 METAR LFPG 201754Z 32042KT 9999 FEW030 13/2 Q1046
DD LFPBYYYX LFPBYYYX 181850 METAR LFPG 181850Z 05527KT 9999 FEW030 -5/-3 Q1064
GG EDDFYYYX LFPGYYYX EDDFYYYX 020933 METAR LFPG 020933Z 04123KT 9999 FEW030 9/21 Q1000
LL LFPNYYYX LFPBYYYX 112145 METAR LFPG 112145Z 29723KT 9999 FEW030 -10/25 Q1071
KK EGLLYYYX LFPBYYYX 140044 METAR LFPG 140044Z 23546KT 9999 FEW030 23/-5 Q1062
LL LFPBYYYX LFPGYYYX LFPNYYYX 230429 METAR LFPG 230429Z 14222KT 9999 FEW030 10/5 Q1004
GG LFPOYYYX LFPBYYYX EDDFYYYX 162007 METAR LFPG 162007Z 30414KT 9999 FEW030 -3/-1 Q1043
DD LFPNYYYX LFPBYYYX LFPOYYYX 281250 METAR LFPG 281250Z 09528KT 9999 FEW030 25/-2 Q1034
DD EGLLYYYX LFPGYYYX LFPBYYYX 202246 METAR LFPG 202246Z 30417KT 9999 FEW030 -1/-6 Q1087
KK EGLLYYYX LFPBYYYX EDDFYYYX 181105 METAR LFPG 181105Z 21845KT 9999 FEW030 23/11 Q1090
GG LFPBYYYX LFPNYYYX LFPOYYYX EDDFYYYX 140528 METAR LFPG 140528Z 04714KT 9999 FEW030 5/22 Q1099
LL LFPGYYYX LFPNYYYX EDDFYYYX LFPGYYYX 011452 METAR LFPG 011452Z 13941KT 9999 FEW030 30/10 Q1071
FF EDDFYYYX LFPBYYYX 021027 METAR LFPG 021027Z 02427KT 9999 FEW030 0/-7 Q1038
SS LFPBYYYX EGLLYYYX LFPGYYYX LFPOYYYX 010933 METAR LFPG 010933Z 00726KT 9999 FEW030 19/10 Q1082
FF LFPOYYYX LFPOYYYX EDDFYYYX EGLLYYYX 140805 METAR LFPG 140805Z 17035KT 9999 FEW030 30/-6 Q1081
KK EDDFYYYX LFPBYYYX 252135 METAR LFPG 252135Z 13126KT 9999 FEW030 25/-5 Q1046
FF LFPBYYYX EDDFYYYX LFPOYYYX LFPNYYYX 081008 METAR LFPG 081008Z 26349KT 9999 FEW030 22/25 Q1064
GG LFPOYYYX LFPOYYYX 200627 METAR LFPG 200627Z 13114KT 9999 FEW030 30/2 Q1075
KK EGLLYYYX LFPOYYYX LFPBYYYX 272357 METAR LFPG 272357Z 18347KT 9999 FEW030 35/-8 Q1050
LL LFPOYYYX LFPNYYYX EDDFYYYX 110422 METAR LFPG 110422Z 26745KT 9999 FEW030 24/-9 Q1063
FF LFPOYYYX EDDFYYYX LFPOYYYX LFPGYYYX 101101 METAR LFPG 101101Z 00513KT 9999 FEW030 13/13 Q1012
LL LFPBYYYX LFPNYYYX LFPBYYYX 271502 METAR LFPG 271502Z 32923KT 9999 FEW030 -6/8 Q1025
SS EGLLYYYX EDDFYYYX 151028 METAR LFPG 151028Z 28017KT 9999 FEW030 0/-1 Q1024
GG LFPNYYYX EDDFYYYX LFPGYYYX LFPBYYYX 041713 METAR LFPG 041713Z 24231KT 9999 FEW030 23/8 Q1036
KK LFPBYYYX LFPNYYYX 150519 METAR LFPG 150519Z 28021KT 9999 FEW030 9/-6 Q1058
KK LFPOYYYX LFPGYYYX LFPBYYYX LFPOYYYX 150729 METAR LFPG 150729Z 09948KT 9999 FEW030 -9/14 Q1028
LL LFPBYYYX LFPGYYYX 181353 METAR LFPG 181353Z 06023KT 9999 FEW030 9/11 Q1074
LL LFPBYYYX LFPNYYYX EGLLYYYX 230347 METAR LFPG 230347Z 13535KT 9999 FEW030 19/-3 Q1000
FF LFPOYYYX LFPBYYYX EDDFYYYX EGLLYYYX 282319 METAR LFPG 282319Z 35730KT 9999 FEW030 -5/11 Q1057
LL LFPNYYYX EGLLYYYX LFPGYYYX 151214 METAR LFPG 151214Z 26848KT 9999 FEW030 9/11 Q1037
KK LFPGYYYX EDDFYYYX LFPNYYYX 240011 METAR LFPG 240011Z 08517KT 9999 FEW030 4/14 Q1017
FF LFPGYYYX LFPGYYYX LFPBYYYX LFPOYYYX 261800 METAR LFPG 261800Z 10741KT 9999 FEW030 3/-7 Q1046
DD EGLLYYYX LFPOYYYX LFPNYYYX LFPGYYYX 181608 METAR LFPG 181608Z 07144KT 9999 FEW030 30/-2 Q1049
LL LFPNYYYX LFPGYYYX LFPOYYYX LFPNYYYX 031930 METAR LFPG 031930Z 08616KT 9999 FEW030 22/-4 Q1008
LL LFPOYYYX LFPNYYYX LFPBYYYX EDDFYYYX 032042 METAR LFPG 032042Z 28334KT 9999 FEW030 21/-10 Q1005
SS LFPOYYYX EGLLYYYX 200631 METAR LFPG 200631Z 07630KT 9999 FEW030 2/14 Q1049
FF EDDFYYYX LFPNYYYX EGLLYYYX LFPOYYYX 240010 METAR LFPG 240010Z 08149KT 9999 FEW030 -2/23 Q1010
SS LFPBYYYX LFPNYYYX EGLLYYYX 190100 METAR LFPG 190100Z 17533KT 9999 FEW030 20/17 Q1079
LL LFPOYYYX LFPGYYYX LFPNYYYX LFPOYYYX 260745 METAR LFPG 260745Z 31143KT 9999 FEW030 22/17 Q1017
FF LFPGYYYX LFPGYYYX 190229 METAR LFPG 190229Z 33236KT 9999 FEW030 35/22 Q1066
KK LFPGYYYX LFPGYYYX 110833 METAR LFPG 110833Z 17726KT 9999 FEW030 -5/16 Q1049
FF LFPNYYYX LFPNYYYX 070308 METAR LFPG 070308Z 04035KT 9999 FEW030 20/7 Q1053
GG LFPBYYYX LFPOYYYX 221216 METAR LFPG 221216Z 14849KT 9999 FEW030 5/16 Q1054
KK EDDFYYYX LFPNYYYX LFPOYYYX 131743 METAR LFPG 131743Z 30714KT 9999 FEW030 30/6 Q1026
GG LFPOYYYX LFPGYYYX LFPBYYYX EGLLYYYX 052223 METAR LFPG 052223Z 00635KT 9999 FEW030 -10/9 Q1011
GG EDDFYYYX EGLLYYYX LFPOYYYX LFPGYYYX 180019 METAR LFPG 180019Z 17049KT 9999 FEW030 17/19 Q1024
DD LFPOYYYX LFPGYYYX LFPOYYYX 050101 METAR LFPG 050101Z 19434KT 9999 FEW030 -2/-5 Q1016
GG LFPBYYYX LFPNYYYX LFPBYYYX 050228 METAR LFPG 050228Z 17847KT 9999 FEW030 2/-10 Q1003
KK EGLLYYYX LFPBYYYX EDDFYYYX LFPGYYYX 021430 METAR LFPG 021430Z 05549KT 9999 FEW030 13/21 Q1090
DD EGLLYYYX LFPOYYYX EGLLYYYX 051144 METAR LFPG 051144Z 27549KT 9999 FEW030 35/8 Q1082
FF EGLLYYYX LFPBYYYX EDDFYYYX 031449 METAR LFPG 031449Z 05842KT 9999 FEW030 2/-10 Q1060
DD LFPGYYYX EDDFYYYX 150251 METAR LFPG 150251Z 02322KT 9999 FEW030 19/9 Q1071
DD EDDFYYYX EGLLYYYX LFPGYYYX LFPBYYYX 091131 METAR LFPG 091131Z 33839KT 9999 FEW030 19/23 Q1088
KK LFPGYYYX LFPOYYYX LFPBYYYX EGLLYYYX 131337 METAR LFPG 131337Z 09830KT 9999 FEW030 4/18 Q1011
KK EGLLYYYX EDDFYYYX LFPGYYYX 151731 METAR LFPG 151731Z 11127KT 9999 FEW030 20/5 Q1076
LL LFPNYYYX LFPGYYYX EDDFYYYX LFPNYYYX 170614 METAR LFPG 170614Z 19221KT 9999 FEW030 -10/20 Q1095
GG EGLLYYYX LFPOYYYX LFPBYYYX EGLLYYYX 170335 METAR LFPG 170335Z 03128KT 9999 FEW030 23/-5 Q1012
FF LFPNYYYX LFPNYYYX EGLLYYYX LFPBYYYX 170050 METAR LFPG 170050Z 15831KT 9999 FEW030 -8/5 Q1010
DD LFPNYYYX LFPNYYYX EDDFYYYX 021225 METAR LFPG 021225Z 23214KT 9999 FEW030 18/-5 Q1013
SS EGLLYYYX LFPBYYYX LFPGYYYX 151215 METAR LFPG 151215Z 24115KT 9999 FEW030 20/6 Q1088
LL LFPGYYYX LFPOYYYX EDDFYYYX EGLLYYYX 210755 METAR LFPG 210755Z 16649KT 9999 FEW030 -6/2 Q1017
DD LFPOYYYX LFPBYYYX EGLLYYYX LFPNYYYX 260605 METAR LFPG 260605Z 29133KT 9999 FEW030 25/7 Q1080
FF LFPGYYYX EDDFYYYX EGLLYYYX LFPNYYYX 272158 METAR LFPG 272158Z 27044KT 9999 FEW030 7/13 Q1054
SS LFPOYYYX LFPBYYYX 150847 METAR LFPG 150847Z 28243KT 9999 FEW030 16/19 Q1004
LL EGLLYYYX LFPNYYYX EGLLYYYX EDDFYYYX 162149 METAR LFPG 162149Z 13028KT 9999 FEW030 -8/-3 Q1076
DD LFPNYYYX EDDFYYYX 041124 METAR LFPG 041124Z 33946KT 9999 FEW030 17/8 Q1099
GG EGLLYYYX EDDFYYYX LFPBYYYX 201105 METAR LFPG 201105Z 03547KT 9999 FEW030 1/10 Q1061
LL EGLLYYYX EGLLYYYX LFPGYYYX LFPNYYYX 041201 METAR LFPG 041201Z 07150KT 9999 FEW030 15/-10 Q1077
GG EGLLYYYX LFPOYYYX 270644 METAR LFPG 270644Z 16026KT 9999 FEW030 11/3 Q1003
FF LFPBYYYX LFPNYYYX LFPOYYYX EGLLYYYX 020509 METAR LFPG 020509Z 33345KT 9999 FEW030 23/20 Q1023
FF EGLLYYYX EDDFYYYX LFPBYYYX 281141 METAR LFPG 281141Z 06919KT 9999 FEW030 1/22 Q1093
KK LFPOYYYX LFPNYYYX LFPBYYYX 230511 METAR LFPG 230511Z 12042KT 9999 FEW030 -9/17 Q1042
LL LFPGYYYX LFPBYYYX LFPGYYYX 180247 METAR LFPG 180247Z 31141KT 9999 FEW030 -3/11 Q1064
DD EGLLYYYX LFPOYYYX LFPBYYYX 041138 METAR LFPG 041138Z 09423KT 9999 FEW030 17/1 Q1015
GG LFPOYYYX LFPGYYYX LFPBYYYX LFPNYYYX 250502 METAR LFPG 250502Z 20150KT 9999 FEW030 13/11 Q1099
LL LFPNYYYX LFPOYYYX LFPGYYYX EDDFYYYX 200111 METAR LFPG 200111Z 29348KT 9999 FEW030 13/-2 Q1028
SS LFPNYYYX LFPGYYYX EGLLYYYX LFPNYYYX 231110 METAR LFPG 231110Z 02336KT 9999 FEW030 -4/18 Q1033
DD LFPGYYYX LFPOYYYX LFPGYYYX 211640 METAR LFPG 211640Z 30840KT 9999 FEW030 12/-10 Q1058
DD LFPNYYYX EGLLYYYX LFPOYYYX 010032 METAR LFPG 010032Z 24324KT 9999 FEW030 -4/-3 Q1021
DD LFPOYYYX LFPBYYYX EGLLYYYX LFPGYYYX 010405 METAR LFPG 010405Z 28317KT 9999 FEW030 24/-8 Q1077
DD LFPBYYYX EDDFYYYX EGLLYYYX LFPNYYYX 150221 METAR LFPG 150221Z 07846KT 9999 FEW030 12/-2 Q1006
DD LFPBYYYX LFPNYYYX EDDFYYYX LFPBYYYX 191631 METAR LFPG 191631Z 34032KT 9999 FEW030 -5/2 Q1053
KK LFPGYYYX EDDFYYYX LFPNYYYX LFPBYYYX 100815 METAR LFPG 100815Z 27338KT 9999 FEW030 23/-5 Q1015
FF LFPNYYYX LFPNYYYX 052153 METAR LFPG 052153Z 24638KT 9999 FEW030 -9/-6 Q1066
GG LFPGYYYX LFPGYYYX LFPOYYYX 190535 METAR LFPG 190535Z 06443KT 9999 FEW030 24/-2 Q1058
FF LFPGYYYX LFPGYYYX LFPNYYYX EGLLYYYX 040426 METAR LFPG 040426Z 01625KT 9999 FEW030 33/-10 Q1050
LL EGLLYYYX EGLLYYYX LFPOYYYX 161216 METAR LFPG 161216Z 20137KT 9999 FEW030 14/5 Q1026
DD EGLLYYYX EDDFYYYX EGLLYYYX 150620 METAR LFPG 150620Z 15249KT 9999 FEW030 20/4 Q1059
KK LFPOYYYX LFPBYYYX 170141 METAR LFPG 170141Z 11122KT 9999 FEW030 13/18 Q1070
GG EDDFYYYX LFPGYYYX EGLLYYYX 100358 METAR LFPG 100358Z 12247KT 9999 FEW030 31/-9 Q1042
DD EGLLYYYX LFPGYYYX LFPNYYYX LFPBYYYX 262159 METAR LFPG 262159Z 30144KT 9999 FEW030 23/6 Q1053
KK LFPGYYYX EGLLYYYX LFPBYYYX 161544 METAR LFPG 161544Z 04533KT 9999 FEW030 27/-10 Q1059
DD LFPBYYYX LFPGYYYX EDDFYYYX 202129 METAR LFPG 202129Z 09143KT 9999 FEW030 32/10 Q1044
KK LFPBYYYX EGLLYYYX 052251 METAR LFPG 052251Z 31642KT 9999 FEW030 7/10 Q1030
DD LFPOYYYX LFPBYYYX LFPGYYYX LFPNYYYX 051436 METAR LFPG 051436Z 01138KT 9999 FEW030 32/14 Q1063
FF LFPGYYYX EDDFYYYX 070515 METAR LFPG 070515Z 29032KT 9999 FEW030 1/-9 Q1070
GG EDDFYYYX EDDFYYYX EGLLYYYX LFPOYYYX 111346 METAR LFPG 111346Z 24933KT 9999 FEW030 20/6 Q1023
SS LFPBYYYX LFPGYYYX LFPOYYYX 191140 METAR LFPG 191140Z 25625KT 9999 FEW030 2/1 Q1038
SS EDDFYYYX LFPBYYYX LFPGYYYX 230323 METAR LFPG 230323Z 14648KT 9999 FEW030 31/-8 Q1050
LL EGLLYYYX LFPNYYYX 262347 METAR LFPG 262347Z 12141KT 9999 FEW030 -2/1 Q1092
FF EGLLYYYX LFPNYYYX 020201 METAR LFPG 020201Z 31811KT 9999 FEW030 15/1 Q1020
DD EGLLYYYX LFPBYYYX LFPNYYYX LFPOYYYX 271615 METAR LFPG 271615Z 29025KT 9999 FEW030 34/3 Q1044
LL EDDFYYYX LFPOYYYX 080420 METAR LFPG 080420Z 31115KT 9999 FEW030 11/-6 Q1070
GG EDDFYYYX LFPOYYYX EDDFYYYX 271411 METAR LFPG 271411Z 05744KT 9999 FEW030 -7/3 Q1068
KK LFPGYYYX EGLLYYYX 080249 METAR LFPG 080249Z 07730KT 9999 FEW030 35/8 Q1045
DD EDDFYYYX EGLLYYYX LFPNYYYX 111617 METAR LFPG 111617Z 04018KT 9999 FEW030 12/0 Q1072
FF LFPNYYYX LFPNYYYX LFPOYYYX EDDFYYYX 270606 METAR LFPG 270606Z 23724KT 9999 FEW030 30/-3 Q1073
SS EDDFYYYX EGLLYYYX LFPBYYYX 220951 METAR LFPG 220951Z 18412KT 9999 FEW030 -8/-7 Q1087
FF LFPNYYYX LFPGYYYX LFPBYYYX 021445 METAR LFPG 021445Z 02719KT 9999 FEW030 17/-2 Q1090
DD EGLLYYYX LFPNYYYX LFPBYYYX EGLLYYYX 212227 METAR LFPG 212227Z 30144KT 9999 FEW030 10/-10 Q1066
LL EDDFYYYX LFPOYYYX LFPGYYYX LFPNYYYX 021058 METAR LFPG 021058Z 07040KT 9999 FEW030 23/-6 Q1089
DD LFPNYYYX LFPGYYYX LFPNYYYX 120738 METAR LFPG 120738Z 35723KT 9999 FEW030 13/-6 Q1026
DD LFPBYYYX LFPOYYYX 190112 METAR LFPG 190112Z 27937KT 9999 FEW030 -1/23 Q1090
DD LFPGYYYX EGLLYYYX EDDFYYYX LFPGYYYX 020033 METAR LFPG 020033Z 00416KT 9999 FEW030 6/-1 Q1068
GG LFPOYYYX LFPBYYYX LFPNYYYX EDDFYYYX 021713 METAR LFPG 021713Z 07817KT 9999 FEW030 25/8 Q1025
SS EDDFYYYX LFPGYYYX EDDFYYYX 241143 METAR LFPG 241143Z 16941KT 9999 FEW030 25/0 Q1054
DD EDDFYYYX LFPNYYYX EGLLYYYX EDDFYYYX 160801 METAR LFPG 160801Z 27734KT 9999 FEW030 11/12 Q1071
FF LFPGYYYX LFPOYYYX EDDFYYYX 071058 METAR LFPG 071058Z 17634KT 9999 FEW030 27/21 Q1082
FF LFPNYYYX LFPGYYYX 050117 METAR LFPG 050117Z 15446KT 9999 FEW030 35/19 Q1092
DD LFPOYYYX LFPGYYYX LFPNYYYX 120350 METAR LFPG 120350Z 32938KT 9999 FEW030 -7/25 Q1054
LL LFPNYYYX LFPOYYYX 150622 METAR LFPG 150622Z 28019KT 9999 FEW030 15/-9 Q1022
SS LFPOYYYX LFPOYYYX EGLLYYYX LFPGYYYX 161440 METAR LFPG 161440Z 03326KT 9999 FEW030 13/-4 Q1093
SS LFPNYYYX LFPOYYYX 271054 METAR LFPG 271054Z 28530KT 9999 FEW030 4/-7 Q1034
DD LFPNYYYX EDDFYYYX 090457 METAR LFPG 090457Z 12338KT 9999 FEW030 -5/20 Q1029
SS EGLLYYYX LFPNYYYX EGLLYYYX 140806 METAR LFPG 140806Z 25140KT 9999 FEW030 29/24 Q1027
FF LFPNYYYX LFPOYYYX LFPGYYYX LFPBYYYX 252301 METAR LFPG 252301Z 13534KT 9999 FEW030 -9/6 Q1030
DD EGLLYYYX EDDFYYYX LFPBYYYX 100403 METAR LFPG 100403Z 07925KT 9999 FEW030 -6/1 Q1092
LL LFPGYYYX LFPNYYYX LFPOYYYX 172054 METAR LFPG 172054Z 17914KT 9999 FEW030 17/10 Q1024
GG EDDFYYYX LFPGYYYX 131348 METAR LFPG 131348Z 05418KT 9999 FEW030 12/0 Q1015
FF EDDFYYYX LFPBYYYX LFPGYYYX 162320 METAR LFPG 162320Z 10025KT 9999 FEW030 19/-7 Q1031
GG LFPGYYYX LFPOYYYX LFPNYYYX 162123 METAR LFPG 162123Z 27518KT 9999 FEW030 -5/9 Q1015
KK LFPNYYYX LFPNYYYX 130241 METAR LFPG 130241Z 24434KT 9999 FEW030 -5/-10 Q1022
FF LFPOYYYX EDDFYYYX 110217 METAR LFPG 110217Z 00930KT 9999 FEW030 30/15 Q1047
KK LFPOYYYX LFPNYYYX LFPOYYYX LFPGYYYX 271735 METAR LFPG 271735Z 00643KT 9999 FEW030 23/-6 Q1086
GG LFPBYYYX LFPBYYYX EGLLYYYX LFPGYYYX 180923 METAR LFPG 180923Z 01444KT 9999 FEW030 19/6 Q1070
SS LFPGYYYX EDDFYYYX LFPBYYYX 191918 METAR LFPG 191918Z 22127KT 9999 FEW030 24/11 Q1043
KK EDDFYYYX EGLLYYYX LFPNYYYX LFPGYYYX 011030 METAR LFPG 011030Z 00827KT 9999 FEW030 -10/9 Q1056
KK LFPGYYYX LFPBYYYX EGLLYYYX 190150 METAR LFPG 190150Z 26930KT 9999 FEW030 10/21 Q1011
FF EGLLYYYX LFPNYYYX LFPBYYYX 080753 METAR LFPG 080753Z 34823KT 9999 FEW030 0/15 Q1095
KK LFPGYYYX EGLLYYYX EDDFYYYX LFPNYYYX 050329 METAR LFPG 050329Z 26321KT 9999 FEW030 31/3 Q1039
SS LFPNYYYX LFPOYYYX EGLLYYYX LFPBYYYX 091549 METAR LFPG 091549Z 19112KT 9999 FEW030 21/-1 Q1002
DD LFPGYYYX LFPGYYYX LFPOYYYX EGLLYYYX 121043 METAR LFPG 121043Z 01811KT 9999 FEW030 30/-8 Q1095
SS LFPNYYYX LFPBYYYX EGLLYYYX LFPGYYYX 071520 METAR LFPG 071520Z 09239KT 9999 FEW030 29/18 Q1009
FF LFPBYYYX LFPGYYYX 170331 METAR LFPG 170331Z 30820KT 9999 FEW030 32/24 Q1083
SS LFPGYYYX LFPOYYYX 020905 METAR LFPG 020905Z 23036KT 9999 FEW030 34/0 Q1037
SS EGLLYYYX EGLLYYYX LFPBYYYX 240105 METAR LFPG 240105Z 13248KT 9999 FEW030 7/22 Q1001
LL LFPOYYYX LFPNYYYX 151925 METAR LFPG 151925Z 16917KT 9999 FEW030 19/10 Q1078
LL LFPNYYYX EDDFYYYX LFPGYYYX 131203 METAR LFPG 131203Z 16134KT 9999 FEW030 19/2 Q1075
GG EDDFYYYX LFPOYYYX EGLLYYYX LFPBYYYX 270403 METAR LFPG 270403Z 06734KT 9999 FEW030 32/20 Q1014
SS EDDFYYYX LFPGYYYX EGLLYYYX 021937 METAR LFPG 021937Z 31838KT 9999 FEW030 20/-4 Q1065
FF EGLLYYYX LFPOYYYX 151749 METAR LFPG 151749Z 30518KT 9999 FEW030 -1/7 Q1009
DD LFPNYYYX LFPOYYYX EDDFYYYX LFPBYYYX 170401 METAR LFPG 170401Z 34811KT 9999 FEW030 4/6 Q1014
SS LFPOYYYX LFPOYYYX 232042 METAR LFPG 232042Z 12214KT 9999 FEW030 14/-10 Q1012
DD EGLLYYYX LFPBYYYX LFPNYYYX 121553 METAR LFPG 121553Z 10917KT 9999 FEW030 13/14 Q1021
GG EDDFYYYX EGLLYYYX LFPOYYYX EDDFYYYX 211343 METAR LFPG 211343Z 13431KT 9999 FEW030 28/-6 Q1052
LL LFPBYYYX LFPNYYYX EDDFYYYX 231430 METAR LFPG 231430Z 31850KT 9999 FEW030 8/5 Q1032
KK LFPNYYYX EDDFYYYX LFPBYYYX 112312 METAR LFPG 112312Z 28217KT 9999 FEW030 -8/25 Q1063
DD EGLLYYYX EGLLYYYX LFPGYYYX 270342 METAR LFPG 270342Z 04017KT 9999 FEW030 16/24 Q1037
LL LFPNYYYX EDDFYYYX LFPGYYYX LFPOYYYX 151829 METAR LFPG 151829Z 05311KT 9999 FEW030 -4/4 Q1071
LL LFPNYYYX LFPGYYYX LFPOYYYX EDDFYYYX 211025 METAR LFPG 211025Z 09418KT 9999 FEW030 26/-5 Q1067
DD LFPNYYYX LFPOYYYX 081846 METAR LFPG 081846Z 01230KT 9999 FEW030 1/25 Q1050
FF LFPNYYYX EDDFYYYX LFPBYYYX 120733 METAR LFPG 120733Z 01738KT 9999 FEW030 29/3 Q1032
DD EGLLYYYX EDDFYYYX LFPBYYYX LFPNYYYX 171459 METAR LFPG 171459Z 13442KT 9999 FEW030 32/2 Q1069
LL LFPGYYYX LFPNYYYX LFPBYYYX EDDFYYYX 030810 METAR LFPG 030810Z 28235KT 9999 FEW030 29/18 Q1000
KK LFPBYYYX LFPOYYYX 241930 METAR LFPG 241930Z 24229KT 9999 FEW030 7/10 Q1092
DD EDDFYYYX LFPNYYYX EDDFYYYX 110201 METAR LFPG 110201Z 06235KT 9999 FEW030 19/-7 Q1009
GG EGLLYYYX LFPOYYYX 160721 METAR LFPG 160721Z 08939KT 9999 FEW030 18/14 Q1090
DD EGLLYYYX LFPOYYYX EDDFYYYX 150057 METAR LFPG 150057Z 16411KT 9999 FEW030 19/24 Q1003
DD LFPOYYYX LFPGYYYX 100059 METAR LFPG 100059Z 33910KT 9999 FEW030 -1/-3 Q1021
DD LFPGYYYX LFPOYYYX LFPNYYYX 150822 METAR LFPG 150822Z 21024KT 9999 FEW030 30/-2 Q1050
DD EGLLYYYX LFPBYYYX LFPNYYYX LFPGYYYX 120044 METAR LFPG 120044Z 32242KT 9999 FEW030 7/7 Q1011
SS EGLLYYYX LFPOYYYX 171041 METAR LFPG 171041Z 23935KT 9999 FEW030 14/13 Q1051
FF LFPGYYYX LFPOYYYX 191209 METAR LFPG 191209Z 01140KT 9999 FEW030 13/-10 Q1028
FF EGLLYYYX EDDFYYYX 150109 METAR LFPG 150109Z 03613KT 9999 FEW030 6/2 Q1096
SS LFPGYYYX LFPGYYYX 071453 METAR LFPG 071453Z 28114KT 9999 FEW030 -9/6 Q1001
KK LFPGYYYX LFPNYYYX LFPBYYYX LFPOYYYX 080537 METAR LFPG 080537Z 23023KT 9999 FEW030 33/1 Q1004
FF EDDFYYYX LFPGYYYX 061333 METAR LFPG 061333Z 06529KT 9999 FEW030 4/22 Q1024
FF LFPNYYYX LFPBYYYX EDDFYYYX LFPGYYYX 110535 METAR LFPG 110535Z 06232KT 9999 FEW030 11/11 Q1023
SS LFPBYYYX LFPOYYYX EGLLYYYX EDDFYYYX 110636 METAR LFPG 110636Z 22044KT 9999 FEW030 28/8 Q1066
SS EGLLYYYX EGLLYYYX LFPGYYYX 120432 METAR LFPG 120432Z 26631KT 9999 FEW030 15/5 Q1081
SS EGLLYYYX EGLLYYYX 101854 METAR LFPG 101854Z 33946KT 9999 FEW030 6/20 Q1089
LL LFPGYYYX LFPBYYYX 060957 METAR LFPG 060957Z 31534KT 9999 FEW030 17/24 Q1081
FF LFPNYYYX EGLLYYYX LFPBYYYX 060203 METAR LFPG 060203Z 21919KT 9999 FEW030 -8/1 Q1098
LL EDDFYYYX LFPNYYYX 211619 METAR LFPG 211619Z 25324KT 9999 FEW030 33/9 Q1052
DD LFPNYYYX LFPOYYYX LFPGYYYX 120512 METAR LFPG 120512Z 09045KT 9999 FEW030 30/2 Q1053
DD LFPBYYYX LFPNYYYX EDDFYYYX 080841 METAR LFPG 080841Z 04639KT 9999 FEW030 35/23 Q1084
DD LFPNYYYX LFPOYYYX 151042 METAR LFPG 151042Z 13417KT 9999 FEW030 20/-7 Q1029
LL LFPGYYYX LFPGYYYX EGLLYYYX 071117 METAR LFPG 071117Z 35616KT 9999 FEW030 5/10 Q1078
FF EGLLYYYX EGLLYYYX LFPOYYYX LFPNYYYX 060507 METAR LFPG 060507Z 01438KT 9999 FEW030 -9/-1 Q1090
LL EGLLYYYX LFPGYYYX LFPOYYYX 191651 METAR LFPG 191651Z 14524KT 9999 FEW030 23/25 Q1000
DD EGLLYYYX LFPNYYYX 261656 METAR LFPG 261656Z 25412KT 9999 FEW030 9/20 Q1012
LL EDDFYYYX EDDFYYYX LFPOYYYX 020447 METAR LFPG 020447Z 29328KT 9999 FEW030 13/-7 Q1018
SS LFPGYYYX LFPOYYYX 161825 METAR LFPG 161825Z 22617KT 9999 FEW030 15/12 Q1100
SS LFPNYYYX EGLLYYYX 161435 METAR LFPG 161435Z 09650KT 9999 FEW030 3/11 Q1043
LL EDDFYYYX LFPNYYYX 020155 METAR LFPG 020155Z 20533KT 9999 FEW030 8/25 Q1079
SS EGLLYYYX EDDFYYYX LFPNYYYX LFPBYYYX 242213 METAR LFPG 242213Z 15550KT 9999 FEW030 12/20 Q1050
DD EGLLYYYX LFPBYYYX LFPOYYYX 022012 METAR LFPG 022012Z 27516KT 9999 FEW030 27/17 Q1048
LL LFPBYYYX EGLLYYYX LFPBYYYX EDDFYYYX 091710 METAR LFPG 091710Z 11226KT 9999 FEW030 -5/22 Q1054
LL EDDFYYYX LFPBYYYX 090107 METAR LFPG 090107Z 18516KT 9999 FEW030 -10/25 Q1030
KK LFPGYYYX LFPOYYYX EDDFYYYX LFPBYYYX 181401 METAR LFPG 181401Z 05827KT 9999 FEW030 33/6 Q1038
SS LFPNYYYX LFPGYYYX LFPNYYYX EDDFYYYX 140241 METAR LFPG 140241Z 25031KT 9999 FEW030 1/-6 Q1013
GG LFPGYYYX LFPGYYYX EGLLYYYX 240932 METAR LFPG 240932Z 35932KT 9999 FEW030 8/19 Q1005
KK LFPBYYYX EGLLYYYX LFPNYYYX 092346 METAR LFPG 092346Z 34539KT 9999 FEW030 27/17 Q1036
LL EDDFYYYX LFPOYYYX LFPGYYYX 122216 METAR LFPG 122216Z 33650KT 9999 FEW030 7/21 Q1002
SS EDDFYYYX EDDFYYYX 282105 METAR LFPG 282105Z 13312KT 9999 FEW030 0/6 Q1094
KK LFPBYYYX LFPOYYYX LFPBYYYX 190904 METAR LFPG 190904Z 35632KT 9999 FEW030 2/10 Q1038
LL LFPBYYYX EGLLYYYX LFPGYYYX 080946 METAR LFPG 080946Z 27648KT 9999 FEW030 17/-1 Q1030
LL EGLLYYYX LFPBYYYX EDDFYYYX 102225 METAR LFPG 102225Z 17242KT 9999 FEW030 34/-3 Q1085
LL EGLLYYYX EDDFYYYX LFPOYYYX 281858 METAR LFPG 281858Z 26547KT 9999 FEW030 11/16 Q1032
GG EDDFYYYX EGLLYYYX LFPBYYYX LFPNYYYX 241301 METAR LFPG 241301Z 27917KT 9999 FEW030 23/11 Q1023
KK EDDFYYYX EDDFYYYX LFPGYYYX LFPOYYYX 040306 METAR LFPG 040306Z 28346KT 9999 FEW030 14/-2 Q1030
SS LFPNYYYX EGLLYYYX 040436 METAR LFPG 040436Z 23732KT 9999 FEW030 3/7 Q1005
FF LFPBYYYX LFPBYYYX 021243 METAR LFPG 021243Z 15128KT 9999 FEW030 28/9 Q1014
GG EGLLYYYX LFPNYYYX 052009 METAR LFPG 052009Z 33649KT 9999 FEW030 35/18 Q1022
KK LFPOYYYX LFPNYYYX 051447 METAR LFPG 051447Z 13125KT 9999 FEW030 30/-5 Q1021
LL LFPBYYYX LFPGYYYX LFPBYYYX EDDFYYYX 130418 METAR LFPG 130418Z 20028KT 9999 FEW030 24/1 Q1075
KK LFPGYYYX LFPOYYYX EDDFYYYX 071942 METAR LFPG 071942Z 19514KT 9999 FEW030 0/-6 Q1052
LL EGLLYYYX LFPOYYYX LFPNYYYX LFPGYYYX 070142 METAR LFPG 070142Z 35419KT 9999 FEW030 16/-5 Q1075
FF EDDFYYYX LFPNYYYX 062242 METAR LFPG 062242Z 08829KT 9999 FEW030 33/21 Q1060
GG LFPNYYYX LFPBYYYX EGLLYYYX 131421 METAR LFPG 131421Z 02323KT 9999 FEW030 30/4 Q1012
LL LFPBYYYX EGLLYYYX LFPGYYYX 200652 METAR LFPG 200652Z 35344KT 9999 FEW030 35/-4 Q1026
LL LFPNYYYX EDDFYYYX EGLLYYYX 121559 METAR LFPG 121559Z 12114KT 9999 FEW030 26/-2 Q1004
LL LFPOYYYX EDDFYYYX 201241 METAR LFPG 201241Z 11846KT 9999 FEW030 14/-9 Q1002
KK EGLLYYYX LFPGYYYX 031745 METAR LFPG 031745Z 04730KT 9999 FEW030 20/-2 Q1082
LL LFPOYYYX LFPOYYYX LFPBYYYX LFPGYYYX 031111 METAR LFPG 031111Z 34320KT 9999 FEW030 20/13 Q1027
SS EGLLYYYX LFPGYYYX EDDFYYYX EGLLYYYX 260326 METAR LFPG 260326Z 00344KT 9999 FEW030 8/22 Q1042
DD LFPBYYYX EDDFYYYX 132055 METAR LFPG 132055Z 22045KT 9999 FEW030 32/-2 Q1031
GG EGLLYYYX EGLLYYYX LFPGYYYX LFPBYYYX 240814 METAR LFPG 240814Z 22129KT 9999 FEW030 -8/17 Q1033
FF LFPNYYYX EGLLYYYX 271112 METAR LFPG 271112Z 24318KT 9999 FEW030 -9/-1 Q1077
FF LFPGYYYX LFPNYYYX EGLLYYYX LFPBYYYX 221315 METAR LFPG 221315Z 18548KT 9999 FEW030 16/-4 Q1056
LL EDDFYYYX LFPGYYYX 092300 METAR LFPG 092300Z 23638KT 9999 FEW030 11/-10 Q1041
SS LFPNYYYX LFPOYYYX EGLLYYYX LFPGYYYX 081306 METAR LFPG 081306Z 02750KT 9999 FEW030 25/-5 Q1089
LL LFPOYYYX EDDFYYYX 072023 METAR LFPG 072023Z 14232KT 9999 FEW030 26/-10 Q1027
KK EDDFYYYX EDDFYYYX EGLLYYYX 280700 METAR LFPG 280700Z 01018KT 9999 FEW030 -1/-9 Q1060
SS LFPNYYYX EGLLYYYX LFPNYYYX LFPBYYYX 141315 METAR LFPG 141315Z 31614KT 9999 FEW030 -7/11 Q1068
KK LFPGYYYX EGLLYYYX LFPBYYYX 081626 METAR LFPG 081626Z 35610KT 9999 FEW030 28/1 Q1073
FF EGLLYYYX LFPBYYYX 201201 METAR LFPG 201201Z 10012KT 9999 FEW030 -10/20 Q1056
KK LFPGYYYX LFPBYYYX 130806 METAR LFPG 130806Z 22631KT 9999 FEW030 3/22 Q1060
FF LFPGYYYX LFPGYYYX EGLLYYYX LFPNYYYX 240830 METAR LFPG 240830Z 17833KT 9999 FEW030 19/-3 Q1091
KK LFPOYYYX EDDFYYYX LFPOYYYX LFPGYYYX 272207 METAR LFPG 272207Z 08133KT 9999 FEW030 -7/-10 Q1091
GG LFPOYYYX LFPGYYYX 020621 METAR LFPG 020621Z 04718KT 9999 FEW030 -3/4 Q1050
GG LFPOYYYX EGLLYYYX 061810 METAR LFPG 061810Z 10624KT 9999 FEW030 15/-5 Q1026
DD LFPBYYYX EGLLYYYX EDDFYYYX 192235 METAR LFPG 192235Z 01015KT 9999 FEW030 18/-3 Q1014
LL EDDFYYYX LFPBYYYX LFPGYYYX 131949 METAR LFPG 131949Z 12540KT 9999 FEW030 23/22 Q1073
SS EGLLYYYX LFPOYYYX LFPNYYYX 102314 METAR LFPG 102314Z 12123KT 9999 FEW030 14/-4 Q1015
GG EDDFYYYX LFPNYYYX EGLLYYYX LFPOYYYX 062120 METAR LFPG 062120Z 28942KT 9999 FEW030 14/4 Q1084
LL EDDFYYYX EGLLYYYX 171834 METAR LFPG 171834Z 15312KT 9999 FEW030 1/18 Q1040
DD LFPGYYYX LFPGYYYX EDDFYYYX 220432 METAR LFPG 220432Z 04912KT 9999 FEW030 -7/-8 Q1042
FF EGLLYYYX LFPNYYYX LFPBYYYX 081032 METAR LFPG 081032Z 10047KT 9999 FEW030 20/1 Q1086
SS LFPOYYYX EDDFYYYX EGLLYYYX 161659 METAR LFPG 161659Z 33010KT 9999 FEW030 0/-9 Q1007
LL EGLLYYYX LFPBYYYX EGLLYYYX LFPOYYYX 131305 METAR LFPG 131305Z 23419KT 9999 FEW030 1/11 Q1017
KK EDDFYYYX EDDFYYYX EGLLYYYX 070447 METAR LFPG 070447Z 19132KT 9999 FEW030 -7/5 Q1008
KK LFPNYYYX LFPGYYYX EGLLYYYX 110342 METAR LFPG 110342Z 10029KT 9999 FEW030 28/9 Q1019
KK EDDFYYYX EDDFYYYX LFPBYYYX 050648 METAR LFPG 050648Z 19143KT 9999 FEW030 8/5 Q1052
KK LFPBYYYX EDDFYYYX LFPOYYYX 011249 METAR LFPG 011249Z 14926KT 9999 FEW030 18/19 Q1004
FF LFPNYYYX LFPGYYYX EGLLYYYX LFPBYYYX 232256 METAR LFPG 232256Z 07843KT 9999 FEW030 7/-4 Q1003
GG LFPGYYYX LFPOYYYX LFPBYYYX 080522 METAR LFPG 080522Z 25427KT 9999 FEW030 26/-10 Q1078
GG EGLLYYYX EGLLYYYX 202003 METAR LFPG 202003Z 07843KT 9999 FEW030 10/3 Q1005
LL LFPBYYYX LFPBYYYX 111849 METAR LFPG 111849Z 32327KT 9999 FEW030 -9/7 Q1098
KK LFPBYYYX EGLLYYYX LFPNYYYX 071102 METAR LFPG 071102Z 12022KT 9999 FEW030 22/-7 Q1066
LL LFPOYYYX EGLLYYYX LFPNYYYX LFPBYYYX 200020 METAR LFPG 200020Z 14226KT 9999 FEW030 26/0 Q1030
SS EDDFYYYX EGLLYYYX 021116 METAR LFPG 021116Z 34420KT 9999 FEW030 18/15 Q1016
FF LFPNYYYX LFPBYYYX 132020 METAR LFPG 132020Z 29727KT 9999 FEW030 -1/13 Q1043
DD LFPOYYYX LFPGYYYX EDDFYYYX 270444 METAR LFPG 270444Z 30435KT 9999 FEW030 6/5 Q1052
DD LFPOYYYX EGLLYYYX 051118 METAR LFPG 051118Z 07637KT 9999 FEW030 28/2 Q1057
LL LFPOYYYX EGLLYYYX 060608 METAR LFPG 060608Z 24630KT 9999 FEW030 10/2 Q1069
DD LFPBYYYX LFPOYYYX LFPGYYYX 171923 METAR LFPG 171923Z 06812KT 9999 FEW030 -2/-9 Q1001
KK EGLLYYYX EGLLYYYX LFPBYYYX EDDFYYYX 280957 METAR LFPG 280957Z 15248KT 9999 FEW030 -10/21 Q1020
SS LFPGYYYX LFPBYYYX 050048 METAR LFPG 050048Z 21226KT 9999 FEW030 -6/-8 Q1060
SS LFPOYYYX EGLLYYYX 080919 METAR LFPG 080919Z 34116KT 9999 FEW030 3/24 Q1014
FF EGLLYYYX EDDFYYYX LFPOYYYX LFPGYYYX 030742 METAR LFPG 030742Z 11834KT 9999 FEW030 16/0 Q1026
KK EGLLYYYX LFPNYYYX 161353 METAR LFPG 161353Z 21035KT 9999 FEW030 -5/19 Q1011
LL LFPOYYYX LFPBYYYX LFPNYYYX LFPOYYYX 221458 METAR LFPG 221458Z 07945KT 9999 FEW030 14/-5 Q1016
LL LFPNYYYX LFPGYYYX EDDFYYYX LFPNYYYX 251347 METAR LFPG 251347Z 08011KT 9999 FEW030 17/-7 Q1055
GG LFPGYYYX LFPNYYYX LFPBYYYX 270935 METAR LFPG 270935Z 04416KT 9999 FEW030 34/18 Q1064
KK EDDFYYYX EDDFYYYX EGLLYYYX LFPOYYYX 131329 METAR LFPG 131329Z 09128KT 9999 FEW030 1/23 Q1051
FF LFPGYYYX LFPGYYYX 191358 METAR LFPG 191358Z 20820KT 9999 FEW030 3/5 Q1021
SS EGLLYYYX LFPGYYYX LFPOYYYX EDDFYYYX 162108 METAR LFPG 162108Z 03230KT 9999 FEW030 13/5 Q1069
LL LFPGYYYX LFPNYYYX 040234 METAR LFPG 040234Z 27538KT 9999 FEW030 20/11 Q1076
DD EDDFYYYX LFPNYYYX LFPGYYYX 061606 METAR LFPG 061606Z 31143KT 9999 FEW030 17/-6 Q1015
GG LFPGYYYX LFPGYYYX 262138 METAR LFPG 262138Z 13449KT 9999 FEW030 2/24 Q1042
LL LFPOYYYX EGLLYYYX LFPNYYYX 011026 METAR LFPG 011026Z 31340KT 9999 FEW030 -2/-8 Q1054
KK LFPGYYYX EGLLYYYX LFPOYYYX 121633 METAR LFPG 121633Z 03426KT 9999 FEW030 7/6 Q1072
DD LFPOYYYX EGLLYYYX EDDFYYYX 220754 METAR LFPG 220754Z 33212KT 9999 FEW030 8/-7 Q1000
LL LFPBYYYX EDDFYYYX LFPGYYYX 131341 METAR LFPG 131341Z 08338KT 9999 FEW030 13/10 Q1035
FF LFPOYYYX LFPBYYYX 110456 METAR LFPG 110456Z 01123KT 9999 FEW030 6/21 Q1090
FF EGLLYYYX EDDFYYYX LFPNYYYX 200019 METAR LFPG 200019Z 07342KT 9999 FEW030 -8/8 Q1042
SS LFPNYYYX LFPOYYYX EDDFYYYX 241925 METAR LFPG 241925Z 13427KT 9999 FEW030 1/7 Q1031
GG LFPNYYYX EDDFYYYX LFPNYYYX 022113 METAR LFPG 022113Z 23029KT 9999 FEW030 33/18 Q1020
FF EGLLYYYX LFPNYYYX LFPBYYYX EGLLYYYX 011437 METAR LFPG 011437Z 34114KT 9999 FEW030 3/11 Q1020
SS LFPNYYYX LFPGYYYX EDDFYYYX 252238 METAR LFPG 252238Z 32327KT 9999 FEW030 32/13 Q1031
DD EGLLYYYX LFPBYYYX LFPNYYYX 121800 METAR LFPG 121800Z 29811KT 9999 FEW030 25/-6 Q1001
LL EGLLYYYX LFPNYYYX LFPBYYYX EDDFYYYX 210818 METAR LFPG 210818Z 20049KT 9999 FEW030 35/-9 Q1039
SS LFPOYYYX LFPBYYYX LFPOYYYX 251858 METAR LFPG 251858Z 04320KT 9999 FEW030 26/-2 Q1060
DD LFPBYYYX EDDFYYYX LFPBYYYX 280602 METAR LFPG 280602Z 27050KT 9999 FEW030 20/0 Q1091
DD LFPBYYYX LFPOYYYX LFPBYYYX 240843 METAR LFPG 240843Z 03738KT 9999 FEW030 29/-1 Q1037
DD LFPBYYYX LFPNYYYX LFPOYYYX EDDFYYYX 251352 METAR LFPG 251352Z 27132KT 9999 FEW030 11/13 Q1085
KK LFPGYYYX LFPOYYYX LFPNYYYX LFPGYYYX 111018 METAR LFPG 111018Z 26633KT 9999 FEW030 -7/23 Q1086
SS LFPGYYYX LFPNYYYX 232343 METAR LFPG 232343Z 18039KT 9999 FEW030 -1/17 Q1007
FF LFPGYYYX EDDFYYYX LFPNYYYX LFPOYYYX 130747 METAR LFPG 130747Z 35118KT 9999 FEW030 -4/4 Q1032
KK LFPNYYYX EGLLYYYX LFPOYYYX 011224 METAR LFPG 011224Z 18435KT 9999 FEW030 20/-5 Q1085
KK LFPNYYYX LFPNYYYX EDDFYYYX LFPOYYYX 152015 METAR LFPG 152015Z 10713KT 9999 FEW030 9/19 Q1073
LL EDDFYYYX LFPBYYYX 141337 METAR LFPG 141337Z 22436KT 9999 FEW030 28/18 Q1040
SS EDDFYYYX LFPNYYYX 161426 METAR LFPG 161426Z 11513KT 9999 FEW030 15/13 Q1034
KK EDDFYYYX LFPNYYYX EDDFYYYX 151952 METAR LFPG 151952Z 22131KT 9999 FEW030 -10/-6 Q1056
SS LFPNYYYX LFPOYYYX LFPGYYYX 032319 METAR LFPG 032319Z 15644KT 9999 FEW030 26/24 Q1036
SS EDDFYYYX LFPNYYYX EGLLYYYX 270048 METAR LFPG 270048Z 20012KT 9999 FEW030 11/25 Q1076
SS LFPBYYYX LFPGYYYX LFPNYYYX EGLLYYYX 080233 METAR LFPG 080233Z 17647KT 9999 FEW030 -6/6 Q1098
SS LFPOYYYX LFPOYYYX 190905 METAR LFPG 190905Z 30312KT 9999 FEW030 25/-8 Q1013
LL LFPBYYYX EDDFYYYX LFPOYYYX 061018 METAR LFPG 061018Z 32925KT 9999 FEW030 10/19 Q1004
SS EDDFYYYX LFPNYYYX 040151 METAR LFPG 040151Z 12918KT 9999 FEW030 34/14 Q1097
SS LFPBYYYX LFPBYYYX EDDFYYYX 212114 METAR LFPG 212114Z 18334KT 9999 FEW030 26/24 Q1059
SS LFPOYYYX LFPBYYYX LFPGYYYX LFPOYYYX 200853 METAR LFPG 200853Z 01247KT 9999 FEW030 25/-2 Q1083
KK LFPBYYYX LFPGYYYX LFPNYYYX LFPOYYYX 142002 METAR LFPG 142002Z 14310KT 9999 FEW030 2/-4 Q1060
FF EGLLYYYX LFPBYYYX 191242 METAR LFPG 191242Z 26038KT 9999 FEW030 20/25 Q1077
DD LFPOYYYX LFPOYYYX LFPNYYYX EGLLYYYX 221841 METAR LFPG 221841Z 23741KT 9999 FEW030 12/1 Q1009
GG LFPNYYYX EDDFYYYX LFPOYYYX EGLLYYYX 220801 METAR LFPG 220801Z 28845KT 9999 FEW030 31/17 Q1010
SS LFPGYYYX EDDFYYYX LFPOYYYX EGLLYYYX 101512 METAR LFPG 101512Z 33029KT 9999 FEW030 23/15 Q1013
SS LFPBYYYX LFPBYYYX 150231 METAR LFPG 150231Z 03028KT 9999 FEW030 15/15 Q1047
FF LFPNYYYX LFPOYYYX LFPBYYYX 192213 METAR LFPG 192213Z 04432KT 9999 FEW030 31/17 Q1003
DD LFPOYYYX EDDFYYYX 110027 METAR LFPG 110027Z 23026KT 9999 FEW030 0/-3 Q1093
LL EGLLYYYX LFPBYYYX EDDFYYYX 011920 METAR LFPG 011920Z 02024KT 9999 FEW030 10/14 Q1070
SS LFPNYYYX LFPBYYYX EGLLYYYX LFPGYYYX 211303 METAR LFPG 211303Z 04127KT 9999 FEW030 26/6 Q1056
GG LFPBYYYX LFPNYYYX EGLLYYYX LFPOYYYX 030317 METAR LFPG 030317Z 16825KT 9999 FEW030 -9/2 Q1046
DD LFPGYYYX LFPBYYYX EDDFYYYX LFPGYYYX 071849 METAR LFPG 071849Z 00338KT 9999 FEW030 -10/13 Q1025
FF EDDFYYYX LFPOYYYX LFPNYYYX 202131 METAR LFPG 202131Z 04135KT 9999 FEW030 20/-7 Q1022
KK LFPBYYYX LFPBYYYX LFPOYYYX EDDFYYYX 012017 METAR LFPG 012017Z 13347KT 9999 FEW030 -10/15 Q1024
GG LFPBYYYX EDDFYYYX 282031 METAR LFPG 282031Z 13217KT 9999 FEW030 32/6 Q1069
FF LFPNYYYX EDDFYYYX LFPBYYYX EGLLYYYX 061214 METAR LFPG 061214Z 29331KT 9999 FEW030 21/8 Q1002
DD EDDFYYYX LFPOYYYX 020043 METAR LFPG 020043Z 24918KT 9999 FEW030 9/2 Q1055
FF EGLLYYYX LFPBYYYX LFPNYYYX EGLLYYYX 200313 METAR LFPG 200313Z 19938KT 9999 FEW030 -2/16 Q1023
SS EGLLYYYX EDDFYYYX LFPNYYYX 101320 METAR LFPG 101320Z 35527KT 9999 FEW030 19/8 Q1076
LL LFPGYYYX LFPBYYYX 252221 METAR LFPG 252221Z 17631KT 9999 FEW030 1/-9 Q1045
DD LFPBYYYX LFPBYYYX LFPOYYYX 032314 METAR LFPG 032314Z 08414KT 9999 FEW030 -3/24 Q1074
SS LFPBYYYX LFPBYYYX LFPNYYYX EDDFYYYX 082104 METAR LFPG 082104Z 03119KT 9999 FEW030 17/8 Q1091
FF LFPGYYYX EDDFYYYX 161915 METAR LFPG 161915Z 22423KT 9999 FEW030 12/0 Q1072
KK LFPGYYYX LFPNYYYX EGLLYYYX 172131 METAR LFPG 172131Z 27620KT 9999 FEW030 2/9 Q1087
LL LFPBYYYX EDDFYYYX LFPOYYYX 021226 METAR LFPG 021226Z 12826KT 9999 FEW030 -3/21 Q1056
DD LFPNYYYX EGLLYYYX EDDFYYYX 130448 METAR LFPG 130448Z 21420KT 9999 FEW030 -9/21 Q1093
KK EGLLYYYX EDDFYYYX LFPBYYYX 182122 METAR LFPG 182122Z 11225KT 9999 FEW030 33/-8 Q1089
KK EGLLYYYX EGLLYYYX LFPNYYYX 150626 METAR LFPG 150626Z 19834KT 9999 FEW030 17/-8 Q1030
FF EDDFYYYX LFPGYYYX LFPNYYYX 020915 METAR LFPG 020915Z 16519KT 9999 FEW030 11/2 Q1037
SS LFPGYYYX LFPNYYYX LFPBYYYX LFPOYYYX 021536 METAR LFPG 021536Z 15130KT 9999 FEW030 9/-7 Q1030
FF EDDFYYYX LFPBYYYX LFPOYYYX EDDFYYYX 142248 METAR LFPG 142248Z 11111KT 9999 FEW030 20/17 Q1022
SS LFPBYYYX LFPNYYYX LFPBYYYX EGLLYYYX 061821 METAR LFPG 061821Z 07911KT 9999 FEW030 -3/8 Q1051
GG LFPGYYYX EGLLYYYX LFPGYYYX LFPNYYYX 101655 METAR LFPG 101655Z 08327KT 9999 FEW030 15/24 Q1010
LL LFPNYYYX LFPBYYYX 030753 METAR LFPG 030753Z 04944KT 9999 FEW030 18/12 Q1069
FF LFPNYYYX LFPOYYYX 231052 METAR LFPG 231052Z 18131KT 9999 FEW030 13/22 Q1037
DD LFPBYYYX EGLLYYYX LFPOYYYX LFPBYYYX 041806 METAR LFPG 041806Z 14750KT 9999 FEW030 21/-10 Q1030
LL LFPBYYYX EDDFYYYX LFPOYYYX EGLLYYYX 111401 METAR LFPG 111401Z 30917KT 9999 FEW030 9/18 Q1050
SS LFPOYYYX LFPNYYYX LFPBYYYX 200909 METAR LFPG 200909Z 21214KT 9999 FEW030 -10/-3 Q1003
DD LFPOYYYX EGLLYYYX LFPBYYYX LFPOYYYX 252154 METAR LFPG 252154Z 21620KT 9999 FEW030 6/7 Q1099
SS LFPBYYYX LFPBYYYX LFPGYYYX 111616 METAR LFPG 111616Z 14434KT 9999 FEW030 33/-6 Q1027
LL LFPBYYYX LFPGYYYX LFPNYYYX 200448 METAR LFPG 200448Z 34841KT 9999 FEW030 10/-7 Q1011
LL EDDFYYYX EGLLYYYX LFPGYYYX 262230 METAR LFPG 262230Z 14338KT 9999 FEW030 -8/4 Q1094
FF LFPBYYYX EGLLYYYX LFPOYYYX LFPGYYYX 032220 METAR LFPG 032220Z 09149KT 9999 FEW030 25/25 Q1066
FF EGLLYYYX LFPGYYYX EDDFYYYX 100903 METAR LFPG 100903Z 17926KT 9999 FEW030 -10/-3 Q1046
LL LFPGYYYX EDDFYYYX LFPBYYYX 231239 METAR LFPG 231239Z 02316KT 9999 FEW030 1/-10 Q1082
DD LFPOYYYX LFPGYYYX 150246 METAR LFPG 150246Z 31328KT 9999 FEW030 31/11 Q1073
FF LFPNYYYX EDDFYYYX 011231 METAR LFPG 011231Z 21025KT 9999 FEW030 -6/21 Q1048
KK LFPGYYYX EGLLYYYX EDDFYYYX 270926 METAR LFPG 270926Z 14443KT 9999 FEW030 11/15 Q1002
KK LFPGYYYX LFPOYYYX LFPGYYYX LFPBYYYX 102339 METAR LFPG 102339Z 19024KT 9999 FEW030 -7/6 Q1070
DD LFPGYYYX EGLLYYYX LFPGYYYX 041716 METAR LFPG 041716Z 05937KT 9999 FEW030 33/14 Q1062
KK LFPBYYYX EDDFYYYX 060353 METAR LFPG 060353Z 25015KT 9999 FEW030 -8/22 Q1099
KK EGLLYYYX LFPBYYYX EGLLYYYX 270831 METAR LFPG 270831Z 03216KT 9999 FEW030 21/16 Q1033
GG EDDFYYYX LFPNYYYX 160222 METAR LFPG 160222Z 33849KT 9999 FEW030 13/9 Q1092
FF EGLLYYYX EDDFYYYX EGLLYYYX LFPBYYYX 021631 METAR LFPG 021631Z 25711KT 9999 FEW030 6/25 Q1089
LL LFPNYYYX LFPNYYYX EGLLYYYX LFPBYYYX 191738 METAR LFPG 191738Z 30234KT 9999 FEW030 27/11 Q1003
LL LFPBYYYX LFPOYYYX EGLLYYYX EDDFYYYX 220354 METAR LFPG 220354Z 07034KT 9999 FEW030 0/4 Q1064
GG LFPNYYYX LFPBYYYX EDDFYYYX 271324 METAR LFPG 271324Z 32334KT 9999 FEW030 11/21 Q1081
SS LFPNYYYX EDDFYYYX 221710 METAR LFPG 221710Z 14226KT 9999 FEW030 28/18 Q1021
GG EGLLYYYX LFPNYYYX 251340 METAR LFPG 251340Z 25045KT 9999 FEW030 -5/-8 Q1057
GG EDDFYYYX EDDFYYYX EGLLYYYX LFPNYYYX 190413 METAR LFPG 190413Z 32236KT 9999 FEW030 4/15 Q1027
KK LFPBYYYX LFPGYYYX LFPBYYYX 220403 METAR LFPG 220403Z 08132KT 9999 FEW030 10/16 Q1069
DD EGLLYYYX LFPOYYYX LFPGYYYX EDDFYYYX 010619 METAR LFPG 010619Z 11636KT 9999 FEW030 9/24 Q1011
SS LFPNYYYX LFPBYYYX LFPOYYYX 171716 METAR LFPG 171716Z 19549KT 9999 FEW030 18/17 Q1087
GG EGLLYYYX LFPGYYYX LFPOYYYX LFPNYYYX 060701 METAR LFPG 060701Z 09339KT 9999 FEW030 25/0 Q1062
LL LFPGYYYX EGLLYYYX LFPGYYYX LFPBYYYX 111703 METAR LFPG 111703Z 05432KT 9999 FEW030 1/16 Q1023
DD EGLLYYYX LFPGYYYX 020508 METAR LFPG 020508Z 05110KT 9999 FEW030 28/3 Q1040
KK LFPOYYYX LFPOYYYX EGLLYYYX 052306 METAR LFPG 052306Z 27037KT 9999 FEW030 2/-10 Q1100
FF EGLLYYYX EDDFYYYX LFPBYYYX 092250 METAR LFPG 092250Z 11547KT 9999 FEW030 16/21 Q1080
DD LFPOYYYX EDDFYYYX 170039 METAR LFPG 170039Z 29828KT 9999 FEW030 23/24 Q1035
DD LFPNYYYX LFPNYYYX LFPOYYYX LFPBYYYX 111103 METAR LFPG 111103Z 13917KT 9999 FEW030 10/3 Q1066
LL LFPNYYYX LFPGYYYX LFPNYYYX 130724 METAR LFPG 130724Z 24128KT 9999 FEW030 -6/15 Q1060
DD EDDFYYYX LFPNYYYX LFPBYYYX 141606 METAR LFPG 141606Z 32711KT 9999 FEW030 0/-5 Q1090
SS LFPNYYYX EGLLYYYX EDDFYYYX LFPNYYYX 190702 METAR LFPG 190702Z 33343KT 9999 FEW030 1/16 Q1070
LL EGLLYYYX LFPBYYYX 181413 METAR LFPG 181413Z 04630KT 9999 FEW030 0/21 Q1086
DD EGLLYYYX LFPOYYYX EDDFYYYX 210828 METAR LFPG 210828Z 10249KT 9999 FEW030 12/3 Q1025
DD LFPBYYYX LFPBYYYX LFPOYYYX LFPGYYYX 010727 METAR LFPG 010727Z 16139KT 9999 FEW030 12/15 Q1098
GG EGLLYYYX EDDFYYYX LFPGYYYX 220124 METAR LFPG 220124Z 19838KT 9999 FEW030 25/-9 Q1004
LL EGLLYYYX LFPGYYYX LFPOYYYX EDDFYYYX 171334 METAR LFPG 171334Z 25548KT 9999 FEW030 -3/14 Q1033
FF LFPNYYYX EGLLYYYX LFPNYYYX LFPOYYYX 051014 METAR LFPG 051014Z 23648KT 9999 FEW030 4/25 Q1039
LL LFPOYYYX LFPGYYYX LFPOYYYX 211847 METAR LFPG 211847Z 04043KT 9999 FEW030 24/25 Q1072
LL EDDFYYYX LFPOYYYX LFPBYYYX LFPGYYYX 090640 METAR LFPG 090640Z 32222KT 9999 FEW030 -3/-4 Q1087
FF LFPBYYYX LFPBYYYX LFPGYYYX EGLLYYYX 141615 METAR LFPG 141615Z 28826KT 9999 FEW030 22/4 Q1039
LL LFPGYYYX LFPNYYYX LFPOYYYX EDDFYYYX 102213 METAR LFPG 102213Z 03425KT 9999 FEW030 19/-1 Q1045
LL LFPNYYYX LFPGYYYX LFPNYYYX LFPBYYYX 040449 METAR LFPG 040449Z 15139KT 9999 FEW030 -5/11 Q1045
DD LFPBYYYX LFPBYYYX LFPGYYYX EGLLYYYX 021112 METAR LFPG 021112Z 18544KT 9999 FEW030 17/11 Q1096
FF EGLLYYYX LFPNYYYX 281235 METAR LFPG 281235Z 22842KT 9999 FEW030 15/19 Q1042
DD LFPBYYYX LFPGYYYX 041016 METAR LFPG 041016Z 25338KT 9999 FEW030 -4/-7 Q1001
SS LFPBYYYX EDDFYYYX LFPBYYYX LFPOYYYX 221157 METAR LFPG 221157Z 32710KT 9999 FEW030 34/5 Q1039
GG LFPBYYYX LFPNYYYX LFPOYYYX LFPBYYYX 031755 METAR LFPG 031755Z 25230KT 9999 FEW030 -7/-8 Q1057
GG LFPOYYYX EDDFYYYX EGLLYYYX 112155 METAR LFPG 112155Z 20924KT 9999 FEW030 29/5 Q1035
LL LFPBYYYX EGLLYYYX 130753 METAR LFPG 130753Z 13238KT 9999 FEW030 -8/9 Q1060
DD LFPBYYYX LFPOYYYX LFPNYYYX LFPBYYYX 141927 METAR LFPG 141927Z 34844KT 9999 FEW030 27/-3 Q1100
KK LFPBYYYX LFPBYYYX LFPNYYYX LFPOYYYX 271744 METAR LFPG 271744Z 04043KT 9999 FEW030 -1/-8 Q1043
LL LFPBYYYX EGLLYYYX LFPNYYYX EDDFYYYX 210351 METAR LFPG 210351Z 28850KT 9999 FEW030 -3/18 Q1089
KK LFPNYYYX EGLLYYYX LFPNYYYX 091510 METAR LFPG 091510Z 04117KT 9999 FEW030 13/10 Q1030
SS EGLLYYYX LFPBYYYX 190354 METAR LFPG 190354Z 19630KT 9999 FEW030 -10/9 Q1058
DD LFPOYYYX LFPGYYYX EDDFYYYX 190143 METAR LFPG 190143Z 08736KT 9999 FEW030 -10/7 Q1098
GG EDDFYYYX EDDFYYYX EGLLYYYX 181038 METAR LFPG 181038Z 09411KT 9999 FEW030 20/20 Q1050
FF LFPGYYYX LFPGYYYX 081846 METAR LFPG 081846Z 35339KT 9999 FEW030 14/25 Q1073
GG LFPNYYYX EGLLYYYX EDDFYYYX 031019 METAR LFPG 031019Z 34843KT 9999 FEW030 -10/12 Q1075
DD LFPGYYYX LFPOYYYX LFPBYYYX EDDFYYYX 172152 METAR LFPG 172152Z 00821KT 9999 FEW030 -10/-5 Q1000
KK LFPNYYYX EDDFYYYX LFPBYYYX LFPNYYYX 131125 METAR LFPG 131125Z 16013KT 9999 FEW030 -5/13 Q1010
FF LFPBYYYX LFPGYYYX 271620 METAR LFPG 271620Z 13733KT 9999 FEW030 -7/0 Q1073
SS LFPOYYYX LFPGYYYX EDDFYYYX EGLLYYYX 231915 METAR LFPG 231915Z 20248KT 9999 FEW030 4/17 Q1084
SS LFPNYYYX EGLLYYYX 070634 METAR LFPG 070634Z 12645KT 9999 FEW030 0/5 Q1025
DD EDDFYYYX EDDFYYYX 020758 METAR LFPG 020758Z 29329KT 9999 FEW030 20/-8 Q1037
FF LFPNYYYX LFPGYYYX 121733 METAR LFPG 121733Z 10446KT 9999 FEW030 22/3 Q1046
LL LFPBYYYX EDDFYYYX LFPBYYYX 221449 METAR LFPG 221449Z 14428KT 9999 FEW030 3/13 Q1078
KK LFPOYYYX EDDFYYYX 260336 METAR LFPG 260336Z 00517KT 9999 FEW030 31/25 Q1070
SS EDDFYYYX EDDFYYYX LFPNYYYX 050021 METAR LFPG 050021Z 21037KT 9999 FEW030 34/1 Q1051
LL LFPNYYYX EGLLYYYX 221016 METAR LFPG 221016Z 15212KT 9999 FEW030 13/-1 Q1057
GG LFPGYYYX EDDFYYYX EGLLYYYX 281421 METAR LFPG 281421Z 16946KT 9999 FEW030 5/2 Q1068
SS EGLLYYYX LFPGYYYX EDDFYYYX 082005 METAR LFPG 082005Z 17628KT 9999 FEW030 -1/25 Q1094
DD LFPGYYYX LFPGYYYX 142343 METAR LFPG 142343Z 08437KT 9999 FEW030 -9/-1 Q1042
KK EDDFYYYX LFPGYYYX LFPOYYYX LFPBYYYX 121327 METAR LFPG 121327Z 30745KT 9999 FEW030 14/0 Q1004
GG LFPNYYYX LFPBYYYX LFPNYYYX 021638 METAR LFPG 021638Z 02615KT 9999 FEW030 31/17 Q1081
SS EDDFYYYX LFPOYYYX LFPNYYYX LFPGYYYX 071036 METAR LFPG 071036Z 10931KT 9999 FEW030 5/-9 Q1023
DD EGLLYYYX LFPBYYYX EGLLYYYX LFPNYYYX 221931 METAR LFPG 221931Z 16120KT 9999 FEW030 21/5 Q1087
FF LFPOYYYX LFPGYYYX EDDFYYYX LFPNYYYX 060033 METAR LFPG 060033Z 34240KT 9999 FEW030 10/12 Q1035
GG LFPBYYYX LFPGYYYX LFPOYYYX 170012 METAR LFPG 170012Z 15328KT 9999 FEW030 -5/-4 Q1081
FF LFPBYYYX EDDFYYYX LFPBYYYX 270108 METAR LFPG 270108Z 25235KT 9999 FEW030 25/-10 Q1075
LL LFPBYYYX EGLLYYYX 041032 METAR LFPG 041032Z 18550KT 9999 FEW030 8/-3 Q1088
DD EGLLYYYX LFPNYYYX EDDFYYYX LFPGYYYX 090258 METAR LFPG 090258Z 18530KT 9999 FEW030 32/17 Q1012
LL LFPOYYYX LFPGYYYX LFPOYYYX 111636 METAR LFPG 111636Z 20317KT 9999 FEW030 14/-2 Q1008
DD LFPBYYYX LFPOYYYX LFPNYYYX EGLLYYYX 060502 METAR LFPG 060502Z 22338KT 9999 FEW030 25/13 Q1065
DD LFPBYYYX EGLLYYYX EDDFYYYX 031200 METAR LFPG 031200Z 06419KT 9999 FEW030 5/-10 Q1042
LL LFPOYYYX EGLLYYYX 120429 METAR LFPG 120429Z 01221KT 9999 FEW030 10/19 Q1082
GG LFPGYYYX LFPBYYYX LFPNYYYX EDDFYYYX 081228 METAR LFPG 081228Z 12744KT 9999 FEW030 14/19 Q1092
DD LFPBYYYX LFPOYYYX LFPNYYYX LFPGYYYX 231859 METAR LFPG 231859Z 33836KT 9999 FEW030 25/16 Q1068
DD EGLLYYYX LFPBYYYX 020204 METAR LFPG 020204Z 35713KT 9999 FEW030 6/-2 Q1028
GG LFPGYYYX LFPOYYYX EGLLYYYX 212038 METAR LFPG 212038Z 02139KT 9999 FEW030 20/16 Q1092
SS EGLLYYYX EDDFYYYX 031236 METAR LFPG 031236Z 12424KT 9999 FEW030 -2/18 Q1017
SS EDDFYYYX LFPBYYYX LFPOYYYX 142304 METAR LFPG 142304Z 32113KT 9999 FEW030 23/-9 Q1030
FF LFPGYYYX LFPGYYYX 081209 METAR LFPG 081209Z 31421KT 9999 FEW030 -8/-8 Q1091
SS LFPGYYYX EGLLYYYX 180141 METAR LFPG 180141Z 06530KT 9999 FEW030 26/7 Q1013
KK EDDFYYYX EDDFYYYX LFPGYYYX LFPNYYYX 051855 METAR LFPG 051855Z 13140KT 9999 FEW030 28/1 Q1045
GG EGLLYYYX EGLLYYYX 262221 METAR LFPG 262221Z 24241KT 9999 FEW030 35/18 Q1097
GG LFPBYYYX EGLLYYYX LFPOYYYX 191600 METAR LFPG 191600Z 30120KT 9999 FEW030 29/-5 Q1026
GG LFPGYYYX LFPOYYYX 220830 METAR LFPG 220830Z 01128KT 9999 FEW030 9/15 Q1050
LL LFPOYYYX LFPBYYYX LFPGYYYX 101517 METAR LFPG 101517Z 06240KT 9999 FEW030 3/-5 Q1016
LL LFPGYYYX EDDFYYYX 261757 METAR LFPG 261757Z 03638KT 9999 FEW030 7/4 Q1078
SS LFPGYYYX LFPNYYYX LFPGYYYX 220524 METAR LFPG 220524Z 13724KT 9999 FEW030 31/-4 Q1086
GG LFPNYYYX LFPNYYYX EGLLYYYX 030036 METAR LFPG 030036Z 24142KT 9999 FEW030 4/17 Q1019
LL LFPBYYYX LFPNYYYX LFPBYYYX LFPOYYYX 251621 METAR LFPG 251621Z 06025KT 9999 FEW030 7/20 Q1067
SS LFPOYYYX LFPBYYYX LFPNYYYX LFPGYYYX 181420 METAR LFPG 181420Z 30222KT 9999 FEW030 27/16 Q1095
SS LFPOYYYX LFPOYYYX 010724 METAR LFPG 010724Z 09012KT 9999 FEW030 33/-1 Q1026
FF LFPGYYYX LFPNYYYX 100847 METAR LFPG 100847Z 26140KT 9999 FEW030 23/-5 Q1092
KK EDDFYYYX EGLLYYYX LFPOYYYX LFPBYYYX 071702 METAR LFPG 071702Z 24218KT 9999 FEW030 21/11 Q1080
KK LFPGYYYX EDDFYYYX 280753 METAR LFPG 280753Z 15121KT 9999 FEW030 -9/-3 Q1014
LL EGLLYYYX LFPOYYYX EGLLYYYX 211610 METAR LFPG 211610Z 26038KT 9999 FEW030 0/-10 Q1056
GG LFPOYYYX LFPNYYYX EDDFYYYX 240639 METAR LFPG 240639Z 23142KT 9999 FEW030 21/11 Q1072
KK EDDFYYYX LFPBYYYX LFPNYYYX EDDFYYYX 071019 METAR LFPG 071019Z 20034KT 9999 FEW030 -9/0 Q1099
KK LFPNYYYX LFPNYYYX 212123 METAR LFPG 212123Z 15735KT 9999 FEW030 32/4 Q1068
GG EGLLYYYX LFPNYYYX 261959 METAR LFPG 261959Z 22212KT 9999 FEW030 34/25 Q1000
LL LFPNYYYX EGLLYYYX 280640 METAR LFPG 280640Z 03034KT 9999 FEW030 7/14 Q1002
GG LFPGYYYX LFPGYYYX EGLLYYYX EDDFYYYX 210512 METAR LFPG 210512Z 01918KT 9999 FEW030 4/10 Q1041
KK LFPGYYYX LFPOYYYX 060707 METAR LFPG 060707Z 11227KT 9999 FEW030 28/10 Q1060
GG LFPGYYYX LFPGYYYX 140155 METAR LFPG 140155Z 29522KT 9999 FEW030 34/25 Q1043
FF LFPGYYYX LFPOYYYX 090842 METAR LFPG 090842Z 18230KT 9999 FEW030 -7/20 Q1036
FF LFPGYYYX LFPOYYYX LFPBYYYX 130252 METAR LFPG 130252Z 22545KT 9999 FEW030 9/11 Q1079
DD LFPBYYYX LFPOYYYX LFPBYYYX 180818 METAR LFPG 180818Z 02310KT 9999 FEW030 11/3 Q1030
FF LFPGYYYX LFPOYYYX 201811 METAR LFPG 201811Z 03837KT 9999 FEW030 1/20 Q1021
GG LFPBYYYX EGLLYYYX LFPGYYYX 111228 METAR LFPG 111228Z 32042KT 9999 FEW030 3/4 Q1083
FF LFPGYYYX LFPNYYYX LFPOYYYX EDDFYYYX 200406 METAR LFPG 200406Z 22933KT 9999 FEW030 19/8 Q1028
FF LFPBYYYX LFPNYYYX LFPOYYYX EDDFYYYX 150643 METAR LFPG 150643Z 29634KT 9999 FEW030 14/14 Q1053
FF LFPNYYYX EDDFYYYX LFPGYYYX 160202 METAR LFPG 160202Z 28011KT 9999 FEW030 9/20 Q1061
FF LFPBYYYX LFPOYYYX LFPGYYYX 161203 METAR LFPG 161203Z 01441KT 9999 FEW030 23/8 Q1028
LL LFPBYYYX LFPNYYYX EDDFYYYX LFPGYYYX 191140 METAR LFPG 191140Z 22212KT 9999 FEW030 16/5 Q1008
FF LFPNYYYX LFPBYYYX LFPNYYYX 162056 METAR LFPG 162056Z 27836KT 9999 FEW030 33/-6 Q1011
DD LFPOYYYX EDDFYYYX LFPBYYYX 072104 METAR LFPG 072104Z 26932KT 9999 FEW030 2/5 Q1091
FF EGLLYYYX LFPNYYYX 032038 METAR LFPG 032038Z 17627KT 9999 FEW030 20/1 Q1032
FF LFPGYYYX EGLLYYYX LFPBYYYX 031837 METAR LFPG 031837Z 11344KT 9999 FEW030 14/0 Q1062
DD LFPOYYYX EGLLYYYX LFPOYYYX LFPNYYYX 100647 METAR LFPG 100647Z 22737KT 9999 FEW030 -8/-8 Q1011
DD LFPGYYYX EGLLYYYX 202053 METAR LFPG 202053Z 05037KT 9999 FEW030 0/3 Q1084
KK EGLLYYYX EDDFYYYX LFPGYYYX 221553 METAR LFPG 221553Z 28634KT 9999 FEW030 9/16 Q1049
DD LFPOYYYX LFPOYYYX 031814 METAR LFPG 031814Z 13416KT 9999 FEW030 -7/24 Q1001
SS LFPNYYYX LFPBYYYX 222149 METAR LFPG 222149Z 06038KT 9999 FEW030 -8/18 Q1060
GG LFPGYYYX LFPBYYYX 272023 METAR LFPG 272023Z 11233KT 9999 FEW030 -9/-10 Q1044
KK EGLLYYYX LFPGYYYX EDDFYYYX EGLLYYYX 261144 METAR LFPG 261144Z 09947KT 9999 FEW030 31/-2 Q1097
DD LFPBYYYX EGLLYYYX LFPGYYYX 192043 METAR LFPG 192043Z 18215KT 9999 FEW030 3/6 Q1019
SS EDDFYYYX LFPNYYYX LFPBYYYX 151512 METAR LFPG 151512Z 25038KT 9999 FEW030 26/15 Q1082
SS EDDFYYYX EGLLYYYX LFPOYYYX 171156 METAR LFPG 171156Z 13532KT 9999 FEW030 -8/-2 Q1011
FF LFPBYYYX LFPBYYYX 021424 METAR LFPG 021424Z 18611KT 9999 FEW030 10/-5 Q1023
GG LFPNYYYX LFPGYYYX 200259 METAR LFPG 200259Z 33944KT 9999 FEW030 1/5 Q1065
GG LFPNYYYX EGLLYYYX LFPNYYYX 091549 METAR LFPG 091549Z 05931KT 9999 FEW030 -1/12 Q1026
LL LFPBYYYX LFPOYYYX LFPBYYYX EGLLYYYX 040404 METAR LFPG 040404Z 10615KT 9999 FEW030 -5/24 Q1026
FF LFPGYYYX EGLLYYYX LFPNYYYX LFPBYYYX 062118 METAR LFPG 062118Z 12349KT 9999 FEW030 4/0 Q1029
SS EGLLYYYX EDDFYYYX LFPNYYYX 211728 METAR LFPG 211728Z 23417KT 9999 FEW030 -2/11 Q1073
DD LFPOYYYX LFPOYYYX LFPBYYYX LFPNYYYX 151738 METAR LFPG 151738Z 04622KT 9999 FEW030 5/8 Q1015
GG LFPGYYYX LFPGYYYX 142336 METAR LFPG 142336Z 06034KT 9999 FEW030 6/-3 Q1029
FF LFPBYYYX LFPOYYYX LFPBYYYX 132010 METAR LFPG 132010Z 11615KT 9999 FEW030 -1/6 Q1079
FF EGLLYYYX LFPBYYYX LFPOYYYX LFPNYYYX 070217 METAR LFPG 070217Z 32137KT 9999 FEW030 -3/-7 Q1087
SS EDDFYYYX LFPOYYYX LFPGYYYX EGLLYYYX 170052 METAR LFPG 170052Z 25120KT 9999 FEW030 17/22 Q1094
KK LFPBYYYX EDDFYYYX LFPGYYYX 101412 METAR LFPG 101412Z 31912KT 9999 FEW030 28/-6 Q1050
DD LFPOYYYX LFPBYYYX EGLLYYYX EDDFYYYX 030413 METAR LFPG 030413Z 21250KT 9999 FEW030 -9/-1 Q1058
SS LFPBYYYX LFPOYYYX LFPNYYYX 272156 METAR LFPG 272156Z 16439KT 9999 FEW030 -8/-9 Q1003
FF LFPNYYYX LFPBYYYX LFPNYYYX LFPGYYYX 092322 METAR LFPG 092322Z 26746KT 9999 FEW030 21/-3 Q1058
LL EDDFYYYX LFPGYYYX LFPNYYYX 130310 METAR LFPG 130310Z 29950KT 9999 FEW030 -1/-10 Q1071
DD LFPGYYYX LFPOYYYX 030137 METAR LFPG 030137Z 12824KT 9999 FEW030 1/7 Q1081
GG LFPGYYYX EDDFYYYX EGLLYYYX 101032 METAR LFPG 101032Z 00941KT 9999 FEW030 32/4 Q1030
SS LFPNYYYX LFPOYYYX EGLLYYYX 170836 METAR LFPG 170836Z 03039KT 9999 FEW030 20/12 Q1003
LL LFPGYYYX LFPNYYYX 200833 METAR LFPG 200833Z 32429KT 9999 FEW030 6/7 Q1084
DD LFPGYYYX LFPNYYYX EGLLYYYX 272250 METAR LFPG 272250Z 24427KT 9999 FEW030 30/2 Q1012
KK LFPBYYYX LFPGYYYX 220737 METAR LFPG 220737Z 21226KT 9999 FEW030 -6/-6 Q1085
FF LFPBYYYX EGLLYYYX LFPOYYYX LFPGYYYX 040250 METAR LFPG 040250Z 15032KT 9999 FEW030 32/9 Q1017
DD EDDFYYYX EGLLYYYX 200148 METAR LFPG 200148Z 01430KT 9999 FEW030 21/15 Q1077
SS LFPOYYYX LFPOYYYX 241202 METAR LFPG 241202Z 26838KT 9999 FEW030 13/15 Q1049
GG LFPOYYYX LFPOYYYX LFPNYYYX 171317 METAR LFPG 171317Z 24539KT 9999 FEW030 -8/24 Q1002
SS LFPBYYYX LFPBYYYX LFPGYYYX 222045 METAR LFPG 222045Z 27347KT 9999 FEW030 -9/-7 Q1098
FF LFPGYYYX LFPNYYYX 040814 METAR LFPG 040814Z 15543KT 9999 FEW030 -9/-9 Q1017
DD LFPGYYYX LFPOYYYX LFPBYYYX LFPNYYYX 051130 METAR LFPG 051130Z 33520KT 9999 FEW030 -10/25 Q1083
DD LFPBYYYX LFPBYYYX 261853 METAR LFPG 261853Z 31020KT 9999 FEW030 -8/15 Q1010
SS LFPGYYYX LFPGYYYX EDDFYYYX LFPBYYYX 201836 METAR LFPG 201836Z 05841KT 9999 FEW030 35/5 Q1097
KK LFPOYYYX LFPOYYYX EDDFYYYX LFPNYYYX 092154 METAR LFPG 092154Z 01339KT 9999 FEW030 33/16 Q1073
FF LFPOYYYX LFPOYYYX LFPNYYYX 050200 METAR LFPG 050200Z 02533KT 9999 FEW030 34/5 Q1027
SS LFPOYYYX EDDFYYYX LFPBYYYX LFPOYYYX 012143 METAR LFPG 012143Z 13647KT 9999 FEW030 4/25 Q1084
LL EGLLYYYX LFPOYYYX EGLLYYYX 190849 METAR LFPG 190849Z 14940KT 9999 FEW030 7/12 Q1046
SS LFPGYYYX EDDFYYYX 131446 METAR LFPG 131446Z 18736KT 9999 FEW030 -2/2 Q1085
FF LFPNYYYX LFPNYYYX EGLLYYYX 010849 METAR LFPG 010849Z 05827KT 9999 FEW030 25/22 Q1053
GG LFPOYYYX LFPGYYYX EGLLYYYX LFPNYYYX 032359 METAR LFPG 032359Z 19922KT 9999 FEW030 30/-4 Q1083
FF EGLLYYYX EDDFYYYX LFPGYYYX EGLLYYYX 130710 METAR LFPG 130710Z 01941KT 9999 FEW030 15/24 Q1013
LL LFPNYYYX LFPOYYYX LFPNYYYX LFPBYYYX 271408 METAR LFPG 271408Z 05738KT 9999 FEW030 -5/12 Q1053
FF LFPOYYYX LFPNYYYX EDDFYYYX LFPGYYYX 251202 METAR LFPG 251202Z 03917KT 9999 FEW030 -9/20 Q1003
FF LFPGYYYX EGLLYYYX 060107 METAR LFPG 060107Z 28016KT 9999 FEW030 0/24 Q1089
LL LFPNYYYX EDDFYYYX 081826 METAR LFPG 081826Z 17242KT 9999 FEW030 6/10 Q1073
KK LFPOYYYX LFPBYYYX EDDFYYYX EGLLYYYX 280751 METAR LFPG 280751Z 21635KT 9999 FEW030 2/8 Q1074
FF EGLLYYYX LFPOYYYX LFPNYYYX LFPBYYYX 111517 METAR LFPG 111517Z 21941KT 9999 FEW030 15/6 Q1071
GG LFPGYYYX LFPOYYYX LFPNYYYX 070944 METAR LFPG 070944Z 34848KT 9999 FEW030 11/-1 Q1089
FF LFPNYYYX LFPBYYYX EGLLYYYX LFPOYYYX 150853 METAR LFPG 150853Z 05225KT 9999 FEW030 2/21 Q1041
DD LFPNYYYX LFPBYYYX 100431 METAR LFPG 100431Z 05547KT 9999 FEW030 34/23 Q1093
DD EGLLYYYX LFPBYYYX 161751 METAR LFPG 161751Z 27122KT 9999 FEW030 9/2 Q1004
LL LFPGYYYX EGLLYYYX 101755 METAR LFPG 101755Z 12442KT 9999 FEW030 35/-9 Q1029
DD LFPGYYYX LFPNYYYX LFPGYYYX EGLLYYYX 200041 METAR LFPG 200041Z 09712KT 9999 FEW030 6/19 Q1000
KK EGLLYYYX EDDFYYYX LFPNYYYX EGLLYYYX 120151 METAR LFPG 120151Z 23232KT 9999 FEW030 26/12 Q1014
DD EDDFYYYX LFPNYYYX 200458 METAR LFPG 200458Z 32811KT 9999 FEW030 18/11 Q1073
LL LFPOYYYX LFPGYYYX LFPNYYYX 071723 METAR LFPG 071723Z 01330KT 9999 FEW030 33/2 Q1093
SS LFPOYYYX LFPNYYYX EDDFYYYX 202140 METAR LFPG 202140Z 29542KT 9999 FEW030 8/14 Q1021
FF EDDFYYYX LFPGYYYX LFPOYYYX 250551 METAR LFPG 250551Z 07541KT 9999 FEW030 3/-1 Q1052
SS EDDFYYYX EDDFYYYX 071323 METAR LFPG 071323Z 09839KT 9999 FEW030 5/14 Q1084
FF LFPNYYYX LFPOYYYX EDDFYYYX 251035 METAR LFPG 251035Z 08513KT 9999 FEW030 21/22 Q1061
LL EGLLYYYX LFPGYYYX LFPNYYYX 171817 METAR LFPG 171817Z 17521KT 9999 FEW030 34/24 Q1032
SS EGLLYYYX LFPOYYYX EDDFYYYX 250440 METAR LFPG 250440Z 14344KT 9999 FEW030 10/24 Q1071
LL LFPGYYYX EGLLYYYX LFPGYYYX LFPOYYYX 231022 METAR LFPG 231022Z 01225KT 9999 FEW030 -9/4 Q1009
KK LFPGYYYX LFPNYYYX 041718 METAR LFPG 041718Z 25945KT 9999 FEW030 -5/14 Q1099
LL LFPNYYYX LFPOYYYX 170519 METAR LFPG 170519Z 00135KT 9999 FEW030 13/25 Q1027
SS LFPGYYYX EGLLYYYX LFPBYYYX 102048 METAR LFPG 102048Z 16813KT 9999 FEW030 11/24 Q1038
DD LFPNYYYX EDDFYYYX EGLLYYYX LFPOYYYX 070757 METAR LFPG 070757Z 21646KT 9999 FEW030 13/-6 Q1054
KK EGLLYYYX EGLLYYYX LFPNYYYX 110811 METAR LFPG 110811Z 10925KT 9999 FEW030 31/25 Q1094
FF LFPNYYYX LFPBYYYX LFPNYYYX LFPGYYYX 081139 METAR LFPG 081139Z 12113KT 9999 FEW030 33/-10 Q1058
FF LFPOYYYX LFPBYYYX 041700 METAR LFPG 041700Z 33539KT 9999 FEW030 11/-6 Q1055
SS LFPNYYYX EDDFYYYX 190544 METAR LFPG 190544Z 08350KT 9999 FEW030 32/15 Q1093
GG LFPOYYYX LFPOYYYX 210250 METAR LFPG 210250Z 24529KT 9999 FEW030 0/19 Q1085
KK EDDFYYYX LFPGYYYX LFPNYYYX EDDFYYYX 190427 METAR LFPG 190427Z 22932KT 9999 FEW030 -3/-8 Q1079
DD LFPNYYYX LFPBYYYX 161432 METAR LFPG 161432Z 17929KT 9999 FEW030 12/9 Q1014
KK EDDFYYYX LFPOYYYX 242140 METAR LFPG 242140Z 16645KT 9999 FEW030 29/16 Q1025
DD LFPOYYYX LFPOYYYX 121251 METAR LFPG 121251Z 24849KT 9999 FEW030 13/7 Q1089
LL LFPNYYYX EDDFYYYX LFPNYYYX LFPOYYYX 262055 METAR LFPG 262055Z 09241KT 9999 FEW030 20/-9 Q1045
KK LFPNYYYX LFPOYYYX 220804 METAR LFPG 220804Z 24534KT 9999 FEW030 33/-2 Q1098
LL EGLLYYYX EDDFYYYX LFPBYYYX LFPNYYYX 150226 METAR LFPG 150226Z 18035KT 9999 FEW030 12/20 Q1092
SS LFPOYYYX EGLLYYYX LFPNYYYX 070406 METAR LFPG 070406Z 30832KT 9999 FEW030 16/12 Q1024
SS LFPOYYYX EGLLYYYX LFPGYYYX LFPBYYYX 261309 METAR LFPG 261309Z 12411KT 9999 FEW030 -10/-1 Q1004
GG EDDFYYYX LFPNYYYX LFPBYYYX 171546 METAR LFPG 171546Z 09834KT 9999 FEW030 22/6 Q1091
LL LFPOYYYX EGLLYYYX EDDFYYYX 100425 METAR LFPG 100425Z 07346KT 9999 FEW030 25/0 Q1096
DD LFPOYYYX EGLLYYYX LFPGYYYX 181556 METAR LFPG 181556Z 27834KT 9999 FEW030 -6/1 Q1047
SS LFPBYYYX EDDFYYYX EGLLYYYX 122229 METAR LFPG 122229Z 17045KT 9999 FEW030 11/3 Q1029
DD EGLLYYYX LFPOYYYX 240242 METAR LFPG 240242Z 10831KT 9999 FEW030 -2/24 Q1035
KK EDDFYYYX LFPNYYYX 202111 METAR LFPG 202111Z 25821KT 9999 FEW030 11/12 Q1097
GG LFPNYYYX LFPGYYYX EGLLYYYX LFPNYYYX 141241 METAR LFPG 141241Z 25130KT 9999 FEW030 10/0 Q1095
GG LFPBYYYX LFPNYYYX 211030 METAR LFPG 211030Z 26728KT 9999 FEW030 14/12 Q1035
DD LFPNYYYX EDDFYYYX LFPOYYYX 151855 METAR LFPG 151855Z 10739KT 9999 FEW030 30/-5 Q1042
GG LFPBYYYX LFPOYYYX 121345 METAR LFPG 121345Z 12310KT 9999 FEW030 16/0 Q1048
FF LFPGYYYX EGLLYYYX LFPBYYYX 090328 METAR LFPG 090328Z 01436KT 9999 FEW030 6/-7 Q1089
FF EGLLYYYX LFPGYYYX EGLLYYYX EDDFYYYX 082035 METAR LFPG 082035Z 04121KT 9999 FEW030 26/-4 Q1023
GG LFPOYYYX LFPGYYYX 031139 METAR LFPG 031139Z 31617KT 9999 FEW030 -7/-4 Q1076
LL LFPGYYYX EDDFYYYX LFPGYYYX LFPOYYYX 141439 METAR LFPG 141439Z 22048KT 9999 FEW030 3/0 Q1059
DD LFPBYYYX EDDFYYYX LFPOYYYX 090622 METAR LFPG 090622Z 25740KT 9999 FEW030 27/23 Q1060
FF LFPGYYYX LFPGYYYX 041538 METAR LFPG 041538Z 31527KT 9999 FEW030 7/6 Q1018
DD LFPBYYYX EGLLYYYX 110934 METAR LFPG 110934Z 31527KT 9999 FEW030 -4/-9 Q1085
GG LFPNYYYX LFPOYYYX LFPNYYYX 241202 METAR LFPG 241202Z 21915KT 9999 FEW030 -2/7 Q1000
KK EGLLYYYX LFPOYYYX LFPNYYYX 282250 METAR LFPG 282250Z 34327KT 9999 FEW030 1/-6 Q1070
GG LFPGYYYX EGLLYYYX 112019 METAR LFPG 112019Z 02645KT 9999 FEW030 23/-4 Q1068
DD EDDFYYYX EDDFYYYX EGLLYYYX 191111 METAR LFPG 191111Z 02043KT 9999 FEW030 17/19 Q1088
KK LFPGYYYX LFPBYYYX LFPOYYYX 061106 METAR LFPG 061106Z 14311KT 9999 FEW030 29/-5 Q1011
DD LFPBYYYX EGLLYYYX LFPGYYYX EDDFYYYX 212158 METAR LFPG 212158Z 12519KT 9999 FEW030 9/-3 Q1048
DD LFPBYYYX LFPNYYYX EGLLYYYX 040551 METAR LFPG 040551Z 30321KT 9999 FEW030 -2/8 Q1032
GG LFPGYYYX LFPBYYYX EDDFYYYX LFPGYYYX 161426 METAR LFPG 161426Z 34226KT 9999 FEW030 -1/21 Q1094
FF EGLLYYYX EGLLYYYX 091159 METAR LFPG 091159Z 17229KT 9999 FEW030 -6/20 Q1080
DD EDDFYYYX LFPBYYYX LFPNYYYX 111920 METAR LFPG 111920Z 13111KT 9999 FEW030 4/0 Q1010
GG LFPNYYYX LFPNYYYX EDDFYYYX 182056 METAR LFPG 182056Z 19748KT 9999 FEW030 12/21 Q1061
GG EGLLYYYX EGLLYYYX LFPBYYYX LFPOYYYX 030821 METAR LFPG 030821Z 21846KT 9999 FEW030 13/17 Q1005
FF LFPNYYYX EGLLYYYX LFPNYYYX EDDFYYYX 032249 METAR LFPG 032249Z 26733KT 9999 FEW030 13/17 Q1097
LL LFPOYYYX LFPBYYYX LFPOYYYX LFPNYYYX 030725 METAR LFPG 030725Z 28340KT 9999 FEW030 33/11 Q1045
KK LFPGYYYX LFPGYYYX EGLLYYYX LFPOYYYX 210726 METAR LFPG 210726Z 27224KT 9999 FEW030 23/16 Q1049
LL EDDFYYYX LFPGYYYX EDDFYYYX LFPNYYYX 171308 METAR LFPG 171308Z 04316KT 9999 FEW030 -8/15 Q1066
KK LFPBYYYX LFPGYYYX LFPOYYYX EDDFYYYX 241905 METAR LFPG 241905Z 11013KT 9999 FEW030 7/18 Q1022
KK LFPOYYYX LFPBYYYX 011514 METAR LFPG 011514Z 32910KT 9999 FEW030 0/13 Q1036
FF LFPNYYYX EGLLYYYX EDDFYYYX 142005 METAR LFPG 142005Z 30915KT 9999 FEW030 2/8 Q1033
LL LFPNYYYX EDDFYYYX EGLLYYYX 081913 METAR LFPG 081913Z 05136KT 9999 FEW030 33/-3 Q1090
GG LFPBYYYX LFPBYYYX LFPGYYYX 050504 METAR LFPG 050504Z 30516KT 9999 FEW030 18/1 Q1066
LL LFPOYYYX LFPNYYYX EDDFYYYX LFPOYYYX 111407 METAR LFPG 111407Z 16416KT 9999 FEW030 16/2 Q1074
LL LFPNYYYX LFPOYYYX 192205 METAR LFPG 192205Z 15525KT 9999 FEW030 22/16 Q1041
GG LFPGYYYX EDDFYYYX LFPOYYYX 222045 METAR LFPG 222045Z 01533KT 9999 FEW030 4/17 Q1079
LL LFPOYYYX LFPNYYYX 110509 METAR LFPG 110509Z 09919KT 9999 FEW030 9/10 Q1077
SS EGLLYYYX LFPOYYYX EGLLYYYX 280342 METAR LFPG 280342Z 13129KT 9999 FEW030 20/-4 Q1029
GG LFPNYYYX LFPNYYYX 160517 METAR LFPG 160517Z 29320KT 9999 FEW030 27/-2 Q1097
FF LFPOYYYX LFPGYYYX EDDFYYYX 202200 METAR LFPG 202200Z 02532KT 9999 FEW030 -1/-4 Q1011
SS EDDFYYYX LFPGYYYX EDDFYYYX 061846 METAR LFPG 061846Z 05538KT 9999 FEW030 -9/9 Q1028
KK EGLLYYYX LFPOYYYX EGLLYYYX LFPBYYYX 140458 METAR LFPG 140458Z 23922KT 9999 FEW030 26/-4 Q1046
DD LFPBYYYX LFPNYYYX LFPBYYYX 091417 METAR LFPG 091417Z 01729KT 9999 FEW030 32/12 Q1010
LL LFPBYYYX LFPGYYYX 071016 METAR LFPG 071016Z 26441KT 9999 FEW030 -8/-3 Q1044
GG EDDFYYYX LFPBYYYX LFPGYYYX 170602 METAR LFPG 170602Z 18116KT 9999 FEW030 -6/-8 Q1037
KK EDDFYYYX LFPGYYYX 171949 METAR LFPG 171949Z 04031KT 9999 FEW030 29/15 Q1065
KK LFPNYYYX EDDFYYYX LFPBYYYX 210230 METAR LFPG 210230Z 27149KT 9999 FEW030 28/9 Q1007
FF EDDFYYYX EDDFYYYX 281832 METAR LFPG 281832Z 03238KT 9999 FEW030 -10/-2 Q1020
SS LFPOYYYX EDDFYYYX LFPNYYYX LFPGYYYX 172136 METAR LFPG 172136Z 09028KT 9999 FEW030 22/4 Q1008
KK LFPNYYYX LFPOYYYX EGLLYYYX EDDFYYYX 271600 METAR LFPG 271600Z 32713KT 9999 FEW030 19/25 Q1012
GG LFPGYYYX LFPOYYYX EDDFYYYX 262220 METAR LFPG 262220Z 28834KT 9999 FEW030 23/19 Q1036
LL LFPNYYYX LFPNYYYX EDDFYYYX LFPBYYYX 270051 METAR LFPG 270051Z 15936KT 9999 FEW030 35/21 Q1084
LL LFPNYYYX LFPBYYYX LFPGYYYX 241102 METAR LFPG 241102Z 23949KT 9999 FEW030 20/-9 Q1017
KK LFPNYYYX EDDFYYYX 242026 METAR LFPG 242026Z 25829KT 9999 FEW030 -5/7 Q1071
LL LFPOYYYX LFPNYYYX LFPOYYYX EDDFYYYX 230203 METAR LFPG 230203Z 18620KT 9999 FEW030 26/17 Q1075
DD LFPOYYYX LFPGYYYX LFPOYYYX EDDFYYYX 161614 METAR LFPG 161614Z 15426KT 9999 FEW030 16/5 Q1035
SS EDDFYYYX EDDFYYYX LFPNYYYX 252003 METAR LFPG 252003Z 10515KT 9999 FEW030 -4/-2 Q1062
LL EDDFYYYX LFPNYYYX EGLLYYYX 242245 METAR LFPG 242245Z 24035KT 9999 FEW030 26/18 Q1025
FF LFPOYYYX EGLLYYYX LFPGYYYX 200220 METAR LFPG 200220Z 12746KT 9999 FEW030 11/3 Q1009
LL LFPBYYYX LFPOYYYX EDDFYYYX EGLLYYYX 040528 METAR LFPG 040528Z 26946KT 9999 FEW030 32/25 Q1097
FF LFPBYYYX LFPBYYYX EDDFYYYX 070036 METAR LFPG 070036Z 00321KT 9999 FEW030 -9/-4 Q1020
KK EDDFYYYX EDDFYYYX LFPBYYYX 251833 METAR LFPG 251833Z 15130KT 9999 FEW030 35/25 Q1029
SS LFPGYYYX LFPOYYYX LFPGYYYX LFPNYYYX 011407 METAR LFPG 011407Z 24315KT 9999 FEW030 4/-7 Q1100
SS LFPOYYYX EDDFYYYX LFPOYYYX 091625 METAR LFPG 091625Z 13211KT 9999 FEW030 -9/20 Q1036
LL EGLLYYYX EDDFYYYX 102157 METAR LFPG 102157Z 22650KT 9999 FEW030 35/19 Q1053
LL LFPGYYYX LFPOYYYX LFPGYYYX LFPBYYYX 080010 METAR LFPG 080010Z 29238KT 9999 FEW030 27/12 Q1075
LL LFPBYYYX LFPBYYYX 161818 METAR LFPG 161818Z 09043KT 9999 FEW030 17/10 Q1075
LL EGLLYYYX LFPGYYYX LFPNYYYX EDDFYYYX 201242 METAR LFPG 201242Z 14148KT 9999 FEW030 32/13 Q1093
FF LFPGYYYX EGLLYYYX LFPOYYYX 251742 METAR LFPG 251742Z 27611KT 9999 FEW030 8/1 Q1084
FF LFPOYYYX LFPBYYYX 092200 METAR LFPG 092200Z 18337KT 9999 FEW030 24/18 Q1007
SS EDDFYYYX LFPNYYYX EDDFYYYX LFPOYYYX 121836 METAR LFPG 121836Z 28817KT 9999 FEW030 -4/19 Q1031
SS LFPGYYYX LFPBYYYX EDDFYYYX 200644 METAR LFPG 200644Z 26227KT 9999 FEW030 -2/25 Q1057
DD EGLLYYYX LFPNYYYX LFPGYYYX 211829 METAR LFPG 211829Z 33119KT 9999 FEW030 16/9 Q1082
KK LFPGYYYX LFPNYYYX EGLLYYYX LFPGYYYX 130415 METAR LFPG 130415Z 04836KT 9999 FEW030 -6/8 Q1088
DD LFPBYYYX LFPGYYYX 221905 METAR LFPG 221905Z 18430KT 9999 FEW030 17/3 Q1090
SS LFPOYYYX LFPOYYYX LFPNYYYX 281928 METAR LFPG 281928Z 33730KT 9999 FEW030 14/13 Q1020
DD EGLLYYYX LFPOYYYX LFPNYYYX 041524 METAR LFPG 041524Z 02924KT 9999 FEW030 35/-10 Q1085
LL LFPGYYYX LFPGYYYX LFPNYYYX 012311 METAR LFPG 012311Z 19225KT 9999 FEW030 30/20 Q1092
SS LFPOYYYX EDDFYYYX LFPBYYYX EGLLYYYX 242204 METAR LFPG 242204Z 22036KT 9999 FEW030 24/-7 Q1079
SS EDDFYYYX LFPOYYYX 020242 METAR LFPG 020242Z 20248KT 9999 FEW030 1/-4 Q1004
SS LFPNYYYX LFPGYYYX EDDFYYYX EGLLYYYX 012221 METAR LFPG 012221Z 17628KT 9999 FEW030 1/22 Q1025
SS LFPBYYYX LFPNYYYX EDDFYYYX LFPGYYYX 151119 METAR LFPG 151119Z 05531KT 9999 FEW030 -8/-1 Q1084
LL LFPOYYYX EDDFYYYX LFPNYYYX 261159 METAR LFPG 261159Z 27931KT 9999 FEW030 2/25 Q1008
DD LFPBYYYX LFPGYYYX EGLLYYYX 091633 METAR LFPG 091633Z 25120KT 9999 FEW030 -8/0 Q1022
FF LFPNYYYX LFPGYYYX LFPBYYYX 230611 METAR LFPG 230611Z 29849KT 9999 FEW030 24/25 Q1000
LL EDDFYYYX EGLLYYYX 151830 METAR LFPG 151830Z 07447KT 9999 FEW030 -6/-6 Q1062
LL LFPBYYYX EDDFYYYX LFPOYYYX EGLLYYYX 230625 METAR LFPG 230625Z 07429KT 9999 FEW030 -3/-10 Q1097
KK EDDFYYYX LFPNYYYX EGLLYYYX LFPOYYYX 181011 METAR LFPG 181011Z 14128KT 9999 FEW030 0/8 Q1063
SS LFPNYYYX EDDFYYYX LFPGYYYX 130545 METAR LFPG 130545Z 07234KT 9999 FEW030 6/15 Q1040
SS LFPNYYYX EGLLYYYX 220007 METAR LFPG 220007Z 25926KT 9999 FEW030 8/7 Q1046
SS LFPBYYYX LFPBYYYX 230915 METAR LFPG 230915Z 22949KT 9999 FEW030 30/7 Q1069
KK LFPNYYYX LFPGYYYX EGLLYYYX 040309 METAR LFPG 040309Z 18013KT 9999 FEW030 -9/2 Q1081
LL EGLLYYYX LFPBYYYX EDDFYYYX 201705 METAR LFPG 201705Z 33935KT 9999 FEW030 14/9 Q1043
SS EDDFYYYX EDDFYYYX 131124 METAR LFPG 131124Z 11627KT 9999 FEW030 26/20 Q1075
FF EDDFYYYX LFPOYYYX 051809 METAR LFPG 051809Z 06350KT 9999 FEW030 29/16 Q1083
GG LFPBYYYX EDDFYYYX LFPBYYYX LFPOYYYX 010649 METAR LFPG 010649Z 00746KT 9999 FEW030 11/11 Q1047
LL LFPNYYYX LFPBYYYX EGLLYYYX 261347 METAR LFPG 261347Z 16627KT 9999 FEW030 11/0 Q1097
DD EDDFYYYX LFPOYYYX 071528 METAR LFPG 071528Z 06740KT 9999 FEW030 -7/2 Q1044
DD EDDFYYYX EGLLYYYX LFPNYYYX 081642 METAR LFPG 081642Z 14334KT 9999 FEW030 -9/-8 Q1071
SS LFPBYYYX LFPNYYYX 271629 METAR LFPG 271629Z 09138KT 9999 FEW030 25/8 Q1017
LL LFPBYYYX EGLLYYYX 010113 METAR LFPG 010113Z 02112KT 9999 FEW030 -2/16 Q1071
SS LFPOYYYX LFPOYYYX 160202 METAR LFPG 160202Z 23849KT 9999 FEW030 18/6 Q1093
FF LFPBYYYX EGLLYYYX LFPNYYYX 010026 METAR LFPG 010026Z 10940KT 9999 FEW030 26/23 Q1055
LL EGLLYYYX EDDFYYYX LFPNYYYX LFPGYYYX 221439 METAR LFPG 221439Z 19747KT 9999 FEW030 -10/-2 Q1054
SS EDDFYYYX LFPNYYYX EGLLYYYX EDDFYYYX 081205 METAR LFPG 081205Z 00711KT 9999 FEW030 -6/0 Q1065
SS LFPNYYYX EGLLYYYX EDDFYYYX LFPBYYYX 040753 METAR LFPG 040753Z 29920KT 9999 FEW030 20/-1 Q1064
SS LFPNYYYX LFPOYYYX LFPGYYYX EGLLYYYX 041020 METAR LFPG 041020Z 24043KT 9999 FEW030 31/23 Q1034
SS EDDFYYYX EGLLYYYX 171552 METAR LFPG 171552Z 25941KT 9999 FEW030 -4/-7 Q1057
FF LFPGYYYX LFPOYYYX 230916 METAR LFPG 230916Z 07025KT 9999 FEW030 21/-2 Q1022
SS LFPOYYYX EGLLYYYX LFPBYYYX LFPOYYYX 161501 METAR LFPG 161501Z 16140KT 9999 FEW030 5/25 Q1086
SS EDDFYYYX LFPGYYYX 121301 METAR LFPG 121301Z 22513KT 9999 FEW030 26/17 Q1061
GG LFPGYYYX LFPBYYYX EGLLYYYX EDDFYYYX 161853 METAR LFPG 161853Z 03149KT 9999 FEW030 10/16 Q1100
GG LFPNYYYX LFPNYYYX LFPGYYYX LFPBYYYX 130426 METAR LFPG 130426Z 06122KT 9999 FEW030 -1/9 Q1052
KK EDDFYYYX LFPGYYYX EGLLYYYX EDDFYYYX 071246 METAR LFPG 071246Z 02212KT 9999 FEW030 29/25 Q1088
DD LFPBYYYX EGLLYYYX 111818 METAR LFPG 111818Z 21743KT 9999 FEW030 -10/9 Q1056
LL EGLLYYYX LFPOYYYX LFPBYYYX LFPGYYYX 041906 METAR LFPG 041906Z 22115KT 9999 FEW030 5/18 Q1052
KK LFPBYYYX LFPOYYYX 050224 METAR LFPG 050224Z 01515KT 9999 FEW030 11/-1 Q1013
DD LFPNYYYX LFPBYYYX LFPGYYYX LFPOYYYX 180801 METAR LFPG 180801Z 25940KT 9999 FEW030 35/22 Q1011
LL LFPGYYYX EGLLYYYX 241639 METAR LFPG 241639Z 06333KT 9999 FEW030 30/7 Q1006
SS LFPBYYYX EDDFYYYX 220441 METAR LFPG 220441Z 01311KT 9999 FEW030 30/13 Q1090
FF LFPNYYYX LFPOYYYX EGLLYYYX 120940 METAR LFPG 120940Z 05020KT 9999 FEW030 -6/15 Q1022
SS LFPNYYYX LFPNYYYX EGLLYYYX 231821 METAR LFPG 231821Z 16250KT 9999 FEW030 20/9 Q1098
KK LFPGYYYX LFPNYYYX EGLLYYYX LFPBYYYX 240851 METAR LFPG 240851Z 29638KT 9999 FEW030 18/15 Q1047
LL LFPGYYYX LFPNYYYX LFPOYYYX 090039 METAR LFPG 090039Z 22129KT 9999 FEW030 -5/21 Q1006
GG LFPNYYYX LFPBYYYX EGLLYYYX 121629 METAR LFPG 121629Z 23036KT 9999 FEW030 -5/0 Q1007
FF LFPNYYYX EDDFYYYX EGLLYYYX 021732 METAR LFPG 021732Z 16825KT 9999 FEW030 6/25 Q1028
DD LFPGYYYX LFPBYYYX 220728 METAR LFPG 220728Z 03724KT 9999 FEW030 -9/17 Q1021
SS EGLLYYYX LFPGYYYX 051739 METAR LFPG 051739Z 10625KT 9999 FEW030 16/1 Q1087
SS EDDFYYYX EGLLYYYX 131346 METAR LFPG 131346Z 30514KT 9999 FEW030 -4/-7 Q1028
GG LFPBYYYX LFPBYYYX LFPOYYYX 141504 METAR LFPG 141504Z 12925KT 9999 FEW030 -9/-2 Q1048
SS LFPGYYYX LFPGYYYX LFPBYYYX LFPOYYYX 091124 METAR LFPG 091124Z 12347KT 9999 FEW030 22/6 Q1077
LL LFPGYYYX LFPGYYYX EGLLYYYX 121727 METAR LFPG 121727Z 17817KT 9999 FEW030 18/25 Q1069
SS LFPBYYYX LFPBYYYX EDDFYYYX 260153 METAR LFPG 260153Z 08134KT 9999 FEW030 -8/10 Q1040
FF LFPGYYYX LFPGYYYX LFPNYYYX LFPBYYYX 151215 METAR LFPG 151215Z 30217KT 9999 FEW030 -3/7 Q1052
GG EGLLYYYX LFPGYYYX LFPNYYYX 130531 METAR LFPG 130531Z 28124KT 9999 FEW030 31/24 Q1061
LL LFPNYYYX EGLLYYYX LFPBYYYX 040333 METAR LFPG 040333Z 26327KT 9999 FEW030 0/8 Q1077
FF LFPNYYYX LFPGYYYX LFPOYYYX EGLLYYYX 280816 METAR LFPG 280816Z 35350KT 9999 FEW030 33/-5 Q1036
GG LFPOYYYX EDDFYYYX EGLLYYYX LFPNYYYX 060415 METAR LFPG 060415Z 06910KT 9999 FEW030 28/10 Q1067
FF EDDFYYYX LFPGYYYX LFPBYYYX 100622 METAR LFPG 100622Z 09512KT 9999 FEW030 16/13 Q1030
DD LFPBYYYX EDDFYYYX LFPOYYYX 151801 METAR LFPG 151801Z 17716KT 9999 FEW030 15/18 Q1036
SS EDDFYYYX LFPBYYYX EDDFYYYX LFPGYYYX 151141 METAR LFPG 151141Z 14137KT 9999 FEW030 19/23 Q1094
GG EDDFYYYX LFPBYYYX 252150 METAR LFPG 252150Z 14725KT 9999 FEW030 32/8 Q1015
GG LFPOYYYX EDDFYYYX LFPNYYYX LFPBYYYX 221243 METAR LFPG 221243Z 33750KT 9999 FEW030 22/-3 Q1051
KK EGLLYYYX LFPBYYYX EGLLYYYX 212145 METAR LFPG 212145Z 19045KT 9999 FEW030 31/21 Q1053
LL EDDFYYYX LFPGYYYX LFPBYYYX 150716 METAR LFPG 150716Z 07132KT 9999 FEW030 30/-6 Q1066
LL LFPNYYYX EDDFYYYX 131443 METAR LFPG 131443Z 35538KT 9999 FEW030 8/7 Q1000
SS EDDFYYYX EDDFYYYX LFPGYYYX 150622 METAR LFPG 150622Z 28339KT 9999 FEW030 11/7 Q1051
GG LFPOYYYX LFPGYYYX 131948 METAR LFPG 131948Z 30043KT 9999 FEW030 33/11 Q1016
SS LFPNYYYX EDDFYYYX EGLLYYYX 091523 METAR LFPG 091523Z 23135KT 9999 FEW030 -1/17 Q1020
LL LFPNYYYX LFPBYYYX LFPGYYYX LFPOYYYX 072114 METAR LFPG 072114Z 09138KT 9999 FEW030 18/-4 Q1069
SS EDDFYYYX LFPNYYYX 100030 METAR LFPG 100030Z 19423KT 9999 FEW030 4/15 Q1069
FF EDDFYYYX EGLLYYYX LFPOYYYX 040008 METAR LFPG 040008Z 18921KT 9999 FEW030 1/24 Q1044
GG LFPGYYYX LFPNYYYX 031546 METAR LFPG 031546Z 15121KT 9999 FEW030 -8/2 Q1055
GG LFPNYYYX EDDFYYYX EGLLYYYX LFPNYYYX 091720 METAR LFPG 091720Z 27234KT 9999 FEW030 25/4 Q1021
GG EGLLYYYX LFPBYYYX 260050 METAR LFPG 260050Z 34744KT 9999 FEW030 35/21 Q1038
LL LFPOYYYX LFPNYYYX LFPOYYYX LFPBYYYX 120107 METAR LFPG 120107Z 11327KT 9999 FEW030 7/-1 Q1029
FF LFPNYYYX LFPOYYYX 181716 METAR LFPG 181716Z 30834KT 9999 FEW030 23/21 Q1025
FF LFPBYYYX LFPGYYYX LFPBYYYX 110718 METAR LFPG 110718Z 12524KT 9999 FEW030 -5/15 Q1025
FF LFPGYYYX LFPOYYYX EGLLYYYX 220438 METAR LFPG 220438Z 24213KT 9999 FEW030 15/19 Q1015
FF EDDFYYYX LFPBYYYX LFPGYYYX LFPOYYYX 172113 METAR LFPG 172113Z 17219KT 9999 FEW030 -8/10 Q1045
FF LFPNYYYX LFPNYYYX EGLLYYYX 240552 METAR LFPG 240552Z 30111KT 9999 FEW030 28/10 Q1002
SS EGLLYYYX EDDFYYYX LFPGYYYX 251455 METAR LFPG 251455Z 17917KT 9999 FEW030 32/-10 Q1089
KK EDDFYYYX LFPNYYYX LFPBYYYX EDDFYYYX 200631 METAR LFPG 200631Z 28623KT 9999 FEW030 13/6 Q1073
KK EDDFYYYX EDDFYYYX LFPNYYYX LFPGYYYX 260358 METAR LFPG 260358Z 17024KT 9999 FEW030 27/-9 Q1008
SS LFPBYYYX LFPNYYYX 082319 METAR LFPG 082319Z 15937KT 9999 FEW030 22/-10 Q1074
LL LFPNYYYX LFPNYYYX EGLLYYYX LFPGYYYX 282005 METAR LFPG 282005Z 31347KT 9999 FEW030 -8/11 Q1062
SS EDDFYYYX LFPNYYYX EGLLYYYX 171152 METAR LFPG 171152Z 12316KT 9999 FEW030 31/10 Q1039
FF LFPOYYYX LFPBYYYX EDDFYYYX 131058 METAR LFPG 131058Z 13836KT 9999 FEW030 24/-7 Q1081
KK LFPBYYYX LFPOYYYX LFPBYYYX LFPNYYYX 241451 METAR LFPG 241451Z 31249KT 9999 FEW030 9/11 Q1018
DD LFPBYYYX EGLLYYYX LFPGYYYX LFPBYYYX 080609 METAR LFPG 080609Z 25816KT 9999 FEW030 19/18 Q1085
GG EGLLYYYX LFPNYYYX EDDFYYYX EGLLYYYX 010421 METAR LFPG 010421Z 26448KT 9999 FEW030 25/-4 Q1010
GG LFPNYYYX EGLLYYYX LFPGYYYX EDDFYYYX 082326 METAR LFPG 082326Z 35719KT 9999 FEW030 -4/-2 Q1047
SS EDDFYYYX LFPBYYYX 061355 METAR LFPG 061355Z 30950KT 9999 FEW030 32/-7 Q1005
FF LFPBYYYX LFPGYYYX LFPBYYYX 172028 METAR LFPG 172028Z 20342KT 9999 FEW030 17/5 Q1054
GG LFPOYYYX LFPNYYYX 012111 METAR LFPG 012111Z 34714KT 9999 FEW030 7/7 Q1016
LL LFPOYYYX LFPOYYYX 140141 METAR LFPG 140141Z 35026KT 9999 FEW030 14/2 Q1097
FF EGLLYYYX EGLLYYYX LFPOYYYX 082223 METAR LFPG 082223Z 27835KT 9999 FEW030 3/25 Q1029
FF LFPGYYYX EDDFYYYX EGLLYYYX 191721 METAR LFPG 191721Z 32915KT 9999 FEW030 13/-9 Q1093
FF LFPBYYYX LFPNYYYX LFPBYYYX 251642 METAR LFPG 251642Z 14450KT 9999 FEW030 23/21 Q1078
LL LFPOYYYX LFPOYYYX 070101 METAR LFPG 070101Z 03812KT 9999 FEW030 4/-7 Q1058
GG LFPOYYYX LFPGYYYX LFPNYYYX 080802 METAR LFPG 080802Z 04718KT 9999 FEW030 14/1 Q1056
GG EGLLYYYX LFPNYYYX LFPOYYYX LFPGYYYX 150631 METAR LFPG 150631Z 29438KT 9999 FEW030 10/20 Q1052
FF LFPOYYYX EDDFYYYX LFPBYYYX LFPOYYYX 091549 METAR LFPG 091549Z 01744KT 9999 FEW030 -5/11 Q1050
LL EGLLYYYX LFPOYYYX 130829 METAR LFPG 130829Z 34113KT 9999 FEW030 33/17 Q1053
DD LFPOYYYX EGLLYYYX EDDFYYYX LFPBYYYX 222221 METAR LFPG 222221Z 32149KT 9999 FEW030 7/-9 Q1031
DD EDDFYYYX LFPGYYYX LFPOYYYX EDDFYYYX 022120 METAR LFPG 022120Z 25940KT 9999 FEW030 -8/9 Q1098
GG EGLLYYYX EGLLYYYX 160052 METAR LFPG 160052Z 07932KT 9999 FEW030 8/15 Q1097
GG EDDFYYYX EGLLYYYX 240112 METAR LFPG 240112Z 28049KT 9999 FEW030 31/10 Q1089
KK EGLLYYYX LFPGYYYX 031031 METAR LFPG 031031Z 21624KT 9999 FEW030 9/22 Q1080
FF EDDFYYYX LFPBYYYX EGLLYYYX LFPOYYYX 030430 METAR LFPG 030430Z 14533KT 9999 FEW030 22/0 Q1019
GG LFPGYYYX LFPBYYYX LFPOYYYX 231905 METAR LFPG 231905Z 10215KT 9999 FEW030 29/-1 Q1063
FF LFPGYYYX LFPGYYYX EGLLYYYX 250622 METAR LFPG 250622Z 23514KT 9999 FEW030 34/-4 Q1085
DD LFPGYYYX EGLLYYYX 080427 METAR LFPG 080427Z 02615KT 9999 FEW030 2/-10 Q1029
LL LFPOYYYX EGLLYYYX 010641 METAR LFPG 010641Z 30231KT 9999 FEW030 8/4 Q1016
LL LFPOYYYX LFPGYYYX LFPOYYYX 051049 METAR LFPG 051049Z 04620KT 9999 FEW030 17/-10 Q1084
LL LFPOYYYX LFPGYYYX LFPNYYYX 241347 METAR LFPG 241347Z 07344KT 9999 FEW030 4/8 Q1015
FF EGLLYYYX EDDFYYYX 142219 METAR LFPG 142219Z 20619KT 9999 FEW030 21/4 Q1074
SS EDDFYYYX LFPBYYYX LFPOYYYX EGLLYYYX 060021 METAR LFPG 060021Z 08740KT 9999 FEW030 23/23 Q1017
LL LFPOYYYX EGLLYYYX 160608 METAR LFPG 160608Z 22329KT 9999 FEW030 3/18 Q1034
DD LFPNYYYX EDDFYYYX 161604 METAR LFPG 161604Z 18421KT 9999 FEW030 34/12 Q1014
DD LFPNYYYX LFPGYYYX LFPNYYYX 011338 METAR LFPG 011338Z 25217KT 9999 FEW030 -3/-2 Q1063
DD LFPOYYYX LFPGYYYX LFPBYYYX 251028 METAR LFPG 251028Z 20232KT 9999 FEW030 16/3 Q1083
DD LFPBYYYX EGLLYYYX LFPGYYYX LFPOYYYX 250054 METAR LFPG 250054Z 18028KT 9999 FEW030 -9/-5 Q1063
DD EDDFYYYX LFPOYYYX EDDFYYYX 281703 METAR LFPG 281703Z 20315KT 9999 FEW030 1/12 Q1033
FF LFPGYYYX LFPBYYYX LFPOYYYX EGLLYYYX 101902 METAR LFPG 101902Z 11814KT 9999 FEW030 -4/12 Q1076
SS EDDFYYYX LFPNYYYX 200735 METAR LFPG 200735Z 33137KT 9999 FEW030 6/23 Q1038
DD EGLLYYYX LFPOYYYX LFPBYYYX 122246 METAR LFPG 122246Z 14230KT 9999 FEW030 -8/-8 Q1000
SS LFPBYYYX EDDFYYYX LFPOYYYX 170946 METAR LFPG 170946Z 22332KT 9999 FEW030 6/22 Q1017
SS EGLLYYYX EDDFYYYX EGLLYYYX LFPBYYYX 071948 METAR LFPG 071948Z 02243KT 9999 FEW030 21/2 Q1061
GG EGLLYYYX LFPBYYYX LFPOYYYX 050615 METAR LFPG 050615Z 25431KT 9999 FEW030 32/-5 Q1052
LL LFPBYYYX LFPNYYYX 020414 METAR LFPG 020414Z 12838KT 9999 FEW030 26/-5 Q1009
FF LFPNYYYX EDDFYYYX 210015 METAR LFPG 210015Z 23138KT 9999 FEW030 11/19 Q1052
SS LFPOYYYX EDDFYYYX LFPGYYYX 240356 METAR LFPG 240356Z 32048KT 9999 FEW030 -9/14 Q1062
DD LFPNYYYX LFPGYYYX EGLLYYYX 200952 METAR LFPG 200952Z 12537KT 9999 FEW030 35/-3 Q1050
LL LFPOYYYX LFPOYYYX EDDFYYYX 240801 METAR LFPG 240801Z 04941KT 9999 FEW030 12/22 Q1000
GG LFPNYYYX LFPNYYYX 170034 METAR LFPG 170034Z 10730KT 9999 FEW030 33/22 Q1012
KK LFPOYYYX LFPOYYYX EGLLYYYX EDDFYYYX 260424 METAR LFPG 260424Z 28924KT 9999 FEW030 23/-4 Q1066
GG LFPGYYYX EGLLYYYX EDDFYYYX LFPNYYYX 120526 METAR LFPG 120526Z 31740KT 9999 FEW030 7/3 Q1014
SS LFPOYYYX EDDFYYYX EGLLYYYX LFPGYYYX 191333 METAR LFPG 191333Z 27214KT 9999 FEW030 9/19 Q1076
SS EDDFYYYX LFPGYYYX 081540 METAR LFPG 081540Z 08337KT 9999 FEW030 10/-1 Q1018
KK LFPGYYYX EDDFYYYX 131550 METAR LFPG 131550Z 27830KT 9999 FEW030 12/13 Q1036
GG LFPNYYYX LFPNYYYX 022054 METAR LFPG 022054Z 30818KT 9999 FEW030 29/2 Q1068
GG LFPOYYYX LFPNYYYX EGLLYYYX LFPOYYYX 221010 METAR LFPG 221010Z 07917KT 9999 FEW030 6/11 Q1069
LL LFPOYYYX LFPNYYYX EGLLYYYX 020011 METAR LFPG 020011Z 33917KT 9999 FEW030 29/11 Q1054
KK EGLLYYYX EGLLYYYX 032032 METAR LFPG 032032Z 08912KT 9999 FEW030 24/22 Q1090
SS LFPNYYYX EGLLYYYX 180416 METAR LFPG 180416Z 24524KT 9999 FEW030 16/16 Q1095
FF LFPNYYYX EDDFYYYX LFPBYYYX LFPNYYYX 111355 METAR LFPG 111355Z 11344KT 9999 FEW030 -5/24 Q1040
GG EGLLYYYX LFPBYYYX LFPNYYYX EGLLYYYX 241220 METAR LFPG 241220Z 06641KT 9999 FEW030 0/24 Q1063
FF EGLLYYYX LFPBYYYX LFPGYYYX LFPOYYYX 091859 METAR LFPG 091859Z 29426KT 9999 FEW030 25/15 Q1075
DD EGLLYYYX LFPOYYYX LFPNYYYX EDDFYYYX 110943 METAR LFPG 110943Z 28349KT 9999 FEW030 7/8 Q1096
SS LFPOYYYX LFPOYYYX 120315 METAR LFPG 120315Z 15416KT 9999 FEW030 27/-8 Q1099
KK LFPGYYYX EDDFYYYX 201404 METAR LFPG 201404Z 28310KT 9999 FEW030 -8/-9 Q1091
SS LFPGYYYX LFPOYYYX 071732 METAR LFPG 071732Z 23315KT 9999 FEW030 14/25 Q1076
LL LFPBYYYX LFPNYYYX 242314 METAR LFPG 242314Z 07245KT 9999 FEW030 7/21 Q1096
DD LFPBYYYX EGLLYYYX LFPOYYYX 210248 METAR LFPG 210248Z 21945KT 9999 FEW030 20/8 Q1062
SS LFPBYYYX LFPNYYYX LFPGYYYX 150418 METAR LFPG 150418Z 19224KT 9999 FEW030 15/8 Q1090
GG LFPOYYYX LFPGYYYX 110748 METAR LFPG 110748Z 29547KT 9999 FEW030 -2/-6 Q1052
DD LFPBYYYX EGLLYYYX 241008 METAR LFPG 241008Z 25545KT 9999 FEW030 29/21 Q1072
KK EDDFYYYX LFPBYYYX 120510 METAR LFPG 120510Z 35235KT 9999 FEW030 8/10 Q1040
KK EGLLYYYX LFPBYYYX EDDFYYYX EGLLYYYX 070237 METAR LFPG 070237Z 34232KT 9999 FEW030 33/10 Q1099
DD LFPBYYYX LFPNYYYX EDDFYYYX 281324 METAR LFPG 281324Z 35410KT 9999 FEW030 16/19 Q1066
FF EGLLYYYX LFPNYYYX LFPOYYYX 030115 METAR LFPG 030115Z 08513KT 9999 FEW030 34/8 Q1067
KK LFPBYYYX EGLLYYYX LFPBYYYX 111317 METAR LFPG 111317Z 34029KT 9999 FEW030 -5/13 Q1098
DD LFPGYYYX EGLLYYYX LFPOYYYX LFPBYYYX 031231 METAR LFPG 031231Z 33019KT 9999 FEW030 34/13 Q1097
LL LFPOYYYX EGLLYYYX LFPGYYYX LFPOYYYX 161605 METAR LFPG 161605Z 03250KT 9999 FEW030 34/15 Q1086
GG LFPBYYYX LFPOYYYX LFPNYYYX 210650 METAR LFPG 210650Z 26133KT 9999 FEW030 -8/14 Q1068
LL LFPNYYYX LFPGYYYX EGLLYYYX 281805 METAR LFPG 281805Z 35917KT 9999 FEW030 -1/12 Q1062
KK EDDFYYYX EGLLYYYX LFPNYYYX 200652 METAR LFPG 200652Z 11116KT 9999 FEW030 -10/8 Q1047
SS LFPGYYYX LFPGYYYX 100641 METAR LFPG 100641Z 13743KT 9999 FEW030 30/9 Q1021
DD LFPNYYYX EGLLYYYX 251658 METAR LFPG 251658Z 20228KT 9999 FEW030 8/16 Q1093
GG EGLLYYYX EDDFYYYX LFPNYYYX LFPGYYYX 262329 METAR LFPG 262329Z 06334KT 9999 FEW030 14/-8 Q1033
LL LFPBYYYX EDDFYYYX 070214 METAR LFPG 070214Z 21640KT 9999 FEW030 5/2 Q1072
KK LFPNYYYX LFPBYYYX LFPNYYYX 260330 METAR LFPG 260330Z 28845KT 9999 FEW030 4/6 Q1060
LL LFPOYYYX LFPOYYYX LFPNYYYX 231932 METAR LFPG 231932Z 29134KT 9999 FEW030 13/12 Q1100
SS LFPBYYYX LFPGYYYX EGLLYYYX 131648 METAR LFPG 131648Z 06044KT 9999 FEW030 20/0 Q1040
FF LFPGYYYX EDDFYYYX LFPOYYYX 130822 METAR LFPG 130822Z 00620KT 9999 FEW030 23/9 Q1067
GG EGLLYYYX LFPOYYYX 251804 METAR LFPG 251804Z 01026KT 9999 FEW030 32/19 Q1073
FF LFPNYYYX LFPBYYYX 241107 METAR LFPG 241107Z 06111KT 9999 FEW030 -5/5 Q1062
LL LFPBYYYX LFPNYYYX 092000 METAR LFPG 092000Z 06342KT 9999 FEW030 14/11 Q1045
LL LFPNYYYX EDDFYYYX 061817 METAR LFPG 061817Z 14711KT 9999 FEW030 20/22 Q1054
FF LFPBYYYX LFPBYYYX EDDFYYYX LFPOYYYX 241806 METAR LFPG 241806Z 15324KT 9999 FEW030 24/2 Q1042
SS LFPNYYYX EDDFYYYX LFPNYYYX EGLLYYYX 161440 METAR LFPG 161440Z 32227KT 9999 FEW030 21/25 Q1083
GG LFPOYYYX LFPNYYYX 050259 METAR LFPG 050259Z 32911KT 9999 FEW030 0/10 Q1028
DD EDDFYYYX EDDFYYYX LFPNYYYX LFPBYYYX 020204 METAR LFPG 020204Z 29936KT 9999 FEW030 -10/7 Q1046
LL LFPGYYYX EDDFYYYX LFPOYYYX 030857 METAR LFPG 030857Z 32030KT 9999 FEW030 -2/2 Q1044
GG LFPGYYYX LFPNYYYX EGLLYYYX EDDFYYYX 250135 METAR LFPG 250135Z 07143KT 9999 FEW030 -3/22 Q1049
DD LFPOYYYX LFPBYYYX EGLLYYYX 081350 METAR LFPG 081350Z 30012KT 9999 FEW030 32/12 Q1039
DD LFPOYYYX LFPGYYYX LFPBYYYX 080641 METAR LFPG 080641Z 35520KT 9999 FEW030 -7/9 Q1009
DD LFPOYYYX EGLLYYYX LFPBYYYX 191335 METAR LFPG 191335Z 22849KT 9999 FEW030 14/5 Q1095
SS LFPOYYYX LFPOYYYX EGLLYYYX LFPNYYYX 180344 METAR LFPG 180344Z 31435KT 9999 FEW030 15/15 Q1075
GG EDDFYYYX LFPNYYYX EGLLYYYX 281929 METAR LFPG 281929Z 24534KT 9999 FEW030 5/17 Q1027
LL LFPBYYYX LFPNYYYX 010418 METAR LFPG 010418Z 31539KT 9999 FEW030 -3/11 Q1100
DD LFPGYYYX EGLLYYYX 170318 METAR LFPG 170318Z 23143KT 9999 FEW030 8/24 Q1030
DD LFPOYYYX LFPNYYYX 072306 METAR LFPG 072306Z 08318KT 9999 FEW030 -8/-9 Q1071
DD EGLLYYYX LFPGYYYX LFPBYYYX 121434 METAR LFPG 121434Z 35849KT 9999 FEW030 -4/23 Q1070
GG EDDFYYYX EGLLYYYX LFPNYYYX 011535 METAR LFPG 011535Z 24020KT 9999 FEW030 32/-8 Q1039
SS EGLLYYYX LFPGYYYX 200956 METAR LFPG 200956Z 35418KT 9999 FEW030 14/17 Q1100
SS LFPOYYYX LFPOYYYX EGLLYYYX 120501 METAR LFPG 120501Z 05244KT 9999 FEW030 19/24 Q1008
GG LFPBYYYX EDDFYYYX LFPGYYYX 051221 METAR LFPG 051221Z 08827KT 9999 FEW030 6/13 Q1053
FF LFPOYYYX LFPOYYYX 010821 METAR LFPG 010821Z 21043KT 9999 FEW030 12/5 Q1042
KK EGLLYYYX EDDFYYYX EGLLYYYX 141357 METAR LFPG 141357Z 02639KT 9999 FEW030 13/12 Q1083
KK LFPGYYYX LFPBYYYX LFPOYYYX LFPGYYYX 162310 METAR LFPG 162310Z 33838KT 9999 FEW030 31/17 Q1008
FF LFPNYYYX EGLLYYYX LFPNYYYX 252325 METAR LFPG 252325Z 07139KT 9999 FEW030 18/-10 Q1024
FF LFPBYYYX LFPNYYYX 042145 METAR LFPG 042145Z 35550KT 9999 FEW030 18/20 Q1005
KK LFPGYYYX LFPBYYYX EGLLYYYX LFPOYYYX 161540 METAR LFPG 161540Z 26017KT 9999 FEW030 26/-8 Q1005
KK LFPBYYYX LFPNYYYX LFPBYYYX LFPOYYYX 091711 METAR LFPG 091711Z 26237KT 9999 FEW030 13/4 Q1027
SS LFPOYYYX LFPNYYYX 191227 METAR LFPG 191227Z 34519KT 9999 FEW030 32/7 Q1031
KK EDDFYYYX EDDFYYYX 201734 METAR LFPG 201734Z 15746KT 9999 FEW030 1/18 Q1095
GG LFPNYYYX LFPBYYYX LFPOYYYX 052202 METAR LFPG 052202Z 04236KT 9999 FEW030 6/-5 Q1076
FF LFPBYYYX EGLLYYYX 090448 METAR LFPG 090448Z 02941KT 9999 FEW030 19/12 Q1096
LL EDDFYYYX LFPGYYYX LFPBYYYX 041025 METAR LFPG 041025Z 15415KT 9999 FEW030 28/18 Q1035
SS EGLLYYYX LFPGYYYX LFPNYYYX 121253 METAR LFPG 121253Z 30528KT 9999 FEW030 8/2 Q1063
LL LFPNYYYX LFPBYYYX 222035 METAR LFPG 222035Z 00917KT 9999 FEW030 -10/7 Q1082
FF LFPGYYYX LFPOYYYX EDDFYYYX LFPGYYYX 200106 METAR LFPG 200106Z 09734KT 9999 FEW030 24/-1 Q1048
DD EGLLYYYX LFPBYYYX LFPGYYYX 271400 METAR LFPG 271400Z 20112KT 9999 FEW030 7/2 Q1011
LL LFPBYYYX LFPOYYYX 200601 METAR LFPG 200601Z 00116KT 9999 FEW030 34/25 Q1067
GG LFPBYYYX EDDFYYYX LFPGYYYX LFPBYYYX 251849 METAR LFPG 251849Z 14312KT 9999 FEW030 11/24 Q1090
SS LFPBYYYX LFPBYYYX 010555 METAR LFPG 010555Z 07323KT 9999 FEW030 7/8 Q1007
GG EGLLYYYX EGLLYYYX LFPGYYYX LFPOYYYX 120203 METAR LFPG 120203Z 28442KT 9999 FEW030 26/-1 Q1024
LL EGLLYYYX LFPOYYYX LFPGYYYX LFPBYYYX 131810 METAR LFPG 131810Z 09942KT 9999 FEW030 19/9 Q1073
FF EDDFYYYX EGLLYYYX EDDFYYYX 141933 METAR LFPG 141933Z 28531KT 9999 FEW030 34/4 Q1084
FF EDDFYYYX EGLLYYYX 081757 METAR LFPG 081757Z 16726KT 9999 FEW030 6/-5 Q1064
DD LFPGYYYX LFPGYYYX 131839 METAR LFPG 131839Z 03528KT 9999 FEW030 -10/-6 Q1097
LL LFPBYYYX LFPGYYYX 160359 METAR LFPG 160359Z 26846KT 9999 FEW030 34/3 Q1049
SS LFPBYYYX EDDFYYYX LFPGYYYX LFPNYYYX 041523 METAR LFPG 041523Z 22920KT 9999 FEW030 28/15 Q1039
DD LFPGYYYX EDDFYYYX 091837 METAR LFPG 091837Z 28641KT 9999 FEW030 0/6 Q1051
GG EGLLYYYX EDDFYYYX 182320 METAR LFPG 182320Z 02532KT 9999 FEW030 33/25 Q1005
SS EDDFYYYX EGLLYYYX LFPOYYYX LFPGYYYX 080814 METAR LFPG 080814Z 35034KT 9999 FEW030 4/19 Q1072
LL LFPNYYYX LFPOYYYX LFPBYYYX EDDFYYYX 142113 METAR LFPG 142113Z 10545KT 9999 FEW030 32/24 Q1052
SS EGLLYYYX LFPOYYYX EDDFYYYX LFPNYYYX 250935 METAR LFPG 250935Z 14737KT 9999 FEW030 32/-1 Q1045
SS LFPNYYYX EGLLYYYX LFPGYYYX 241335 METAR LFPG 241335Z 29528KT 9999 FEW030 0/23 Q1100
GG LFPNYYYX EDDFYYYX LFPGYYYX LFPOYYYX 270954 METAR LFPG 270954Z 29331KT 9999 FEW030 -2/20 Q1084
KK LFPOYYYX LFPOYYYX LFPNYYYX 140714 METAR LFPG 140714Z 05937KT 9999 FEW030 19/24 Q1024
SS LFPGYYYX EGLLYYYX LFPGYYYX 012353 METAR LFPG 012353Z 15348KT 9999 FEW030 18/20 Q1015
SS EGLLYYYX EDDFYYYX 051418 METAR LFPG 051418Z 06914KT 9999 FEW030 16/-5 Q1011
KK EDDFYYYX EDDFYYYX 020326 METAR LFPG 020326Z 27228KT 9999 FEW030 35/17 Q1055
DD LFPNYYYX LFPNYYYX LFPOYYYX LFPBYYYX 272114 METAR LFPG 272114Z 10830KT 9999 FEW030 27/18 Q1020
LL EDDFYYYX LFPGYYYX 132024 METAR LFPG 132024Z 11342KT 9999 FEW030 -2/-4 Q1013
FF LFPGYYYX EDDFYYYX LFPBYYYX 241827 METAR LFPG 241827Z 08510KT 9999 FEW030 17/12 Q1085
SS EGLLYYYX EDDFYYYX EGLLYYYX LFPNYYYX 061700 METAR LFPG 061700Z 18411KT 9999 FEW030 16/1 Q1010
SS EDDFYYYX LFPBYYYX EGLLYYYX 042128 METAR LFPG 042128Z 05615KT 9999 FEW030 10/16 Q1006
LL LFPNYYYX LFPOYYYX EGLLYYYX EDDFYYYX 110045 METAR LFPG 110045Z 35535KT 9999 FEW030 9/19 Q1063
SS EGLLYYYX LFPOYYYX EDDFYYYX 270701 METAR LFPG 270701Z 25027KT 9999 FEW030 7/-2 Q1062
KK LFPNYYYX LFPGYYYX LFPBYYYX LFPOYYYX 191657 METAR LFPG 191657Z 28841KT 9999 FEW030 1/-3 Q1061
FF EGLLYYYX EDDFYYYX LFPBYYYX 241429 METAR LFPG 241429Z 17936KT 9999 FEW030 13/24 Q1011
LL LFPGYYYX LFPGYYYX LFPBYYYX 021011 METAR LFPG 021011Z 30614KT 9999 FEW030 -9/12 Q1097
GG LFPNYYYX LFPNYYYX EGLLYYYX EDDFYYYX 180959 METAR LFPG 180959Z 33239KT 9999 FEW030 -10/24 Q1062
LL LFPBYYYX EDDFYYYX LFPNYYYX EGLLYYYX 012042 METAR LFPG 012042Z 24123KT 9999 FEW030 33/-7 Q1091
LL LFPNYYYX LFPGYYYX 192232 METAR LFPG 192232Z 27922KT 9999 FEW030 -8/16 Q1072
FF LFPNYYYX EDDFYYYX LFPBYYYX EGLLYYYX 061520 METAR LFPG 061520Z 17224KT 9999 FEW030 -6/-2 Q1029
GG LFPGYYYX LFPBYYYX EDDFYYYX LFPOYYYX 101016 METAR LFPG 101016Z 19629KT 9999 FEW030 33/2 Q1006
GG EGLLYYYX EDDFYYYX LFPBYYYX 032203 METAR LFPG 032203Z 02335KT 9999 FEW030 17/0 Q1018
FF LFPOYYYX EGLLYYYX LFPGYYYX 010042 METAR LFPG 010042Z 32226KT 9999 FEW030 17/19 Q1086
LL LFPOYYYX LFPNYYYX 171909 METAR LFPG 171909Z 27811KT 9999 FEW030 6/22 Q1062
SS LFPBYYYX LFPNYYYX LFPGYYYX EGLLYYYX 200856 METAR LFPG 200856Z 28739KT 9999 FEW030 22/22 Q1052
GG LFPNYYYX LFPOYYYX EGLLYYYX 240510 METAR LFPG 240510Z 05137KT 9999 FEW030 5/16 Q1073
DD LFPOYYYX LFPOYYYX 020845 METAR LFPG 020845Z 34429KT 9999 FEW030 -10/-6 Q1070
KK LFPOYYYX EGLLYYYX 090057 METAR LFPG 090057Z 28145KT 9999 FEW030 -2/-7 Q1081
SS LFPBYYYX LFPGYYYX LFPNYYYX 270927 METAR LFPG 270927Z 07326KT 9999 FEW030 12/20 Q1055
FF LFPOYYYX LFPBYYYX LFPOYYYX LFPNYYYX 260030 METAR LFPG 260030Z 33341KT 9999 FEW030 -3/-7 Q1099
DD EDDFYYYX LFPOYYYX LFPNYYYX EGLLYYYX 021151 METAR LFPG 021151Z 18145KT 9999 FEW030 19/11 Q1000
FF LFPBYYYX LFPOYYYX LFPNYYYX EDDFYYYX 030039 METAR LFPG 030039Z 22516KT 9999 FEW030 -3/20 Q1022
KK EDDFYYYX EDDFYYYX LFPBYYYX LFPGYYYX 121537 METAR LFPG 121537Z 01929KT 9999 FEW030 -5/21 Q1087
FF EGLLYYYX LFPNYYYX EDDFYYYX 031224 METAR LFPG 031224Z 04632KT 9999 FEW030 23/3 Q1084
FF LFPBYYYX LFPGYYYX 050033 METAR LFPG 050033Z 24211KT 9999 FEW030 28/1 Q1019
DD EDDFYYYX EDDFYYYX LFPNYYYX LFPBYYYX 181833 METAR LFPG 181833Z 24250KT 9999 FEW030 19/-2 Q1024
GG EDDFYYYX LFPNYYYX LFPGYYYX 252216 METAR LFPG 252216Z 05612KT 9999 FEW030 34/18 Q1026
GG LFPGYYYX LFPOYYYX LFPNYYYX 162038 METAR LFPG 162038Z 13013KT 9999 FEW030 -5/9 Q1003
FF EDDFYYYX EGLLYYYX EDDFYYYX 090900 METAR LFPG 090900Z 22639KT 9999 FEW030 5/14 Q1001
KK LFPOYYYX LFPGYYYX 271115 METAR LFPG 271115Z 06312KT 9999 FEW030 14/11 Q1008
GG LFPBYYYX LFPNYYYX LFPBYYYX 170803 METAR LFPG 170803Z 20612KT 9999 FEW030 30/12 Q1086
SS LFPOYYYX LFPBYYYX LFPOYYYX 090132 METAR LFPG 090132Z 35543KT 9999 FEW030 24/23 Q1091
SS LFPGYYYX LFPBYYYX EDDFYYYX 220541 METAR LFPG 220541Z 26739KT 9999 FEW030 12/-9 Q1062
SS EDDFYYYX EGLLYYYX 160605 METAR LFPG 160605Z 20346KT 9999 FEW030 12/4 Q1059
GG LFPNYYYX LFPOYYYX LFPGYYYX EGLLYYYX 181544 METAR LFPG 181544Z 14946KT 9999 FEW030 12/9 Q1079
LL EDDFYYYX LFPOYYYX EGLLYYYX LFPGYYYX 210556 METAR LFPG 210556Z 20420KT 9999 FEW030 19/21 Q1058
DD LFPOYYYX LFPBYYYX LFPGYYYX 060719 METAR LFPG 060719Z 24850KT 9999 FEW030 12/-1 Q1063
LL LFPNYYYX EDDFYYYX LFPGYYYX LFPOYYYX 150146 METAR LFPG 150146Z 24529KT 9999 FEW030 27/-4 Q1093
LL LFPOYYYX LFPGYYYX LFPNYYYX LFPBYYYX 260502 METAR LFPG 260502Z 10613KT 9999 FEW030 12/-6 Q1060
GG LFPOYYYX LFPBYYYX 191931 METAR LFPG 191931Z 23318KT 9999 FEW030 12/7 Q1034
FF LFPGYYYX EDDFYYYX EGLLYYYX 021626 METAR LFPG 021626Z 03016KT 9999 FEW030 25/15 Q1073
FF LFPBYYYX LFPBYYYX LFPGYYYX EGLLYYYX 261809 METAR LFPG 261809Z 34232KT 9999 FEW030 1/5 Q1011
GG LFPBYYYX LFPGYYYX LFPOYYYX EGLLYYYX 130707 METAR LFPG 130707Z 35722KT 9999 FEW030 14/-9 Q1038
KK LFPBYYYX LFPGYYYX LFPBYYYX 130504 METAR LFPG 130504Z 18942KT 9999 FEW030 19/-1 Q1034
LL LFPBYYYX EDDFYYYX 051841 METAR LFPG 051841Z 32347KT 9999 FEW030 6/7 Q1020
GG EDDFYYYX LFPBYYYX EDDFYYYX 191153 METAR LFPG 191153Z 34449KT 9999 FEW030 6/-8 Q1029
DD LFPOYYYX LFPNYYYX LFPGYYYX LFPOYYYX 271350 METAR LFPG 271350Z 21341KT 9999 FEW030 25/12 Q1053
FF LFPGYYYX EDDFYYYX LFPOYYYX 201756 METAR LFPG 201756Z 02829KT 9999 FEW030 23/4 Q1055
SS LFPNYYYX LFPGYYYX EDDFYYYX EGLLYYYX 281805 METAR LFPG 281805Z 07317KT 9999 FEW030 -1/1 Q1091
KK EDDFYYYX LFPNYYYX EGLLYYYX 190432 METAR LFPG 190432Z 25830KT 9999 FEW030 26/7 Q1016
LL EGLLYYYX LFPNYYYX 101333 METAR LFPG 101333Z 14437KT 9999 FEW030 34/-3 Q1022
KK EGLLYYYX LFPNYYYX 050705 METAR LFPG 050705Z 28744KT 9999 FEW030 32/-7 Q1034
DD LFPBYYYX LFPNYYYX 070543 METAR LFPG 070543Z 16541KT 9999 FEW030 -5/4 Q1041
KK LFPBYYYX LFPGYYYX LFPNYYYX 060520 METAR LFPG 060520Z 26723KT 9999 FEW030 -1/9 Q1028
FF EGLLYYYX EGLLYYYX 041241 METAR LFPG 041241Z 06250KT 9999 FEW030 19/16 Q1077
SS LFPOYYYX EGLLYYYX 041541 METAR LFPG 041541Z 26213KT 9999 FEW030 24/17 Q1097
FF EGLLYYYX EGLLYYYX 050303 METAR LFPG 050303Z 35242KT 9999 FEW030 13/24 Q1057
FF EGLLYYYX LFPGYYYX EGLLYYYX 010157 METAR LFPG 010157Z 06136KT 9999 FEW030 28/21 Q1043
DD EDDFYYYX LFPOYYYX 160523 METAR LFPG 160523Z 07413KT 9999 FEW030 31/10 Q1089
SS LFPOYYYX LFPOYYYX LFPNYYYX EDDFYYYX 111307 METAR LFPG 111307Z 06136KT 9999 FEW030 17/11 Q1059
FF EDDFYYYX LFPBYYYX EDDFYYYX LFPGYYYX 231548 METAR LFPG 231548Z 26435KT 9999 FEW030 8/18 Q1030
GG LFPBYYYX LFPGYYYX LFPBYYYX LFPNYYYX 191427 METAR LFPG 191427Z 14632KT 9999 FEW030 11/24 Q1049
LL EDDFYYYX LFPGYYYX EDDFYYYX 210934 METAR LFPG 210934Z 21839KT 9999 FEW030 29/15 Q1011
KK LFPNYYYX EGLLYYYX LFPOYYYX 201525 METAR LFPG 201525Z 26740KT 9999 FEW030 4/7 Q1017
GG LFPBYYYX LFPGYYYX 221319 METAR LFPG 221319Z 26118KT 9999 FEW030 -3/-6 Q1086
SS LFPOYYYX LFPBYYYX LFPNYYYX LFPGYYYX 240106 METAR LFPG 240106Z 35314KT 9999 FEW030 34/17 Q1076
SS LFPBYYYX LFPOYYYX LFPGYYYX 101812 METAR LFPG 101812Z 01523KT 9999 FEW030 30/-5 Q1077
FF EGLLYYYX LFPNYYYX EGLLYYYX 171833 METAR LFPG 171833Z 08249KT 9999 FEW030 5/1 Q1011
KK LFPNYYYX EGLLYYYX 161142 METAR LFPG 161142Z 31634KT 9999 FEW030 15/14 Q1097
LL LFPGYYYX EDDFYYYX LFPBYYYX LFPGYYYX 010831 METAR LFPG 010831Z 13617KT 9999 FEW030 -10/25 Q1020
DD EGLLYYYX EDDFYYYX EGLLYYYX 030324 METAR LFPG 030324Z 21038KT 9999 FEW030 -8/9 Q1020
KK LFPGYYYX LFPGYYYX LFPNYYYX 280040 METAR LFPG 280040Z 24436KT 9999 FEW030 24/1 Q1009
LL EDDFYYYX EGLLYYYX LFPOYYYX 270646 METAR LFPG 270646Z 29918KT 9999 FEW030 1/6 Q1086
KK LFPOYYYX LFPGYYYX LFPNYYYX 152328 METAR LFPG 152328Z 00226KT 9999 FEW030 11/22 Q1054
GG LFPBYYYX EGLLYYYX 210725 METAR LFPG 210725Z 14239KT 9999 FEW030 34/24 Q1013
FF LFPBYYYX LFPNYYYX LFPOYYYX 281445 METAR LFPG 281445Z 30135KT 9999 FEW030 34/14 Q1036
FF LFPBYYYX LFPNYYYX LFPBYYYX 230430 METAR LFPG 230430Z 07937KT 9999 FEW030 17/-10 Q1033
SS LFPGYYYX EGLLYYYX LFPOYYYX LFPBYYYX 241202 METAR LFPG 241202Z 02138KT 9999 FEW030 -5/6 Q1015
DD LFPOYYYX LFPNYYYX EGLLYYYX 190407 METAR LFPG 190407Z 15939KT 9999 FEW030 -4/18 Q1063
GG EDDFYYYX LFPGYYYX EDDFYYYX LFPOYYYX 070646 METAR LFPG 070646Z 11443KT 9999 FEW030 30/-8 Q1095
GG LFPGYYYX LFPNYYYX 081606 METAR LFPG 081606Z 18247KT 9999 FEW030 4/-9 Q1095
FF LFPOYYYX EDDFYYYX 031419 METAR LFPG 031419Z 22911KT 9999 FEW030 35/22 Q1092
GG EDDFYYYX LFPNYYYX EDDFYYYX LFPBYYYX 191659 METAR LFPG 191659Z 03345KT 9999 FEW030 6/-9 Q1004
SS LFPNYYYX EDDFYYYX 050248 METAR LFPG 050248Z 26931KT 9999 FEW030 32/10 Q1052
LL EGLLYYYX LFPGYYYX 161810 METAR LFPG 161810Z 35218KT 9999 FEW030 31/18 Q1037
KK LFPNYYYX EDDFYYYX EGLLYYYX LFPBYYYX 171554 METAR LFPG 171554Z 25838KT 9999 FEW030 12/9 Q1020
DD EDDFYYYX EDDFYYYX LFPOYYYX LFPBYYYX 010602 METAR LFPG 010602Z 04823KT 9999 FEW030 2/11 Q1002
LL LFPGYYYX LFPBYYYX EGLLYYYX 200317 METAR LFPG 200317Z 04533KT 9999 FEW030 -6/7 Q1099
DD EGLLYYYX LFPOYYYX 012205 METAR LFPG 012205Z 20745KT 9999 FEW030 -7/0 Q1048
DD EDDFYYYX EDDFYYYX LFPBYYYX LFPGYYYX 121456 METAR LFPG 121456Z 21930KT 9999 FEW030 6/18 Q1049
SS LFPBYYYX LFPOYYYX EDDFYYYX 241048 METAR LFPG 241048Z 32716KT 9999 FEW030 25/-8 Q1062
LL LFPNYYYX LFPBYYYX 231049 METAR LFPG 231049Z 20444KT 9999 FEW030 27/-6 Q1073
KK LFPGYYYX LFPBYYYX EDDFYYYX LFPGYYYX 030916 METAR LFPG 030916Z 24549KT 9999 FEW030 2/15 Q1011
SS LFPBYYYX LFPGYYYX 140253 METAR LFPG 140253Z 06346KT 9999 FEW030 23/20 Q1054
DD EDDFYYYX LFPGYYYX LFPBYYYX EGLLYYYX 151730 METAR LFPG 151730Z 29845KT 9999 FEW030 -5/14 Q1074
DD LFPNYYYX EDDFYYYX 260520 METAR LFPG 260520Z 02013KT 9999 FEW030 -3/14 Q1067
GG LFPBYYYX LFPNYYYX EDDFYYYX 020726 METAR LFPG 020726Z 06318KT 9999 FEW030 19/13 Q1099
GG LFPGYYYX LFPBYYYX LFPNYYYX 171101 METAR LFPG 171101Z 22724KT 9999 FEW030 21/0 Q1000
LL EGLLYYYX LFPNYYYX LFPBYYYX 071010 METAR LFPG 071010Z 05819KT 9999 FEW030 17/23 Q1073
SS LFPNYYYX LFPBYYYX LFPOYYYX 221802 METAR LFPG 221802Z 10130KT 9999 FEW030 35/6 Q1062
DD LFPGYYYX LFPBYYYX LFPGYYYX LFPNYYYX 050748 METAR LFPG 050748Z 28621KT 9999 FEW030 -2/-9 Q1077
KK EGLLYYYX EGLLYYYX 070451 METAR LFPG 070451Z 03738KT 9999 FEW030 23/23 Q1052
SS EGLLYYYX LFPBYYYX EDDFYYYX EGLLYYYX 202033 METAR LFPG 202033Z 10321KT 9999 FEW030 -1/10 Q1066
GG EGLLYYYX LFPGYYYX LFPNYYYX 181914 METAR LFPG 181914Z 05816KT 9999 FEW030 -1/23 Q1027
GG LFPBYYYX LFPBYYYX LFPGYYYX EGLLYYYX 270049 METAR LFPG 270049Z 16327KT 9999 FEW030 32/10 Q1088
SS EGLLYYYX EDDFYYYX LFPNYYYX EGLLYYYX 071430 METAR LFPG 071430Z 32513KT 9999 FEW030 8/-3 Q1092
FF LFPBYYYX EGLLYYYX LFPOYYYX LFPGYYYX 012329 METAR LFPG 012329Z 23829KT 9999 FEW030 4/1 Q1092
LL LFPBYYYX LFPOYYYX EDDFYYYX EGLLYYYX 232312 METAR LFPG 232312Z 27423KT 9999 FEW030 -6/19 Q1030
DD LFPBYYYX EGLLYYYX LFPOYYYX 231416 METAR LFPG 231416Z 19614KT 9999 FEW030 15/7 Q1002
LL EDDFYYYX LFPGYYYX LFPNYYYX 121620 METAR LFPG 121620Z 19742KT 9999 FEW030 5/13 Q1060
SS LFPNYYYX LFPBYYYX LFPOYYYX EGLLYYYX 150222 METAR LFPG 150222Z 20837KT 9999 FEW030 -8/20 Q1014
LL EGLLYYYX LFPBYYYX LFPNYYYX 111001 METAR LFPG 111001Z 13316KT 9999 FEW030 4/-7 Q1071
KK LFPOYYYX LFPGYYYX LFPBYYYX 051051 METAR LFPG 051051Z 20235KT 9999 FEW030 17/-4 Q1016
SS EGLLYYYX EGLLYYYX LFPBYYYX EDDFYYYX 140457 METAR LFPG 140457Z 12638KT 9999 FEW030 -5/11 Q1066
SS LFPGYYYX LFPOYYYX LFPGYYYX LFPNYYYX 220732 METAR LFPG 220732Z 02437KT 9999 FEW030 0/5 Q1012
GG EDDFYYYX LFPOYYYX 091518 METAR LFPG 091518Z 34220KT 9999 FEW030 5/3 Q1021
GG EGLLYYYX LFPOYYYX EGLLYYYX LFPBYYYX 201311 METAR LFPG 201311Z 31233KT 9999 FEW030 32/-1 Q1096
FF LFPGYYYX LFPBYYYX 020652 METAR LFPG 020652Z 34441KT 9999 FEW030 5/21 Q1001
LL EGLLYYYX LFPBYYYX EGLLYYYX LFPNYYYX 242219 METAR LFPG 242219Z 06734KT 9999 FEW030 14/12 Q1083
GG EGLLYYYX EGLLYYYX LFPOYYYX LFPBYYYX 080405 METAR LFPG 080405Z 02128KT 9999 FEW030 -10/-7 Q1070
DD EDDFYYYX LFPGYYYX LFPBYYYX LFPOYYYX 271255 METAR LFPG 271255Z 09135KT 9999 FEW030 21/1 Q1067
GG EDDFYYYX LFPGYYYX EDDFYYYX LFPBYYYX 182152 METAR LFPG 182152Z 01920KT 9999 FEW030 5/2 Q1076
GG LFPGYYYX LFPGYYYX LFPOYYYX LFPBYYYX 201826 METAR LFPG 201826Z 02016KT 9999 FEW030 10/15 Q1078
FF EGLLYYYX LFPOYYYX LFPNYYYX EGLLYYYX 091144 METAR LFPG 091144Z 00328KT 9999 FEW030 33/3 Q1045
SS LFPBYYYX LFPGYYYX 232001 METAR LFPG 232001Z 10422KT 9999 FEW030 30/22 Q1086
SS LFPGYYYX LFPOYYYX 231854 METAR LFPG 231854Z 28833KT 9999 FEW030 23/15 Q1050
FF LFPNYYYX EGLLYYYX LFPNYYYX 282025 METAR LFPG 282025Z 12110KT 9999 FEW030 0/-7 Q1030
KK EDDFYYYX EDDFYYYX LFPOYYYX 181355 METAR LFPG 181355Z 32418KT 9999 FEW030 8/2 Q1053
FF LFPGYYYX LFPBYYYX EGLLYYYX 091350 METAR LFPG 091350Z 22443KT 9999 FEW030 4/14 Q1002
SS LFPGYYYX LFPOYYYX EGLLYYYX 032334 METAR LFPG 032334Z 19319KT 9999 FEW030 0/-5 Q1065
KK LFPNYYYX LFPBYYYX EGLLYYYX LFPNYYYX 031153 METAR LFPG 031153Z 14520KT 9999 FEW030 4/12 Q1078
DD LFPNYYYX LFPOYYYX 011255 METAR LFPG 011255Z 12814KT 9999 FEW030 11/8 Q1065
DD EGLLYYYX LFPOYYYX LFPBYYYX 061005 METAR LFPG 061005Z 00233KT 9999 FEW030 3/16 Q1002
DD EDDFYYYX LFPNYYYX 092043 METAR LFPG 092043Z 31522KT 9999 FEW030 11/0 Q1021
SS LFPGYYYX LFPNYYYX EDDFYYYX LFPBYYYX 061338 METAR LFPG 061338Z 04725KT 9999 FEW030 26/19 Q1039
KK LFPGYYYX LFPGYYYX EDDFYYYX LFPOYYYX 191946 METAR LFPG 191946Z 35942KT 9999 FEW030 29/0 Q1035
DD LFPOYYYX EGLLYYYX LFPGYYYX 271705 METAR LFPG 271705Z 08949KT 9999 FEW030 -1/14 Q1070
LL LFPBYYYX EGLLYYYX 021506 METAR LFPG 021506Z 01219KT 9999 FEW030 28/5 Q1097
LL LFPBYYYX LFPOYYYX LFPBYYYX 270500 METAR LFPG 270500Z 28621KT 9999 FEW030 22/18 Q1085
LL LFPGYYYX LFPNYYYX LFPOYYYX 171528 METAR LFPG 171528Z 29549KT 9999 FEW030 26/2 Q1065
GG EDDFYYYX EGLLYYYX 070207 METAR LFPG 070207Z 18711KT 9999 FEW030 26/-6 Q1023
KK LFPOYYYX LFPNYYYX EGLLYYYX 100728 METAR LFPG 100728Z 11539KT 9999 FEW030 4/-5 Q1053
DD LFPGYYYX EDDFYYYX 150057 METAR LFPG 150057Z 13538KT 9999 FEW030 -6/17 Q1005
GG LFPGYYYX LFPNYYYX LFPOYYYX 171908 METAR LFPG 171908Z 27819KT 9999 FEW030 -9/20 Q1022
LL LFPBYYYX LFPOYYYX LFPGYYYX 271110 METAR LFPG 271110Z 06228KT 9999 FEW030 25/21 Q1070
GG LFPOYYYX EGLLYYYX 090835 METAR LFPG 090835Z 02621KT 9999 FEW030 -3/24 Q1003
GG EDDFYYYX EDDFYYYX LFPBYYYX LFPOYYYX 021917 METAR LFPG 021917Z 13523KT 9999 FEW030 0/1 Q1095
SS LFPGYYYX LFPBYYYX LFPNYYYX 160929 METAR LFPG 160929Z 25843KT 9999 FEW030 -5/2 Q1086
GG LFPGYYYX EGLLYYYX 132150 METAR LFPG 132150Z 32243KT 9999 FEW030 21/-9 Q1009
FF LFPBYYYX EDDFYYYX LFPBYYYX LFPNYYYX 221711 METAR LFPG 221711Z 26750KT 9999 FEW030 6/2 Q1045
LL LFPGYYYX EDDFYYYX 050341 METAR LFPG 050341Z 25141KT 9999 FEW030 3/-10 Q1096
DD LFPOYYYX LFPBYYYX 041706 METAR LFPG 041706Z 12526KT 9999 FEW030 32/0 Q1092
FF LFPNYYYX LFPGYYYX LFPBYYYX 100342 METAR LFPG 100342Z 02449KT 9999 FEW030 29/-6 Q1015
FF LFPOYYYX LFPBYYYX LFPOYYYX LFPNYYYX 210244 METAR LFPG 210244Z 02936KT 9999 FEW030 0/3 Q1100
LL LFPBYYYX LFPOYYYX LFPBYYYX LFPGYYYX 062131 METAR LFPG 062131Z 07514KT 9999 FEW030 -5/4 Q1018
SS LFPNYYYX LFPGYYYX EGLLYYYX 061527 METAR LFPG 061527Z 30617KT 9999 FEW030 15/11 Q1045
DD EDDFYYYX LFPNYYYX LFPOYYYX EDDFYYYX 011347 METAR LFPG 011347Z 19227KT 9999 FEW030 1/-6 Q1042
LL EGLLYYYX EGLLYYYX 031027 METAR LFPG 031027Z 00248KT 9999 FEW030 11/13 Q1046
LL EGLLYYYX LFPGYYYX EDDFYYYX EGLLYYYX 270136 METAR LFPG 270136Z 27636KT 9999 FEW030 2/19 Q1097
KK EDDFYYYX EDDFYYYX 192238 METAR LFPG 192238Z 17736KT 9999 FEW030 17/-6 Q1055
FF LFPBYYYX LFPOYYYX EGLLYYYX 091650 METAR LFPG 091650Z 03531KT 9999 FEW030 30/15 Q1047
FF LFPNYYYX EGLLYYYX LFPNYYYX LFPBYYYX 140525 METAR LFPG 140525Z 28541KT 9999 FEW030 2/22 Q1050
SS LFPBYYYX LFPGYYYX LFPBYYYX 110350 METAR LFPG 110350Z 14728KT 9999 FEW030 29/-1 Q1085
FF EGLLYYYX EDDFYYYX LFPOYYYX 240749 METAR LFPG 240749Z 04136KT 9999 FEW030 23/-3 Q1092
GG LFPBYYYX EDDFYYYX LFPBYYYX 130909 METAR LFPG 130909Z 32949KT 9999 FEW030 18/-6 Q1096
SS EDDFYYYX LFPGYYYX EGLLYYYX LFPNYYYX 201936 METAR LFPG 201936Z 05445KT 9999 FEW030 17/12 Q1037
SS LFPBYYYX EGLLYYYX LFPOYYYX 260815 METAR LFPG 260815Z 23650KT 9999 FEW030 4/3 Q1018
GG EDDFYYYX LFPNYYYX 120832 METAR LFPG 120832Z 16645KT 9999 FEW030 22/14 Q1082
KK EDDFYYYX EDDFYYYX 272118 METAR LFPG 272118Z 27737KT 9999 FEW030 13/17 Q1077
DD LFPGYYYX LFPNYYYX EDDFYYYX 221124 METAR LFPG 221124Z 23323KT 9999 FEW030 -4/-1 Q1054
FF EDDFYYYX EGLLYYYX 031904 METAR LFPG 031904Z 01923KT 9999 FEW030 32/20 Q1068
GG EDDFYYYX LFPNYYYX EDDFYYYX 090125 METAR LFPG 090125Z 09550KT 9999 FEW030 19/20 Q1039
DD LFPGYYYX LFPBYYYX 230617 METAR LFPG 230617Z 14519KT 9999 FEW030 8/21 Q1091
GG EGLLYYYX EGLLYYYX LFPOYYYX 202308 METAR LFPG 202308Z 11949KT 9999 FEW030 -7/12 Q1077
FF EGLLYYYX EDDFYYYX EGLLYYYX 092208 METAR LFPG 092208Z 34137KT 9999 FEW030 0/12 Q1095
DD LFPNYYYX LFPOYYYX LFPNYYYX 131241 METAR LFPG 131241Z 18723KT 9999 FEW030 25/24 Q1031
KK EGLLYYYX LFPOYYYX LFPNYYYX LFPGYYYX 052249 METAR LFPG 052249Z 31129KT 9999 FEW030 34/19 Q1063
FF EGLLYYYX EDDFYYYX LFPBYYYX 071645 METAR LFPG 071645Z 20325KT 9999 FEW030 13/1 Q1065
FF LFPNYYYX LFPOYYYX 151318 METAR LFPG 151318Z 34032KT 9999 FEW030 11/18 Q1031
DD LFPNYYYX LFPNYYYX LFPGYYYX LFPBYYYX 012206 METAR LFPG 012206Z 21746KT 9999 FEW030 13/3 Q1002
DD LFPOYYYX EGLLYYYX 282217 METAR LFPG 282217Z 29833KT 9999 FEW030 22/11 Q1068
GG LFPOYYYX LFPNYYYX EGLLYYYX 121147 METAR LFPG 121147Z 02630KT 9999 FEW030 22/15 Q1065
LL LFPGYYYX EGLLYYYX LFPBYYYX LFPNYYYX 091208 METAR LFPG 091208Z 22141KT 9999 FEW030 21/17 Q1016
SS LFPGYYYX EGLLYYYX LFPBYYYX 122100 METAR LFPG 122100Z 33837KT 9999 FEW030 5/7 Q1029
KK LFPGYYYX EGLLYYYX LFPOYYYX LFPNYYYX 162305 METAR LFPG 162305Z 14528KT 9999 FEW030 0/-10 Q1000
GG EDDFYYYX EDDFYYYX 151025 METAR LFPG 151025Z 22234KT 9999 FEW030 34/-10 Q1079
LL EGLLYYYX EDDFYYYX LFPNYYYX 200238 METAR LFPG 200238Z 10729KT 9999 FEW030 18/10 Q1036
SS LFPOYYYX EGLLYYYX 191914 METAR LFPG 191914Z 11316KT 9999 FEW030 -5/-3 Q1087
FF LFPBYYYX EDDFYYYX 080038 METAR LFPG 080038Z 34928KT 9999 FEW030 35/13 Q1028
SS LFPNYYYX LFPGYYYX LFPBYYYX LFPNYYYX 210008 METAR LFPG 210008Z 00032KT 9999 FEW030 -1/-7 Q1053
LL LFPOYYYX EGLLYYYX 080046 METAR LFPG 080046Z 21243KT 9999 FEW030 29/7 Q1079
FF EDDFYYYX LFPBYYYX LFPNYYYX 030659 METAR LFPG 030659Z 23131KT 9999 FEW030 21/23 Q1048
GG LFPBYYYX LFPBYYYX LFPNYYYX 091318 METAR LFPG 091318Z 08321KT 9999 FEW030 -8/-8 Q1085
FF EDDFYYYX LFPOYYYX LFPBYYYX 270714 METAR LFPG 270714Z 14737KT 9999 FEW030 26/-6 Q1034
FF LFPGYYYX LFPNYYYX EGLLYYYX 240412 METAR LFPG 240412Z 11142KT 9999 FEW030 4/2 Q1099
KK LFPGYYYX EGLLYYYX LFPOYYYX 270701 METAR LFPG 270701Z 30430KT 9999 FEW030 20/3 Q1064
LL LFPOYYYX EGLLYYYX LFPNYYYX 121816 METAR LFPG 121816Z 00811KT 9999 FEW030 20/-7 Q1074
FF EGLLYYYX LFPNYYYX EGLLYYYX LFPGYYYX 081709 METAR LFPG 081709Z 08324KT 9999 FEW030 -4/7 Q1082
DD LFPGYYYX EGLLYYYX LFPOYYYX 090624 METAR LFPG 090624Z 30437KT 9999 FEW030 17/8 Q1092
KK LFPNYYYX EDDFYYYX LFPNYYYX 061727 METAR LFPG 061727Z 03425KT 9999 FEW030 -7/11 Q1006
GG LFPBYYYX LFPBYYYX LFPOYYYX EDDFYYYX 250844 METAR LFPG 250844Z 22819KT 9999 FEW030 32/6 Q1049
DD LFPBYYYX LFPOYYYX LFPNYYYX EDDFYYYX 030059 METAR LFPG 030059Z 17918KT 9999 FEW030 11/0 Q1000
LL EGLLYYYX LFPNYYYX EDDFYYYX LFPBYYYX 101355 METAR LFPG 101355Z 16532KT 9999 FEW030 15/4 Q1081
LL LFPBYYYX EDDFYYYX LFPOYYYX 131154 METAR LFPG 131154Z 21146KT 9999 FEW030 26/-2 Q1071
GG EGLLYYYX LFPGYYYX LFPOYYYX 120120 METAR LFPG 120120Z 31326KT 9999 FEW030 -10/1 Q1033
KK EDDFYYYX LFPGYYYX LFPBYYYX 182138 METAR LFPG 182138Z 13135KT 9999 FEW030 14/-1 Q1020
LL LFPGYYYX LFPOYYYX LFPBYYYX 022122 METAR LFPG 022122Z 01816KT 9999 FEW030 2/7 Q1058
KK LFPBYYYX EDDFYYYX LFPNYYYX 170448 METAR LFPG 170448Z 03427KT 9999 FEW030 -5/-1 Q1081
FF EDDFYYYX EDDFYYYX LFPNYYYX EGLLYYYX 090652 METAR LFPG 090652Z 21450KT 9999 FEW030 -10/21 Q1041
LL LFPNYYYX LFPOYYYX EDDFYYYX LFPGYYYX 230353 METAR LFPG 230353Z 11447KT 9999 FEW030 -4/9 Q1042
KK EGLLYYYX LFPGYYYX EGLLYYYX 051918 METAR LFPG 051918Z 13625KT 9999 FEW030 13/9 Q1022
LL LFPNYYYX LFPGYYYX LFPNYYYX 250327 METAR LFPG 250327Z 14016KT 9999 FEW030 32/8 Q1080
DD LFPNYYYX LFPOYYYX LFPGYYYX EDDFYYYX 252023 METAR LFPG 252023Z 10922KT 9999 FEW030 -9/3 Q1086
SS LFPBYYYX LFPBYYYX LFPGYYYX 090938 METAR LFPG 090938Z 22246KT 9999 FEW030 0/21 Q1048
DD EDDFYYYX LFPBYYYX 272041 METAR LFPG 272041Z 12924KT 9999 FEW030 16/-2 Q1005
DD LFPOYYYX LFPBYYYX 220525 METAR LFPG 220525Z 03827KT 9999 FEW030 -8/14 Q1049
KK LFPBYYYX LFPOYYYX 210026 METAR LFPG 210026Z 34911KT 9999 FEW030 17/12 Q1054
KK LFPOYYYX LFPGYYYX 162353 METAR LFPG 162353Z 17746KT 9999 FEW030 -6/24 Q1004
GG LFPOYYYX LFPBYYYX EGLLYYYX EDDFYYYX 010650 METAR LFPG 010650Z 05728KT 9999 FEW030 4/-6 Q1083
SS LFPBYYYX LFPOYYYX LFPBYYYX EGLLYYYX 180126 METAR LFPG 180126Z 11223KT 9999 FEW030 15/0 Q1011
FF LFPNYYYX EGLLYYYX LFPNYYYX LFPGYYYX 211407 METAR LFPG 211407Z 32739KT 9999 FEW030 15/22 Q1095
DD LFPOYYYX LFPOYYYX EDDFYYYX 110748 METAR LFPG 110748Z 16913KT 9999 FEW030 33/-5 Q1097
SS EGLLYYYX EDDFYYYX LFPBYYYX LFPNYYYX 111312 METAR LFPG 111312Z 12649KT 9999 FEW030 -10/8 Q1009
LL LFPBYYYX EDDFYYYX LFPOYYYX LFPBYYYX 110422 METAR LFPG 110422Z 30243KT 9999 FEW030 29/10 Q1092
KK LFPBYYYX LFPBYYYX 271609 METAR LFPG 271609Z 24110KT 9999 FEW030 25/-8 Q1056
SS EGLLYYYX EDDFYYYX 152105 METAR LFPG 152105Z 26719KT 9999 FEW030 9/14 Q1008
LL LFPGYYYX EDDFYYYX EGLLYYYX 051518 METAR LFPG 051518Z 10713KT 9999 FEW030 1/23 Q1095
LL EDDFYYYX LFPOYYYX 081725 METAR LFPG 081725Z 17640KT 9999 FEW030 20/11 Q1091
SS LFPNYYYX LFPOYYYX 141143 METAR LFPG 141143Z 11646KT 9999 FEW030 1/15 Q1081
GG LFPNYYYX LFPBYYYX EDDFYYYX EGLLYYYX 091226 METAR LFPG 091226Z 33626KT 9999 FEW030 -8/-10 Q1051
GG LFPOYYYX LFPNYYYX 090402 METAR LFPG 090402Z 00710KT 9999 FEW030 31/3 Q1100
KK LFPGYYYX LFPBYYYX LFPGYYYX 110832 METAR LFPG 110832Z 15313KT 9999 FEW030 7/-3 Q1096
GG LFPBYYYX EGLLYYYX LFPBYYYX EDDFYYYX 251031 METAR LFPG 251031Z 14815KT 9999 FEW030 35/11 Q1025
DD EGLLYYYX LFPGYYYX LFPNYYYX 012206 METAR LFPG 012206Z 26119KT 9999 FEW030 -8/-3 Q1068
LL LFPBYYYX LFPOYYYX LFPBYYYX EGLLYYYX 101706 METAR LFPG 101706Z 33944KT 9999 FEW030 9/15 Q1016
SS EDDFYYYX LFPOYYYX EDDFYYYX 130725 METAR LFPG 130725Z 32938KT 9999 FEW030 22/8 Q1003
LL LFPGYYYX EDDFYYYX LFPBYYYX 041350 METAR LFPG 041350Z 34514KT 9999 FEW030 9/-8 Q1031
FF LFPBYYYX LFPGYYYX 110131 METAR LFPG 110131Z 06519KT 9999 FEW030 32/3 Q1032
DD LFPGYYYX EGLLYYYX LFPBYYYX LFPGYYYX 100025 METAR LFPG 100025Z 22615KT 9999 FEW030 26/25 Q1029
FF LFPBYYYX LFPBYYYX 080751 METAR LFPG 080751Z 15421KT 9999 FEW030 22/4 Q1010
GG LFPGYYYX LFPGYYYX EGLLYYYX 110408 METAR LFPG 110408Z 19625KT 9999 FEW030 17/22 Q1078
KK LFPBYYYX LFPGYYYX LFPNYYYX 042118 METAR LFPG 042118Z 09822KT 9999 FEW030 20/-4 Q1072
FF LFPOYYYX LFPGYYYX 220505 METAR LFPG 220505Z 08523KT 9999 FEW030 25/12 Q1009
KK EGLLYYYX EDDFYYYX EGLLYYYX 041702 METAR LFPG 041702Z 06931KT 9999 FEW030 31/-4 Q1013
KK EDDFYYYX LFPBYYYX 111456 METAR LFPG 111456Z 31944KT 9999 FEW030 35/2 Q1058
FF EGLLYYYX LFPNYYYX 231700 METAR LFPG 231700Z 25010KT 9999 FEW030 -2/12 Q1043
GG LFPNYYYX EGLLYYYX EDDFYYYX LFPGYYYX 171445 METAR LFPG 171445Z 33133KT 9999 FEW030 -10/4 Q1033
FF EDDFYYYX LFPOYYYX LFPBYYYX 161300 METAR LFPG 161300Z 19815KT 9999 FEW030 23/20 Q1041
DD EGLLYYYX LFPBYYYX EDDFYYYX 241840 METAR LFPG 241840Z 30014KT 9999 FEW030 32/15 Q1076
LL LFPBYYYX LFPBYYYX EGLLYYYX 251809 METAR LFPG 251809Z 15613KT 9999 FEW030 21/22 Q1008
GG EDDFYYYX LFPNYYYX LFPGYYYX 041024 METAR LFPG 041024Z 12417KT 9999 FEW030 -3/-7 Q1081
LL LFPNYYYX EDDFYYYX LFPOYYYX LFPBYYYX 231719 METAR LFPG 231719Z 03542KT 9999 FEW030 31/12 Q1037
LL EDDFYYYX LFPBYYYX EGLLYYYX 281847 METAR LFPG 281847Z 25332KT 9999 FEW030 -6/8 Q1053
SS EGLLYYYX LFPOYYYX EDDFYYYX 260042 METAR LFPG 260042Z 09131KT 9999 FEW030 30/15 Q1027
FF LFPGYYYX LFPGYYYX EGLLYYYX EDDFYYYX 071828 METAR LFPG 071828Z 12333KT 9999 FEW030 34/25 Q1096
GG LFPOYYYX LFPOYYYX LFPGYYYX LFPNYYYX 032210 METAR LFPG 032210Z 14920KT 9999 FEW030 1/-7 Q1006
GG LFPBYYYX LFPGYYYX 081414 METAR LFPG 081414Z 20721KT 9999 FEW030 35/-6 Q1060
SS LFPGYYYX EDDFYYYX 240934 METAR LFPG 240934Z 34648KT 9999 FEW030 -1/4 Q1011
GG EDDFYYYX LFPNYYYX LFPGYYYX EGLLYYYX 050859 METAR LFPG 050859Z 09319KT 9999 FEW030 8/2 Q1001
KK LFPGYYYX EDDFYYYX EGLLYYYX LFPOYYYX 011309 METAR LFPG 011309Z 05337KT 9999 FEW030 5/-2 Q1089
SS EDDFYYYX LFPNYYYX 170337 METAR LFPG 170337Z 23519KT 9999 FEW030 20/-7 Q1067
KK LFPNYYYX LFPNYYYX 030702 METAR LFPG 030702Z 15925KT 9999 FEW030 25/15 Q1026
FF EGLLYYYX LFPOYYYX LFPBYYYX 051128 METAR LFPG 051128Z 25811KT 9999 FEW030 7/22 Q1070
KK LFPOYYYX LFPGYYYX LFPNYYYX LFPBYYYX 200856 METAR LFPG 200856Z 29544KT 9999 FEW030 1/9 Q1023
SS LFPBYYYX LFPNYYYX LFPBYYYX EDDFYYYX 080600 METAR LFPG 080600Z 23743KT 9999 FEW030 20/-1 Q1046
KK LFPBYYYX LFPGYYYX LFPBYYYX 280923 METAR LFPG 280923Z 18846KT 9999 FEW030 15/-4 Q1041
KK EGLLYYYX EDDFYYYX EGLLYYYX LFPNYYYX 031521 METAR LFPG 031521Z 29723KT 9999 FEW030 12/-6 Q1022
LL LFPBYYYX EDDFYYYX EGLLYYYX LFPBYYYX 210948 METAR LFPG 210948Z 28430KT 9999 FEW030 6/-5 Q1020
DD EGLLYYYX LFPOYYYX LFPGYYYX EDDFYYYX 190053 METAR LFPG 190053Z 00816KT 9999 FEW030 34/0 Q1011
DD EGLLYYYX LFPNYYYX 121836 METAR LFPG 121836Z 04549KT 9999 FEW030 -1/8 Q1033
FF EDDFYYYX LFPGYYYX LFPNYYYX 081649 METAR LFPG 081649Z 13430KT 9999 FEW030 -9/21 Q1054
KK LFPBYYYX EGLLYYYX LFPBYYYX LFPGYYYX 162225 METAR LFPG 162225Z 06148KT 9999 FEW030 33/8 Q1028
LL LFPOYYYX EGLLYYYX 122314 METAR LFPG 122314Z 12541KT 9999 FEW030 20/4 Q1040
KK LFPGYYYX LFPBYYYX 140314 METAR LFPG 140314Z 12733KT 9999 FEW030 7/19 Q1016
FF EDDFYYYX EGLLYYYX LFPNYYYX LFPOYYYX 141648 METAR LFPG 141648Z 01347KT 9999 FEW030 31/5 Q1071
GG EGLLYYYX EDDFYYYX 050047 METAR LFPG 050047Z 23916KT 9999 FEW030 20/-8 Q1088
LL EGLLYYYX LFPNYYYX EGLLYYYX 261909 METAR LFPG 261909Z 03742KT 9999 FEW030 30/16 Q1001
DD LFPOYYYX LFPBYYYX EGLLYYYX LFPOYYYX 171704 METAR LFPG 171704Z 28736KT 9999 FEW030 26/13 Q1016
DD LFPGYYYX LFPNYYYX EGLLYYYX LFPBYYYX 150600 METAR LFPG 150600Z 23847KT 9999 FEW030 7/14 Q1077
KK LFPOYYYX LFPBYYYX 141710 METAR LFPG 141710Z 23826KT 9999 FEW030 27/21 Q1034
KK EDDFYYYX LFPNYYYX 241451 METAR LFPG 241451Z 13434KT 9999 FEW030 21/-10 Q1082
GG EGLLYYYX LFPNYYYX LFPGYYYX 200202 METAR LFPG 200202Z 04621KT 9999 FEW030 24/18 Q1090
FF LFPNYYYX LFPBYYYX 011531 METAR LFPG 011531Z 32331KT 9999 FEW030 4/11 Q1073
KK EGLLYYYX LFPGYYYX LFPOYYYX LFPNYYYX 030426 METAR LFPG 030426Z 00933KT 9999 FEW030 11/6 Q1089
KK LFPBYYYX LFPOYYYX LFPNYYYX EGLLYYYX 212251 METAR LFPG 212251Z 15525KT 9999 FEW030 -2/17 Q1013
KK LFPBYYYX LFPBYYYX LFPOYYYX 031538 METAR LFPG 031538Z 18534KT 9999 FEW030 19/1 Q1086
KK LFPBYYYX EDDFYYYX LFPBYYYX EGLLYYYX 202019 METAR LFPG 202019Z 01639KT 9999 FEW030 16/0 Q1097
GG EDDFYYYX LFPBYYYX LFPNYYYX 270924 METAR LFPG 270924Z 02342KT 9999 FEW030 31/11 Q1064
DD LFPNYYYX LFPGYYYX 061602 METAR LFPG 061602Z 08128KT 9999 FEW030 16/8 Q1075
KK EGLLYYYX EGLLYYYX LFPNYYYX 011323 METAR LFPG 011323Z 27928KT 9999 FEW030 -10/17 Q1055
GG LFPBYYYX EGLLYYYX LFPNYYYX 160622 METAR LFPG 160622Z 03415KT 9999 FEW030 -1/15 Q1010
GG EDDFYYYX LFPBYYYX 011537 METAR LFPG 011537Z 02522KT 9999 FEW030 3/22 Q1008
KK LFPGYYYX LFPOYYYX 281908 METAR LFPG 281908Z 15046KT 9999 FEW030 34/-4 Q1025
DD LFPGYYYX LFPNYYYX EGLLYYYX 030036 METAR LFPG 030036Z 01540KT 9999 FEW030 34/8 Q1060
DD LFPGYYYX EGLLYYYX LFPNYYYX 090828 METAR LFPG 090828Z 15824KT 9999 FEW030 7/-6 Q1013
FF LFPOYYYX EDDFYYYX LFPBYYYX LFPNYYYX 230735 METAR LFPG 230735Z 02818KT 9999 FEW030 29/4 Q1011
DD EDDFYYYX EDDFYYYX 100242 METAR LFPG 100242Z 11445KT 9999 FEW030 25/20 Q1009
FF EGLLYYYX LFPOYYYX LFPGYYYX LFPBYYYX 170725 METAR LFPG 170725Z 04819KT 9999 FEW030 19/25 Q1072
SS EGLLYYYX EDDFYYYX LFPGYYYX 171727 METAR LFPG 171727Z 31221KT 9999 FEW030 18/5 Q1013
FF LFPBYYYX LFPBYYYX LFPNYYYX LFPOYYYX 072301 METAR LFPG 072301Z 05324KT 9999 FEW030 10/-5 Q1067
SS LFPOYYYX EDDFYYYX LFPGYYYX LFPOYYYX 020405 METAR LFPG 020405Z 07615KT 9999 FEW030 1/-5 Q1035
GG LFPOYYYX LFPGYYYX LFPOYYYX 210935 METAR LFPG 210935Z 04247KT 9999 FEW030 31/-3 Q1003
GG LFPOYYYX LFPOYYYX EDDFYYYX LFPGYYYX 082121 METAR LFPG 082121Z 30131KT 9999 FEW030 20/16 Q1086
KK LFPNYYYX LFPNYYYX 090135 METAR LFPG 090135Z 29748KT 9999 FEW030 33/4 Q1089
FF EGLLYYYX LFPBYYYX 051318 METAR LFPG 051318Z 27621KT 9999 FEW030 -4/19 Q1014
LL EDDFYYYX LFPGYYYX EGLLYYYX 160451 METAR LFPG 160451Z 27328KT 9999 FEW030 1/9 Q1059
SS LFPOYYYX LFPBYYYX LFPNYYYX EGLLYYYX 231634 METAR LFPG 231634Z 24930KT 9999 FEW030 21/4 Q1052
FF LFPGYYYX EDDFYYYX LFPOYYYX 212143 METAR LFPG 212143Z 23925KT 9999 FEW030 5/-1 Q1076
KK EGLLYYYX LFPGYYYX LFPOYYYX LFPNYYYX 262341 METAR LFPG 262341Z 33629KT 9999 FEW030 23/-5 Q1012
SS LFPGYYYX EDDFYYYX 121245 METAR LFPG 121245Z 17140KT 9999 FEW030 -9/15 Q1007
LL EGLLYYYX EDDFYYYX LFPGYYYX LFPBYYYX 240730 METAR LFPG 240730Z 22740KT 9999 FEW030 4/-3 Q1057
KK EGLLYYYX LFPGYYYX EDDFYYYX LFPNYYYX 160137 METAR LFPG 160137Z 10930KT 9999 FEW030 -1/19 Q1069
DD EGLLYYYX LFPOYYYX EGLLYYYX EDDFYYYX 261742 METAR LFPG 261742Z 23748KT 9999 FEW030 1/22 Q1090
GG LFPBYYYX LFPOYYYX LFPGYYYX LFPBYYYX 261249 METAR LFPG 261249Z 13534KT 9999 FEW030 31/-3 Q1098
DD LFPBYYYX LFPNYYYX EDDFYYYX 101218 METAR LFPG 101218Z 10116KT 9999 FEW030 -3/6 Q1028
FF LFPBYYYX LFPNYYYX EGLLYYYX 200136 METAR LFPG 200136Z 16522KT 9999 FEW030 10/-6 Q1086
KK EDDFYYYX LFPOYYYX 231201 METAR LFPG 231201Z 33817KT 9999 FEW030 21/-3 Q1100
FF EGLLYYYX LFPBYYYX EGLLYYYX 140240 METAR LFPG 140240Z 31110KT 9999 FEW030 20/-5 Q1069
GG EGLLYYYX LFPOYYYX EDDFYYYX EGLLYYYX 130313 METAR LFPG 130313Z 22146KT 9999 FEW030 -4/23 Q1077
LL EDDFYYYX LFPOYYYX LFPGYYYX EGLLYYYX 152149 METAR LFPG 152149Z 13526KT 9999 FEW030 34/21 Q1028
KK LFPGYYYX LFPNYYYX 251614 METAR LFPG 251614Z 24010KT 9999 FEW030 2/-1 Q1052
DD LFPNYYYX EDDFYYYX LFPOYYYX 121328 METAR LFPG 121328Z 26813KT 9999 FEW030 0/17 Q1018
FF LFPBYYYX EGLLYYYX LFPBYYYX LFPOYYYX 141213 METAR LFPG 141213Z 21639KT 9999 FEW030 21/21 Q1042
GG LFPBYYYX EGLLYYYX LFPNYYYX LFPBYYYX 281140 METAR LFPG 281140Z 16542KT 9999 FEW030 29/-2 Q1032
DD LFPGYYYX LFPGYYYX 151350 METAR LFPG 151350Z 30316KT 9999 FEW030 -3/19 Q1034
GG LFPGYYYX EDDFYYYX 220638 METAR LFPG 220638Z 01616KT 9999 FEW030 15/-1 Q1000
FF EGLLYYYX LFPOYYYX EDDFYYYX 141655 METAR LFPG 141655Z 17827KT 9999 FEW030 4/2 Q1010
LL LFPNYYYX LFPNYYYX 111724 METAR LFPG 111724Z 29018KT 9999 FEW030 13/9 Q1060
FF LFPOYYYX EGLLYYYX 281555 METAR LFPG 281555Z 18841KT 9999 FEW030 25/-2 Q1035
LL LFPOYYYX LFPGYYYX 250826 METAR LFPG 250826Z 21013KT 9999 FEW030 15/20 Q1000
LL LFPNYYYX LFPOYYYX LFPNYYYX EDDFYYYX 032052 METAR LFPG 032052Z 34340KT 9999 FEW030 19/-5 Q1023
DD LFPBYYYX LFPGYYYX 171511 METAR LFPG 171511Z 22012KT 9999 FEW030 32/17 Q1088
FF LFPOYYYX LFPGYYYX 011909 METAR LFPG 011909Z 25931KT 9999 FEW030 15/-5 Q1005
LL EGLLYYYX EGLLYYYX 141741 METAR LFPG 141741Z 07643KT 9999 FEW030 18/20 Q1022
GG LFPNYYYX LFPNYYYX LFPGYYYX 222345 METAR LFPG 222345Z 31518KT 9999 FEW030 25/25 Q1047
SS EGLLYYYX EGLLYYYX LFPNYYYX 192208 METAR LFPG 192208Z 18211KT 9999 FEW030 9/7 Q1034
KK LFPBYYYX EDDFYYYX EGLLYYYX 090949 METAR LFPG 090949Z 23134KT 9999 FEW030 18/17 Q1083
SS EDDFYYYX EDDFYYYX LFPNYYYX 091753 METAR LFPG 091753Z 20530KT 9999 FEW030 15/1 Q1007
FF EGLLYYYX LFPNYYYX 110626 METAR LFPG 110626Z 33734KT 9999 FEW030 27/22 Q1069
KK EDDFYYYX LFPNYYYX LFPBYYYX 052135 METAR LFPG 052135Z 00924KT 9999 FEW030 1/0 Q1093
LL LFPOYYYX LFPBYYYX LFPGYYYX LFPNYYYX 041403 METAR LFPG 041403Z 24330KT 9999 FEW030 21/17 Q1024
DD LFPNYYYX LFPBYYYX 102324 METAR LFPG 102324Z 04350KT 9999 FEW030 -10/7 Q1080
GG EGLLYYYX LFPOYYYX LFPNYYYX LFPBYYYX 100911 METAR LFPG 100911Z 35329KT 9999 FEW030 32/18 Q1032
SS LFPGYYYX LFPGYYYX EDDFYYYX EGLLYYYX 040233 METAR LFPG 040233Z 12944KT 9999 FEW030 -4/11 Q1094
FF LFPBYYYX LFPOYYYX EDDFYYYX LFPNYYYX 192330 METAR LFPG 192330Z 07921KT 9999 FEW030 15/22 Q1036
KK EGLLYYYX LFPBYYYX 090845 METAR LFPG 090845Z 32517KT 9999 FEW030 25/17 Q1064
FF EDDFYYYX EDDFYYYX 251453 METAR LFPG 251453Z 18442KT 9999 FEW030 17/-2 Q1043
FF LFPBYYYX LFPBYYYX EGLLYYYX 051526 METAR LFPG 051526Z 27933KT 9999 FEW030 -1/18 Q1027
DD LFPNYYYX LFPOYYYX EGLLYYYX EDDFYYYX 051210 METAR LFPG 051210Z 33123KT 9999 FEW030 3/12 Q1022
GG EDDFYYYX LFPNYYYX EDDFYYYX LFPOYYYX 071021 METAR LFPG 071021Z 28810KT 9999 FEW030 -1/-5 Q1054
GG LFPBYYYX LFPOYYYX LFPGYYYX EGLLYYYX 221257 METAR LFPG 221257Z 31719KT 9999 FEW030 23/4 Q1081
GG LFPNYYYX EGLLYYYX 021325 METAR LFPG 021325Z 14050KT 9999 FEW030 16/-6 Q1010
DD LFPNYYYX LFPOYYYX EDDFYYYX 120132 METAR LFPG 120132Z 31413KT 9999 FEW030 2/10 Q1057
GG LFPNYYYX EGLLYYYX LFPNYYYX 160551 METAR LFPG 160551Z 23336KT 9999 FEW030 5/24 Q1089
SS LFPOYYYX EGLLYYYX LFPOYYYX EDDFYYYX 021109 METAR LFPG 021109Z 09740KT 9999 FEW030 29/10 Q1015
KK LFPBYYYX EDDFYYYX LFPGYYYX EGLLYYYX 182011 METAR LFPG 182011Z 28827KT 9999 FEW030 1/-3 Q1032
DD LFPNYYYX LFPBYYYX LFPGYYYX 220253 METAR LFPG 220253Z 02850KT 9999 FEW030 3/19 Q1013
SS EDDFYYYX EDDFYYYX EGLLYYYX 020109 METAR LFPG 020109Z 23036KT 9999 FEW030 6/-4 Q1087
FF LFPBYYYX LFPGYYYX 192355 METAR LFPG 192355Z 26121KT 9999 FEW030 7/24 Q1020
SS LFPBYYYX LFPOYYYX EGLLYYYX LFPGYYYX 100218 METAR LFPG 100218Z 35446KT 9999 FEW030 0/-9 Q1064
KK EGLLYYYX LFPNYYYX EDDFYYYX 270304 METAR LFPG 270304Z 23417KT 9999 FEW030 26/23 Q1037
LL LFPOYYYX LFPBYYYX LFPNYYYX 161810 METAR LFPG 161810Z 35545KT 9999 FEW030 18/1 Q1022
LL LFPOYYYX LFPOYYYX LFPNYYYX 150336 METAR LFPG 150336Z 08119KT 9999 FEW030 16/21 Q1031
FF EDDFYYYX LFPOYYYX EDDFYYYX LFPGYYYX 121713 METAR LFPG 121713Z 19441KT 9999 FEW030 14/15 Q1034
FF LFPOYYYX LFPGYYYX LFPBYYYX 131128 METAR LFPG 131128Z 21733KT 9999 FEW030 24/-9 Q1062
DD LFPBYYYX LFPOYYYX EGLLYYYX 261751 METAR LFPG 261751Z 24149KT 9999 FEW030 10/23 Q1056
GG LFPOYYYX LFPOYYYX 222240 METAR LFPG 222240Z 21124KT 9999 FEW030 5/-5 Q1054
GG LFPGYYYX LFPNYYYX LFPOYYYX LFPGYYYX 100953 METAR LFPG 100953Z 02926KT 9999 FEW030 14/-6 Q1018
DD EDDFYYYX LFPGYYYX EDDFYYYX LFPBYYYX 072001 METAR LFPG 072001Z 08826KT 9999 FEW030 -1/-2 Q1086
KK LFPOYYYX LFPGYYYX EGLLYYYX LFPNYYYX 190303 METAR LFPG 190303Z 01021KT 9999 FEW030 27/4 Q1011
FF LFPGYYYX EGLLYYYX LFPNYYYX 201821 METAR LFPG 201821Z 06942KT 9999 FEW030 31/16 Q1032
LL EDDFYYYX LFPGYYYX 021611 METAR LFPG 021611Z 20223KT 9999 FEW030 24/16 Q1023
LL LFPGYYYX LFPOYYYX LFPGYYYX 241429 METAR LFPG 241429Z 30023KT 9999 FEW030 18/17 Q1058
KK LFPGYYYX LFPNYYYX 270752 METAR LFPG 270752Z 09412KT 9999 FEW030 7/-6 Q1064
GG EGLLYYYX LFPBYYYX 151918 METAR LFPG 151918Z 33230KT 9999 FEW030 17/18 Q1048
FF LFPNYYYX LFPOYYYX EGLLYYYX 011947 METAR LFPG 011947Z 30146KT 9999 FEW030 32/12 Q1083
FF EDDFYYYX LFPNYYYX LFPBYYYX LFPOYYYX 160646 METAR LFPG 160646Z 08623KT 9999 FEW030 33/23 Q1046
KK LFPOYYYX EGLLYYYX EDDFYYYX 270432 METAR LFPG 270432Z 27832KT 9999 FEW030 -6/4 Q1028
FF LFPNYYYX LFPGYYYX LFPOYYYX LFPNYYYX 081652 METAR LFPG 081652Z 09027KT 9999 FEW030 -1/0 Q1031
GG LFPBYYYX LFPGYYYX LFPBYYYX EDDFYYYX 110850 METAR LFPG 110850Z 01214KT 9999 FEW030 35/-5 Q1002
LL EDDFYYYX EDDFYYYX 070442 METAR LFPG 070442Z 15128KT 9999 FEW030 -3/7 Q1043
KK EGLLYYYX EGLLYYYX LFPBYYYX LFPOYYYX 271518 METAR LFPG 271518Z 12441KT 9999 FEW030 1/22 Q1021
GG EDDFYYYX LFPNYYYX 130104 METAR LFPG 130104Z 05544KT 9999 FEW030 5/21 Q1023
SS EDDFYYYX LFPBYYYX 151403 METAR LFPG 151403Z 04511KT 9999 FEW030 12/-6 Q1028
GG EGLLYYYX LFPGYYYX LFPNYYYX EDDFYYYX 161155 METAR LFPG 161155Z 02820KT 9999 FEW030 4/25 Q1056
FF LFPBYYYX LFPGYYYX 170553 METAR LFPG 170553Z 10124KT 9999 FEW030 2/-6 Q1023
SS LFPOYYYX LFPBYYYX LFPOYYYX EDDFYYYX 082321 METAR LFPG 082321Z 08715KT 9999 FEW030 -4/19 Q1034
SS EDDFYYYX LFPNYYYX EGLLYYYX LFPBYYYX 270752 METAR LFPG 270752Z 23430KT 9999 FEW030 -10/25 Q1071
FF EDDFYYYX LFPBYYYX LFPNYYYX 282231 METAR LFPG 282231Z 28723KT 9999 FEW030 31/3 Q1068
DD EGLLYYYX EDDFYYYX LFPNYYYX 080734 METAR LFPG 080734Z 04132KT 9999 FEW030 12/9 Q1072
DD LFPOYYYX EGLLYYYX LFPOYYYX LFPBYYYX 080121 METAR LFPG 080121Z 30645KT 9999 FEW030 -1/13 Q1035
GG EDDFYYYX EGLLYYYX 070006 METAR LFPG 070006Z 03219KT 9999 FEW030 27/0 Q1082
LL LFPGYYYX EDDFYYYX LFPOYYYX 192324 METAR LFPG 192324Z 33919KT 9999 FEW030 3/22 Q1031
GG LFPNYYYX EGLLYYYX LFPGYYYX 080402 METAR LFPG 080402Z 15824KT 9999 FEW030 -8/-4 Q1017
SS LFPGYYYX EDDFYYYX LFPGYYYX 060254 METAR LFPG 060254Z 07341KT 9999 FEW030 27/-3 Q1027
KK LFPNYYYX EGLLYYYX 120948 METAR LFPG 120948Z 22113KT 9999 FEW030 28/-2 Q1002
LL LFPOYYYX LFPNYYYX LFPGYYYX EDDFYYYX 011302 METAR LFPG 011302Z 35025KT 9999 FEW030 -2/23 Q1001
DD LFPBYYYX EGLLYYYX LFPOYYYX LFPBYYYX 221538 METAR LFPG 221538Z 21424KT 9999 FEW030 8/14 Q1021
LL EDDFYYYX LFPNYYYX LFPBYYYX EDDFYYYX 241815 METAR LFPG 241815Z 04616KT 9999 FEW030 22/-6 Q1099
DD LFPGYYYX LFPGYYYX 251837 METAR LFPG 251837Z 25410KT 9999 FEW030 19/-3 Q1093
KK EGLLYYYX EGLLYYYX LFPGYYYX LFPOYYYX 040514 METAR LFPG 040514Z 35435KT 9999 FEW030 16/12 Q1064
FF EDDFYYYX EDDFYYYX LFPOYYYX EGLLYYYX 122140 METAR LFPG 122140Z 25814KT 9999 FEW030 -1/5 Q1092
KK LFPNYYYX LFPBYYYX 022220 METAR LFPG 022220Z 01017KT 9999 FEW030 23/17 Q1038
FF EDDFYYYX EDDFYYYX LFPBYYYX LFPNYYYX 110710 METAR LFPG 110710Z 08217KT 9999 FEW030 28/19 Q1053
GG LFPNYYYX LFPGYYYX EGLLYYYX 010656 METAR LFPG 010656Z 34431KT 9999 FEW030 -9/19 Q1100
FF LFPBYYYX EGLLYYYX LFPOYYYX 172010 METAR LFPG 172010Z 09934KT 9999 FEW030 26/13 Q1086
KK LFPGYYYX LFPNYYYX LFPBYYYX 011450 METAR LFPG 011450Z 35441KT 9999 FEW030 29/12 Q1034
KK LFPBYYYX EDDFYYYX LFPGYYYX LFPNYYYX 201012 METAR LFPG 201012Z 02847KT 9999 FEW030 28/-1 Q1027
FF LFPOYYYX EGLLYYYX LFPOYYYX 130224 METAR LFPG 130224Z 19622KT 9999 FEW030 16/14 Q1055
GG EGLLYYYX EGLLYYYX LFPBYYYX 231814 METAR LFPG 231814Z 14038KT 9999 FEW030 -1/-10 Q1068
LL EGLLYYYX LFPOYYYX EGLLYYYX LFPNYYYX 131651 METAR LFPG 131651Z 28546KT 9999 FEW030 -7/-1 Q1052
DD EDDFYYYX LFPBYYYX LFPNYYYX EDDFYYYX 132143 METAR LFPG 132143Z 08525KT 9999 FEW030 -2/0 Q1039
KK LFPNYYYX LFPNYYYX LFPOYYYX 222009 METAR LFPG 222009Z 16013KT 9999 FEW030 30/10 Q1083
DD EGLLYYYX LFPBYYYX 160005 METAR LFPG 160005Z 10128KT 9999 FEW030 2/-8 Q1096
LL LFPBYYYX LFPOYYYX 051551 METAR LFPG 051551Z 03611KT 9999 FEW030 -3/14 Q1076
FF LFPBYYYX EGLLYYYX 021228 METAR LFPG 021228Z 33946KT 9999 FEW030 11/1 Q1057
SS EDDFYYYX LFPBYYYX 031446 METAR LFPG 031446Z 29010KT 9999 FEW030 -4/13 Q1070
GG LFPOYYYX LFPBYYYX 170957 METAR LFPG 170957Z 09333KT 9999 FEW030 18/0 Q1033
GG EGLLYYYX LFPOYYYX LFPBYYYX 160454 METAR LFPG 160454Z 03550KT 9999 FEW030 3/22 Q1059
FF LFPBYYYX LFPGYYYX EDDFYYYX EGLLYYYX 220726 METAR LFPG 220726Z 25848KT 9999 FEW030 22/-4 Q1096
KK EGLLYYYX LFPGYYYX LFPOYYYX LFPBYYYX 150757 METAR LFPG 150757Z 28649KT 9999 FEW030 16/-2 Q1032
SS LFPNYYYX LFPBYYYX EDDFYYYX 020916 METAR LFPG 020916Z 18630KT 9999 FEW030 14/2 Q1009
LL EDDFYYYX EGLLYYYX LFPNYYYX LFPGYYYX 211717 METAR LFPG 211717Z 16524KT 9999 FEW030 17/24 Q1040
LL LFPOYYYX EDDFYYYX EGLLYYYX 120148 METAR LFPG 120148Z 00519KT 9999 FEW030 34/-3 Q1100
DD LFPBYYYX LFPGYYYX EDDFYYYX LFPOYYYX 042301 METAR LFPG 042301Z 13124KT 9999 FEW030 19/25 Q1007
DD EDDFYYYX LFPOYYYX 131254 METAR LFPG 131254Z 33241KT 9999 FEW030 5/21 Q1069
FF EDDFYYYX LFPOYYYX 040502 METAR LFPG 040502Z 13910KT 9999 FEW030 23/25 Q1064
KK LFPOYYYX LFPOYYYX EDDFYYYX LFPBYYYX 172010 METAR LFPG 172010Z 08339KT 9999 FEW030 -2/6 Q1034
SS LFPGYYYX LFPGYYYX LFPBYYYX 181752 METAR LFPG 181752Z 31323KT 9999 FEW030 27/9 Q1086
FF LFPBYYYX LFPGYYYX LFPBYYYX 021029 METAR LFPG 021029Z 00329KT 9999 FEW030 0/-7 Q1084
DD LFPNYYYX LFPGYYYX EGLLYYYX 191815 METAR LFPG 191815Z 01549KT 9999 FEW030 3/1 Q1100
KK LFPGYYYX LFPBYYYX EGLLYYYX LFPGYYYX 121848 METAR LFPG 121848Z 31835KT 9999 FEW030 0/1 Q1036
KK LFPNYYYX LFPBYYYX LFPOYYYX LFPNYYYX 080309 METAR LFPG 080309Z 11328KT 9999 FEW030 9/13 Q1005
FF LFPGYYYX EDDFYYYX LFPGYYYX 011830 METAR LFPG 011830Z 02121KT 9999 FEW030 -7/23 Q1007
LL LFPOYYYX LFPNYYYX 232257 METAR LFPG 232257Z 30830KT 9999 FEW030 -9/-8 Q1055
KK LFPOYYYX EGLLYYYX LFPGYYYX 140143 METAR LFPG 140143Z 32041KT 9999 FEW030 30/0 Q1084
GG LFPNYYYX EDDFYYYX 100410 METAR LFPG 100410Z 33349KT 9999 FEW030 13/1 Q1023
SS EGLLYYYX LFPNYYYX 011711 METAR LFPG 011711Z 00238KT 9999 FEW030 -2/20 Q1005
KK EGLLYYYX LFPNYYYX LFPBYYYX EDDFYYYX 050309 METAR LFPG 050309Z 24713KT 9999 FEW030 13/15 Q1052
KK EGLLYYYX LFPBYYYX LFPNYYYX LFPOYYYX 071251 METAR LFPG 071251Z 10016KT 9999 FEW030 29/7 Q1076
KK LFPGYYYX EDDFYYYX 272324 METAR LFPG 272324Z 29032KT 9999 FEW030 3/18 Q1020
FF LFPBYYYX LFPGYYYX EGLLYYYX 070205 METAR LFPG 070205Z 30723KT 9999 FEW030 19/7 Q1077
DD LFPBYYYX EDDFYYYX EGLLYYYX 042103 METAR LFPG 042103Z 32940KT 9999 FEW030 22/21 Q1073
KK EGLLYYYX EDDFYYYX LFPGYYYX 131014 METAR LFPG 131014Z 01347KT 9999 FEW030 4/-5 Q1073
DD LFPBYYYX LFPNYYYX LFPGYYYX 112052 METAR LFPG 112052Z 35643KT 9999 FEW030 5/-7 Q1043
SS LFPNYYYX EDDFYYYX LFPNYYYX LFPGYYYX 201340 METAR LFPG 201340Z 30519KT 9999 FEW030 -3/2 Q1074
SS LFPNYYYX LFPGYYYX LFPOYYYX 042053 METAR LFPG 042053Z 03713KT 9999 FEW030 -2/19 Q1046
KK LFPBYYYX EGLLYYYX 251856 METAR LFPG 251856Z 21148KT 9999 FEW030 3/-5 Q1034
GG LFPOYYYX LFPGYYYX EGLLYYYX LFPBYYYX 071522 METAR LFPG 071522Z 09947KT 9999 FEW030 28/19 Q1049
KK EDDFYYYX EGLLYYYX 262144 METAR LFPG 262144Z 21510KT 9999 FEW030 6/-4 Q1039
SS EGLLYYYX LFPBYYYX 202016 METAR LFPG 202016Z 10329KT 9999 FEW030 34/17 Q1056
LL LFPNYYYX LFPNYYYX 110716 METAR LFPG 110716Z 24112KT 9999 FEW030 24/4 Q1092
GG LFPGYYYX LFPOYYYX EGLLYYYX LFPNYYYX 080637 METAR LFPG 080637Z 23124KT 9999 FEW030 -4/-6 Q1012
KK LFPNYYYX EDDFYYYX 212251 METAR LFPG 212251Z 06943KT 9999 FEW030 -4/1 Q1073
LL EDDFYYYX LFPBYYYX 271457 METAR LFPG 271457Z 05850KT 9999 FEW030 -9/9 Q1067
KK LFPNYYYX LFPNYYYX 251726 METAR LFPG 251726Z 04113KT 9999 FEW030 -1/8 Q1077
KK LFPGYYYX LFPOYYYX EDDFYYYX 031443 METAR LFPG 031443Z 21443KT 9999 FEW030 12/17 Q1067
GG EDDFYYYX EGLLYYYX EDDFYYYX 271143 METAR LFPG 271143Z 06123KT 9999 FEW030 23/11 Q1079
SS EDDFYYYX EDDFYYYX LFPNYYYX 241659 METAR LFPG 241659Z 08635KT 9999 FEW030 28/13 Q1006
SS LFPGYYYX LFPGYYYX LFPNYYYX 101052 METAR LFPG 101052Z 20224KT 9999 FEW030 11/6 Q1049
FF LFPOYYYX LFPOYYYX 261018 METAR LFPG 261018Z 20540KT 9999 FEW030 18/-1 Q1036
LL EGLLYYYX LFPOYYYX 222226 METAR LFPG 222226Z 14950KT 9999 FEW030 -7/13 Q1015
LL LFPNYYYX LFPBYYYX EDDFYYYX 261452 METAR LFPG 261452Z 20912KT 9999 FEW030 6/6 Q1074
GG EGLLYYYX EGLLYYYX EDDFYYYX LFPOYYYX 241620 METAR LFPG 241620Z 24116KT 9999 FEW030 17/24 Q1046
FF LFPNYYYX LFPOYYYX 100857 METAR LFPG 100857Z 25734KT 9999 FEW030 15/3 Q1065
FF EGLLYYYX EDDFYYYX 081951 METAR LFPG 081951Z 08039KT 9999 FEW030 6/4 Q1023
SS EDDFYYYX LFPGYYYX EGLLYYYX EDDFYYYX 182319 METAR LFPG 182319Z 07319KT 9999 FEW030 0/-9 Q1090
FF EGLLYYYX LFPGYYYX EGLLYYYX EDDFYYYX 100648 METAR LFPG 100648Z 04050KT 9999 FEW030 35/9 Q1006
DD EGLLYYYX LFPGYYYX EGLLYYYX LFPBYYYX 261707 METAR LFPG 261707Z 21028KT 9999 FEW030 15/0 Q1079
GG EGLLYYYX LFPNYYYX LFPGYYYX 140002 METAR LFPG 140002Z 26448KT 9999 FEW030 29/24 Q1048
KK LFPOYYYX LFPNYYYX EGLLYYYX 200739 METAR LFPG 200739Z 09139KT 9999 FEW030 9/23 Q1020
LL LFPOYYYX LFPOYYYX LFPBYYYX 221712 METAR LFPG 221712Z 13718KT 9999 FEW030 -6/-3 Q1035
KK EDDFYYYX LFPNYYYX 162301 METAR LFPG 162301Z 25920KT 9999 FEW030 3/15 Q1014
LL EDDFYYYX EDDFYYYX EGLLYYYX 030921 METAR LFPG 030921Z 16318KT 9999 FEW030 19/-8 Q1000
KK EDDFYYYX LFPNYYYX LFPGYYYX 231818 METAR LFPG 231818Z 26344KT 9999 FEW030 14/-10 Q1029
SS EGLLYYYX EGLLYYYX EDDFYYYX 120032 METAR LFPG 120032Z 25729KT 9999 FEW030 28/-6 Q1022
LL LFPNYYYX LFPOYYYX EGLLYYYX LFPGYYYX 180444 METAR LFPG 180444Z 26324KT 9999 FEW030 17/21 Q1071
GG EDDFYYYX LFPNYYYX LFPOYYYX 071036 METAR LFPG 071036Z 21230KT 9999 FEW030 3/-8 Q1032
GG LFPGYYYX LFPOYYYX EGLLYYYX 062001 METAR LFPG 062001Z 11440KT 9999 FEW030 2/23 Q1048
LL EGLLYYYX LFPBYYYX LFPNYYYX LFPOYYYX 200827 METAR LFPG 200827Z 34142KT 9999 FEW030 23/16 Q1077
LL LFPGYYYX LFPNYYYX LFPGYYYX 211650 METAR LFPG 211650Z 26148KT 9999 FEW030 11/1 Q1061
SS LFPNYYYX EGLLYYYX LFPBYYYX LFPGYYYX 182229 METAR LFPG 182229Z 29047KT 9999 FEW030 11/-1 Q1068
FF EDDFYYYX LFPOYYYX LFPGYYYX 030927 METAR LFPG 030927Z 12311KT 9999 FEW030 4/2 Q1091
KK LFPOYYYX EDDFYYYX LFPNYYYX 061659 METAR LFPG 061659Z 28735KT 9999 FEW030 11/23 Q1074
GG LFPOYYYX EDDFYYYX EGLLYYYX 182326 METAR LFPG 182326Z 26639KT 9999 FEW030 10/-6 Q1081
DD LFPNYYYX EDDFYYYX 271335 METAR LFPG 271335Z 07541KT 9999 FEW030 4/6 Q1024
DD EGLLYYYX LFPGYYYX 021850 METAR LFPG 021850Z 02121KT 9999 FEW030 9/17 Q1016
SS EDDFYYYX LFPOYYYX 031508 METAR LFPG 031508Z 15712KT 9999 FEW030 35/-6 Q1011
LL EGLLYYYX LFPNYYYX 241829 METAR LFPG 241829Z 26832KT 9999 FEW030 23/7 Q1099
SS EGLLYYYX LFPGYYYX LFPOYYYX 232130 METAR LFPG 232130Z 35936KT 9999 FEW030 26/25 Q1047
KK EGLLYYYX LFPNYYYX 121622 METAR LFPG 121622Z 34832KT 9999 FEW030 -1/18 Q1047
KK LFPBYYYX EGLLYYYX 202358 METAR LFPG 202358Z 20318KT 9999 FEW030 30/4 Q1082
DD LFPGYYYX LFPNYYYX LFPOYYYX EDDFYYYX 130457 METAR LFPG 130457Z 00140KT 9999 FEW030 9/9 Q1053
SS EGLLYYYX LFPNYYYX LFPGYYYX 051023 METAR LFPG 051023Z 03848KT 9999 FEW030 22/22 Q1080
KK LFPOYYYX LFPOYYYX 070811 METAR LFPG 070811Z 23126KT 9999 FEW030 35/-7 Q1017
FF LFPBYYYX LFPBYYYX LFPNYYYX EDDFYYYX 221333 METAR LFPG 221333Z 34628KT 9999 FEW030 17/6 Q1082
DD LFPGYYYX EDDFYYYX EGLLYYYX 101655 METAR LFPG 101655Z 13019KT 9999 FEW030 35/22 Q1001
SS EGLLYYYX LFPNYYYX EGLLYYYX 052030 METAR LFPG 052030Z 30432KT 9999 FEW030 23/24 Q1074
FF LFPNYYYX LFPOYYYX LFPBYYYX EDDFYYYX 110733 METAR LFPG 110733Z 20550KT 9999 FEW030 34/16 Q1038
KK EDDFYYYX LFPNYYYX 070904 METAR LFPG 070904Z 08446KT 9999 FEW030 -9/3 Q1028
KK LFPBYYYX EDDFYYYX LFPGYYYX 232100 METAR LFPG 232100Z 08619KT 9999 FEW030 9/10 Q1017
DD LFPGYYYX LFPOYYYX 250049 METAR LFPG 250049Z 04250KT 9999 FEW030 17/13 Q1071
GG LFPGYYYX LFPBYYYX 251451 METAR LFPG 251451Z 25947KT 9999 FEW030 23/-9 Q1020
DD EDDFYYYX LFPBYYYX 051815 METAR LFPG 051815Z 31138KT 9999 FEW030 25/17 Q1066
FF LFPGYYYX LFPGYYYX 030739 METAR LFPG 030739Z 35949KT 9999 FEW030 -9/6 Q1035
KK EGLLYYYX EDDFYYYX LFPGYYYX LFPBYYYX 122249 METAR LFPG 122249Z 24525KT 9999 FEW030 3/-6 Q1009
LL LFPGYYYX EGLLYYYX LFPOYYYX 141218 METAR LFPG 141218Z 01427KT 9999 FEW030 13/23 Q1089
DD LFPOYYYX LFPOYYYX 011354 METAR LFPG 011354Z 13712KT 9999 FEW030 4/14 Q1090
SS EGLLYYYX LFPOYYYX 131026 METAR LFPG 131026Z 09131KT 9999 FEW030 -8/18 Q1013
SS LFPOYYYX EDDFYYYX 202010 METAR LFPG 202010Z 28144KT 9999 FEW030 31/3 Q1092
DD LFPOYYYX LFPGYYYX EGLLYYYX 121439 METAR LFPG 121439Z 31814KT 9999 FEW030 26/18 Q1088
DD LFPOYYYX LFPGYYYX LFPBYYYX LFPNYYYX 201405 METAR LFPG 201405Z 05212KT 9999 FEW030 0/1 Q1051
LL LFPNYYYX EDDFYYYX LFPNYYYX 281606 METAR LFPG 281606Z 13315KT 9999 FEW030 19/7 Q1022
KK LFPBYYYX EGLLYYYX LFPOYYYX EDDFYYYX 201814 METAR LFPG 201814Z 16334KT 9999 FEW030 -5/21 Q1072
LL LFPGYYYX EGLLYYYX LFPGYYYX 071325 METAR LFPG 071325Z 14840KT 9999 FEW030 30/17 Q1014
GG LFPBYYYX LFPNYYYX LFPOYYYX EDDFYYYX 271326 METAR LFPG 271326Z 19735KT 9999 FEW030 9/0 Q1072
FF EDDFYYYX EGLLYYYX 120427 METAR LFPG 120427Z 27740KT 9999 FEW030 8/-9 Q1065
LL EDDFYYYX LFPBYYYX EGLLYYYX LFPNYYYX 270912 METAR LFPG 270912Z 03832KT 9999 FEW030 9/2 Q1038
GG LFPNYYYX LFPOYYYX EGLLYYYX 052025 METAR LFPG 052025Z 32646KT 9999 FEW030 11/13 Q1061
GG LFPBYYYX EGLLYYYX LFPBYYYX 090603 METAR LFPG 090603Z 16831KT 9999 FEW030 26/4 Q1073
KK EDDFYYYX LFPGYYYX 180647 METAR LFPG 180647Z 05727KT 9999 FEW030 18/5 Q1070
KK LFPBYYYX LFPNYYYX LFPGYYYX 262322 METAR LFPG 262322Z 24225KT 9999 FEW030 18/5 Q1075
KK LFPGYYYX EDDFYYYX LFPBYYYX EGLLYYYX 010723 METAR LFPG 010723Z 31120KT 9999 FEW030 34/21 Q1082
DD LFPGYYYX LFPNYYYX LFPOYYYX 020144 METAR LFPG 020144Z 08244KT 9999 FEW030 4/-8 Q1018
LL EGLLYYYX EGLLYYYX LFPBYYYX LFPNYYYX 242216 METAR LFPG 242216Z 33250KT 9999 FEW030 17/7 Q1019
DD LFPGYYYX LFPNYYYX LFPBYYYX LFPOYYYX 060733 METAR LFPG 060733Z 20440KT 9999 FEW030 -9/0 Q1095
LL EDDFYYYX LFPOYYYX LFPGYYYX LFPBYYYX 140432 METAR LFPG 140432Z 21223KT 9999 FEW030 4/-2 Q1046
SS LFPOYYYX EGLLYYYX LFPBYYYX EDDFYYYX 042154 METAR LFPG 042154Z 11819KT 9999 FEW030 17/20 Q1044
SS LFPBYYYX LFPBYYYX 011154 METAR LFPG 011154Z 26547KT 9999 FEW030 27/7 Q1071
SS EGLLYYYX LFPOYYYX 171807 METAR LFPG 171807Z 00113KT 9999 FEW030 22/2 Q1029
DD EDDFYYYX LFPGYYYX 160514 METAR LFPG 160514Z 09939KT 9999 FEW030 -5/14 Q1098
KK LFPBYYYX LFPBYYYX EDDFYYYX 230602 METAR LFPG 230602Z 31049KT 9999 FEW030 18/14 Q1066
GG LFPOYYYX LFPBYYYX 190524 METAR LFPG 190524Z 13814KT 9999 FEW030 16/10 Q1034
LL LFPBYYYX EDDFYYYX LFPOYYYX LFPNYYYX 032121 METAR LFPG 032121Z 35947KT 9999 FEW030 -9/12 Q1060
FF EGLLYYYX LFPBYYYX 240826 METAR LFPG 240826Z 34121KT 9999 FEW030 -2/-8 Q1061
GG EGLLYYYX LFPBYYYX LFPGYYYX 170750 METAR LFPG 170750Z 13041KT 9999 FEW030 -10/14 Q1082
LL LFPBYYYX EDDFYYYX 020211 METAR LFPG 020211Z 22739KT 9999 FEW030 -9/17 Q1036
DD LFPNYYYX LFPNYYYX EDDFYYYX EGLLYYYX 211521 METAR LFPG 211521Z 25549KT 9999 FEW030 26/21 Q1084
GG LFPGYYYX LFPNYYYX 171347 METAR LFPG 171347Z 14939KT 9999 FEW030 0/-4 Q1055
FF LFPNYYYX LFPBYYYX LFPNYYYX EDDFYYYX 061013 METAR LFPG 061013Z 02850KT 9999 FEW030 30/-8 Q1089
SS EDDFYYYX LFPGYYYX EGLLYYYX 061034 METAR LFPG 061034Z 19739KT 9999 FEW030 11/-4 Q1060
SS EGLLYYYX LFPNYYYX 110026 METAR LFPG 110026Z 14635KT 9999 FEW030 19/19 Q1005
SS EDDFYYYX EGLLYYYX LFPOYYYX EDDFYYYX 071840 METAR LFPG 071840Z 30640KT 9999 FEW030 -5/15 Q1079
DD EGLLYYYX LFPGYYYX EDDFYYYX 231916 METAR LFPG 231916Z 24250KT 9999 FEW030 -2/21 Q1010
LL LFPNYYYX EDDFYYYX LFPNYYYX EGLLYYYX 220344 METAR LFPG 220344Z 25737KT 9999 FEW030 8/13 Q1075
LL LFPOYYYX LFPOYYYX EGLLYYYX 231047 METAR LFPG 231047Z 09545KT 9999 FEW030 11/2 Q1036
GG LFPNYYYX LFPOYYYX 090510 METAR LFPG 090510Z 31922KT 9999 FEW030 -7/-2 Q1078
LL LFPGYYYX LFPGYYYX 020332 METAR LFPG 020332Z 22219KT 9999 FEW030 -10/-3 Q1040
DD EGLLYYYX LFPOYYYX LFPBYYYX 220421 METAR LFPG 220421Z 25417KT 9999 FEW030 7/16 Q1005
FF LFPOYYYX LFPBYYYX 061406 METAR LFPG 061406Z 21837KT 9999 FEW030 35/-10 Q1034
GG LFPNYYYX LFPGYYYX 071318 METAR LFPG 071318Z 09339KT 9999 FEW030 -10/-7 Q1089
LL LFPBYYYX EGLLYYYX LFPGYYYX EDDFYYYX 190848 METAR LFPG 190848Z 09816KT 9999 FEW030 17/4 Q1026
KK EDDFYYYX EGLLYYYX 072007 METAR LFPG 072007Z 27234KT 9999 FEW030 2/19 Q1042
FF EGLLYYYX EDDFYYYX 251811 METAR LFPG 251811Z 32516KT 9999 FEW030 34/-3 Q1058
KK EGLLYYYX EDDFYYYX LFPNYYYX 281430 METAR LFPG 281430Z 30514KT 9999 FEW030 4/11 Q1070
GG LFPOYYYX LFPNYYYX LFPOYYYX LFPBYYYX 161653 METAR LFPG 161653Z 20148KT 9999 FEW030 -2/1 Q1069
FF LFPGYYYX EGLLYYYX LFPGYYYX EDDFYYYX 091442 METAR LFPG 091442Z 29729KT 9999 FEW030 34/25 Q1099
GG LFPBYYYX LFPGYYYX EDDFYYYX 062108 METAR LFPG 062108Z 19327KT 9999 FEW030 23/12 Q1008
DD EDDFYYYX LFPNYYYX EDDFYYYX 260138 METAR LFPG 260138Z 00547KT 9999 FEW030 -1/-2 Q1043
DD LFPNYYYX LFPNYYYX LFPGYYYX 261443 METAR LFPG 261443Z 27250KT 9999 FEW030 17/22 Q1087
DD LFPBYYYX LFPNYYYX LFPBYYYX 060716 METAR LFPG 060716Z 28646KT 9999 FEW030 13/21 Q1048
KK EDDFYYYX LFPBYYYX EGLLYYYX 241513 METAR LFPG 241513Z 03347KT 9999 FEW030 14/1 Q1030
LL LFPBYYYX EGLLYYYX LFPOYYYX EDDFYYYX 010627 METAR LFPG 010627Z 09247KT 9999 FEW030 23/5 Q1019
GG EDDFYYYX EGLLYYYX 191937 METAR LFPG 191937Z 31446KT 9999 FEW030 30/-8 Q1062
SS LFPGYYYX LFPGYYYX LFPOYYYX EDDFYYYX 210821 METAR LFPG 210821Z 17146KT 9999 FEW030 2/0 Q1044
GG EDDFYYYX LFPOYYYX LFPBYYYX 160639 METAR LFPG 160639Z 06934KT 9999 FEW030 -8/6 Q1030
FF LFPOYYYX EDDFYYYX LFPGYYYX LFPBYYYX 040648 METAR LFPG 040648Z 14022KT 9999 FEW030 3/4 Q1019
LL LFPBYYYX LFPNYYYX EGLLYYYX LFPOYYYX 201745 METAR LFPG 201745Z 03222KT 9999 FEW030 -7/-4 Q1098
SS LFPNYYYX LFPBYYYX LFPOYYYX LFPGYYYX 090657 METAR LFPG 090657Z 21227KT 9999 FEW030 11/25 Q1031
SS LFPNYYYX EDDFYYYX LFPOYYYX 200659 METAR LFPG 200659Z 30018KT 9999 FEW030 -2/9 Q1020
LL LFPBYYYX EGLLYYYX 131216 METAR LFPG 131216Z 27140KT 9999 FEW030 26/4 Q1066
FF LFPOYYYX EGLLYYYX LFPGYYYX LFPOYYYX 022303 METAR LFPG 022303Z 30230KT 9999 FEW030 26/13 Q1029
GG LFPGYYYX LFPNYYYX 222035 METAR LFPG 222035Z 21522KT 9999 FEW030 -6/3 Q1021
KK LFPNYYYX LFPOYYYX EDDFYYYX LFPGYYYX 020925 METAR LFPG 020925Z 24217KT 9999 FEW030 22/23 Q1073
GG LFPNYYYX LFPGYYYX LFPOYYYX 262006 METAR LFPG 262006Z 26428KT 9999 FEW030 24/8 Q1085
LL LFPGYYYX LFPBYYYX 100346 METAR LFPG 100346Z 23526KT 9999 FEW030 -4/20 Q1033
LL LFPNYYYX LFPNYYYX LFPOYYYX EDDFYYYX 131754 METAR LFPG 131754Z 16920KT 9999 FEW030 35/1 Q1053
FF LFPGYYYX EGLLYYYX EDDFYYYX LFPBYYYX 161245 METAR LFPG 161245Z 12222KT 9999 FEW030 31/-6 Q1022
KK LFPOYYYX EDDFYYYX LFPOYYYX LFPBYYYX 101402 METAR LFPG 101402Z 34650KT 9999 FEW030 5/-9 Q1022
FF EDDFYYYX EDDFYYYX LFPOYYYX LFPNYYYX 151536 METAR LFPG 151536Z 23619KT 9999 FEW030 28/-7 Q1019
SS EDDFYYYX LFPOYYYX EGLLYYYX 240637 METAR LFPG 240637Z 08117KT 9999 FEW030 13/-5 Q1067
DD LFPNYYYX EGLLYYYX LFPNYYYX 140951 METAR LFPG 140951Z 30031KT 9999 FEW030 31/21 Q1072
DD EDDFYYYX EGLLYYYX 061131 METAR LFPG 061131Z 00529KT 9999 FEW030 -2/14 Q1018
SS EDDFYYYX LFPNYYYX 220757 METAR LFPG 220757Z 24438KT 9999 FEW030 15/3 Q1006
GG LFPBYYYX LFPGYYYX 240843 METAR LFPG 240843Z 20223KT 9999 FEW030 15/12 Q1031
DD LFPNYYYX EDDFYYYX EGLLYYYX LFPNYYYX 091253 METAR LFPG 091253Z 29319KT 9999 FEW030 10/10 Q1041
DD LFPNYYYX LFPGYYYX LFPBYYYX 111707 METAR LFPG 111707Z 02737KT 9999 FEW030 29/18 Q1044
SS EGLLYYYX EDDFYYYX LFPNYYYX EGLLYYYX 151053 METAR LFPG 151053Z 13930KT 9999 FEW030 3/-1 Q1082
LL EDDFYYYX LFPOYYYX 110157 METAR LFPG 110157Z 16722KT 9999 FEW030 26/-9 Q1023
DD LFPGYYYX LFPGYYYX 121856 METAR LFPG 121856Z 19845KT 9999 FEW030 12/16 Q1061
DD EGLLYYYX LFPNYYYX EGLLYYYX LFPGYYYX 051916 METAR LFPG 051916Z 12217KT 9999 FEW030 -9/20 Q1080
GG EDDFYYYX LFPGYYYX EDDFYYYX LFPNYYYX 270949 METAR LFPG 270949Z 16320KT 9999 FEW030 6/6 Q1074
LL EGLLYYYX LFPGYYYX EDDFYYYX LFPOYYYX 220511 METAR LFPG 220511Z 10111KT 9999 FEW030 22/16 Q1005
FF EDDFYYYX LFPNYYYX 171030 METAR LFPG 171030Z 16249KT 9999 FEW030 20/-2 Q1091
KK LFPNYYYX LFPGYYYX EDDFYYYX 261159 METAR LFPG 261159Z 27629KT 9999 FEW030 35/4 Q1037
GG EGLLYYYX LFPOYYYX 170408 METAR LFPG 170408Z 12612KT 9999 FEW030 4/-8 Q1017
KK LFPGYYYX EDDFYYYX LFPOYYYX 270501 METAR LFPG 270501Z 11648KT 9999 FEW030 29/25 Q1097
LL LFPBYYYX EDDFYYYX 061837 METAR LFPG 061837Z 21228KT 9999 FEW030 -8/-9 Q1071
GG LFPNYYYX LFPNYYYX 270849 METAR LFPG 270849Z 13946KT 9999 FEW030 27/12 Q1072
GG LFPBYYYX EGLLYYYX LFPOYYYX 210237 METAR LFPG 210237Z 22039KT 9999 FEW030 21/-3 Q1029
LL EGLLYYYX LFPGYYYX 250616 METAR LFPG 250616Z 30735KT 9999 FEW030 17/8 Q1035
FF LFPGYYYX EGLLYYYX 140857 METAR LFPG 140857Z 05043KT 9999 FEW030 0/10 Q1049
KK EDDFYYYX LFPOYYYX 240428 METAR LFPG 240428Z 00531KT 9999 FEW030 34/10 Q1094
LL EGLLYYYX EDDFYYYX 110413 METAR LFPG 110413Z 17825KT 9999 FEW030 -5/15 Q1085
SS EGLLYYYX EGLLYYYX LFPOYYYX EDDFYYYX 161631 METAR LFPG 161631Z 30647KT 9999 FEW030 -3/0 Q1008
FF EDDFYYYX EDDFYYYX EGLLYYYX 050133 METAR LFPG 050133Z 27016KT 9999 FEW030 29/15 Q1008
SS EDDFYYYX EDDFYYYX 151637 METAR LFPG 151637Z 31821KT 9999 FEW030 17/-7 Q1015
KK LFPNYYYX EDDFYYYX LFPBYYYX 020734 METAR LFPG 020734Z 34910KT 9999 FEW030 -5/1 Q1095
GG EGLLYYYX LFPOYYYX 090745 METAR LFPG 090745Z 17743KT 9999 FEW030 -3/6 Q1028
LL EDDFYYYX LFPNYYYX EDDFYYYX LFPBYYYX 171722 METAR LFPG 171722Z 34935KT 9999 FEW030 22/9 Q1039
FF LFPNYYYX LFPOYYYX 062221 METAR LFPG 062221Z 31511KT 9999 FEW030 11/24 Q1058
KK LFPOYYYX EDDFYYYX LFPBYYYX LFPGYYYX 170913 METAR LFPG 170913Z 12346KT 9999 FEW030 -7/-3 Q1025
LL LFPBYYYX LFPNYYYX EDDFYYYX 190018 METAR LFPG 190018Z 33810KT 9999 FEW030 -9/-6 Q1056
GG EGLLYYYX LFPNYYYX 151205 METAR LFPG 151205Z 18922KT 9999 FEW030 8/2 Q1076
GG LFPGYYYX LFPGYYYX EGLLYYYX 101123 METAR LFPG 101123Z 20747KT 9999 FEW030 12/20 Q1048
DD LFPBYYYX EDDFYYYX LFPBYYYX EGLLYYYX 220743 METAR LFPG 220743Z 24248KT 9999 FEW030 27/1 Q1000
DD EDDFYYYX LFPNYYYX EDDFYYYX LFPGYYYX 241302 METAR LFPG 241302Z 33849KT 9999 FEW030 10/-7 Q1051
GG LFPGYYYX LFPOYYYX 020138 METAR LFPG 020138Z 24041KT 9999 FEW030 22/13 Q1039
GG LFPBYYYX LFPGYYYX LFPOYYYX LFPNYYYX 190613 METAR LFPG 190613Z 23718KT 9999 FEW030 6/17 Q1085
DD LFPNYYYX LFPNYYYX 151059 METAR LFPG 151059Z 32831KT 9999 FEW030 17/3 Q1035
FF LFPBYYYX LFPGYYYX LFPOYYYX EGLLYYYX 141557 METAR LFPG 141557Z 16436KT 9999 FEW030 11/-3 Q1018
SS LFPNYYYX LFPOYYYX 250621 METAR LFPG 250621Z 12833KT 9999 FEW030 -4/5 Q1012
LL LFPNYYYX LFPGYYYX LFPBYYYX LFPNYYYX 151557 METAR LFPG 151557Z 04132KT 9999 FEW030 35/-10 Q1062
SS LFPGYYYX EGLLYYYX LFPBYYYX 282159 METAR LFPG 282159Z 28826KT 9999 FEW030 10/-7 Q1067
LL EDDFYYYX EDDFYYYX LFPBYYYX LFPGYYYX 040550 METAR LFPG 040550Z 08029KT 9999 FEW030 -5/5 Q1025
SS LFPOYYYX LFPBYYYX 171502 METAR LFPG 171502Z 00832KT 9999 FEW030 35/0 Q1043
GG EDDFYYYX LFPBYYYX LFPOYYYX LFPNYYYX 270758 METAR LFPG 270758Z 27524KT 9999 FEW030 31/25 Q1004
GG EDDFYYYX LFPGYYYX 121122 METAR LFPG 121122Z 26616KT 9999 FEW030 31/10 Q1076
DD LFPGYYYX LFPOYYYX 261531 METAR LFPG 261531Z 04928KT 9999 FEW030 17/15 Q1042
DD LFPBYYYX EDDFYYYX EGLLYYYX LFPNYYYX 130116 METAR LFPG 130116Z 24439KT 9999 FEW030 14/-5 Q1047
LL LFPBYYYX LFPGYYYX 140046 METAR LFPG 140046Z 12344KT 9999 FEW030 25/10 Q1067
SS EDDFYYYX LFPGYYYX EDDFYYYX LFPNYYYX 261225 METAR LFPG 261225Z 28630KT 9999 FEW030 0/5 Q1052
LL LFPOYYYX LFPBYYYX LFPGYYYX LFPNYYYX 201700 METAR LFPG 201700Z 18321KT 9999 FEW030 25/-5 Q1045
FF LFPBYYYX EGLLYYYX LFPBYYYX LFPOYYYX 221158 METAR LFPG 221158Z 08547KT 9999 FEW030 0/18 Q1070
DD EGLLYYYX LFPBYYYX EDDFYYYX 220925 METAR LFPG 220925Z 35917KT 9999 FEW030 12/4 Q1053
SS EDDFYYYX LFPGYYYX LFPBYYYX 151215 METAR LFPG 151215Z 14021KT 9999 FEW030 14/5 Q1027
KK EGLLYYYX EGLLYYYX 221802 METAR LFPG 221802Z 11519KT 9999 FEW030 -6/-2 Q1034
GG LFPNYYYX LFPBYYYX 161514 METAR LFPG 161514Z 11635KT 9999 FEW030 -10/13 Q1039
SS LFPOYYYX LFPGYYYX LFPNYYYX 110021 METAR LFPG 110021Z 33642KT 9999 FEW030 12/5 Q1085
DD EDDFYYYX EDDFYYYX LFPNYYYX 061114 METAR LFPG 061114Z 09529KT 9999 FEW030 8/-1 Q1027
FF EDDFYYYX LFPNYYYX 171754 METAR LFPG 171754Z 16017KT 9999 FEW030 -7/0 Q1028
DD EDDFYYYX LFPBYYYX 141059 METAR LFPG 141059Z 00833KT 9999 FEW030 20/5 Q1030
KK LFPOYYYX EGLLYYYX LFPGYYYX 152343 METAR LFPG 152343Z 31045KT 9999 FEW030 15/14 Q1098
GG LFPGYYYX LFPNYYYX LFPBYYYX 271944 METAR LFPG 271944Z 32214KT 9999 FEW030 7/5 Q1049
GG EGLLYYYX EDDFYYYX LFPGYYYX 210517 METAR LFPG 210517Z 29444KT 9999 FEW030 10/23 Q1100
FF EDDFYYYX EGLLYYYX 250947 METAR LFPG 250947Z 31527KT 9999 FEW030 25/16 Q1057
DD EGLLYYYX LFPOYYYX EDDFYYYX 251256 METAR LFPG 251256Z 06537KT 9999 FEW030 11/1 Q1087
KK EDDFYYYX LFPGYYYX LFPNYYYX EDDFYYYX 171302 METAR LFPG 171302Z 03119KT 9999 FEW030 30/21 Q1015
KK EGLLYYYX LFPOYYYX 132157 METAR LFPG 132157Z 10618KT 9999 FEW030 15/18 Q1060
KK LFPNYYYX EGLLYYYX LFPBYYYX LFPGYYYX 270007 METAR LFPG 270007Z 13030KT 9999 FEW030 22/20 Q1075
