GG LFPBYYYX LFPBYYYX EGLLYYYX LFPOYYYX 010244 METAR LFPG 010244Z 26313KT 9999 FEW030 7/15 Q1041
DD LFPGYYYX EGLLYYYX 021925 METAR LFPG 021925Z 06454KT 9999 FEW030 0/1 Q1014
KK LFPYYYX LFPOYYYX EDDFYYYX 250241 METAR LFPG 250241Z 31149KT 9999 FEW030 20/17 Q1002
LL LFPGYYYX LFPGYYYX EDDFYYYX 131857 METAR LFPG 131857Z 20755KT 9999 FEW030 18/5 Q1015
DD EGLLYYYX LFPBYYYX EDDFYYYX 040204 METAR LFPG 040204Z 33443KT 9999 FEW030 0/9 Q1099
SS LFPYYYX EGLLYYYX EDDFYYYX 051117 METAR LFPG 051117Z 17556KT 9999 FEW030 26/7 Q1046
KK LFPYYYX LFPOYYYX LFPBYYYX 061902 METAR LFPG 061902Z 28050KT 9999 FEW030 23/2 Q1075
KK LFPYYYX LFPGYYYX LFPOYYYX LFPOYYYX 271303 METAR LFPG 271303Z 03312KT 9999 FEW030 28/11 Q1039
SS LFPNYYYX EGLLYYYX LFPGYYYX EDDFYYYX 131849 METAR LFPG 131849Z 20737KT 9999 FEW030 27/13 Q1097
SS LFPYYYX LFPNYYYX EGLLYYYX 260322 METAR LFPG 260322Z 12010KT 9999 FEW030 4/2 Q1061
DD LFPNYYYX LFPNYYYX EGLLYYYX 260737 METAR LFPG 260737Z 19646KT 9999 FEW030 2/19 Q1001
SS EDDFYYYX EGLLYYYX 180329 METAR LFPG 180329Z 11948KT 9999 FEW030 28/13 Q1039
LL LFPGYYYX LFPNYYYX 221946 METAR LFPG 221946Z 25654KT 9999 FEW030 28/10 Q1039
SS LFPNYYYX LFPBYYYX EDDFYYYX 250657 METAR LFPG 250657Z 14715KT 9999 FEW030 13/9 Q1072
FF LFPYYYX EDDFYYYX LFPNYYYX EGLLYYYX 110143 METAR LFPG 110143Z 26152KT 9999 FEW030 12/2 Q1041
KK LFPNYYYX EGLLYYYX LFPNYYYX 092212 METAR LFPG 092212Z 28353KT 9999 FEW030 16/17 Q1005
FF LFPNYYYX LFPNYYYX LFPGYYYX 241315 METAR LFPG 241315Z 34644KT 9999 FEW030 1/3 Q1074
SS LFPNYYYX EDDFYYYX LFPNYYYX 241731 METAR LFPG 241731Z 18210KT 9999 FEW030 21/18 Q1093
FF LFPOYYYX LFPBYYYX LFPOYYYX EGLLYYYX 171013 METAR LFPG 171013Z 34311KT 9999 FEW030 15/19 Q1058
KK EDDFYYYX LFPOYYYX 132224 METAR LFPG 132224Z 11513KT 9999 FEW030 9/11 Q1014
KK EGLLYYYX LFPGYYYX EDDFYYYX EGLLYYYX 252240 METAR LFPG 252240Z 25949KT 9999 FEW030 8/18 Q1034
KK LFPNYYYX LFPGYYYX LFPBYYYX 071207 METAR LFPG 071207Z 22525KT 9999 FEW030 9/14 Q1087
KK LFPGYYYX LFPNYYYX EDDFYYYX 251440 METAR LFPG 251440Z 01119KT 9999 FEW030 17/5 Q1027
KK EGLLYYYX LFPBYYYX 141129 METAR LFPG 141129Z 00818KT 9999 FEW030 26/4 Q1026
GG LFPYYYX EDDFYYYX 221106 METAR LFPG 221106Z 22424KT 9999 FEW030 7/4 Q1017
LL LFPOYYYX LFPNYYYX EDDFYYYX EDDFYYYX 241711 METAR LFPG 241711Z 23040KT 9999 FEW030 17/9 Q1050
LL LFPGYYYX LFPNYYYX LFPNYYYX EGLLYYYX 211445 METAR LFPG 211445Z 20353KT 9999 FEW030 3/12 Q1046
FF EDDFYYYX LFPOYYYX LFPOYYYX EGLLYYYX 012341 METAR LFPG 012341Z 25940KT 9999 FEW030 12/19 Q1009
DD LFPBYYYX EDDFYYYX 070423 METAR LFPG 070423Z 24151KT 9999 FEW030 6/6 Q1048
KK EGLLYYYX LFPOYYYX 011445 METAR LFPG 011445Z 32313KT 9999 FEW030 2/2 Q1004
GG EGLLYYYX EDDFYYYX LFPGYYYX 070143 METAR LFPG 070143Z 14152KT 9999 FEW030 13/1 Q1068
GG LFPYYYX LFPNYYYX EGLLYYYX 032034 METAR LFPG 032034Z 30523KT 9999 FEW030 1/4 Q1088
KK LFPNYYYX EGLLYYYX EGLLYYYX EGLLYYYX 262002 METAR LFPG 262002Z 28021KT 9999 FEW030 11/14 Q1088
GG LFPOYYYX EDDFYYYX LFPBYYYX 081308 METAR LFPG 081308Z 22646KT 9999 FEW030 29/12 Q1025
KK EGLLYYYX LFPGYYYX LFPBYYYX 261137 METAR LFPG 261137Z 24828KT 9999 FEW030 3/8 Q1073
SS LFPOYYYX EGLLYYYX EGLLYYYX LFPBYYYX 131844 METAR LFPG 131844Z 25543KT 9999 FEW030 23/19 Q1058
KK EDDFYYYX LFPOYYYX EGLLYYYX 130612 METAR LFPG 130612Z 05111KT 9999 FEW030 3/4 Q1094
FF EDDFYYYX LFPOYYYX EGLLYYYX 120152 METAR LFPG 120152Z 14210KT 9999 FEW030 17/0 Q1057
FF EGLLYYYX LFPBYYYX EDDFYYYX LFPOYYYX 081308 METAR LFPG 081308Z 10626KT 9999 FEW030 16/15 Q1095
FF LFPNYYYX LFPNYYYX LFPNYYYX 030523 METAR LFPG 030523Z 12122KT 9999 FEW030 13/0 Q1031
SS LFPNYYYX EDDFYYYX EGLLYYYX 150851 METAR LFPG 150851Z 26959KT 9999 FEW030 15/2 Q1054
DD LFPNYYYX EDDFYYYX LFPBYYYX 070115 METAR LFPG 070115Z 04543KT 9999 FEW030 14/2 Q1048
FF EDDFYYYX EGLLYYYX LFPGYYYX 171856 METAR LFPG 171856Z 08725KT 9999 FEW030 8/8 Q1024
FF EDDFYYYX LFPBYYYX 021529 METAR LFPG 021529Z 18038KT 9999 FEW030 24/18 Q1082
DD LFPOYYYX EDDFYYYX LFPOYYYX 211024 METAR LFPG 211024Z 17413KT 9999 FEW030 23/11 Q1052
SS LFPGYYYX LFPGYYYX EGLLYYYX 101105 METAR LFPG 101105Z 22334KT 9999 FEW030 16/14 Q1075
FF EGLLYYYX LFPOYYYX 160500 METAR LFPG 160500Z 21838KT 9999 FEW030 23/18 Q1012
GG EGLLYYYX EDDFYYYX LFPGYYYX 091141 METAR LFPG 091141Z 19910KT 9999 FEW030 9/6 Q1053
KK LFPYYYX LFPOYYYX 270826 METAR LFPG 270826Z 12515KT 9999 FEW030 7/18 Q1093
KK LFPBYYYX LFPGYYYX 120120 METAR LFPG 120120Z 11838KT 9999 FEW030 5/15 Q1067
DD LFPNYYYX EDDFYYYX LFPBYYYX 280648 METAR LFPG 280648Z 14647KT 9999 FEW030 16/19 Q1066
FF LFPBYYYX LFPOYYYX 111634 METAR LFPG 111634Z 25313KT 9999 FEW030 6/1 Q1041
SS EGLLYYYX EDDFYYYX 180018 METAR LFPG 180018Z 35647KT 9999 FEW030 3/17 Q1090
FF LFPGYYYX LFPGYYYX LFPOYYYX 241048 METAR LFPG 241048Z 31826KT 9999 FEW030 7/4 Q1019
GG EDDFYYYX LFPGYYYX LFPBYYYX 090205 METAR LFPG 090205Z 21523KT 9999 FEW030 6/10 Q1041
DD LFPBYYYX LFPNYYYX EDDFYYYX 172248 METAR LFPG 172248Z 25927KT 9999 FEW030 24/10 Q1051
DD EDDFYYYX LFPOYYYX LFPOYYYX EDDFYYYX 091856 METAR LFPG 091856Z 08715KT 9999 FEW030 15/5 Q1053
GG LFPYYYX LFPGYYYX EGLLYYYX 181505 METAR LFPG 181505Z 03544KT 9999 FEW030 28/11 Q1090
SS EDDFYYYX LFPNYYYX LFPGYYYX 280624 METAR LFPG 280624Z 24253KT 9999 FEW030 29/13 Q1094
DD EGLLYYYX LFPGYYYX 162128 METAR LFPG 162128Z 30616KT 9999 FEW030 15/3 Q1040
LL LFPGYYYX EGLLYYYX LFPNYYYX LFPBYYYX 131408 METAR LFPG 131408Z 10637KT 9999 FEW030 8/12 Q1084
LL LFPGYYYX EGLLYYYX 091408 METAR LFPG 091408Z 34747KT 9999 FEW030 13/16 Q1014
DD LFPOYYYX EGLLYYYX 040912 METAR LFPG 040912Z 10220KT 9999 FEW030 21/16 Q1035
FF EGLLYYYX LFPGYYYX LFPNYYYX LFPGYYYX 062038 METAR LFPG 062038Z 25647KT 9999 FEW030 0/11 Q1064
SS LFPOYYYX LFPNYYYX LFPNYYYX 011005 METAR LFPG 011005Z 22353KT 9999 FEW030 9/1 Q1016
KK EGLLYYYX LFPBYYYX LFPBYYYX 201755 METAR LFPG 201755Z 08634KT 9999 FEW030 4/17 Q1088
GG LFPOYYYX LFPNYYYX EDDFYYYX 260814 METAR LFPG 260814Z 05253KT 9999 FEW030 5/2 Q1091
FF LFPBYYYX EGLLYYYX 031351 METAR LFPG 031351Z 20150KT 9999 FEW030 17/13 Q1067
FF EDDFYYYX LFPBYYYX 201428 METAR LFPG 201428Z 05817KT 9999 FEW030 6/10 Q1034
FF EDDFYYYX EGLLYYYX LFPNYYYX EDDFYYYX 020358 METAR LFPG 020358Z 33646KT 9999 FEW030 18/12 Q1062
LL LFPYYYX EGLLYYYX EDDFYYYX 022338 METAR LFPG 022338Z 30838KT 9999 FEW030 25/0 Q1078
SS LFPYYYX LFPGYYYX LFPGYYYX LFPNYYYX 170649 METAR LFPG 170649Z 26727KT 9999 FEW030 26/3 Q1055
GG LFPOYYYX EDDFYYYX 160951 METAR LFPG 160951Z 15020KT 9999 FEW030 3/12 Q1052
FF LFPNYYYX LFPBYYYX LFPBYYYX 162103 METAR LFPG 162103Z 04122KT 9999 FEW030 27/16 Q1002
GG LFPBYYYX EDDFYYYX 191623 METAR LFPG 191623Z 18151KT 9999 FEW030 0/17 Q1006
LL EGLLYYYX EGLLYYYX LFPBYYYX 141922 METAR LFPG 141922Z 11230KT 9999 FEW030 25/13 Q1054
LL EDDFYYYX LFPNYYYX EDDFYYYX 020454 METAR LFPG 020454Z 14435KT 9999 FEW030 10/5 Q1080
LL LFPOYYYX EGLLYYYX 011856 METAR LFPG 011856Z 20745KT 9999 FEW030 25/14 Q1025
FF LFPGYYYX LFPBYYYX 131000 METAR LFPG 131000Z 27059KT 9999 FEW030 3/7 Q1031
KK LFPGYYYX LFPGYYYX 170209 METAR LFPG 170209Z 28717KT 9999 FEW030 2/9 Q1068
LL LFPYYYX EDDFYYYX 020342 METAR LFPG 020342Z 31210KT 9999 FEW030 1/9 Q1041
KK LFPGYYYX LFPOYYYX 080220 METAR LFPG 080220Z 35839KT 9999 FEW030 22/3 Q1009
FF LFPGYYYX LFPOYYYX LFPNYYYX EDDFYYYX 031238 METAR LFPG 031238Z 12947KT 9999 FEW030 15/13 Q1020
SS LFPNYYYX LFPBYYYX 260006 METAR LFPG 260006Z 28425KT 9999 FEW030 3/3 Q1088
KK LFPYYYX EDDFYYYX 021522 METAR LFPG 021522Z 06020KT 9999 FEW030 23/1 Q1094
FF LFPBYYYX LFPNYYYX 070422 METAR LFPG 070422Z 24011KT 9999 FEW030 6/2 Q1046
GG LFPYYYX EGLLYYYX EGLLYYYX EGLLYYYX 270834 METAR LFPG 270834Z 24413KT 9999 FEW030 23/14 Q1006
LL EDDFYYYX EGLLYYYX 081052 METAR LFPG 081052Z 02221KT 9999 FEW030 23/14 Q1029
KK EGLLYYYX EDDFYYYX LFPGYYYX LFPBYYYX 080115 METAR LFPG 080115Z 28614KT 9999 FEW030 21/2 Q1058
KK LFPYYYX LFPGYYYX EDDFYYYX 221921 METAR LFPG 221921Z 11120KT 9999 FEW030 9/10 Q1043
FF LFPOYYYX LFPBYYYX 091420 METAR LFPG 091420Z 17919KT 9999 FEW030 21/5 Q1056
KK LFPBYYYX LFPOYYYX 070143 METAR LFPG 070143Z 02112KT 9999 FEW030 18/19 Q1009
KK LFPYYYX LFPBYYYX LFPOYYYX 231647 METAR LFPG 231647Z 32545KT 9999 FEW030 4/6 Q1025
LL LFPGYYYX LFPNYYYX EGLLYYYX 020358 METAR LFPG 020358Z 32836KT 9999 FEW030 19/7 Q1009
DD LFPBYYYX EDDFYYYX LFPGYYYX 011416 METAR LFPG 011416Z 34715KT 9999 FEW030 13/2 Q1028
SS LFPNYYYX EGLLYYYX LFPGYYYX 161707 METAR LFPG 161707Z 27846KT 9999 FEW030 16/4 Q1009
SS LFPBYYYX LFPBYYYX LFPGYYYX 230915 METAR LFPG 230915Z 05324KT 9999 FEW030 6/10 Q1051
LL LFPOYYYX EDDFYYYX LFPGYYYX EGLLYYYX 051037 METAR LFPG 051037Z 12735KT 9999 FEW030 2/11 Q1042
DD LFPBYYYX EGLLYYYX 180358 METAR LFPG 180358Z 21626KT 9999 FEW030 6/5 Q1054
KK EDDFYYYX LFPBYYYX EDDFYYYX 261101 METAR LFPG 261101Z 15230KT 9999 FEW030 14/4 Q1002
GG LFPOYYYX EDDFYYYX EDDFYYYX LFPOYYYX 221510 METAR LFPG 221510Z 22838KT 9999 FEW030 5/4 Q1038
DD EDDFYYYX LFPOYYYX EGLLYYYX LFPOYYYX 200912 METAR LFPG 200912Z 10210KT 9999 FEW030 11/14 Q1059
LL LFPBYYYX LFPGYYYX LFPNYYYX 260430 METAR LFPG 260430Z 12029KT 9999 FEW030 12/18 Q1019
FF LFPYYYX LFPNYYYX LFPOYYYX 102325 METAR LFPG 102325Z 23626KT 9999 FEW030 12/11 Q1058
LL LFPYYYX LFPNYYYX 031647 METAR LFPG 031647Z 20555KT 9999 FEW030 16/12 Q1041
FF LFPOYYYX EGLLYYYX 220321 METAR LFPG 220321Z 12020KT 9999 FEW030 3/3 Q1065
SS LFPNYYYX LFPGYYYX EGLLYYYX EGLLYYYX 051509 METAR LFPG 051509Z 22748KT 9999 FEW030 3/9 Q1090
LL EDDFYYYX EGLLYYYX LFPGYYYX 040632 METAR LFPG 040632Z 12221KT 9999 FEW030 0/19 Q1036
KK LFPOYYYX LFPBYYYX 270107 METAR LFPG 270107Z 04556KT 9999 FEW030 18/6 Q1056
SS LFPGYYYX LFPBYYYX LFPBYYYX 171421 METAR LFPG 171421Z 29939KT 9999 FEW030 6/0 Q1046
FF LFPBYYYX LFPNYYYX LFPNYYYX 241856 METAR LFPG 241856Z 32645KT 9999 FEW030 16/10 Q1029
SS LFPOYYYX LFPNYYYX LFPOYYYX EDDFYYYX 070814 METAR LFPG 070814Z 16523KT 9999 FEW030 16/12 Q1027
SS LFPNYYYX LFPBYYYX EGLLYYYX 272035 METAR LFPG 272035Z 30533KT 9999 FEW030 19/18 Q1029
SS LFPYYYX LFPNYYYX 101506 METAR LFPG 101506Z 03644KT 9999 FEW030 25/1 Q1012
FF LFPGYYYX LFPBYYYX EDDFYYYX 092240 METAR LFPG 092240Z 01939KT 9999 FEW030 12/4 Q1092
SS LFPNYYYX LFPGYYYX 191623 METAR LFPG 191623Z 30121KT 9999 FEW030 7/7 Q1009
GG LFPOYYYX EDDFYYYX LFPBYYYX 051149 METAR LFPG 051149Z 07958KT 9999 FEW030 8/10 Q1030
GG LFPNYYYX EDDFYYYX 080115 METAR LFPG 080115Z 28644KT 9999 FEW030 8/2 Q1061
GG LFPYYYX EGLLYYYX EGLLYYYX 071635 METAR LFPG 071635Z 13343KT 9999 FEW030 18/14 Q1038
SS LFPNYYYX LFPNYYYX 211837 METAR LFPG 211837Z 01525KT 9999 FEW030 24/18 Q1031
DD LFPOYYYX LFPBYYYX EGLLYYYX LFPGYYYX 010321 METAR LFPG 010321Z 11920KT 9999 FEW030 21/7 Q1070
SS LFPGYYYX EDDFYYYX 151218 METAR LFPG 151218Z 29737KT 9999 FEW030 23/13 Q1008
DD LFPOYYYX EGLLYYYX LFPOYYYX LFPOYYYX 112026 METAR LFPG 112026Z 18515KT 9999 FEW030 14/4 Q1079
KK EGLLYYYX LFPOYYYX EGLLYYYX LFPBYYYX 010713 METAR LFPG 010713Z 17142KT 9999 FEW030 5/1 Q1056
DD LFPOYYYX EGLLYYYX LFPNYYYX LFPOYYYX 072014 METAR LFPG 072014Z 11343KT 9999 FEW030 19/9 Q1025
SS LFPOYYYX EGLLYYYX LFPNYYYX LFPBYYYX 120139 METAR LFPG 120139Z 06958KT 9999 FEW030 18/10 Q1040
SS LFPYYYX LFPBYYYX LFPNYYYX 281711 METAR LFPG 281711Z 35010KT 9999 FEW030 3/1 Q1019
GG LFPOYYYX EGLLYYYX EGLLYYYX 151635 METAR LFPG 151635Z 13313KT 9999 FEW030 8/10 Q1048
GG EGLLYYYX EDDFYYYX 091028 METAR LFPG 091028Z 35957KT 9999 FEW030 6/0 Q1081
GG LFPGYYYX LFPNYYYX LFPGYYYX LFPBYYYX 191218 METAR LFPG 191218Z 29657KT 9999 FEW030 9/16 Q1074
KK LFPGYYYX LFPNYYYX LFPGYYYX 042252 METAR LFPG 042252Z 08251KT 9999 FEW030 17/9 Q1039
LL LFPOYYYX EDDFYYYX 030131 METAR LFPG 030131Z 06950KT 9999 FEW030 8/16 Q1060
GG LFPYYYX EGLLYYYX EGLLYYYX LFPOYYYX 011429 METAR LFPG 011429Z 29937KT 9999 FEW030 11/11 Q1061
FF LFPOYYYX LFPOYYYX EDDFYYYX 171901 METAR LFPG 171901Z 15910KT 9999 FEW030 25/17 Q1097
SS LFPOYYYX LFPBYYYX LFPBYYYX 231239 METAR LFPG 231239Z 24947KT 9999 FEW030 8/4 Q1011
KK EDDFYYYX LFPOYYYX LFPOYYYX 152050 METAR LFPG 152050Z 32949KT 9999 FEW030 2/16 Q1021
LL LFPOYYYX EGLLYYYX EGLLYYYX 180749 METAR LFPG 180749Z 02818KT 9999 FEW030 13/1 Q1071
FF LFPYYYX EDDFYYYX EGLLYYYX 280636 METAR LFPG 280636Z 19444KT 9999 FEW030 12/18 Q1022
GG LFPBYYYX EGLLYYYX LFPGYYYX LFPOYYYX 161759 METAR LFPG 161759Z 03738KT 9999 FEW030 10/6 Q1035
KK EDDFYYYX EDDFYYYX 051428 METAR LFPG 051428Z 05917KT 9999 FEW030 14/17 Q1033
LL EDDFYYYX LFPBYYYX 051821 METAR LFPG 051821Z 35119KT 9999 FEW030 18/3 Q1018
DD LFPGYYYX LFPGYYYX LFPOYYYX 202152 METAR LFPG 202152Z 09010KT 9999 FEW030 24/11 Q1004
SS LFPOYYYX EGLLYYYX 100725 METAR LFPG 100725Z 12444KT 9999 FEW030 10/13 Q1070
LL EDDFYYYX EDDFYYYX 131433 METAR LFPG 131433Z 13111KT 9999 FEW030 0/8 Q1057
LL EGLLYYYX EGLLYYYX EDDFYYYX LFPBYYYX 251417 METAR LFPG 251417Z 10715KT 9999 FEW030 18/11 Q1074
FF LFPYYYX EGLLYYYX LFPOYYYX 010229 METAR LFPG 010229Z 35957KT 9999 FEW030 5/16 Q1055
KK EDDFYYYX EDDFYYYX LFPOYYYX 170232 METAR LFPG 170232Z 07151KT 9999 FEW030 29/17 Q1073
GG EGLLYYYX LFPNYYYX LFPOYYYX EGLLYYYX 141634 METAR LFPG 141634Z 13233KT 9999 FEW030 5/3 Q1006
DD LFPYYYX EDDFYYYX 110131 METAR LFPG 110131Z 30940KT 9999 FEW030 15/18 Q1010
LL EGLLYYYX EGLLYYYX 261642 METAR LFPG 261642Z 25231KT 9999 FEW030 0/10 Q1098
FF EDDFYYYX EGLLYYYX LFPOYYYX LFPOYYYX 080252 METAR LFPG 080252Z 14220KT 9999 FEW030 14/0 Q1029
KK LFPYYYX LFPOYYYX EDDFYYYX 121303 METAR LFPG 121303Z 27452KT 9999 FEW030 8/15 Q1058
LL LFPBYYYX LFPNYYYX EDDFYYYX 061926 METAR LFPG 061926Z 30454KT 9999 FEW030 13/0 Q1080
KK EDDFYYYX EDDFYYYX LFPBYYYX 181125 METAR LFPG 181125Z 05654KT 9999 FEW030 17/10 Q1020
SS LFPYYYX LFPBYYYX EGLLYYYX LFPNYYYX 091813 METAR LFPG 091813Z 35111KT 9999 FEW030 17/11 Q1083
FF LFPBYYYX LFPGYYYX 271731 METAR LFPG 271731Z 30150KT 9999 FEW030 10/3 Q1070
KK LFPNYYYX LFPGYYYX LFPNYYYX EDDFYYYX 222022 METAR LFPG 222022Z 23211KT 9999 FEW030 13/1 Q1045
SS EGLLYYYX LFPBYYYX EGLLYYYX LFPOYYYX 131509 METAR LFPG 131509Z 34748KT 9999 FEW030 13/2 Q1037
KK LFPOYYYX LFPNYYYX LFPNYYYX 280507 METAR LFPG 280507Z 09716KT 9999 FEW030 15/9 Q1057
GG EDDFYYYX EDDFYYYX 121307 METAR LFPG 121307Z 10626KT 9999 FEW030 28/9 Q1099
GG EDDFYYYX LFPOYYYX EDDFYYYX 262318 METAR LFPG 262318Z 11636KT 9999 FEW030 21/11 Q1078
FF LFPOYYYX LFPNYYYX 081328 METAR LFPG 081328Z 05836KT 9999 FEW030 5/7 Q1077
FF LFPYYYX LFPOYYYX LFPGYYYX LFPGYYYX 021642 METAR LFPG 021642Z 01220KT 9999 FEW030 24/1 Q1015
FF EGLLYYYX LFPBYYYX 101622 METAR LFPG 101622Z 18021KT 9999 FEW030 16/15 Q1096
SS LFPNYYYX EGLLYYYX EGLLYYYX 051457 METAR LFPG 051457Z 03555KT 9999 FEW030 3/8 Q1079
GG LFPBYYYX EGLLYYYX EGLLYYYX 270423 METAR LFPG 270423Z 00131KT 9999 FEW030 4/19 Q1077
KK LFPOYYYX EDDFYYYX LFPGYYYX 072002 METAR LFPG 072002Z 04041KT 9999 FEW030 26/6 Q1017
DD EGLLYYYX EGLLYYYX LFPOYYYX 091901 METAR LFPG 091901Z 03940KT 9999 FEW030 29/7 Q1000
KK LFPOYYYX EGLLYYYX LFPBYYYX 011141 METAR LFPG 011141Z 19920KT 9999 FEW030 22/1 Q1097
DD EDDFYYYX EGLLYYYX LFPGYYYX LFPBYYYX 010233 METAR LFPG 010233Z 31151KT 9999 FEW030 26/18 Q1003
FF LFPBYYYX EDDFYYYX 200220 METAR LFPG 200220Z 23858KT 9999 FEW030 18/19 Q1007
DD EGLLYYYX LFPBYYYX LFPOYYYX LFPGYYYX 041744 METAR LFPG 041744Z 01442KT 9999 FEW030 16/11 Q1070
GG EDDFYYYX LFPNYYYX LFPGYYYX LFPBYYYX 261510 METAR LFPG 261510Z 34848KT 9999 FEW030 25/0 Q1035
LL LFPBYYYX LFPGYYYX 070155 METAR LFPG 070155Z 21323KT 9999 FEW030 22/2 Q1007
KK LFPNYYYX LFPNYYYX LFPOYYYX EGLLYYYX 280128 METAR LFPG 280128Z 11826KT 9999 FEW030 29/10 Q1040
FF LFPBYYYX EGLLYYYX EDDFYYYX 020334 METAR LFPG 020334Z 07232KT 9999 FEW030 18/14 Q1028
SS LFPYYYX LFPNYYYX EGLLYYYX LFPNYYYX 092229 METAR LFPG 092229Z 06757KT 9999 FEW030 17/12 Q1056
DD EGLLYYYX LFPNYYYX 051029 METAR LFPG 051029Z 24727KT 9999 FEW030 0/12 Q1039
DD LFPNYYYX LFPNYYYX 091416 METAR LFPG 091416Z 34715KT 9999 FEW030 22/9 Q1000
SS LFPNYYYX LFPBYYYX LFPGYYYX LFPNYYYX 151327 METAR LFPG 151327Z 05715KT 9999 FEW030 15/15 Q1007
KK LFPGYYYX LFPBYYYX EGLLYYYX 162148 METAR LFPG 162148Z 13846KT 9999 FEW030 10/10 Q1028
SS LFPGYYYX LFPNYYYX EGLLYYYX 270951 METAR LFPG 270951Z 14930KT 9999 FEW030 4/14 Q1084
LL LFPNYYYX EGLLYYYX LFPGYYYX LFPBYYYX 111230 METAR LFPG 111230Z 24919KT 9999 FEW030 18/6 Q1001
LL EDDFYYYX EGLLYYYX EDDFYYYX 131429 METAR LFPG 131429Z 05917KT 9999 FEW030 21/0 Q1021
SS LFPOYYYX LFPBYYYX LFPOYYYX LFPOYYYX 030119 METAR LFPG 030119Z 11728KT 9999 FEW030 23/1 Q1003
KK LFPOYYYX EDDFYYYX EDDFYYYX LFPNYYYX 200947 METAR LFPG 200947Z 19856KT 9999 FEW030 26/8 Q1057
GG EDDFYYYX LFPNYYYX 141117 METAR LFPG 141117Z 17636KT 9999 FEW030 8/16 Q1025
SS EGLLYYYX LFPBYYYX LFPOYYYX EGLLYYYX 021129 METAR LFPG 021129Z 00858KT 9999 FEW030 3/8 Q1066
GG LFPOYYYX LFPBYYYX LFPNYYYX LFPOYYYX 032014 METAR LFPG 032014Z 23343KT 9999 FEW030 23/6 Q1094
GG LFPBYYYX LFPBYYYX LFPGYYYX LFPGYYYX 271242 METAR LFPG 271242Z 20151KT 9999 FEW030 3/10 Q1079
GG LFPYYYX EGLLYYYX 031618 METAR LFPG 031618Z 22947KT 9999 FEW030 14/1 Q1054
SS LFPNYYYX LFPGYYYX LFPNYYYX 201012 METAR LFPG 201012Z 34211KT 9999 FEW030 20/0 Q1093
SS EGLLYYYX LFPBYYYX 141938 METAR LFPG 141938Z 25646KT 9999 FEW030 28/11 Q1062
GG LFPOYYYX LFPOYYYX LFPNYYYX LFPGYYYX 181921 METAR LFPG 181921Z 35140KT 9999 FEW030 16/2 Q1096
LL LFPYYYX LFPBYYYX 160608 METAR LFPG 160608Z 09827KT 9999 FEW030 15/11 Q1028
FF EDDFYYYX LFPNYYYX 160256 METAR LFPG 160256Z 09425KT 9999 FEW030 8/1 Q1062
FF EDDFYYYX EGLLYYYX 240951 METAR LFPG 240951Z 15050KT 9999 FEW030 15/11 Q1014
FF LFPOYYYX EGLLYYYX LFPGYYYX LFPBYYYX 191655 METAR LFPG 191655Z 20533KT 9999 FEW030 23/14 Q1049
DD LFPBYYYX LFPBYYYX EGLLYYYX 010317 METAR LFPG 010317Z 04746KT 9999 FEW030 28/4 Q1030
DD LFPNYYYX LFPGYYYX LFPOYYYX LFPNYYYX 221226 METAR LFPG 221226Z 17614KT 9999 FEW030 11/0 Q1036
KK EGLLYYYX EDDFYYYX 011040 METAR LFPG 011040Z 07939KT 9999 FEW030 8/5 Q1098
FF LFPGYYYX LFPBYYYX EDDFYYYX 251809 METAR LFPG 251809Z 27957KT 9999 FEW030 11/17 Q1023
KK LFPBYYYX LFPBYYYX LFPNYYYX LFPNYYYX 252236 METAR LFPG 252236Z 18757KT 9999 FEW030 21/2 Q1035
GG EGLLYYYX LFPOYYYX LFPBYYYX 091005 METAR LFPG 091005Z 10313KT 9999 FEW030 2/9 Q1030
SS LFPOYYYX LFPOYYYX 160127 METAR LFPG 160127Z 35746KT 9999 FEW030 29/3 Q1075
LL EDDFYYYX LFPBYYYX LFPBYYYX 241016 METAR LFPG 241016Z 29425KT 9999 FEW030 0/14 Q1064
SS EDDFYYYX LFPOYYYX 112014 METAR LFPG 112014Z 23313KT 9999 FEW030 3/12 Q1041
FF LFPBYYYX EGLLYYYX EDDFYYYX LFPGYYYX 101113 METAR LFPG 101113Z 10442KT 9999 FEW030 14/3 Q1052
FF EDDFYYYX LFPGYYYX LFPGYYYX LFPGYYYX 040535 METAR LFPG 040535Z 31414KT 9999 FEW030 19/9 Q1082
LL LFPGYYYX LFPOYYYX LFPBYYYX LFPNYYYX 080256 METAR LFPG 080256Z 33415KT 9999 FEW030 22/19 Q1065
LL EDDFYYYX LFPOYYYX EDDFYYYX LFPNYYYX 040523 METAR LFPG 040523Z 24222KT 9999 FEW030 24/5 Q1066
LL LFPOYYYX EGLLYYYX 221114 METAR LFPG 221114Z 22442KT 9999 FEW030 19/11 Q1080
LL LFPOYYYX LFPGYYYX LFPOYYYX LFPOYYYX 121012 METAR LFPG 121012Z 22250KT 9999 FEW030 29/5 Q1005
KK EGLLYYYX LFPNYYYX LFPGYYYX 110822 METAR LFPG 110822Z 17331KT 9999 FEW030 14/14 Q1073
SS LFPBYYYX LFPBYYYX LFPNYYYX 150523 METAR LFPG 150523Z 11312KT 9999 FEW030 27/3 Q1031
DD EDDFYYYX EDDFYYYX LFPOYYYX LFPNYYYX 251149 METAR LFPG 251149Z 19918KT 9999 FEW030 28/14 Q1035
DD EGLLYYYX EDDFYYYX 240952 METAR LFPG 240952Z 15020KT 9999 FEW030 13/18 Q1055
SS LFPGYYYX LFPOYYYX LFPBYYYX EDDFYYYX 111655 METAR LFPG 111655Z 20523KT 9999 FEW030 20/19 Q1070
GG EDDFYYYX EGLLYYYX LFPGYYYX 280108 METAR LFPG 280108Z 04626KT 9999 FEW030 24/1 Q1076
SS EDDFYYYX LFPGYYYX EGLLYYYX 081343 METAR LFPG 081343Z 08232KT 9999 FEW030 4/15 Q1035
SS EDDFYYYX LFPGYYYX 141913 METAR LFPG 141913Z 35242KT 9999 FEW030 9/9 Q1096
DD LFPBYYYX EGLLYYYX LFPOYYYX EDDFYYYX 020006 METAR LFPG 020006Z 28425KT 9999 FEW030 14/13 Q1073
SS EDDFYYYX LFPNYYYX 171429 METAR LFPG 171429Z 29937KT 9999 FEW030 11/11 Q1050
KK LFPNYYYX LFPNYYYX LFPOYYYX 261937 METAR LFPG 261937Z 25556KT 9999 FEW030 10/16 Q1091
GG LFPYYYX LFPBYYYX LFPGYYYX LFPBYYYX 230139 METAR LFPG 230139Z 18957KT 9999 FEW030 8/14 Q1098
KK LFPBYYYX EDDFYYYX EDDFYYYX 061938 METAR LFPG 061938Z 13616KT 9999 FEW030 19/6 Q1070
SS EGLLYYYX LFPBYYYX LFPGYYYX EGLLYYYX 201736 METAR LFPG 201736Z 01414KT 9999 FEW030 0/9 Q1064
KK LFPYYYX LFPBYYYX 010309 METAR LFPG 010309Z 16727KT 9999 FEW030 15/7 Q1079
GG LFPBYYYX LFPGYYYX 282148 METAR LFPG 282148Z 25856KT 9999 FEW030 29/18 Q1090
DD LFPGYYYX LFPNYYYX 231351 METAR LFPG 231351Z 32149KT 9999 FEW030 6/13 Q1051
DD EDDFYYYX LFPGYYYX LFPGYYYX EGLLYYYX 280107 METAR LFPG 280107Z 16556KT 9999 FEW030 5/9 Q1023
DD LFPNYYYX LFPNYYYX LFPGYYYX EGLLYYYX 010624 METAR LFPG 010624Z 00353KT 9999 FEW030 5/19 Q1020
KK LFPYYYX LFPGYYYX LFPGYYYX 131105 METAR LFPG 131105Z 10334KT 9999 FEW030 20/15 Q1020
KK EGLLYYYX LFPOYYYX 130228 METAR LFPG 130228Z 23827KT 9999 FEW030 17/10 Q1004
GG LFPGYYYX LFPNYYYX LFPOYYYX EGLLYYYX 241343 METAR LFPG 241343Z 08152KT 9999 FEW030 15/5 Q1097
KK LFPBYYYX LFPGYYYX LFPOYYYX 011024 METAR LFPG 011024Z 05513KT 9999 FEW030 8/3 Q1079
KK LFPYYYX LFPOYYYX EGLLYYYX EGLLYYYX 181910 METAR LFPG 181910Z 28058KT 9999 FEW030 28/12 Q1031
DD LFPOYYYX LFPOYYYX LFPGYYYX 070419 METAR LFPG 070419Z 28947KT 9999 FEW030 20/1 Q1056
LL EDDFYYYX LFPNYYYX 230410 METAR LFPG 230410Z 28859KT 9999 FEW030 24/12 Q1039
KK LFPGYYYX LFPOYYYX LFPOYYYX 132201 METAR LFPG 132201Z 33139KT 9999 FEW030 19/14 Q1083
GG LFPOYYYX LFPGYYYX 042128 METAR LFPG 042128Z 06646KT 9999 FEW030 28/0 Q1087
LL EGLLYYYX LFPGYYYX LFPNYYYX 112014 METAR LFPG 112014Z 35213KT 9999 FEW030 27/16 Q1092
FF EDDFYYYX LFPNYYYX EGLLYYYX LFPBYYYX 041328 METAR LFPG 041328Z 29836KT 9999 FEW030 15/0 Q1009
FF LFPYYYX LFPNYYYX LFPNYYYX 261937 METAR LFPG 261937Z 25616KT 9999 FEW030 7/1 Q1022
KK EGLLYYYX EDDFYYYX EGLLYYYX LFPGYYYX 262337 METAR LFPG 262337Z 06856KT 9999 FEW030 12/2 Q1021
SS LFPBYYYX EDDFYYYX LFPNYYYX 111243 METAR LFPG 111243Z 08121KT 9999 FEW030 0/16 Q1017
LL LFPGYYYX LFPOYYYX 120935 METAR LFPG 120935Z 24644KT 9999 FEW030 27/7 Q1087
DD EDDFYYYX LFPGYYYX LFPNYYYX 110019 METAR LFPG 110019Z 11747KT 9999 FEW030 22/19 Q1043
LL LFPYYYX EGLLYYYX 121332 METAR LFPG 121332Z 13040KT 9999 FEW030 18/9 Q1030
DD EDDFYYYX LFPOYYYX 070923 METAR LFPG 070923Z 29352KT 9999 FEW030 14/4 Q1025
SS LFPYYYX LFPGYYYX LFPOYYYX 071339 METAR LFPG 071339Z 00938KT 9999 FEW030 4/13 Q1041
LL LFPGYYYX LFPGYYYX LFPNYYYX LFPBYYYX 162103 METAR LFPG 162103Z 28242KT 9999 FEW030 11/12 Q1006
KK LFPBYYYX LFPNYYYX LFPBYYYX LFPBYYYX 120155 METAR LFPG 120155Z 33414KT 9999 FEW030 15/4 Q1067
DD LFPNYYYX LFPOYYYX 030827 METAR LFPG 030827Z 24555KT 9999 FEW030 21/5 Q1054
KK LFPOYYYX LFPBYYYX 010757 METAR LFPG 010757Z 02755KT 9999 FEW030 4/12 Q1076
LL LFPNYYYX LFPOYYYX LFPNYYYX 270838 METAR LFPG 270838Z 31727KT 9999 FEW030 20/16 Q1092
GG LFPNYYYX LFPOYYYX LFPGYYYX LFPGYYYX 251441 METAR LFPG 251441Z 13159KT 9999 FEW030 5/0 Q1076
GG LFPBYYYX LFPBYYYX 191759 METAR LFPG 191759Z 03737KT 9999 FEW030 5/19 Q1055
DD EDDFYYYX EDDFYYYX 192014 METAR LFPG 192014Z 35353KT 9999 FEW030 25/11 Q1034
DD LFPOYYYX LFPBYYYX EDDFYYYX LFPOYYYX 230822 METAR LFPG 230822Z 05231KT 9999 FEW030 8/12 Q1088
SS LFPNYYYX LFPGYYYX LFPNYYYX 212325 METAR LFPG 212325Z 35524KT 9999 FEW030 23/12 Q1096
LL LFPNYYYX LFPNYYYX 270406 METAR LFPG 270406Z 09715KT 9999 FEW030 17/16 Q1083
FF LFPGYYYX LFPBYYYX EGLLYYYX 271654 METAR LFPG 271654Z 20513KT 9999 FEW030 9/12 Q1061
FF EGLLYYYX LFPNYYYX 220725 METAR LFPG 220725Z 00414KT 9999 FEW030 23/19 Q1038
SS EDDFYYYX LFPGYYYX LFPBYYYX LFPGYYYX 121048 METAR LFPG 121048Z 07837KT 9999 FEW030 20/8 Q1056
LL LFPGYYYX LFPGYYYX 130749 METAR LFPG 130749Z 14758KT 9999 FEW030 3/1 Q1069
SS EDDFYYYX LFPGYYYX 210252 METAR LFPG 210252Z 02231KT 9999 FEW030 11/10 Q1011
SS LFPNYYYX EDDFYYYX LFPNYYYX 080216 METAR LFPG 080216Z 16645KT 9999 FEW030 17/13 Q1099
KK LFPOYYYX LFPGYYYX EDDFYYYX 260858 METAR LFPG 260858Z 02819KT 9999 FEW030 4/5 Q1099
KK LFPBYYYX LFPOYYYX LFPNYYYX EDDFYYYX 121316 METAR LFPG 121316Z 34624KT 9999 FEW030 4/0 Q1041
DD LFPBYYYX EDDFYYYX EDDFYYYX EGLLYYYX 021946 METAR LFPG 021946Z 13644KT 9999 FEW030 16/11 Q1019
GG EGLLYYYX LFPGYYYX EGLLYYYX 032014 METAR LFPG 032014Z 23343KT 9999 FEW030 28/0 Q1024
GG LFPOYYYX LFPNYYYX LFPNYYYX 131040 METAR LFPG 131040Z 31949KT 9999 FEW030 28/5 Q1038
FF LFPNYYYX LFPGYYYX 081744 METAR LFPG 081744Z 13412KT 9999 FEW030 6/4 Q1072
FF EGLLYYYX LFPOYYYX 030055 METAR LFPG 030055Z 09343KT 9999 FEW030 7/3 Q1024
DD LFPGYYYX LFPBYYYX 250620 METAR LFPG 250620Z 17139KT 9999 FEW030 7/1 Q1083
SS EGLLYYYX LFPOYYYX LFPGYYYX 271611 METAR LFPG 271611Z 22919KT 9999 FEW030 10/9 Q1034
GG EGLLYYYX EGLLYYYX LFPBYYYX 121748 METAR LFPG 121748Z 32656KT 9999 FEW030 22/10 Q1069
KK LFPNYYYX LFPBYYYX 102318 METAR LFPG 102318Z 11626KT 9999 FEW030 4/16 Q1019
KK LFPOYYYX EDDFYYYX LFPNYYYX LFPGYYYX 281456 METAR LFPG 281456Z 15425KT 9999 FEW030 17/15 Q1002
FF LFPGYYYX LFPGYYYX LFPBYYYX LFPOYYYX 130240 METAR LFPG 130240Z 31129KT 9999 FEW030 6/17 Q1069
KK LFPBYYYX EGLLYYYX LFPNYYYX 172236 METAR LFPG 172236Z 18715KT 9999 FEW030 14/14 Q1026
LL EGLLYYYX LFPBYYYX LFPOYYYX 060322 METAR LFPG 060322Z 00010KT 9999 FEW030 12/9 Q1096
SS LFPYYYX LFPNYYYX EDDFYYYX 081048 METAR LFPG 081048Z 19857KT 9999 FEW030 13/2 Q1033
FF LFPBYYYX LFPOYYYX LFPGYYYX 100434 METAR LFPG 100434Z 07213KT 9999 FEW030 11/2 Q1012
KK EDDFYYYX LFPNYYYX LFPNYYYX 081700 METAR LFPG 081700Z 27848KT 9999 FEW030 19/16 Q1067
GG LFPYYYX LFPNYYYX 071230 METAR LFPG 071230Z 12939KT 9999 FEW030 24/12 Q1003
SS EGLLYYYX EDDFYYYX EGLLYYYX LFPOYYYX 151719 METAR LFPG 151719Z 10947KT 9999 FEW030 17/16 Q1028
KK LFPYYYX LFPNYYYX 042112 METAR LFPG 042112Z 28220KT 9999 FEW030 23/16 Q1007
FF LFPNYYYX EGLLYYYX LFPBYYYX LFPGYYYX 251836 METAR LFPG 251836Z 13515KT 9999 FEW030 0/3 Q1058
DD LFPOYYYX EDDFYYYX 052241 METAR LFPG 052241Z 13939KT 9999 FEW030 8/16 Q1033
FF LFPGYYYX LFPBYYYX EDDFYYYX 111230 METAR LFPG 111230Z 24919KT 9999 FEW030 11/1 Q1080
FF EGLLYYYX LFPGYYYX 040644 METAR LFPG 040644Z 31453KT 9999 FEW030 29/11 Q1022
SS LFPOYYYX EDDFYYYX 261618 METAR LFPG 261618Z 34837KT 9999 FEW030 15/12 Q1029
SS EDDFYYYX EGLLYYYX EGLLYYYX 090353 METAR LFPG 090353Z 02322KT 9999 FEW030 25/4 Q1040
FF EDDFYYYX LFPNYYYX 060746 METAR LFPG 060746Z 19634KT 9999 FEW030 0/16 Q1007
FF EGLLYYYX EDDFYYYX EGLLYYYX LFPOYYYX 230015 METAR LFPG 230015Z 04533KT 9999 FEW030 12/10 Q1003
SS EGLLYYYX EGLLYYYX LFPBYYYX 181101 METAR LFPG 181101Z 03250KT 9999 FEW030 3/8 Q1055
FF LFPOYYYX EDDFYYYX EGLLYYYX LFPNYYYX 101554 METAR LFPG 101554Z 32442KT 9999 FEW030 8/0 Q1016
FF EGLLYYYX EGLLYYYX 110935 METAR LFPG 110935Z 00533KT 9999 FEW030 23/15 Q1063
DD EGLLYYYX EDDFYYYX EGLLYYYX EDDFYYYX 102326 METAR LFPG 102326Z 23644KT 9999 FEW030 26/1 Q1088
KK LFPOYYYX LFPBYYYX 230511 METAR LFPG 230511Z 16940KT 9999 FEW030 24/3 Q1049
KK LFPBYYYX LFPBYYYX EDDFYYYX 172237 METAR LFPG 172237Z 18745KT 9999 FEW030 24/11 Q1070
SS EGLLYYYX EGLLYYYX LFPBYYYX 131505 METAR LFPG 131505Z 03543KT 9999 FEW030 27/17 Q1052
GG LFPYYYX LFPBYYYX LFPOYYYX LFPOYYYX 221622 METAR LFPG 221622Z 29251KT 9999 FEW030 26/16 Q1011
LL LFPOYYYX LFPNYYYX LFPNYYYX LFPNYYYX 111630 METAR LFPG 111630Z 18149KT 9999 FEW030 9/15 Q1064
LL LFPNYYYX EGLLYYYX LFPOYYYX 170241 METAR LFPG 170241Z 19149KT 9999 FEW030 2/9 Q1010
FF LFPGYYYX EGLLYYYX 232147 METAR LFPG 232147Z 01746KT 9999 FEW030 21/9 Q1041
DD EDDFYYYX EGLLYYYX LFPBYYYX 100006 METAR LFPG 100006Z 04455KT 9999 FEW030 22/14 Q1030
DD LFPNYYYX LFPOYYYX LFPGYYYX 261509 METAR LFPG 261509Z 34738KT 9999 FEW030 0/9 Q1071
SS EDDFYYYX LFPNYYYX 190434 METAR LFPG 190434Z 19353KT 9999 FEW030 8/17 Q1032
LL LFPOYYYX EDDFYYYX LFPGYYYX 161812 METAR LFPG 161812Z 34251KT 9999 FEW030 20/2 Q1014
DD EDDFYYYX EGLLYYYX 240928 METAR LFPG 240928Z 00636KT 9999 FEW030 18/17 Q1006
GG LFPNYYYX EGLLYYYX EGLLYYYX EDDFYYYX 151743 METAR LFPG 151743Z 13332KT 9999 FEW030 8/19 Q1091
SS LFPBYYYX LFPGYYYX LFPBYYYX LFPBYYYX 141242 METAR LFPG 141242Z 32040KT 9999 FEW030 19/8 Q1063
SS EDDFYYYX EGLLYYYX LFPGYYYX 160600 METAR LFPG 160600Z 09838KT 9999 FEW030 20/15 Q1018
SS EGLLYYYX LFPNYYYX EDDFYYYX 010725 METAR LFPG 010725Z 24344KT 9999 FEW030 19/12 Q1049
KK LFPNYYYX LFPBYYYX 230454 METAR LFPG 230454Z 02543KT 9999 FEW030 23/12 Q1073
FF EDDFYYYX LFPGYYYX LFPBYYYX LFPGYYYX 021242 METAR LFPG 021242Z 08021KT 9999 FEW030 1/13 Q1041
SS LFPOYYYX EGLLYYYX 170733 METAR LFPG 170733Z 00332KT 9999 FEW030 19/14 Q1092
FF EDDFYYYX LFPNYYYX LFPBYYYX LFPBYYYX 082200 METAR LFPG 082200Z 33049KT 9999 FEW030 28/3 Q1098
GG LFPOYYYX LFPBYYYX LFPBYYYX LFPGYYYX 111631 METAR LFPG 111631Z 30139KT 9999 FEW030 11/12 Q1063
SS LFPGYYYX EGLLYYYX EGLLYYYX 242124 METAR LFPG 242124Z 35422KT 9999 FEW030 9/18 Q1074
GG EDDFYYYX LFPGYYYX EGLLYYYX 122128 METAR LFPG 122128Z 30626KT 9999 FEW030 25/16 Q1074
DD LFPYYYX EDDFYYYX LFPGYYYX 151315 METAR LFPG 151315Z 10513KT 9999 FEW030 17/13 Q1078
KK LFPBYYYX EGLLYYYX 091421 METAR LFPG 091421Z 05929KT 9999 FEW030 5/1 Q1005
FF LFPGYYYX EGLLYYYX EDDFYYYX LFPOYYYX 281759 METAR LFPG 281759Z 03818KT 9999 FEW030 26/10 Q1014
KK EGLLYYYX LFPGYYYX LFPGYYYX 271242 METAR LFPG 271242Z 32121KT 9999 FEW030 14/9 Q1002
GG EDDFYYYX EDDFYYYX LFPBYYYX EDDFYYYX 041844 METAR LFPG 041844Z 25433KT 9999 FEW030 28/14 Q1095
FF EDDFYYYX LFPGYYYX 152026 METAR LFPG 152026Z 06515KT 9999 FEW030 23/3 Q1042
LL EGLLYYYX EGLLYYYX 131949 METAR LFPG 131949Z 32717KT 9999 FEW030 20/10 Q1065
DD EDDFYYYX LFPGYYYX 111307 METAR LFPG 111307Z 10546KT 9999 FEW030 20/11 Q1010
LL LFPYYYX EGLLYYYX LFPGYYYX 051025 METAR LFPG 051025Z 05533KT 9999 FEW030 12/13 Q1046
KK LFPNYYYX LFPBYYYX EGLLYYYX LFPGYYYX 152047 METAR LFPG 152047Z 25745KT 9999 FEW030 9/0 Q1026
SS EDDFYYYX LFPBYYYX EDDFYYYX 160916 METAR LFPG 160916Z 05424KT 9999 FEW030 20/11 Q1000
GG LFPOYYYX EDDFYYYX LFPBYYYX LFPOYYYX 120204 METAR LFPG 120204Z 09413KT 9999 FEW030 21/14 Q1018
GG EDDFYYYX LFPBYYYX EGLLYYYX 022349 METAR LFPG 022349Z 26058KT 9999 FEW030 11/15 Q1043
LL LFPYYYX LFPGYYYX LFPNYYYX LFPOYYYX 270559 METAR LFPG 270559Z 09728KT 9999 FEW030 3/18 Q1082
FF EDDFYYYX LFPBYYYX EDDFYYYX LFPNYYYX 091800 METAR LFPG 091800Z 15959KT 9999 FEW030 17/4 Q1019
FF LFPBYYYX LFPOYYYX 010713 METAR LFPG 010713Z 29151KT 9999 FEW030 12/3 Q1000
DD LFPOYYYX LFPOYYYX LFPNYYYX 180726 METAR LFPG 180726Z 00444KT 9999 FEW030 29/12 Q1066
GG LFPBYYYX LFPBYYYX LFPBYYYX LFPGYYYX 231214 METAR LFPG 231214Z 22513KT 9999 FEW030 22/5 Q1088
KK LFPYYYX LFPNYYYX LFPNYYYX 172329 METAR LFPG 172329Z 30718KT 9999 FEW030 19/8 Q1027
DD LFPBYYYX LFPNYYYX 171444 METAR LFPG 171444Z 32323KT 9999 FEW030 17/1 Q1017
SS LFPOYYYX LFPGYYYX LFPNYYYX 201319 METAR LFPG 201319Z 05848KT 9999 FEW030 27/5 Q1058
FF LFPOYYYX LFPOYYYX LFPBYYYX 251812 METAR LFPG 251812Z 23041KT 9999 FEW030 2/8 Q1005
KK LFPOYYYX LFPBYYYX LFPBYYYX 031610 METAR LFPG 031610Z 34929KT 9999 FEW030 4/9 Q1098
FF EGLLYYYX LFPGYYYX LFPGYYYX 020725 METAR LFPG 020725Z 24324KT 9999 FEW030 2/8 Q1014
DD EDDFYYYX LFPNYYYX LFPBYYYX 081848 METAR LFPG 081848Z 08617KT 9999 FEW030 29/14 Q1028
LL LFPYYYX LFPOYYYX 211453 METAR LFPG 211453Z 08331KT 9999 FEW030 8/16 Q1037
FF EGLLYYYX EDDFYYYX LFPGYYYX EDDFYYYX 041328 METAR LFPG 041328Z 29826KT 9999 FEW030 26/2 Q1087
LL LFPGYYYX LFPGYYYX 191206 METAR LFPG 191206Z 09715KT 9999 FEW030 17/14 Q1073
KK LFPBYYYX LFPNYYYX 100333 METAR LFPG 100333Z 19212KT 9999 FEW030 26/14 Q1079
FF LFPOYYYX LFPBYYYX LFPBYYYX 091901 METAR LFPG 091901Z 27910KT 9999 FEW030 28/0 Q1001
FF EDDFYYYX LFPBYYYX 110446 METAR LFPG 110446Z 26425KT 9999 FEW030 26/14 Q1095
FF LFPNYYYX EDDFYYYX EDDFYYYX 091836 METAR LFPG 091836Z 25545KT 9999 FEW030 29/9 Q1061
SS EDDFYYYX EDDFYYYX EDDFYYYX EGLLYYYX 181542 METAR LFPG 181542Z 13240KT 9999 FEW030 8/7 Q1084
DD LFPBYYYX LFPBYYYX LFPGYYYX LFPNYYYX 201743 METAR LFPG 201743Z 01422KT 9999 FEW030 15/0 Q1064
GG LFPBYYYX LFPOYYYX LFPGYYYX 152034 METAR LFPG 152034Z 06533KT 9999 FEW030 18/18 Q1011
FF LFPGYYYX LFPBYYYX EGLLYYYX 160951 METAR LFPG 160951Z 02920KT 9999 FEW030 17/17 Q1019
SS EDDFYYYX EDDFYYYX 061946 METAR LFPG 061946Z 25624KT 9999 FEW030 16/6 Q1040
KK LFPGYYYX EDDFYYYX LFPBYYYX LFPOYYYX 030055 METAR LFPG 030055Z 33333KT 9999 FEW030 8/4 Q1097
LL LFPNYYYX LFPBYYYX 280216 METAR LFPG 280216Z 04634KT 9999 FEW030 4/7 Q1055
SS LFPYYYX LFPGYYYX LFPBYYYX 260026 METAR LFPG 260026Z 35625KT 9999 FEW030 18/6 Q1004
FF LFPYYYX LFPGYYYX EDDFYYYX EDDFYYYX 100026 METAR LFPG 100026Z 35615KT 9999 FEW030 1/12 Q1034
FF EDDFYYYX EDDFYYYX LFPGYYYX 140446 METAR LFPG 140446Z 14415KT 9999 FEW030 3/17 Q1048
GG LFPBYYYX EDDFYYYX 172216 METAR LFPG 172216Z 11535KT 9999 FEW030 16/4 Q1063
FF LFPOYYYX EDDFYYYX LFPNYYYX 131105 METAR LFPG 131105Z 22334KT 9999 FEW030 9/6 Q1097
LL LFPOYYYX EGLLYYYX LFPOYYYX 210244 METAR LFPG 210244Z 02333KT 9999 FEW030 1/6 Q1006
FF LFPOYYYX EGLLYYYX LFPBYYYX LFPOYYYX 101137 METAR LFPG 101137Z 00838KT 9999 FEW030 28/7 Q1084
KK LFPBYYYX LFPBYYYX LFPOYYYX 200115 METAR LFPG 200115Z 04626KT 9999 FEW030 11/10 Q1048
DD EGLLYYYX EGLLYYYX 251416 METAR LFPG 251416Z 22735KT 9999 FEW030 24/18 Q1066
LL LFPBYYYX EGLLYYYX EGLLYYYX EDDFYYYX 010648 METAR LFPG 010648Z 26717KT 9999 FEW030 8/4 Q1061
LL LFPGYYYX LFPOYYYX EDDFYYYX LFPBYYYX 200900 METAR LFPG 200900Z 03018KT 9999 FEW030 24/6 Q1085
GG LFPNYYYX LFPOYYYX 090232 METAR LFPG 090232Z 07121KT 9999 FEW030 9/0 Q1018
FF LFPOYYYX LFPGYYYX 032023 METAR LFPG 032023Z 23311KT 9999 FEW030 4/18 Q1009
KK EDDFYYYX LFPOYYYX LFPNYYYX 011428 METAR LFPG 011428Z 17947KT 9999 FEW030 14/1 Q1037
FF LFPBYYYX EGLLYYYX LFPNYYYX 010620 METAR LFPG 010620Z 17011KT 9999 FEW030 19/14 Q1059
SS LFPOYYYX EDDFYYYX LFPGYYYX LFPBYYYX 220757 METAR LFPG 220757Z 26856KT 9999 FEW030 8/14 Q1007
SS LFPNYYYX EGLLYYYX 151327 METAR LFPG 151327Z 29726KT 9999 FEW030 12/18 Q1021
LL LFPGYYYX EDDFYYYX 020054 METAR LFPG 020054Z 33242KT 9999 FEW030 22/17 Q1074
LL LFPGYYYX LFPBYYYX LFPOYYYX 050612 METAR LFPG 050612Z 05131KT 9999 FEW030 23/16 Q1083
KK LFPNYYYX LFPOYYYX LFPBYYYX LFPNYYYX 101137 METAR LFPG 101137Z 12836KT 9999 FEW030 22/11 Q1098
GG LFPOYYYX LFPNYYYX 191243 METAR LFPG 191243Z 32151KT 9999 FEW030 10/4 Q1062
SS LFPNYYYX EDDFYYYX LFPBYYYX 260406 METAR LFPG 260406Z 21635KT 9999 FEW030 8/13 Q1064
LL LFPOYYYX LFPBYYYX LFPBYYYX 220701 METAR LFPG 220701Z 34050KT 9999 FEW030 16/2 Q1036
LL EDDFYYYX LFPBYYYX LFPBYYYX LFPBYYYX 051856 METAR LFPG 051856Z 20755KT 9999 FEW030 15/13 Q1078
GG LFPOYYYX EGLLYYYX 161340 METAR LFPG 161340Z 01018KT 9999 FEW030 11/6 Q1065
DD LFPYYYX LFPNYYYX EDDFYYYX 110846 METAR LFPG 110846Z 19745KT 9999 FEW030 22/0 Q1065
LL LFPOYYYX LFPBYYYX LFPGYYYX LFPBYYYX 201719 METAR LFPG 201719Z 35048KT 9999 FEW030 7/1 Q1003
LL EDDFYYYX EGLLYYYX EGLLYYYX 150531 METAR LFPG 150531Z 12142KT 9999 FEW030 23/14 Q1046
FF LFPOYYYX LFPGYYYX EDDFYYYX LFPBYYYX 140042 METAR LFPG 140042Z 25251KT 9999 FEW030 17/9 Q1025
KK LFPNYYYX LFPGYYYX LFPOYYYX 081024 METAR LFPG 081024Z 29442KT 9999 FEW030 11/5 Q1034
KK LFPBYYYX LFPNYYYX EDDFYYYX LFPGYYYX 011053 METAR LFPG 011053Z 15121KT 9999 FEW030 23/16 Q1052
GG LFPNYYYX EDDFYYYX 040636 METAR LFPG 040636Z 19455KT 9999 FEW030 10/12 Q1031
GG LFPGYYYX LFPNYYYX 132237 METAR LFPG 132237Z 06725KT 9999 FEW030 15/1 Q1058
DD LFPGYYYX LFPNYYYX 091129 METAR LFPG 091129Z 12747KT 9999 FEW030 20/11 Q1056
GG LFPYYYX LFPOYYYX LFPBYYYX 190051 METAR LFPG 190051Z 02119KT 9999 FEW030 17/17 Q1042
LL EDDFYYYX LFPNYYYX 222337 METAR LFPG 222337Z 18726KT 9999 FEW030 15/19 Q1009
DD EDDFYYYX LFPBYYYX 011857 METAR LFPG 011857Z 32725KT 9999 FEW030 17/1 Q1069
KK EDDFYYYX LFPBYYYX LFPNYYYX 181910 METAR LFPG 181910Z 04028KT 9999 FEW030 5/11 Q1034
LL EDDFYYYX LFPGYYYX LFPOYYYX 102349 METAR LFPG 102349Z 14058KT 9999 FEW030 27/15 Q1037
DD LFPGYYYX EGLLYYYX LFPBYYYX 230559 METAR LFPG 230559Z 09728KT 9999 FEW030 19/6 Q1060
LL LFPBYYYX LFPGYYYX LFPBYYYX LFPNYYYX 210229 METAR LFPG 210229Z 35947KT 9999 FEW030 23/13 Q1028
KK LFPOYYYX LFPGYYYX LFPOYYYX 101106 METAR LFPG 101106Z 34414KT 9999 FEW030 13/10 Q1008
GG LFPOYYYX LFPNYYYX LFPBYYYX LFPBYYYX 030407 METAR LFPG 030407Z 33735KT 9999 FEW030 18/11 Q1015
GG LFPNYYYX LFPBYYYX EGLLYYYX LFPNYYYX 112010 METAR LFPG 112010Z 28059KT 9999 FEW030 4/11 Q1042
DD LFPBYYYX EDDFYYYX 030846 METAR LFPG 030846Z 31615KT 9999 FEW030 15/6 Q1079
LL EDDFYYYX LFPGYYYX LFPNYYYX EGLLYYYX 030839 METAR LFPG 030839Z 31717KT 9999 FEW030 20/9 Q1032
KK LFPBYYYX EDDFYYYX 032014 METAR LFPG 032014Z 35323KT 9999 FEW030 8/7 Q1060
KK LFPYYYX LFPOYYYX EGLLYYYX LFPOYYYX 280107 METAR LFPG 280107Z 15816KT 9999 FEW030 5/13 Q1033
DD LFPNYYYX EDDFYYYX 140858 METAR LFPG 140858Z 26857KT 9999 FEW030 0/6 Q1079
LL EDDFYYYX LFPOYYYX EDDFYYYX 190411 METAR LFPG 190411Z 16959KT 9999 FEW030 26/7 Q1021
DD EDDFYYYX LFPOYYYX LFPBYYYX 130240 METAR LFPG 130240Z 07159KT 9999 FEW030 29/1 Q1080
LL EDDFYYYX LFPOYYYX LFPNYYYX 041824 METAR LFPG 041824Z 30223KT 9999 FEW030 4/10 Q1046
SS LFPGYYYX LFPGYYYX EGLLYYYX 131000 METAR LFPG 131000Z 15031KT 9999 FEW030 6/15 Q1022
KK LFPNYYYX EDDFYYYX LFPBYYYX EGLLYYYX 111654 METAR LFPG 111654Z 20443KT 9999 FEW030 13/3 Q1042
KK LFPNYYYX LFPNYYYX EDDFYYYX LFPNYYYX 180329 METAR LFPG 180329Z 35948KT 9999 FEW030 0/17 Q1032
DD LFPOYYYX EDDFYYYX LFPOYYYX LFPNYYYX 010709 METAR LFPG 010709Z 21938KT 9999 FEW030 23/13 Q1066
DD EGLLYYYX LFPOYYYX LFPGYYYX LFPOYYYX 240115 METAR LFPG 240115Z 28644KT 9999 FEW030 4/18 Q1012
SS EDDFYYYX EGLLYYYX 141105 METAR LFPG 141105Z 10434KT 9999 FEW030 6/15 Q1059
GG LFPNYYYX EGLLYYYX LFPGYYYX LFPGYYYX 191654 METAR LFPG 191654Z 20423KT 9999 FEW030 29/2 Q1008
SS LFPGYYYX LFPNYYYX LFPBYYYX LFPOYYYX 260026 METAR LFPG 260026Z 11625KT 9999 FEW030 14/12 Q1004
FF LFPOYYYX LFPBYYYX LFPOYYYX 151203 METAR LFPG 151203Z 03331KT 9999 FEW030 25/10 Q1031
SS LFPOYYYX LFPGYYYX EGLLYYYX LFPOYYYX 051433 METAR LFPG 051433Z 25151KT 9999 FEW030 7/14 Q1084
LL EGLLYYYX LFPNYYYX LFPOYYYX EGLLYYYX 020746 METAR LFPG 020746Z 19626KT 9999 FEW030 25/15 Q1080
GG EGLLYYYX LFPGYYYX EGLLYYYX LFPGYYYX 180002 METAR LFPG 180002Z 21231KT 9999 FEW030 23/13 Q1060
DD LFPOYYYX EGLLYYYX 132212 METAR LFPG 132212Z 16321KT 9999 FEW030 16/12 Q1079
SS LFPYYYX EDDFYYYX 210612 METAR LFPG 210612Z 17111KT 9999 FEW030 21/7 Q1041
LL LFPOYYYX EGLLYYYX 140042 METAR LFPG 140042Z 02021KT 9999 FEW030 3/5 Q1068
LL EDDFYYYX LFPNYYYX 242104 METAR LFPG 242104Z 16242KT 9999 FEW030 7/14 Q1046
DD LFPGYYYX LFPBYYYX LFPBYYYX 032058 METAR LFPG 032058Z 08929KT 9999 FEW030 6/4 Q1027
LL LFPNYYYX LFPBYYYX EGLLYYYX LFPBYYYX 052305 METAR LFPG 052305Z 28344KT 9999 FEW030 25/19 Q1071
DD LFPGYYYX EGLLYYYX 111634 METAR LFPG 111634Z 13253KT 9999 FEW030 29/10 Q1001
GG LFPNYYYX EGLLYYYX 120507 METAR LFPG 120507Z 33726KT 9999 FEW030 6/2 Q1059
GG EGLLYYYX LFPBYYYX 232022 METAR LFPG 232022Z 11331KT 9999 FEW030 4/12 Q1075
KK LFPGYYYX EGLLYYYX LFPGYYYX EDDFYYYX 181242 METAR LFPG 181242Z 20021KT 9999 FEW030 6/7 Q1089
LL LFPBYYYX LFPGYYYX 012241 METAR LFPG 012241Z 01919KT 9999 FEW030 17/13 Q1062
FF LFPGYYYX LFPOYYYX LFPGYYYX 060054 METAR LFPG 060054Z 09233KT 9999 FEW030 5/12 Q1011
SS LFPNYYYX LFPOYYYX LFPNYYYX EGLLYYYX 042216 METAR LFPG 042216Z 11455KT 9999 FEW030 10/11 Q1066
KK LFPYYYX LFPGYYYX LFPNYYYX LFPOYYYX 050204 METAR LFPG 050204Z 33513KT 9999 FEW030 2/9 Q1043
SS EGLLYYYX LFPGYYYX LFPOYYYX 260353 METAR LFPG 260353Z 26432KT 9999 FEW030 26/19 Q1011
DD LFPGYYYX EGLLYYYX EDDFYYYX 251049 METAR LFPG 251049Z 07959KT 9999 FEW030 3/1 Q1098
GG LFPGYYYX EDDFYYYX EGLLYYYX EGLLYYYX 251452 METAR LFPG 251452Z 32311KT 9999 FEW030 20/13 Q1081
GG LFPOYYYX LFPBYYYX 021534 METAR LFPG 021534Z 25212KT 9999 FEW030 13/4 Q1088
LL LFPBYYYX LFPGYYYX 171137 METAR LFPG 171137Z 12757KT 9999 FEW030 21/3 Q1048
KK LFPYYYX LFPGYYYX LFPNYYYX 280959 METAR LFPG 280959Z 27028KT 9999 FEW030 18/11 Q1043
DD LFPGYYYX LFPOYYYX 020310 METAR LFPG 020310Z 04848KT 9999 FEW030 11/17 Q1069
GG EDDFYYYX EDDFYYYX LFPBYYYX LFPBYYYX 181610 METAR LFPG 181610Z 34848KT 9999 FEW030 23/16 Q1081
LL EDDFYYYX LFPBYYYX 031243 METAR LFPG 031243Z 20121KT 9999 FEW030 1/3 Q1048
GG EGLLYYYX LFPNYYYX 090608 METAR LFPG 090608Z 09957KT 9999 FEW030 9/14 Q1051
KK LFPYYYX LFPBYYYX LFPGYYYX 041707 METAR LFPG 041707Z 03836KT 9999 FEW030 12/14 Q1086
KK LFPYYYX EDDFYYYX EDDFYYYX 091408 METAR LFPG 091408Z 34737KT 9999 FEW030 26/5 Q1037
GG LFPOYYYX EDDFYYYX LFPOYYYX EDDFYYYX 251457 METAR LFPG 251457Z 27555KT 9999 FEW030 27/2 Q1051
LL LFPNYYYX LFPOYYYX EDDFYYYX 011149 METAR LFPG 011149Z 19958KT 9999 FEW030 23/1 Q1017
LL LFPBYYYX EGLLYYYX LFPOYYYX 242123 METAR LFPG 242123Z 35452KT 9999 FEW030 2/13 Q1052
GG LFPOYYYX LFPOYYYX LFPOYYYX 250317 METAR LFPG 250317Z 16726KT 9999 FEW030 8/18 Q1071
LL EDDFYYYX LFPBYYYX 180750 METAR LFPG 180750Z 02838KT 9999 FEW030 24/8 Q1094
DD LFPOYYYX LFPNYYYX EGLLYYYX LFPOYYYX 210612 METAR LFPG 210612Z 29111KT 9999 FEW030 29/18 Q1039
LL LFPBYYYX LFPOYYYX 061945 METAR LFPG 061945Z 25634KT 9999 FEW030 6/7 Q1097
DD LFPNYYYX LFPOYYYX 272023 METAR LFPG 272023Z 23331KT 9999 FEW030 18/12 Q1078
FF EGLLYYYX EGLLYYYX 191226 METAR LFPG 191226Z 17725KT 9999 FEW030 4/2 Q1061
KK LFPGYYYX LFPNYYYX 111231 METAR LFPG 111231Z 24919KT 9999 FEW030 21/18 Q1031
GG LFPBYYYX LFPNYYYX LFPGYYYX EDDFYYYX 081355 METAR LFPG 081355Z 15444KT 9999 FEW030 28/10 Q1006
GG EDDFYYYX EDDFYYYX LFPGYYYX 261914 METAR LFPG 261914Z 23242KT 9999 FEW030 21/1 Q1050
DD LFPBYYYX LFPBYYYX LFPBYYYX 101922 METAR LFPG 101922Z 11250KT 9999 FEW030 3/2 Q1093
SS LFPBYYYX LFPBYYYX EGLLYYYX LFPBYYYX 251421 METAR LFPG 251421Z 17919KT 9999 FEW030 15/15 Q1060
GG EDDFYYYX LFPBYYYX 211001 METAR LFPG 211001Z 15149KT 9999 FEW030 29/13 Q1033
GG LFPYYYX LFPNYYYX LFPGYYYX LFPGYYYX 050737 METAR LFPG 050737Z 07515KT 9999 FEW030 18/7 Q1094
LL LFPOYYYX LFPOYYYX LFPBYYYX 051812 METAR LFPG 051812Z 35111KT 9999 FEW030 6/10 Q1067
FF EGLLYYYX LFPNYYYX 250613 METAR LFPG 250613Z 29111KT 9999 FEW030 11/3 Q1073
DD EDDFYYYX LFPGYYYX LFPOYYYX 132228 METAR LFPG 132228Z 06737KT 9999 FEW030 9/4 Q1030
LL LFPBYYYX LFPGYYYX 281452 METAR LFPG 281452Z 08211KT 9999 FEW030 7/8 Q1083
FF LFPOYYYX LFPBYYYX LFPGYYYX 111635 METAR LFPG 111635Z 13313KT 9999 FEW030 2/12 Q1048
GG LFPNYYYX LFPGYYYX EDDFYYYX 141202 METAR LFPG 141202Z 27240KT 9999 FEW030 4/2 Q1004
DD LFPGYYYX LFPNYYYX 171408 METAR LFPG 171408Z 22727KT 9999 FEW030 23/19 Q1064
GG LFPYYYX LFPOYYYX 261506 METAR LFPG 261506Z 03644KT 9999 FEW030 24/0 Q1069
DD LFPNYYYX LFPBYYYX 020410 METAR LFPG 020410Z 16829KT 9999 FEW030 11/9 Q1004
SS LFPBYYYX EGLLYYYX LFPNYYYX LFPGYYYX 210244 METAR LFPG 210244Z 14353KT 9999 FEW030 28/11 Q1029
SS EDDFYYYX EGLLYYYX EGLLYYYX LFPGYYYX 141901 METAR LFPG 141901Z 28030KT 9999 FEW030 19/7 Q1098
DD LFPNYYYX EDDFYYYX EGLLYYYX LFPOYYYX 081004 METAR LFPG 081004Z 22233KT 9999 FEW030 5/14 Q1072
DD LFPGYYYX LFPBYYYX 101926 METAR LFPG 101926Z 18424KT 9999 FEW030 9/3 Q1030
GG LFPYYYX EGLLYYYX LFPBYYYX 102329 METAR LFPG 102329Z 18848KT 9999 FEW030 25/16 Q1007
LL LFPOYYYX LFPGYYYX LFPGYYYX 170737 METAR LFPG 170737Z 31555KT 9999 FEW030 7/17 Q1022
LL LFPGYYYX LFPBYYYX 011113 METAR LFPG 011113Z 10332KT 9999 FEW030 17/17 Q1051
SS EGLLYYYX LFPGYYYX LFPOYYYX 221114 METAR LFPG 221114Z 34412KT 9999 FEW030 23/5 Q1025
KK LFPNYYYX EDDFYYYX LFPGYYYX EGLLYYYX 080916 METAR LFPG 080916Z 29444KT 9999 FEW030 15/3 Q1097
SS LFPGYYYX LFPGYYYX 060734 METAR LFPG 060734Z 24442KT 9999 FEW030 8/7 Q1027
GG LFPNYYYX EDDFYYYX LFPBYYYX 011505 METAR LFPG 011505Z 03523KT 9999 FEW030 13/11 Q1080
SS EGLLYYYX LFPNYYYX 020713 METAR LFPG 020713Z 17242KT 9999 FEW030 4/5 Q1005
DD LFPOYYYX LFPNYYYX LFPNYYYX 060026 METAR LFPG 060026Z 23634KT 9999 FEW030 21/14 Q1080
DD LFPNYYYX LFPOYYYX LFPNYYYX EDDFYYYX 180321 METAR LFPG 180321Z 24010KT 9999 FEW030 29/18 Q1086
DD LFPOYYYX LFPOYYYX LFPGYYYX LFPNYYYX 190559 METAR LFPG 190559Z 08937KT 9999 FEW030 19/12 Q1089
KK EDDFYYYX EDDFYYYX 070115 METAR LFPG 070115Z 28514KT 9999 FEW030 10/12 Q1025
LL LFPYYYX LFPBYYYX LFPNYYYX LFPBYYYX 271634 METAR LFPG 271634Z 01333KT 9999 FEW030 11/17 Q1027
GG LFPNYYYX LFPOYYYX EDDFYYYX EGLLYYYX 230458 METAR LFPG 230458Z 09727KT 9999 FEW030 10/19 Q1096
LL LFPNYYYX LFPGYYYX LFPNYYYX LFPBYYYX 092204 METAR LFPG 092204Z 28313KT 9999 FEW030 29/10 Q1008
KK LFPGYYYX LFPNYYYX LFPBYYYX 072103 METAR LFPG 072103Z 28131KT 9999 FEW030 9/10 Q1012
KK EGLLYYYX LFPOYYYX LFPBYYYX LFPOYYYX 091509 METAR LFPG 091509Z 22747KT 9999 FEW030 28/8 Q1040
SS LFPGYYYX EGLLYYYX LFPNYYYX 061254 METAR LFPG 061254Z 03213KT 9999 FEW030 18/3 Q1026
DD LFPOYYYX LFPGYYYX 072023 METAR LFPG 072023Z 11341KT 9999 FEW030 21/9 Q1019
FF LFPYYYX LFPGYYYX LFPGYYYX EDDFYYYX 010317 METAR LFPG 010317Z 16756KT 9999 FEW030 28/19 Q1077
KK LFPYYYX LFPBYYYX EGLLYYYX 070543 METAR LFPG 070543Z 19321KT 9999 FEW030 28/4 Q1003
SS EDDFYYYX EGLLYYYX EGLLYYYX LFPGYYYX 110834 METAR LFPG 110834Z 24553KT 9999 FEW030 2/16 Q1098
GG LFPYYYX EGLLYYYX EDDFYYYX 221542 METAR LFPG 221542Z 25220KT 9999 FEW030 13/15 Q1091
SS LFPBYYYX LFPGYYYX 161315 METAR LFPG 161315Z 22514KT 9999 FEW030 0/7 Q1044
FF LFPOYYYX LFPBYYYX EDDFYYYX 142301 METAR LFPG 142301Z 33240KT 9999 FEW030 28/3 Q1055
LL LFPNYYYX LFPOYYYX LFPOYYYX LFPGYYYX 172213 METAR LFPG 172213Z 28311KT 9999 FEW030 14/14 Q1020
DD LFPNYYYX LFPBYYYX 021902 METAR LFPG 021902Z 28030KT 9999 FEW030 15/0 Q1010
SS LFPOYYYX LFPGYYYX EGLLYYYX LFPOYYYX 071619 METAR LFPG 071619Z 10927KT 9999 FEW030 7/15 Q1082
DD EGLLYYYX LFPOYYYX EGLLYYYX 081332 METAR LFPG 081332Z 13050KT 9999 FEW030 2/2 Q1049
GG EDDFYYYX LFPOYYYX 091101 METAR LFPG 091101Z 15159KT 9999 FEW030 6/16 Q1096
LL EDDFYYYX LFPBYYYX EDDFYYYX 120548 METAR LFPG 120548Z 02656KT 9999 FEW030 5/10 Q1002
GG EGLLYYYX LFPNYYYX 040648 METAR LFPG 040648Z 14617KT 9999 FEW030 18/3 Q1085
FF LFPNYYYX LFPNYYYX 122124 METAR LFPG 122124Z 23414KT 9999 FEW030 28/11 Q1044
SS LFPBYYYX EGLLYYYX EGLLYYYX 122115 METAR LFPG 122115Z 23444KT 9999 FEW030 2/17 Q1041
DD EDDFYYYX LFPBYYYX EGLLYYYX 251925 METAR LFPG 251925Z 30333KT 9999 FEW030 24/15 Q1044
DD LFPYYYX EGLLYYYX EDDFYYYX 030803 METAR LFPG 030803Z 22121KT 9999 FEW030 7/10 Q1046
GG EDDFYYYX LFPNYYYX LFPGYYYX 041408 METAR LFPG 041408Z 10646KT 9999 FEW030 24/15 Q1090
LL LFPNYYYX EDDFYYYX 221926 METAR LFPG 221926Z 18414KT 9999 FEW030 17/18 Q1021
DD LFPNYYYX LFPBYYYX EGLLYYYX LFPOYYYX 160548 METAR LFPG 160548Z 02656KT 9999 FEW030 21/4 Q1033
SS EGLLYYYX EDDFYYYX LFPNYYYX 041016 METAR LFPG 041016Z 17425KT 9999 FEW030 24/5 Q1052
SS LFPBYYYX LFPBYYYX 122147 METAR LFPG 122147Z 25836KT 9999 FEW030 8/19 Q1075
GG EGLLYYYX EGLLYYYX LFPBYYYX LFPGYYYX 281416 METAR LFPG 281416Z 34645KT 9999 FEW030 11/7 Q1002
SS LFPBYYYX LFPBYYYX EDDFYYYX 022313 METAR LFPG 022313Z 04442KT 9999 FEW030 21/5 Q1038
GG LFPOYYYX LFPOYYYX LFPOYYYX 190042 METAR LFPG 190042Z 26141KT 9999 FEW030 2/7 Q1040
KK EDDFYYYX LFPOYYYX LFPGYYYX 180701 METAR LFPG 180701Z 22010KT 9999 FEW030 26/8 Q1010
SS LFPYYYX LFPNYYYX LFPOYYYX LFPNYYYX 081036 METAR LFPG 081036Z 12655KT 9999 FEW030 5/7 Q1020
DD LFPGYYYX EDDFYYYX LFPGYYYX 082139 METAR LFPG 082139Z 25718KT 9999 FEW030 20/12 Q1002
FF LFPOYYYX EGLLYYYX LFPGYYYX 121016 METAR LFPG 121016Z 29435KT 9999 FEW030 10/10 Q1048
KK LFPYYYX LFPBYYYX EGLLYYYX 202224 METAR LFPG 202224Z 23413KT 9999 FEW030 22/17 Q1025
GG LFPNYYYX LFPOYYYX 131016 METAR LFPG 131016Z 29515KT 9999 FEW030 27/1 Q1022
KK LFPBYYYX LFPBYYYX 011016 METAR LFPG 011016Z 05555KT 9999 FEW030 9/3 Q1068
GG LFPYYYX LFPBYYYX EGLLYYYX LFPNYYYX 180345 METAR LFPG 180345Z 14434KT 9999 FEW030 13/14 Q1051
FF LFPNYYYX LFPBYYYX LFPBYYYX EDDFYYYX 032027 METAR LFPG 032027Z 18555KT 9999 FEW030 7/8 Q1050
FF LFPBYYYX EDDFYYYX LFPNYYYX LFPGYYYX 131812 METAR LFPG 131812Z 35121KT 9999 FEW030 27/6 Q1078
GG LFPGYYYX LFPGYYYX 270847 METAR LFPG 270847Z 19725KT 9999 FEW030 14/12 Q1027
LL LFPBYYYX LFPOYYYX EDDFYYYX EGLLYYYX 202128 METAR LFPG 202128Z 30656KT 9999 FEW030 29/14 Q1073
DD LFPYYYX EGLLYYYX 101922 METAR LFPG 101922Z 35250KT 9999 FEW030 6/4 Q1019
SS EGLLYYYX LFPGYYYX LFPBYYYX LFPOYYYX 030002 METAR LFPG 030002Z 21331KT 9999 FEW030 20/15 Q1083
SS LFPNYYYX EDDFYYYX LFPOYYYX 070031 METAR LFPG 070031Z 06919KT 9999 FEW030 9/14 Q1001
LL LFPBYYYX EDDFYYYX LFPBYYYX LFPGYYYX 121440 METAR LFPG 121440Z 13029KT 9999 FEW030 23/16 Q1054
KK LFPOYYYX LFPBYYYX LFPGYYYX LFPOYYYX 030115 METAR LFPG 030115Z 28544KT 9999 FEW030 3/18 Q1032
DD LFPGYYYX LFPBYYYX LFPBYYYX LFPBYYYX 100838 METAR LFPG 100838Z 31617KT 9999 FEW030 8/4 Q1005
DD LFPBYYYX EDDFYYYX 150838 METAR LFPG 150838Z 07727KT 9999 FEW030 21/8 Q1014
KK LFPBYYYX LFPBYYYX 081307 METAR LFPG 081307Z 34526KT 9999 FEW030 24/10 Q1073
DD LFPYYYX LFPNYYYX 221902 METAR LFPG 221902Z 28010KT 9999 FEW030 1/12 Q1013
GG LFPNYYYX EDDFYYYX LFPOYYYX 091113 METAR LFPG 091113Z 34322KT 9999 FEW030 17/11 Q1022
FF LFPGYYYX LFPOYYYX EDDFYYYX 230418 METAR LFPG 230418Z 04929KT 9999 FEW030 27/5 Q1079
KK EGLLYYYX EDDFYYYX 210624 METAR LFPG 210624Z 23543KT 9999 FEW030 15/8 Q1001
FF EGLLYYYX LFPOYYYX LFPOYYYX 281820 METAR LFPG 281820Z 23058KT 9999 FEW030 15/2 Q1088
SS LFPBYYYX LFPOYYYX 080535 METAR LFPG 080535Z 07454KT 9999 FEW030 21/13 Q1020
FF LFPOYYYX EDDFYYYX LFPBYYYX LFPNYYYX 251004 METAR LFPG 251004Z 22233KT 9999 FEW030 25/7 Q1076
SS LFPGYYYX LFPOYYYX 162228 METAR LFPG 162228Z 18627KT 9999 FEW030 1/7 Q1013
FF LFPOYYYX LFPBYYYX 090216 METAR LFPG 090216Z 28715KT 9999 FEW030 24/10 Q1007
KK LFPNYYYX LFPNYYYX 201720 METAR LFPG 201720Z 35020KT 9999 FEW030 1/8 Q1047
LL LFPOYYYX EGLLYYYX LFPNYYYX LFPNYYYX 220042 METAR LFPG 220042Z 14031KT 9999 FEW030 6/17 Q1085
KK LFPYYYX LFPNYYYX EGLLYYYX LFPOYYYX 020318 METAR LFPG 020318Z 16846KT 9999 FEW030 16/10 Q1065
FF LFPNYYYX LFPNYYYX 150127 METAR LFPG 150127Z 35736KT 9999 FEW030 8/10 Q1041
FF EDDFYYYX LFPGYYYX EGLLYYYX 110951 METAR LFPG 110951Z 02950KT 9999 FEW030 15/7 Q1050
SS LFPNYYYX LFPGYYYX 120232 METAR LFPG 120232Z 07030KT 9999 FEW030 8/12 Q1055
FF LFPNYYYX LFPBYYYX EGLLYYYX LFPNYYYX 070026 METAR LFPG 070026Z 23715KT 9999 FEW030 7/7 Q1072
LL LFPNYYYX LFPOYYYX LFPNYYYX EGLLYYYX 061101 METAR LFPG 061101Z 15250KT 9999 FEW030 16/7 Q1092
KK LFPNYYYX LFPGYYYX LFPOYYYX 190115 METAR LFPG 190115Z 16524KT 9999 FEW030 13/6 Q1088
FF EGLLYYYX LFPGYYYX EGLLYYYX 131452 METAR LFPG 131452Z 20351KT 9999 FEW030 24/19 Q1011
FF LFPGYYYX LFPNYYYX 160204 METAR LFPG 160204Z 21453KT 9999 FEW030 18/0 Q1032
LL LFPOYYYX LFPOYYYX 041328 METAR LFPG 041328Z 05846KT 9999 FEW030 25/3 Q1002
DD LFPOYYYX EDDFYYYX LFPGYYYX 132216 METAR LFPG 132216Z 35555KT 9999 FEW030 26/14 Q1027
FF LFPGYYYX LFPNYYYX LFPNYYYX 120948 METAR LFPG 120948Z 07836KT 9999 FEW030 1/10 Q1076
FF LFPYYYX LFPNYYYX 221938 METAR LFPG 221938Z 12846KT 9999 FEW030 4/0 Q1099
LL LFPOYYYX EDDFYYYX 280600 METAR LFPG 280600Z 21848KT 9999 FEW030 1/16 Q1073
FF LFPOYYYX LFPOYYYX 041832 METAR LFPG 041832Z 18210KT 9999 FEW030 15/10 Q1077
KK LFPYYYX LFPOYYYX 242216 METAR LFPG 242216Z 35424KT 9999 FEW030 12/5 Q1089
DD EDDFYYYX LFPBYYYX LFPOYYYX LFPGYYYX 091153 METAR LFPG 091153Z 02322KT 9999 FEW030 23/8 Q1013
DD LFPYYYX LFPNYYYX LFPNYYYX 090649 METAR LFPG 090649Z 26737KT 9999 FEW030 1/9 Q1015
GG LFPGYYYX LFPNYYYX 010737 METAR LFPG 010737Z 07556KT 9999 FEW030 24/1 Q1043
SS LFPOYYYX LFPOYYYX 051409 METAR LFPG 051409Z 10727KT 9999 FEW030 8/9 Q1065
DD EDDFYYYX LFPBYYYX LFPGYYYX LFPNYYYX 010228 METAR LFPG 010228Z 35847KT 9999 FEW030 2/14 Q1079
LL LFPOYYYX EDDFYYYX 180014 METAR LFPG 180014Z 16442KT 9999 FEW030 22/3 Q1052
GG LFPOYYYX LFPBYYYX 250221 METAR LFPG 250221Z 11929KT 9999 FEW030 20/0 Q1030
SS EDDFYYYX LFPBYYYX EGLLYYYX LFPOYYYX 240927 METAR LFPG 240927Z 12636KT 9999 FEW030 1/9 Q1012
FF EGLLYYYX EDDFYYYX 262318 METAR LFPG 262318Z 11616KT 9999 FEW030 4/5 Q1062
LL LFPOYYYX EGLLYYYX 171153 METAR LFPG 171153Z 03122KT 9999 FEW030 13/12 Q1065
GG EDDFYYYX EDDFYYYX LFPOYYYX 221541 METAR LFPG 221541Z 01110KT 9999 FEW030 6/17 Q1003
LL LFPNYYYX EDDFYYYX LFPBYYYX LFPNYYYX 280107 METAR LFPG 280107Z 28646KT 9999 FEW030 15/6 Q1064
GG LFPGYYYX EDDFYYYX EDDFYYYX 121755 METAR LFPG 121755Z 20624KT 9999 FEW030 15/17 Q1097
SS LFPNYYYX LFPBYYYX LFPOYYYX LFPNYYYX 260738 METAR LFPG 260738Z 31656KT 9999 FEW030 2/18 Q1026
FF LFPBYYYX EGLLYYYX EGLLYYYX 200512 METAR LFPG 200512Z 29010KT 9999 FEW030 18/12 Q1014
GG EDDFYYYX EGLLYYYX 030139 METAR LFPG 030139Z 06918KT 9999 FEW030 20/11 Q1053
GG LFPBYYYX EGLLYYYX 221957 METAR LFPG 221957Z 32756KT 9999 FEW030 21/4 Q1018
KK EGLLYYYX LFPNYYYX EGLLYYYX LFPOYYYX 251041 METAR LFPG 251041Z 31949KT 9999 FEW030 17/9 Q1049
GG LFPBYYYX EGLLYYYX 130709 METAR LFPG 130709Z 09937KT 9999 FEW030 19/16 Q1010
FF LFPYYYX EDDFYYYX LFPGYYYX EGLLYYYX 160152 METAR LFPG 160152Z 02250KT 9999 FEW030 7/18 Q1032
SS LFPYYYX LFPNYYYX LFPNYYYX 200108 METAR LFPG 200108Z 03846KT 9999 FEW030 5/10 Q1094
DD EDDFYYYX LFPNYYYX EDDFYYYX LFPBYYYX 060054 METAR LFPG 060054Z 33243KT 9999 FEW030 4/3 Q1083
SS LFPBYYYX LFPOYYYX 201708 METAR LFPG 201708Z 15838KT 9999 FEW030 22/9 Q1027
DD EGLLYYYX LFPNYYYX EDDFYYYX EDDFYYYX 281832 METAR LFPG 281832Z 30221KT 9999 FEW030 29/10 Q1083
SS LFPGYYYX LFPOYYYX LFPNYYYX 191711 METAR LFPG 191711Z 22940KT 9999 FEW030 20/16 Q1022
DD EDDFYYYX EGLLYYYX LFPNYYYX LFPGYYYX 121307 METAR LFPG 121307Z 10536KT 9999 FEW030 21/6 Q1055
GG EGLLYYYX LFPGYYYX LFPBYYYX 262317 METAR LFPG 262317Z 11656KT 9999 FEW030 14/7 Q1038
GG LFPGYYYX LFPBYYYX EDDFYYYX 130309 METAR LFPG 130309Z 27928KT 9999 FEW030 10/1 Q1077
FF LFPGYYYX EGLLYYYX EGLLYYYX EGLLYYYX 281848 METAR LFPG 281848Z 20617KT 9999 FEW030 1/10 Q1014
GG LFPGYYYX LFPGYYYX LFPGYYYX 260737 METAR LFPG 260737Z 31656KT 9999 FEW030 25/4 Q1083
GG LFPNYYYX LFPBYYYX EGLLYYYX 091921 METAR LFPG 091921Z 35130KT 9999 FEW030 21/5 Q1068
GG LFPYYYX LFPOYYYX LFPBYYYX 202147 METAR LFPG 202147Z 01846KT 9999 FEW030 22/14 Q1071
KK EGLLYYYX LFPOYYYX EGLLYYYX EDDFYYYX 241328 METAR LFPG 241328Z 17856KT 9999 FEW030 15/13 Q1093
FF LFPOYYYX EDDFYYYX LFPBYYYX 140306 METAR LFPG 140306Z 21614KT 9999 FEW030 27/19 Q1039
DD LFPGYYYX LFPNYYYX LFPBYYYX 220458 METAR LFPG 220458Z 21617KT 9999 FEW030 10/0 Q1075
KK LFPBYYYX LFPNYYYX LFPNYYYX 222318 METAR LFPG 222318Z 11626KT 9999 FEW030 4/14 Q1025
SS LFPGYYYX LFPNYYYX 141957 METAR LFPG 141957Z 32846KT 9999 FEW030 18/10 Q1047
SS LFPYYYX EGLLYYYX 130624 METAR LFPG 130624Z 00223KT 9999 FEW030 28/18 Q1059
FF LFPNYYYX LFPNYYYX 110115 METAR LFPG 110115Z 16534KT 9999 FEW030 23/12 Q1006
DD LFPYYYX LFPNYYYX EDDFYYYX 081355 METAR LFPG 081355Z 03414KT 9999 FEW030 16/9 Q1096
KK LFPOYYYX LFPNYYYX 151622 METAR LFPG 151622Z 18111KT 9999 FEW030 25/7 Q1065
SS LFPGYYYX LFPNYYYX 010749 METAR LFPG 010749Z 14718KT 9999 FEW030 4/3 Q1001
DD LFPBYYYX LFPGYYYX LFPOYYYX 250600 METAR LFPG 250600Z 33919KT 9999 FEW030 20/16 Q1009
GG EDDFYYYX LFPNYYYX 242100 METAR LFPG 242100Z 09028KT 9999 FEW030 24/2 Q1068
GG EDDFYYYX LFPBYYYX 211421 METAR LFPG 211421Z 17919KT 9999 FEW030 28/15 Q1079
FF EGLLYYYX EDDFYYYX EDDFYYYX 230511 METAR LFPG 230511Z 04929KT 9999 FEW030 0/19 Q1023
DD EGLLYYYX EGLLYYYX EGLLYYYX LFPGYYYX 142301 METAR LFPG 142301Z 33220KT 9999 FEW030 25/19 Q1044
GG EDDFYYYX LFPGYYYX EDDFYYYX EDDFYYYX 171848 METAR LFPG 171848Z 08737KT 9999 FEW030 25/13 Q1044
KK LFPOYYYX LFPBYYYX LFPOYYYX LFPBYYYX 161736 METAR LFPG 161736Z 25424KT 9999 FEW030 24/10 Q1040
FF LFPOYYYX LFPBYYYX EDDFYYYX 051408 METAR LFPG 051408Z 34647KT 9999 FEW030 1/11 Q1030
FF LFPNYYYX EDDFYYYX EGLLYYYX LFPBYYYX 280911 METAR LFPG 280911Z 10150KT 9999 FEW030 9/9 Q1002
FF LFPGYYYX LFPOYYYX EGLLYYYX EGLLYYYX 230454 METAR LFPG 230454Z 02523KT 9999 FEW030 4/10 Q1019
SS LFPBYYYX EGLLYYYX 081711 METAR LFPG 081711Z 10950KT 9999 FEW030 4/4 Q1045
FF EGLLYYYX EDDFYYYX LFPBYYYX LFPNYYYX 190446 METAR LFPG 190446Z 14555KT 9999 FEW030 13/19 Q1047
FF LFPOYYYX EDDFYYYX EDDFYYYX LFPGYYYX 192015 METAR LFPG 192015Z 23323KT 9999 FEW030 24/1 Q1016
SS LFPYYYX EDDFYYYX 220858 METAR LFPG 220858Z 26816KT 9999 FEW030 12/5 Q1043
SS LFPNYYYX EGLLYYYX 240555 METAR LFPG 240555Z 02634KT 9999 FEW030 22/1 Q1014
SS LFPOYYYX EDDFYYYX LFPGYYYX LFPGYYYX 080644 METAR LFPG 080644Z 31445KT 9999 FEW030 15/15 Q1088
LL LFPBYYYX LFPGYYYX 262306 METAR LFPG 262306Z 16454KT 9999 FEW030 19/17 Q1014
GG LFPOYYYX LFPBYYYX 221206 METAR LFPG 221206Z 10455KT 9999 FEW030 2/17 Q1091
LL LFPOYYYX EDDFYYYX EDDFYYYX LFPOYYYX 242128 METAR LFPG 242128Z 18626KT 9999 FEW030 28/18 Q1026
DD LFPNYYYX LFPOYYYX LFPGYYYX LFPNYYYX 081416 METAR LFPG 081416Z 34635KT 9999 FEW030 29/14 Q1053
KK LFPBYYYX EDDFYYYX LFPOYYYX 060358 METAR LFPG 060358Z 33626KT 9999 FEW030 23/7 Q1048
GG LFPBYYYX LFPBYYYX 230838 METAR LFPG 230838Z 07727KT 9999 FEW030 8/6 Q1063
SS LFPNYYYX EGLLYYYX 180850 METAR LFPG 180850Z 26859KT 9999 FEW030 2/10 Q1075
DD EGLLYYYX LFPGYYYX EGLLYYYX LFPBYYYX 131825 METAR LFPG 131825Z 30323KT 9999 FEW030 11/1 Q1014
KK EDDFYYYX EDDFYYYX EDDFYYYX LFPNYYYX 070026 METAR LFPG 070026Z 23715KT 9999 FEW030 18/12 Q1037
FF LFPOYYYX LFPBYYYX LFPBYYYX 270839 METAR LFPG 270839Z 07717KT 9999 FEW030 12/11 Q1019
FF LFPYYYX EGLLYYYX 171921 METAR LFPG 171921Z 35130KT 9999 FEW030 7/5 Q1019
LL LFPNYYYX LFPNYYYX EDDFYYYX 250204 METAR LFPG 250204Z 09523KT 9999 FEW030 25/8 Q1091
SS LFPNYYYX LFPBYYYX LFPBYYYX 011849 METAR LFPG 011849Z 20717KT 9999 FEW030 21/9 Q1037
GG LFPNYYYX EDDFYYYX 141646 METAR LFPG 141646Z 08454KT 9999 FEW030 1/13 Q1029
LL EGLLYYYX EGLLYYYX 061153 METAR LFPG 061153Z 03222KT 9999 FEW030 13/17 Q1088
SS LFPGYYYX EGLLYYYX 210205 METAR LFPG 210205Z 33523KT 9999 FEW030 29/15 Q1083
FF EGLLYYYX LFPOYYYX 201331 METAR LFPG 201331Z 13010KT 9999 FEW030 8/17 Q1063
KK EGLLYYYX LFPOYYYX LFPNYYYX LFPGYYYX 100345 METAR LFPG 100345Z 26424KT 9999 FEW030 5/11 Q1035
KK LFPYYYX EDDFYYYX 062002 METAR LFPG 062002Z 04041KT 9999 FEW030 26/17 Q1044
DD LFPGYYYX LFPNYYYX 042115 METAR LFPG 042115Z 35424KT 9999 FEW030 22/13 Q1061
DD EGLLYYYX LFPGYYYX LFPBYYYX 041832 METAR LFPG 041832Z 18231KT 9999 FEW030 13/7 Q1010
LL LFPGYYYX EDDFYYYX 251836 METAR LFPG 251836Z 25545KT 9999 FEW030 0/14 Q1030
KK LFPNYYYX LFPNYYYX EGLLYYYX 271759 METAR LFPG 271759Z 03728KT 9999 FEW030 5/10 Q1083
SS EGLLYYYX EDDFYYYX 240959 METAR LFPG 240959Z 15058KT 9999 FEW030 10/13 Q1080
GG EDDFYYYX EDDFYYYX EDDFYYYX LFPBYYYX 162128 METAR LFPG 162128Z 06626KT 9999 FEW030 20/13 Q1086
DD LFPBYYYX LFPOYYYX 220042 METAR LFPG 220042Z 14010KT 9999 FEW030 9/2 Q1059
DD LFPGYYYX EGLLYYYX EDDFYYYX LFPGYYYX 161352 METAR LFPG 161352Z 08240KT 9999 FEW030 23/14 Q1025
SS LFPYYYX LFPBYYYX 100309 METAR LFPG 100309Z 04828KT 9999 FEW030 1/19 Q1034
FF LFPGYYYX LFPBYYYX 121420 METAR LFPG 121420Z 29818KT 9999 FEW030 16/0 Q1034
KK LFPBYYYX EDDFYYYX 251925 METAR LFPG 251925Z 30354KT 9999 FEW030 4/18 Q1050
DD LFPGYYYX EDDFYYYX LFPNYYYX LFPOYYYX 081731 METAR LFPG 081731Z 30240KT 9999 FEW030 15/18 Q1095
SS EDDFYYYX LFPBYYYX 160939 METAR LFPG 160939Z 19758KT 9999 FEW030 5/13 Q1097
KK LFPNYYYX LFPGYYYX EGLLYYYX 030442 METAR LFPG 030442Z 19311KT 9999 FEW030 13/13 Q1075
LL EGLLYYYX EDDFYYYX 181534 METAR LFPG 181534Z 01252KT 9999 FEW030 16/2 Q1069
SS LFPGYYYX LFPOYYYX 110430 METAR LFPG 110430Z 00129KT 9999 FEW030 18/1 Q1015
SS LFPGYYYX EGLLYYYX 050637 METAR LFPG 050637Z 19525KT 9999 FEW030 6/4 Q1055
DD LFPYYYX LFPNYYYX LFPBYYYX 080939 METAR LFPG 080939Z 07748KT 9999 FEW030 21/9 Q1030
KK EGLLYYYX EDDFYYYX 231242 METAR LFPG 231242Z 20011KT 9999 FEW030 29/0 Q1080
DD EGLLYYYX LFPGYYYX 260838 METAR LFPG 260838Z 19617KT 9999 FEW030 7/0 Q1071
KK EDDFYYYX LFPNYYYX LFPGYYYX LFPBYYYX 272038 METAR LFPG 272038Z 13727KT 9999 FEW030 12/14 Q1094
KK LFPGYYYX EGLLYYYX 242115 METAR LFPG 242115Z 23444KT 9999 FEW030 2/1 Q1013
GG LFPNYYYX LFPOYYYX EDDFYYYX EDDFYYYX 051037 METAR LFPG 051037Z 12735KT 9999 FEW030 27/12 Q1057
LL LFPGYYYX EGLLYYYX EDDFYYYX 051429 METAR LFPG 051429Z 29917KT 9999 FEW030 24/9 Q1047
FF LFPGYYYX LFPGYYYX 230027 METAR LFPG 230027Z 35715KT 9999 FEW030 4/19 Q1021
KK LFPOYYYX EGLLYYYX LFPBYYYX 270103 METAR LFPG 270103Z 33312KT 9999 FEW030 23/7 Q1010
DD LFPBYYYX LFPGYYYX EDDFYYYX LFPGYYYX 121339 METAR LFPG 121339Z 24928KT 9999 FEW030 4/16 Q1074
GG LFPNYYYX LFPOYYYX 042135 METAR LFPG 042135Z 30524KT 9999 FEW030 12/14 Q1098
KK LFPNYYYX LFPOYYYX 162216 METAR LFPG 162216Z 11415KT 9999 FEW030 5/13 Q1031
SS LFPOYYYX LFPNYYYX LFPGYYYX LFPNYYYX 231226 METAR LFPG 231226Z 05755KT 9999 FEW030 20/15 Q1082
KK EGLLYYYX EDDFYYYX 050601 METAR LFPG 050601Z 33919KT 9999 FEW030 7/10 Q1008
FF LFPBYYYX EGLLYYYX LFPBYYYX 030434 METAR LFPG 030434Z 31343KT 9999 FEW030 23/14 Q1046
LL LFPYYYX LFPOYYYX EGLLYYYX EDDFYYYX 230442 METAR LFPG 230442Z 31351KT 9999 FEW030 6/10 Q1054
FF EGLLYYYX LFPNYYYX 130745 METAR LFPG 130745Z 19514KT 9999 FEW030 13/1 Q1017
LL LFPBYYYX LFPBYYYX 200535 METAR LFPG 200535Z 06524KT 9999 FEW030 15/14 Q1060
FF LFPYYYX LFPBYYYX 091149 METAR LFPG 091149Z 07918KT 9999 FEW030 4/13 Q1081
FF LFPBYYYX LFPOYYYX 080632 METAR LFPG 080632Z 12220KT 9999 FEW030 29/6 Q1012
GG EGLLYYYX LFPNYYYX LFPNYYYX LFPGYYYX 180406 METAR LFPG 180406Z 33625KT 9999 FEW030 8/18 Q1000
SS LFPOYYYX LFPGYYYX LFPNYYYX 231610 METAR LFPG 231610Z 22929KT 9999 FEW030 2/5 Q1064
KK LFPOYYYX LFPBYYYX LFPBYYYX EGLLYYYX 110006 METAR LFPG 110006Z 16525KT 9999 FEW030 3/17 Q1065
GG LFPGYYYX LFPBYYYX LFPBYYYX EDDFYYYX 210633 METAR LFPG 210633Z 12331KT 9999 FEW030 4/4 Q1012
FF LFPOYYYX EDDFYYYX 121028 METAR LFPG 121028Z 00646KT 9999 FEW030 11/3 Q1014
SS EDDFYYYX EGLLYYYX LFPGYYYX 171457 METAR LFPG 171457Z 15545KT 9999 FEW030 22/8 Q1030
GG LFPYYYX EGLLYYYX 160507 METAR LFPG 160507Z 09826KT 9999 FEW030 8/9 Q1081
KK LFPNYYYX EGLLYYYX LFPGYYYX LFPGYYYX 090253 METAR LFPG 090253Z 14351KT 9999 FEW030 6/12 Q1022
SS LFPGYYYX EGLLYYYX LFPGYYYX 150103 METAR LFPG 150103Z 09342KT 9999 FEW030 20/2 Q1045
SS EDDFYYYX EDDFYYYX EDDFYYYX EDDFYYYX 251005 METAR LFPG 251005Z 10323KT 9999 FEW030 4/10 Q1028
GG LFPOYYYX LFPGYYYX EGLLYYYX 241308 METAR LFPG 241308Z 22656KT 9999 FEW030 20/15 Q1057
LL LFPYYYX LFPOYYYX LFPOYYYX LFPBYYYX 270042 METAR LFPG 270042Z 02111KT 9999 FEW030 29/2 Q1022
DD EGLLYYYX LFPNYYYX 280535 METAR LFPG 280535Z 07434KT 9999 FEW030 4/1 Q1064
KK LFPYYYX LFPGYYYX EDDFYYYX EGLLYYYX 281351 METAR LFPG 281351Z 32240KT 9999 FEW030 25/4 Q1099
FF EGLLYYYX EGLLYYYX LFPBYYYX LFPGYYYX 151239 METAR LFPG 151239Z 12917KT 9999 FEW030 17/6 Q1080
DD LFPOYYYX LFPOYYYX LFPOYYYX 092241 METAR LFPG 092241Z 13929KT 9999 FEW030 1/1 Q1085
FF LFPOYYYX EGLLYYYX LFPNYYYX 030151 METAR LFPG 030151Z 14122KT 9999 FEW030 16/1 Q1032
LL EGLLYYYX LFPGYYYX 171836 METAR LFPG 171836Z 01545KT 9999 FEW030 22/16 Q1096
LL EDDFYYYX LFPOYYYX 190131 METAR LFPG 190131Z 18940KT 9999 FEW030 21/7 Q1087
KK EGLLYYYX LFPBYYYX 020702 METAR LFPG 020702Z 34030KT 9999 FEW030 4/15 Q1069
KK EDDFYYYX EGLLYYYX LFPGYYYX LFPBYYYX 091137 METAR LFPG 091137Z 24726KT 9999 FEW030 14/11 Q1050
DD EGLLYYYX LFPNYYYX LFPGYYYX EGLLYYYX 190511 METAR LFPG 190511Z 04930KT 9999 FEW030 0/0 Q1010
KK EDDFYYYX EGLLYYYX LFPGYYYX 200507 METAR LFPG 200507Z 21716KT 9999 FEW030 1/8 Q1065
DD LFPYYYX LFPBYYYX 210345 METAR LFPG 210345Z 01534KT 9999 FEW030 21/5 Q1047
DD LFPNYYYX LFPNYYYX EDDFYYYX LFPBYYYX 050329 METAR LFPG 050329Z 11958KT 9999 FEW030 10/5 Q1041
LL LFPYYYX EDDFYYYX LFPBYYYX 202103 METAR LFPG 202103Z 28242KT 9999 FEW030 27/12 Q1053
SS LFPBYYYX LFPBYYYX LFPOYYYX LFPBYYYX 100858 METAR LFPG 100858Z 14826KT 9999 FEW030 26/15 Q1038
SS LFPBYYYX EDDFYYYX LFPNYYYX EDDFYYYX 241744 METAR LFPG 241744Z 13442KT 9999 FEW030 24/4 Q1026
FF LFPGYYYX EDDFYYYX EGLLYYYX 110155 METAR LFPG 110155Z 21354KT 9999 FEW030 18/10 Q1004
KK LFPNYYYX LFPGYYYX EGLLYYYX 100054 METAR LFPG 100054Z 21223KT 9999 FEW030 21/5 Q1031
GG LFPNYYYX LFPNYYYX 260701 METAR LFPG 260701Z 34040KT 9999 FEW030 11/8 Q1012
FF EGLLYYYX LFPBYYYX 121343 METAR LFPG 121343Z 08252KT 9999 FEW030 5/12 Q1022
DD LFPOYYYX LFPGYYYX 251137 METAR LFPG 251137Z 00736KT 9999 FEW030 3/6 Q1082
LL LFPNYYYX EGLLYYYX EGLLYYYX 201356 METAR LFPG 201356Z 03424KT 9999 FEW030 5/2 Q1027
LL LFPYYYX LFPOYYYX EDDFYYYX LFPNYYYX 230559 METAR LFPG 230559Z 21738KT 9999 FEW030 13/8 Q1053
SS EGLLYYYX LFPBYYYX LFPOYYYX EGLLYYYX 050309 METAR LFPG 050309Z 16738KT 9999 FEW030 5/15 Q1056
DD LFPOYYYX LFPOYYYX EDDFYYYX 171533 METAR LFPG 171533Z 25152KT 9999 FEW030 11/5 Q1027
GG LFPBYYYX LFPOYYYX LFPNYYYX 161340 METAR LFPG 161340Z 01048KT 9999 FEW030 15/1 Q1013
KK LFPGYYYX EDDFYYYX LFPBYYYX LFPNYYYX 171113 METAR LFPG 171113Z 10342KT 9999 FEW030 0/2 Q1051
SS LFPGYYYX LFPNYYYX LFPBYYYX 101533 METAR LFPG 101533Z 25232KT 9999 FEW030 3/19 Q1083
KK EDDFYYYX LFPGYYYX LFPBYYYX LFPGYYYX 031622 METAR LFPG 031622Z 06151KT 9999 FEW030 5/13 Q1056
KK EGLLYYYX LFPOYYYX LFPBYYYX LFPBYYYX 010608 METAR LFPG 010608Z 21847KT 9999 FEW030 25/17 Q1005
LL LFPYYYX LFPBYYYX EGLLYYYX 032127 METAR LFPG 032127Z 06516KT 9999 FEW030 26/14 Q1096
FF LFPGYYYX EDDFYYYX LFPGYYYX EGLLYYYX 081444 METAR LFPG 081444Z 32253KT 9999 FEW030 18/6 Q1011
FF LFPGYYYX LFPOYYYX LFPBYYYX 181517 METAR LFPG 181517Z 22856KT 9999 FEW030 4/14 Q1059
KK LFPGYYYX LFPBYYYX LFPGYYYX 120948 METAR LFPG 120948Z 19836KT 9999 FEW030 8/19 Q1073
SS EDDFYYYX EGLLYYYX 182353 METAR LFPG 182353Z 21132KT 9999 FEW030 26/17 Q1092
DD LFPYYYX EGLLYYYX LFPOYYYX 141913 METAR LFPG 141913Z 35242KT 9999 FEW030 29/18 Q1069
LL LFPBYYYX LFPGYYYX LFPNYYYX LFPBYYYX 210620 METAR LFPG 210620Z 29139KT 9999 FEW030 10/1 Q1046
KK LFPYYYX LFPOYYYX LFPOYYYX 071635 METAR LFPG 071635Z 01313KT 9999 FEW030 7/1 Q1063
LL LFPOYYYX EDDFYYYX 021634 METAR LFPG 021634Z 13233KT 9999 FEW030 19/5 Q1053
GG LFPOYYYX EGLLYYYX 140310 METAR LFPG 140310Z 16848KT 9999 FEW030 29/13 Q1077
GG LFPBYYYX LFPNYYYX 030911 METAR LFPG 030911Z 22140KT 9999 FEW030 5/18 Q1038
FF EGLLYYYX LFPNYYYX LFPOYYYX 261909 METAR LFPG 261909Z 16028KT 9999 FEW030 16/7 Q1013
SS LFPBYYYX LFPNYYYX LFPOYYYX 160220 METAR LFPG 160220Z 35859KT 9999 FEW030 9/12 Q1008
GG LFPNYYYX LFPOYYYX LFPBYYYX LFPOYYYX 010240 METAR LFPG 010240Z 31019KT 9999 FEW030 3/10 Q1011
FF LFPOYYYX LFPBYYYX LFPNYYYX 041708 METAR LFPG 041708Z 15826KT 9999 FEW030 14/8 Q1037
SS EDDFYYYX LFPOYYYX LFPOYYYX 211048 METAR LFPG 211048Z 07937KT 9999 FEW030 29/2 Q1094
GG LFPOYYYX EGLLYYYX LFPBYYYX LFPGYYYX 240636 METAR LFPG 240636Z 07414KT 9999 FEW030 29/17 Q1024
DD LFPBYYYX EDDFYYYX 241832 METAR LFPG 241832Z 30251KT 9999 FEW030 29/11 Q1053
SS LFPNYYYX EDDFYYYX LFPOYYYX LFPOYYYX 030959 METAR LFPG 030959Z 14948KT 9999 FEW030 9/9 Q1030
DD LFPOYYYX LFPNYYYX 261658 METAR LFPG 261658Z 03647KT 9999 FEW030 20/2 Q1007
KK EGLLYYYX LFPOYYYX 070003 METAR LFPG 070003Z 33351KT 9999 FEW030 29/12 Q1079
GG LFPGYYYX EGLLYYYX EGLLYYYX 210228 METAR LFPG 210228Z 23959KT 9999 FEW030 29/12 Q1066
SS EGLLYYYX LFPBYYYX LFPBYYYX LFPBYYYX 022325 METAR LFPG 022325Z 35524KT 9999 FEW030 9/16 Q1009
KK LFPBYYYX EDDFYYYX 131117 METAR LFPG 131117Z 05526KT 9999 FEW030 13/9 Q1016
KK LFPNYYYX LFPNYYYX 010221 METAR LFPG 010221Z 11919KT 9999 FEW030 21/15 Q1021
DD EGLLYYYX LFPGYYYX 212341 METAR LFPG 212341Z 01929KT 9999 FEW030 24/6 Q1086
SS LFPYYYX LFPBYYYX 090204 METAR LFPG 090204Z 21523KT 9999 FEW030 22/2 Q1008
GG LFPNYYYX LFPGYYYX 072103 METAR LFPG 072103Z 04132KT 9999 FEW030 3/1 Q1097
DD LFPOYYYX EDDFYYYX LFPBYYYX 160900 METAR LFPG 160900Z 27058KT 9999 FEW030 4/7 Q1060
FF LFPBYYYX LFPBYYYX 142022 METAR LFPG 142022Z 35251KT 9999 FEW030 9/19 Q1064
KK LFPBYYYX LFPBYYYX EDDFYYYX EDDFYYYX 161344 METAR LFPG 161344Z 20252KT 9999 FEW030 13/12 Q1065
DD LFPYYYX LFPNYYYX 022349 METAR LFPG 022349Z 14048KT 9999 FEW030 23/10 Q1074
GG LFPYYYX LFPBYYYX LFPGYYYX LFPNYYYX 011909 METAR LFPG 011909Z 27957KT 9999 FEW030 17/11 Q1072
LL EDDFYYYX LFPNYYYX LFPGYYYX LFPNYYYX 252301 METAR LFPG 252301Z 33140KT 9999 FEW030 22/1 Q1050
LL EGLLYYYX EGLLYYYX LFPBYYYX LFPBYYYX 110042 METAR LFPG 110042Z 14121KT 9999 FEW030 16/7 Q1087
KK EDDFYYYX EGLLYYYX EDDFYYYX LFPOYYYX 020725 METAR LFPG 020725Z 12414KT 9999 FEW030 11/1 Q1064
LL LFPYYYX LFPOYYYX EGLLYYYX 240927 METAR LFPG 240927Z 12616KT 9999 FEW030 17/16 Q1073
SS LFPGYYYX LFPOYYYX LFPGYYYX LFPGYYYX 071218 METAR LFPG 071218Z 17617KT 9999 FEW030 21/15 Q1029
SS LFPYYYX LFPNYYYX EDDFYYYX LFPGYYYX 051101 METAR LFPG 051101Z 03150KT 9999 FEW030 8/15 Q1005
KK LFPBYYYX LFPNYYYX 021937 METAR LFPG 021937Z 13556KT 9999 FEW030 27/11 Q1045
KK EDDFYYYX LFPNYYYX LFPOYYYX 121327 METAR LFPG 121327Z 17858KT 9999 FEW030 21/3 Q1058
SS LFPBYYYX LFPBYYYX LFPBYYYX 040156 METAR LFPG 040156Z 33424KT 9999 FEW030 2/18 Q1035
DD LFPOYYYX LFPNYYYX LFPGYYYX LFPNYYYX 091017 METAR LFPG 091017Z 17545KT 9999 FEW030 6/16 Q1022
SS LFPNYYYX LFPBYYYX LFPOYYYX 180310 METAR LFPG 180310Z 04838KT 9999 FEW030 3/2 Q1075
FF EDDFYYYX LFPBYYYX LFPGYYYX LFPOYYYX 151339 METAR LFPG 151339Z 12917KT 9999 FEW030 15/14 Q1068
GG LFPYYYX LFPOYYYX EGLLYYYX LFPNYYYX 211421 METAR LFPG 211421Z 17919KT 9999 FEW030 1/9 Q1091
LL EGLLYYYX EDDFYYYX LFPBYYYX LFPOYYYX 050636 METAR LFPG 050636Z 19555KT 9999 FEW030 29/16 Q1071
FF EGLLYYYX EDDFYYYX EGLLYYYX EDDFYYYX 120648 METAR LFPG 120648Z 26646KT 9999 FEW030 23/16 Q1067
GG LFPBYYYX EDDFYYYX LFPNYYYX EGLLYYYX 040904 METAR LFPG 040904Z 10212KT 9999 FEW030 13/9 Q1050
LL LFPYYYX LFPOYYYX EDDFYYYX LFPGYYYX 181541 METAR LFPG 181541Z 25210KT 9999 FEW030 26/19 Q1039
LL EDDFYYYX LFPOYYYX LFPOYYYX LFPOYYYX 111606 METAR LFPG 111606Z 15735KT 9999 FEW030 3/3 Q1082
KK LFPOYYYX EDDFYYYX LFPNYYYX LFPGYYYX 272115 METAR LFPG 272115Z 35344KT 9999 FEW030 24/19 Q1038
FF LFPGYYYX EGLLYYYX LFPBYYYX 081712 METAR LFPG 081712Z 35010KT 9999 FEW030 25/4 Q1063
SS EDDFYYYX LFPOYYYX EGLLYYYX 172228 METAR LFPG 172228Z 18757KT 9999 FEW030 25/14 Q1024
SS LFPGYYYX LFPBYYYX LFPGYYYX LFPNYYYX 070923 METAR LFPG 070923Z 29341KT 9999 FEW030 23/2 Q1080
KK LFPNYYYX LFPOYYYX LFPGYYYX 232015 METAR LFPG 232015Z 11313KT 9999 FEW030 28/2 Q1074
DD EDDFYYYX EGLLYYYX LFPBYYYX 061129 METAR LFPG 061129Z 24828KT 9999 FEW030 25/14 Q1029
LL LFPNYYYX EDDFYYYX 262034 METAR LFPG 262034Z 30432KT 9999 FEW030 4/9 Q1049
DD EDDFYYYX EGLLYYYX LFPGYYYX LFPOYYYX 052225 METAR LFPG 052225Z 23523KT 9999 FEW030 29/9 Q1092
LL LFPNYYYX LFPBYYYX LFPBYYYX EGLLYYYX 262354 METAR LFPG 262354Z 21242KT 9999 FEW030 11/8 Q1062
SS LFPGYYYX LFPBYYYX EDDFYYYX 142038 METAR LFPG 142038Z 25627KT 9999 FEW030 7/14 Q1077
LL EGLLYYYX LFPOYYYX 100757 METAR LFPG 100757Z 02856KT 9999 FEW030 1/11 Q1059
GG EGLLYYYX LFPOYYYX 271250 METAR LFPG 271250Z 20129KT 9999 FEW030 7/6 Q1003
LL EDDFYYYX EGLLYYYX EGLLYYYX LFPNYYYX 250357 METAR LFPG 250357Z 21536KT 9999 FEW030 26/12 Q1041
SS LFPNYYYX EGLLYYYX 190851 METAR LFPG 190851Z 02949KT 9999 FEW030 24/12 Q1096
GG EDDFYYYX LFPBYYYX LFPBYYYX LFPNYYYX 011848 METAR LFPG 011848Z 08657KT 9999 FEW030 4/14 Q1020
SS LFPBYYYX LFPOYYYX LFPBYYYX LFPBYYYX 240204 METAR LFPG 240204Z 21453KT 9999 FEW030 24/6 Q1086
LL LFPYYYX LFPBYYYX LFPGYYYX LFPNYYYX 150547 METAR LFPG 150547Z 26525KT 9999 FEW030 19/3 Q1066
SS LFPBYYYX LFPOYYYX LFPGYYYX LFPOYYYX 100702 METAR LFPG 100702Z 34030KT 9999 FEW030 17/13 Q1001
DD LFPOYYYX LFPBYYYX LFPGYYYX 181542 METAR LFPG 181542Z 13210KT 9999 FEW030 1/2 Q1087
SS LFPGYYYX LFPOYYYX 010341 METAR LFPG 010341Z 19110KT 9999 FEW030 5/6 Q1032
SS EDDFYYYX EDDFYYYX 201707 METAR LFPG 201707Z 15746KT 9999 FEW030 14/12 Q1017
GG EGLLYYYX EDDFYYYX 072022 METAR LFPG 072022Z 35351KT 9999 FEW030 3/5 Q1056
KK LFPGYYYX LFPOYYYX LFPGYYYX 020850 METAR LFPG 020850Z 02839KT 9999 FEW030 13/18 Q1068
GG LFPGYYYX LFPBYYYX EGLLYYYX LFPBYYYX 030043 METAR LFPG 030043Z 14151KT 9999 FEW030 19/16 Q1007
KK LFPOYYYX LFPBYYYX LFPBYYYX EDDFYYYX 271747 METAR LFPG 271747Z 20526KT 9999 FEW030 5/2 Q1099
SS LFPYYYX LFPBYYYX 101646 METAR LFPG 101646Z 20424KT 9999 FEW030 9/18 Q1034
LL LFPNYYYX LFPBYYYX 011801 METAR LFPG 011801Z 15949KT 9999 FEW030 6/0 Q1047
GG LFPNYYYX LFPBYYYX 111658 METAR LFPG 111658Z 03737KT 9999 FEW030 8/2 Q1088
KK LFPBYYYX EGLLYYYX LFPNYYYX LFPOYYYX 102302 METAR LFPG 102302Z 09230KT 9999 FEW030 16/3 Q1081
LL LFPBYYYX EDDFYYYX 060353 METAR LFPG 060353Z 14442KT 9999 FEW030 20/6 Q1035
LL EGLLYYYX LFPGYYYX 281836 METAR LFPG 281836Z 01434KT 9999 FEW030 15/13 Q1010
LL LFPGYYYX LFPGYYYX LFPOYYYX EDDFYYYX 031315 METAR LFPG 031315Z 34524KT 9999 FEW030 29/10 Q1097
LL LFPBYYYX LFPBYYYX 161708 METAR LFPG 161708Z 15826KT 9999 FEW030 4/0 Q1038
SS LFPOYYYX LFPOYYYX EDDFYYYX EGLLYYYX 061130 METAR LFPG 061130Z 24818KT 9999 FEW030 8/15 Q1070
KK LFPBYYYX EGLLYYYX LFPGYYYX LFPNYYYX 150803 METAR LFPG 150803Z 22131KT 9999 FEW030 16/2 Q1063
SS EDDFYYYX EDDFYYYX LFPNYYYX 021937 METAR LFPG 021937Z 25646KT 9999 FEW030 3/17 Q1097
LL LFPNYYYX LFPBYYYX 110434 METAR LFPG 110434Z 07343KT 9999 FEW030 12/14 Q1040
FF LFPGYYYX EGLLYYYX LFPNYYYX LFPOYYYX 071610 METAR LFPG 071610Z 10939KT 9999 FEW030 23/16 Q1058
KK LFPNYYYX EGLLYYYX LFPGYYYX EGLLYYYX 241320 METAR LFPG 241320Z 17828KT 9999 FEW030 7/13 Q1041
DD LFPGYYYX LFPNYYYX 210547 METAR LFPG 210547Z 14556KT 9999 FEW030 8/15 Q1003
KK LFPGYYYX LFPGYYYX LFPNYYYX 201832 METAR LFPG 201832Z 18251KT 9999 FEW030 5/12 Q1045
GG LFPOYYYX LFPGYYYX 211529 METAR LFPG 211529Z 17938KT 9999 FEW030 7/7 Q1077
GG LFPBYYYX LFPBYYYX LFPOYYYX LFPGYYYX 180734 METAR LFPG 180734Z 12444KT 9999 FEW030 24/12 Q1077
GG LFPGYYYX LFPBYYYX LFPGYYYX LFPNYYYX 140714 METAR LFPG 140714Z 29222KT 9999 FEW030 17/1 Q1077
LL LFPGYYYX LFPGYYYX LFPBYYYX 261926 METAR LFPG 261926Z 06424KT 9999 FEW030 11/11 Q1077
SS EGLLYYYX LFPBYYYX LFPBYYYX LFPGYYYX 211957 METAR LFPG 211957Z 32757KT 9999 FEW030 9/16 Q1042
KK EDDFYYYX LFPOYYYX 270050 METAR LFPG 270050Z 26059KT 9999 FEW030 15/15 Q1049
DD EDDFYYYX LFPGYYYX 241304 METAR LFPG 241304Z 27412KT 9999 FEW030 11/13 Q1091
FF LFPNYYYX LFPGYYYX 041308 METAR LFPG 041308Z 22626KT 9999 FEW030 27/8 Q1023
LL LFPBYYYX LFPNYYYX 151634 METAR LFPG 151634Z 25233KT 9999 FEW030 28/5 Q1083
KK LFPYYYX EGLLYYYX LFPOYYYX 031643 METAR LFPG 031643Z 13311KT 9999 FEW030 19/16 Q1099
KK LFPNYYYX LFPOYYYX EDDFYYYX EGLLYYYX 221154 METAR LFPG 221154Z 15212KT 9999 FEW030 4/8 Q1000
KK LFPOYYYX EDDFYYYX LFPBYYYX 281327 METAR LFPG 281327Z 05846KT 9999 FEW030 13/3 Q1010
KK LFPNYYYX EGLLYYYX EDDFYYYX 230115 METAR LFPG 230115Z 04554KT 9999 FEW030 13/11 Q1010
KK LFPOYYYX LFPNYYYX EGLLYYYX LFPNYYYX 031619 METAR LFPG 031619Z 22957KT 9999 FEW030 29/14 Q1046
FF LFPOYYYX LFPGYYYX LFPGYYYX EDDFYYYX 181658 METAR LFPG 181658Z 03617KT 9999 FEW030 21/1 Q1064
SS LFPOYYYX EDDFYYYX LFPBYYYX LFPOYYYX 221553 METAR LFPG 221553Z 32412KT 9999 FEW030 20/14 Q1031
SS LFPYYYX EGLLYYYX 051029 METAR LFPG 051029Z 12717KT 9999 FEW030 8/0 Q1049
LL LFPYYYX EDDFYYYX LFPGYYYX LFPGYYYX 170208 METAR LFPG 170208Z 16727KT 9999 FEW030 22/8 Q1093
SS EGLLYYYX EGLLYYYX LFPOYYYX 140353 METAR LFPG 140353Z 26422KT 9999 FEW030 12/16 Q1029
DD EDDFYYYX LFPNYYYX 240959 METAR LFPG 240959Z 27038KT 9999 FEW030 0/17 Q1044
LL EGLLYYYX LFPOYYYX 120127 METAR LFPG 120127Z 35826KT 9999 FEW030 11/14 Q1076
SS EGLLYYYX LFPNYYYX LFPNYYYX 190446 METAR LFPG 190446Z 02415KT 9999 FEW030 12/13 Q1065
LL LFPBYYYX EGLLYYYX EDDFYYYX 101542 METAR LFPG 101542Z 25210KT 9999 FEW030 12/0 Q1015
GG LFPOYYYX LFPGYYYX 200152 METAR LFPG 200152Z 26250KT 9999 FEW030 26/17 Q1036
GG EDDFYYYX EGLLYYYX LFPNYYYX LFPGYYYX 132200 METAR LFPG 132200Z 33059KT 9999 FEW030 17/1 Q1032
LL LFPBYYYX EGLLYYYX EDDFYYYX 161048 METAR LFPG 161048Z 07847KT 9999 FEW030 18/9 Q1074
GG LFPGYYYX LFPOYYYX LFPBYYYX EDDFYYYX 251857 METAR LFPG 251857Z 20735KT 9999 FEW030 1/14 Q1071
DD LFPYYYX EDDFYYYX LFPGYYYX 281036 METAR LFPG 281036Z 00654KT 9999 FEW030 22/9 Q1000
KK LFPOYYYX LFPOYYYX 021506 METAR LFPG 021506Z 27646KT 9999 FEW030 27/2 Q1048
FF LFPNYYYX LFPNYYYX LFPOYYYX 050232 METAR LFPG 050232Z 31141KT 9999 FEW030 14/1 Q1017
SS LFPYYYX EGLLYYYX LFPNYYYX 150027 METAR LFPG 150027Z 11735KT 9999 FEW030 5/13 Q1002
LL LFPGYYYX LFPGYYYX LFPBYYYX 122135 METAR LFPG 122135Z 18534KT 9999 FEW030 26/10 Q1006
FF LFPBYYYX LFPGYYYX 101254 METAR LFPG 101254Z 03253KT 9999 FEW030 27/17 Q1087
DD LFPNYYYX LFPBYYYX EGLLYYYX EDDFYYYX 080556 METAR LFPG 080556Z 02644KT 9999 FEW030 3/2 Q1099
LL LFPGYYYX EGLLYYYX LFPNYYYX 051028 METAR LFPG 051028Z 00747KT 9999 FEW030 18/10 Q1093
DD EGLLYYYX LFPNYYYX LFPGYYYX LFPBYYYX 121432 METAR LFPG 121432Z 13011KT 9999 FEW030 4/14 Q1058
SS LFPOYYYX LFPBYYYX 071707 METAR LFPG 071707Z 03745KT 9999 FEW030 14/2 Q1090
DD LFPBYYYX LFPNYYYX LFPGYYYX LFPBYYYX 171432 METAR LFPG 171432Z 13051KT 9999 FEW030 21/10 Q1064
GG LFPBYYYX EDDFYYYX LFPOYYYX 020054 METAR LFPG 020054Z 09253KT 9999 FEW030 18/13 Q1002
LL LFPGYYYX EGLLYYYX LFPBYYYX LFPOYYYX 230935 METAR LFPG 230935Z 00544KT 9999 FEW030 3/1 Q1041
DD LFPOYYYX EGLLYYYX 281356 METAR LFPG 281356Z 27434KT 9999 FEW030 14/3 Q1099
GG LFPOYYYX EDDFYYYX 062050 METAR LFPG 062050Z 20859KT 9999 FEW030 13/18 Q1064
SS LFPGYYYX LFPOYYYX LFPBYYYX EGLLYYYX 071343 METAR LFPG 071343Z 08132KT 9999 FEW030 19/17 Q1085
SS EDDFYYYX EDDFYYYX LFPNYYYX LFPNYYYX 010317 METAR LFPG 010317Z 28736KT 9999 FEW030 27/18 Q1047
DD LFPBYYYX EGLLYYYX LFPNYYYX 212313 METAR LFPG 212313Z 28312KT 9999 FEW030 28/9 Q1049
KK LFPBYYYX LFPNYYYX 192147 METAR LFPG 192147Z 25756KT 9999 FEW030 14/12 Q1072
SS LFPGYYYX LFPNYYYX 180321 METAR LFPG 180321Z 11940KT 9999 FEW030 1/6 Q1013
LL LFPGYYYX LFPOYYYX LFPBYYYX 181909 METAR LFPG 181909Z 28028KT 9999 FEW030 23/9 Q1009
GG EGLLYYYX LFPNYYYX EGLLYYYX LFPNYYYX 060309 METAR LFPG 060309Z 04838KT 9999 FEW030 6/9 Q1072
DD LFPGYYYX EGLLYYYX LFPNYYYX 222046 METAR LFPG 222046Z 25614KT 9999 FEW030 17/2 Q1006
GG LFPOYYYX LFPNYYYX 101557 METAR LFPG 101557Z 15616KT 9999 FEW030 11/3 Q1026
DD LFPNYYYX EGLLYYYX EGLLYYYX 220757 METAR LFPG 220757Z 02856KT 9999 FEW030 15/18 Q1053
FF LFPOYYYX EDDFYYYX EGLLYYYX 060321 METAR LFPG 060321Z 24040KT 9999 FEW030 22/5 Q1086
DD EDDFYYYX LFPOYYYX LFPOYYYX EDDFYYYX 022314 METAR LFPG 022314Z 04422KT 9999 FEW030 18/10 Q1074
GG LFPBYYYX LFPBYYYX LFPNYYYX EGLLYYYX 110103 METAR LFPG 110103Z 09352KT 9999 FEW030 20/6 Q1012
DD LFPYYYX LFPOYYYX LFPGYYYX 281404 METAR LFPG 281404Z 03433KT 9999 FEW030 26/4 Q1092
GG LFPGYYYX LFPNYYYX LFPBYYYX 081028 METAR LFPG 081028Z 12627KT 9999 FEW030 10/15 Q1070
SS LFPBYYYX EDDFYYYX 190802 METAR LFPG 190802Z 09351KT 9999 FEW030 19/17 Q1077
SS LFPGYYYX EDDFYYYX 131800 METAR LFPG 131800Z 15959KT 9999 FEW030 29/9 Q1027
LL LFPOYYYX LFPOYYYX EDDFYYYX 260454 METAR LFPG 260454Z 26413KT 9999 FEW030 28/5 Q1044
LL LFPNYYYX LFPNYYYX EGLLYYYX 071231 METAR LFPG 071231Z 24929KT 9999 FEW030 17/8 Q1050
SS LFPOYYYX LFPOYYYX 280915 METAR LFPG 280915Z 05434KT 9999 FEW030 14/7 Q1007
DD LFPYYYX EGLLYYYX LFPGYYYX EDDFYYYX 271635 METAR LFPG 271635Z 13353KT 9999 FEW030 8/11 Q1076
FF LFPGYYYX EGLLYYYX 152026 METAR LFPG 152026Z 30555KT 9999 FEW030 12/6 Q1076
LL LFPBYYYX EDDFYYYX LFPOYYYX 190507 METAR LFPG 190507Z 21758KT 9999 FEW030 27/19 Q1048
FF LFPOYYYX EGLLYYYX LFPNYYYX 230043 METAR LFPG 230043Z 26111KT 9999 FEW030 15/14 Q1051
KK LFPNYYYX EDDFYYYX 071303 METAR LFPG 071303Z 15322KT 9999 FEW030 10/2 Q1035
LL EDDFYYYX EDDFYYYX EDDFYYYX LFPNYYYX 110406 METAR LFPG 110406Z 09735KT 9999 FEW030 18/15 Q1048
KK LFPGYYYX LFPOYYYX 021901 METAR LFPG 021901Z 27920KT 9999 FEW030 3/16 Q1069
SS LFPGYYYX LFPBYYYX 041731 METAR LFPG 041731Z 30110KT 9999 FEW030 29/9 Q1000
SS LFPGYYYX LFPBYYYX LFPBYYYX EGLLYYYX 022354 METAR LFPG 022354Z 21232KT 9999 FEW030 4/5 Q1068
LL EGLLYYYX LFPGYYYX 280139 METAR LFPG 280139Z 07038KT 9999 FEW030 3/13 Q1001
GG LFPYYYX LFPOYYYX EDDFYYYX EDDFYYYX 080555 METAR LFPG 080555Z 14624KT 9999 FEW030 1/15 Q1000
SS LFPNYYYX LFPGYYYX LFPNYYYX EGLLYYYX 240535 METAR LFPG 240535Z 31434KT 9999 FEW030 16/11 Q1079
LL LFPNYYYX EDDFYYYX LFPNYYYX LFPNYYYX 101654 METAR LFPG 101654Z 08422KT 9999 FEW030 9/9 Q1044
SS LFPNYYYX LFPNYYYX LFPNYYYX 202111 METAR LFPG 202111Z 28220KT 9999 FEW030 9/2 Q1045
LL LFPYYYX EDDFYYYX 262058 METAR LFPG 262058Z 08847KT 9999 FEW030 8/15 Q1050
DD LFPOYYYX LFPBYYYX 272002 METAR LFPG 272002Z 28021KT 9999 FEW030 16/15 Q1066
GG LFPYYYX LFPNYYYX LFPOYYYX EGLLYYYX 022329 METAR LFPG 022329Z 30838KT 9999 FEW030 26/2 Q1046
KK LFPNYYYX EDDFYYYX EDDFYYYX 110155 METAR LFPG 110155Z 09324KT 9999 FEW030 4/17 Q1029
GG EGLLYYYX LFPNYYYX 241351 METAR LFPG 241351Z 08220KT 9999 FEW030 5/17 Q1000
DD LFPNYYYX LFPNYYYX EGLLYYYX 110031 METAR LFPG 110031Z 18949KT 9999 FEW030 27/6 Q1051
KK LFPGYYYX LFPNYYYX LFPGYYYX 050633 METAR LFPG 050633Z 12321KT 9999 FEW030 3/7 Q1097
GG LFPBYYYX LFPOYYYX LFPOYYYX LFPGYYYX 252205 METAR LFPG 252205Z 04323KT 9999 FEW030 18/13 Q1061
GG EDDFYYYX LFPOYYYX EGLLYYYX LFPGYYYX 040107 METAR LFPG 040107Z 04616KT 9999 FEW030 3/8 Q1017
GG LFPBYYYX LFPOYYYX LFPOYYYX 210357 METAR LFPG 210357Z 21526KT 9999 FEW030 27/7 Q1055
LL LFPYYYX EDDFYYYX EDDFYYYX 161327 METAR LFPG 161327Z 17836KT 9999 FEW030 2/18 Q1014
KK LFPGYYYX EDDFYYYX LFPGYYYX 051041 METAR LFPG 051041Z 19149KT 9999 FEW030 27/5 Q1074
LL LFPGYYYX LFPBYYYX LFPBYYYX 240951 METAR LFPG 240951Z 15040KT 9999 FEW030 21/6 Q1008
DD LFPOYYYX LFPBYYYX 270846 METAR LFPG 270846Z 31725KT 9999 FEW030 20/18 Q1026
DD LFPBYYYX EDDFYYYX EGLLYYYX 110459 METAR LFPG 110459Z 33737KT 9999 FEW030 15/3 Q1088
KK LFPOYYYX LFPGYYYX LFPGYYYX EGLLYYYX 080912 METAR LFPG 080912Z 22230KT 9999 FEW030 2/11 Q1020
GG LFPYYYX LFPGYYYX EGLLYYYX LFPGYYYX 261153 METAR LFPG 261153Z 15122KT 9999 FEW030 26/0 Q1073
DD EDDFYYYX EGLLYYYX LFPBYYYX 070531 METAR LFPG 070531Z 12130KT 9999 FEW030 9/18 Q1002
KK LFPNYYYX LFPNYYYX 070406 METAR LFPG 070406Z 21715KT 9999 FEW030 26/1 Q1079
LL LFPBYYYX LFPOYYYX 190407 METAR LFPG 190407Z 21745KT 9999 FEW030 1/16 Q1045
KK LFPYYYX EDDFYYYX 061142 METAR LFPG 061142Z 32040KT 9999 FEW030 27/3 Q1072
FF LFPBYYYX EDDFYYYX LFPGYYYX 140341 METAR LFPG 140341Z 19230KT 9999 FEW030 23/12 Q1067
FF EGLLYYYX LFPOYYYX 061534 METAR LFPG 061534Z 25212KT 9999 FEW030 6/5 Q1060
SS LFPGYYYX EGLLYYYX 240240 METAR LFPG 240240Z 31059KT 9999 FEW030 8/16 Q1006
FF LFPYYYX EGLLYYYX 011429 METAR LFPG 011429Z 05947KT 9999 FEW030 10/12 Q1022
LL LFPGYYYX EDDFYYYX EGLLYYYX 010240 METAR LFPG 010240Z 31159KT 9999 FEW030 4/10 Q1057
LL LFPNYYYX EGLLYYYX 112023 METAR LFPG 112023Z 11311KT 9999 FEW030 21/19 Q1073
GG LFPOYYYX LFPNYYYX 261517 METAR LFPG 261517Z 34846KT 9999 FEW030 27/0 Q1090
SS LFPBYYYX LFPGYYYX 130621 METAR LFPG 130621Z 05129KT 9999 FEW030 13/13 Q1031
LL LFPOYYYX LFPBYYYX LFPNYYYX EDDFYYYX 151250 METAR LFPG 151250Z 32159KT 9999 FEW030 17/7 Q1099
FF LFPNYYYX LFPBYYYX 240923 METAR LFPG 240923Z 05432KT 9999 FEW030 3/19 Q1049
KK LFPOYYYX LFPNYYYX EGLLYYYX 061926 METAR LFPG 061926Z 06434KT 9999 FEW030 18/1 Q1047
SS LFPBYYYX LFPBYYYX LFPOYYYX EGLLYYYX 262022 METAR LFPG 262022Z 35231KT 9999 FEW030 19/18 Q1095
DD EDDFYYYX LFPNYYYX 212236 METAR LFPG 212236Z 18725KT 9999 FEW030 8/2 Q1035
KK LFPOYYYX EDDFYYYX 010341 METAR LFPG 010341Z 07140KT 9999 FEW030 24/11 Q1006
KK LFPGYYYX LFPBYYYX 210745 METAR LFPG 210745Z 07513KT 9999 FEW030 11/0 Q1022
KK EDDFYYYX LFPOYYYX LFPOYYYX 140822 METAR LFPG 140822Z 05210KT 9999 FEW030 22/11 Q1074
LL EGLLYYYX LFPOYYYX EDDFYYYX 271255 METAR LFPG 271255Z 03333KT 9999 FEW030 7/19 Q1095
LL LFPOYYYX EDDFYYYX LFPGYYYX 191634 METAR LFPG 191634Z 01333KT 9999 FEW030 0/17 Q1014
FF LFPNYYYX LFPBYYYX 160911 METAR LFPG 160911Z 34150KT 9999 FEW030 11/8 Q1071
FF LFPBYYYX LFPBYYYX EDDFYYYX EDDFYYYX 050601 METAR LFPG 050601Z 33939KT 9999 FEW030 13/6 Q1027
GG EGLLYYYX LFPBYYYX LFPGYYYX EGLLYYYX 141945 METAR LFPG 141945Z 25654KT 9999 FEW030 2/18 Q1011
KK EDDFYYYX EGLLYYYX 080500 METAR LFPG 080500Z 33838KT 9999 FEW030 29/7 Q1095
FF LFPNYYYX LFPBYYYX LFPGYYYX EGLLYYYX 142026 METAR LFPG 142026Z 30414KT 9999 FEW030 8/13 Q1092
DD LFPBYYYX LFPNYYYX LFPBYYYX LFPGYYYX 011420 METAR LFPG 011420Z 29949KT 9999 FEW030 7/0 Q1096
GG EDDFYYYX LFPBYYYX 280120 METAR LFPG 280120Z 35848KT 9999 FEW030 18/9 Q1028
LL LFPBYYYX LFPBYYYX EGLLYYYX EDDFYYYX 011028 METAR LFPG 011028Z 00757KT 9999 FEW030 9/12 Q1054
KK EDDFYYYX LFPGYYYX 140454 METAR LFPG 140454Z 02432KT 9999 FEW030 9/4 Q1006
DD LFPBYYYX LFPOYYYX EDDFYYYX 150435 METAR LFPG 150435Z 31333KT 9999 FEW030 25/13 Q1025
LL EDDFYYYX LFPBYYYX LFPBYYYX 200927 METAR LFPG 200927Z 00616KT 9999 FEW030 0/13 Q1080
GG LFPBYYYX LFPBYYYX EGLLYYYX 161720 METAR LFPG 161720Z 35028KT 9999 FEW030 27/2 Q1098
KK LFPNYYYX EGLLYYYX LFPNYYYX 120119 METAR LFPG 120119Z 11828KT 9999 FEW030 9/11 Q1006
LL LFPOYYYX LFPNYYYX LFPNYYYX LFPOYYYX 091428 METAR LFPG 091428Z 05937KT 9999 FEW030 22/11 Q1093
KK EGLLYYYX LFPGYYYX LFPGYYYX EDDFYYYX 170333 METAR LFPG 170333Z 19142KT 9999 FEW030 9/7 Q1006
FF LFPBYYYX LFPGYYYX EDDFYYYX EDDFYYYX 092225 METAR LFPG 092225Z 35513KT 9999 FEW030 6/17 Q1051
LL LFPGYYYX LFPBYYYX 111647 METAR LFPG 111647Z 08545KT 9999 FEW030 10/13 Q1047
SS LFPYYYX EGLLYYYX 110838 METAR LFPG 110838Z 19727KT 9999 FEW030 14/10 Q1097
LL LFPBYYYX LFPGYYYX LFPBYYYX 191239 METAR LFPG 191239Z 00957KT 9999 FEW030 19/17 Q1096
FF LFPYYYX EDDFYYYX LFPOYYYX 202159 METAR LFPG 202159Z 33018KT 9999 FEW030 14/2 Q1000
KK EDDFYYYX LFPOYYYX LFPOYYYX 030031 METAR LFPG 030031Z 30929KT 9999 FEW030 6/12 Q1090
SS LFPOYYYX LFPNYYYX 080120 METAR LFPG 080120Z 23838KT 9999 FEW030 29/5 Q1034
DD LFPBYYYX LFPNYYYX 171052 METAR LFPG 171052Z 15011KT 9999 FEW030 14/13 Q1049
KK EGLLYYYX LFPNYYYX 262326 METAR LFPG 262326Z 23614KT 9999 FEW030 22/9 Q1047
LL EDDFYYYX LFPBYYYX 121004 METAR LFPG 121004Z 34242KT 9999 FEW030 13/7 Q1019
LL EDDFYYYX LFPOYYYX 152139 METAR LFPG 152139Z 01757KT 9999 FEW030 0/3 Q1093
GG LFPNYYYX LFPBYYYX EGLLYYYX EDDFYYYX 161408 METAR LFPG 161408Z 34627KT 9999 FEW030 4/9 Q1035
DD LFPNYYYX LFPBYYYX 191327 METAR LFPG 191327Z 29728KT 9999 FEW030 27/17 Q1054
LL EGLLYYYX EDDFYYYX LFPOYYYX EGLLYYYX 190027 METAR LFPG 190027Z 23715KT 9999 FEW030 10/19 Q1025
FF LFPOYYYX EGLLYYYX LFPGYYYX LFPBYYYX 011933 METAR LFPG 011933Z 06331KT 9999 FEW030 20/15 Q1012
KK LFPYYYX LFPNYYYX LFPNYYYX 271634 METAR LFPG 271634Z 12423KT 9999 FEW030 4/16 Q1093
DD LFPGYYYX EGLLYYYX EDDFYYYX 271307 METAR LFPG 271307Z 10546KT 9999 FEW030 19/17 Q1008
LL LFPGYYYX LFPGYYYX LFPNYYYX EGLLYYYX 211125 METAR LFPG 211125Z 05514KT 9999 FEW030 12/11 Q1066
LL EDDFYYYX LFPGYYYX LFPNYYYX 220725 METAR LFPG 220725Z 12444KT 9999 FEW030 25/19 Q1064
SS LFPYYYX LFPGYYYX LFPBYYYX EGLLYYYX 242200 METAR LFPG 242200Z 33048KT 9999 FEW030 4/11 Q1034
DD LFPNYYYX LFPBYYYX 261153 METAR LFPG 261153Z 15122KT 9999 FEW030 9/17 Q1012
SS LFPOYYYX EDDFYYYX LFPBYYYX LFPOYYYX 100406 METAR LFPG 100406Z 21655KT 9999 FEW030 27/17 Q1087
LL LFPGYYYX EGLLYYYX 010241 METAR LFPG 010241Z 31149KT 9999 FEW030 14/5 Q1090
DD LFPGYYYX EDDFYYYX EGLLYYYX 051945 METAR LFPG 051945Z 25544KT 9999 FEW030 23/7 Q1084
DD LFPBYYYX LFPOYYYX 280220 METAR LFPG 280220Z 23859KT 9999 FEW030 18/13 Q1022
LL LFPYYYX LFPGYYYX LFPNYYYX 200952 METAR LFPG 200952Z 15030KT 9999 FEW030 24/5 Q1012
SS EGLLYYYX LFPOYYYX 100714 METAR LFPG 100714Z 05212KT 9999 FEW030 29/7 Q1002
FF LFPOYYYX EGLLYYYX 230947 METAR LFPG 230947Z 07756KT 9999 FEW030 7/8 Q1008
GG EGLLYYYX LFPNYYYX LFPGYYYX EDDFYYYX 061206 METAR LFPG 061206Z 10455KT 9999 FEW030 8/12 Q1048
KK EGLLYYYX EDDFYYYX 032050 METAR LFPG 032050Z 08929KT 9999 FEW030 27/15 Q1038
FF EGLLYYYX LFPNYYYX 190835 METAR LFPG 190835Z 00523KT 9999 FEW030 16/2 Q1015
GG LFPOYYYX EDDFYYYX LFPGYYYX 130620 METAR LFPG 130620Z 05149KT 9999 FEW030 14/2 Q1035
DD LFPGYYYX EGLLYYYX 272127 METAR LFPG 272127Z 30556KT 9999 FEW030 3/6 Q1055
LL LFPNYYYX LFPOYYYX EGLLYYYX 210733 METAR LFPG 210733Z 12322KT 9999 FEW030 13/17 Q1065
FF EGLLYYYX LFPBYYYX EDDFYYYX 211452 METAR LFPG 211452Z 20321KT 9999 FEW030 15/17 Q1082
DD LFPGYYYX EDDFYYYX 111611 METAR LFPG 111611Z 10949KT 9999 FEW030 16/7 Q1027
DD LFPOYYYX EGLLYYYX EGLLYYYX 070802 METAR LFPG 070802Z 22141KT 9999 FEW030 12/14 Q1017
GG EDDFYYYX LFPOYYYX EGLLYYYX EGLLYYYX 281331 METAR LFPG 281331Z 00920KT 9999 FEW030 23/15 Q1069
SS LFPBYYYX LFPGYYYX 250757 METAR LFPG 250757Z 14736KT 9999 FEW030 24/17 Q1023
LL EGLLYYYX LFPBYYYX LFPOYYYX 011453 METAR LFPG 011453Z 20311KT 9999 FEW030 2/15 Q1027
DD EGLLYYYX EDDFYYYX LFPOYYYX 081428 METAR LFPG 081428Z 29827KT 9999 FEW030 12/7 Q1040
FF EGLLYYYX EGLLYYYX LFPGYYYX LFPGYYYX 220002 METAR LFPG 220002Z 09221KT 9999 FEW030 28/19 Q1044
DD LFPNYYYX LFPNYYYX LFPBYYYX 240959 METAR LFPG 240959Z 15018KT 9999 FEW030 0/17 Q1068
DD EGLLYYYX EGLLYYYX 021922 METAR LFPG 021922Z 35210KT 9999 FEW030 5/15 Q1053
FF LFPBYYYX EDDFYYYX LFPBYYYX 271606 METAR LFPG 271606Z 15625KT 9999 FEW030 24/18 Q1083
LL EGLLYYYX EGLLYYYX 261529 METAR LFPG 261529Z 30018KT 9999 FEW030 29/14 Q1062
SS LFPBYYYX LFPOYYYX 270018 METAR LFPG 270018Z 35637KT 9999 FEW030 1/13 Q1008
KK LFPBYYYX LFPNYYYX LFPBYYYX 070802 METAR LFPG 070802Z 33241KT 9999 FEW030 19/17 Q1022
KK LFPYYYX LFPBYYYX 261921 METAR LFPG 261921Z 23130KT 9999 FEW030 12/11 Q1007
