KK LFPGYYYX LFPBYYYX 082248 METAR LFPG 082248Z 25856KT 9999 FEW030 17/5 Q1029
GG EDDFYYYX EDDFYYYX LFPOYYYX EDDFYYYX 190055 METAR LFPG 190055Z 21323KT 9999 FEW030 29/6 Q1052
SS EDDFYYYX EGLLYYYX EDDFYYYX 241432 METAR LFPG 241432Z 12221KT 9999 FEW030 18/18 Q1021
GG LFPGYYYX LFPGYYYX EGLLYYYX 212236 METAR LFPG 212236Z 18735KT 9999 FEW030 27/10 Q1065
KK EDDFYYYX LFPOYYYX LFPBYYYX 181945 METAR LFPG 181945Z 01546KT 9999 FEW030 19/15 Q1073
FF LFPYYYX LFPGYYYX LFPGYYYX 080204 METAR LFPG 080204Z 21432KT 9999 FEW030 12/8 Q1069
FF LFPBYYYX LFPGYYYX 270127 METAR LFPG 270127Z 35715KT 9999 FEW030 17/18 Q1031
FF LFPBYYYX LFPBYYYX LFPBYYYX EGLLYYYX 132237 METAR LFPG 132237Z 06735KT 9999 FEW030 9/0 Q1064
GG EGLLYYYX LFPNYYYX LFPOYYYX LFPNYYYX 230014 METAR LFPG 230014Z 28533KT 9999 FEW030 22/19 Q1023
GG LFPYYYX LFPGYYYX 060713 METAR LFPG 060713Z 05222KT 9999 FEW030 3/14 Q1051
FF LFPNYYYX LFPGYYYX 121355 METAR LFPG 121355Z 27444KT 9999 FEW030 28/8 Q1045
SS LFPNYYYX LFPGYYYX 020701 METAR LFPG 020701Z 10010KT 9999 FEW030 8/15 Q1068
KK LFPNYYYX LFPBYYYX EDDFYYYX 280923 METAR LFPG 280923Z 05412KT 9999 FEW030 4/4 Q1035
SS EDDFYYYX EGLLYYYX 181230 METAR LFPG 181230Z 00829KT 9999 FEW030 24/0 Q1048
KK LFPGYYYX LFPNYYYX 111251 METAR LFPG 111251Z 32159KT 9999 FEW030 19/7 Q1048
SS LFPYYYX LFPOYYYX 080524 METAR LFPG 080524Z 24222KT 9999 FEW030 12/18 Q1099
LL LFPOYYYX LFPOYYYX LFPOYYYX EGLLYYYX 202127 METAR LFPG 202127Z 18626KT 9999 FEW030 20/8 Q1094
DD LFPGYYYX LFPNYYYX EGLLYYYX 121747 METAR LFPG 121747Z 32626KT 9999 FEW030 23/19 Q1017
FF LFPBYYYX LFPGYYYX EGLLYYYX 051117 METAR LFPG 051117Z 17516KT 9999 FEW030 27/0 Q1043
SS EGLLYYYX EGLLYYYX LFPNYYYX 080156 METAR LFPG 080156Z 09434KT 9999 FEW030 18/10 Q1027
SS LFPGYYYX LFPOYYYX LFPGYYYX LFPBYYYX 030814 METAR LFPG 030814Z 05323KT 9999 FEW030 11/16 Q1007
SS LFPYYYX LFPNYYYX 051529 METAR LFPG 051529Z 29938KT 9999 FEW030 8/2 Q1086
GG LFPYYYX LFPOYYYX EGLLYYYX LFPBYYYX 281732 METAR LFPG 281732Z 06230KT 9999 FEW030 16/14 Q1070
GG LFPGYYYX LFPNYYYX 271243 METAR LFPG 271243Z 20141KT 9999 FEW030 9/18 Q1088
GG LFPOYYYX EDDFYYYX EDDFYYYX 012213 METAR LFPG 012213Z 28321KT 9999 FEW030 13/2 Q1072
LL LFPOYYYX EGLLYYYX EGLLYYYX 242248 METAR LFPG 242248Z 25826KT 9999 FEW030 1/18 Q1000
GG LFPGYYYX LFPNYYYX EDDFYYYX LFPGYYYX 181149 METAR LFPG 181149Z 07928KT 9999 FEW030 7/10 Q1021
FF LFPYYYX EDDFYYYX EGLLYYYX EDDFYYYX 080911 METAR LFPG 080911Z 34210KT 9999 FEW030 11/10 Q1083
LL LFPOYYYX LFPGYYYX LFPNYYYX 210713 METAR LFPG 210713Z 05131KT 9999 FEW030 25/17 Q1037
FF LFPYYYX LFPBYYYX 250257 METAR LFPG 250257Z 21535KT 9999 FEW030 14/3 Q1041
GG LFPBYYYX LFPOYYYX 160156 METAR LFPG 160156Z 33444KT 9999 FEW030 25/14 Q1046
FF EGLLYYYX EGLLYYYX LFPBYYYX 251041 METAR LFPG 251041Z 31929KT 9999 FEW030 23/16 Q1072
LL LFPGYYYX LFPOYYYX 190459 METAR LFPG 190459Z 09737KT 9999 FEW030 15/11 Q1089
SS LFPGYYYX EGLLYYYX 222341 METAR LFPG 222341Z 02030KT 9999 FEW030 10/12 Q1062
LL LFPGYYYX EDDFYYYX LFPOYYYX EDDFYYYX 061518 METAR LFPG 061518Z 22846KT 9999 FEW030 21/12 Q1036
GG LFPBYYYX LFPNYYYX 190446 METAR LFPG 190446Z 26515KT 9999 FEW030 2/1 Q1093
KK LFPNYYYX LFPOYYYX 190802 METAR LFPG 190802Z 22121KT 9999 FEW030 1/14 Q1006
SS LFPBYYYX LFPGYYYX EGLLYYYX 152010 METAR LFPG 152010Z 16019KT 9999 FEW030 13/0 Q1077
FF LFPBYYYX EGLLYYYX 080156 METAR LFPG 080156Z 09454KT 9999 FEW030 11/1 Q1077
GG LFPYYYX EGLLYYYX 050721 METAR LFPG 050721Z 17139KT 9999 FEW030 11/12 Q1022
DD LFPGYYYX LFPGYYYX EDDFYYYX LFPOYYYX 181529 METAR LFPG 181529Z 17938KT 9999 FEW030 23/3 Q1022
FF LFPNYYYX LFPOYYYX EGLLYYYX LFPBYYYX 132229 METAR LFPG 132229Z 18727KT 9999 FEW030 5/18 Q1029
GG LFPOYYYX LFPNYYYX LFPOYYYX EDDFYYYX 270523 METAR LFPG 270523Z 00122KT 9999 FEW030 12/16 Q1016
SS LFPOYYYX EGLLYYYX 041719 METAR LFPG 041719Z 10948KT 9999 FEW030 13/0 Q1088
GG LFPBYYYX LFPOYYYX 070119 METAR LFPG 070119Z 23738KT 9999 FEW030 25/6 Q1082
SS LFPBYYYX EDDFYYYX LFPGYYYX EGLLYYYX 141921 METAR LFPG 141921Z 23252KT 9999 FEW030 2/19 Q1062
KK LFPGYYYX EDDFYYYX LFPBYYYX 261913 METAR LFPG 261913Z 35242KT 9999 FEW030 7/11 Q1009
DD LFPOYYYX LFPBYYYX EGLLYYYX 152002 METAR LFPG 152002Z 16011KT 9999 FEW030 8/18 Q1065
GG EGLLYYYX LFPGYYYX 101901 METAR LFPG 101901Z 16040KT 9999 FEW030 11/5 Q1074
GG EGLLYYYX LFPOYYYX LFPBYYYX 221618 METAR LFPG 221618Z 10857KT 9999 FEW030 2/5 Q1085
GG LFPOYYYX EGLLYYYX 051421 METAR LFPG 051421Z 05159KT 9999 FEW030 18/10 Q1063
SS EDDFYYYX LFPBYYYX 201747 METAR LFPG 201747Z 08646KT 9999 FEW030 27/5 Q1017
SS LFPYYYX LFPOYYYX EDDFYYYX LFPOYYYX 110435 METAR LFPG 110435Z 31313KT 9999 FEW030 18/9 Q1045
LL LFPYYYX LFPNYYYX EDDFYYYX 201048 METAR LFPG 201048Z 31847KT 9999 FEW030 14/4 Q1049
LL LFPNYYYX LFPNYYYX LFPNYYYX 080155 METAR LFPG 080155Z 21314KT 9999 FEW030 4/15 Q1050
FF LFPNYYYX LFPOYYYX LFPNYYYX LFPNYYYX 162240 METAR LFPG 162240Z 25819KT 9999 FEW030 23/19 Q1064
KK LFPBYYYX EDDFYYYX LFPBYYYX 230042 METAR LFPG 230042Z 26051KT 9999 FEW030 8/1 Q1004
FF EDDFYYYX LFPNYYYX LFPGYYYX LFPBYYYX 230014 METAR LFPG 230014Z 16553KT 9999 FEW030 15/15 Q1034
SS LFPYYYX LFPBYYYX LFPGYYYX EGLLYYYX 171457 METAR LFPG 171457Z 15535KT 9999 FEW030 9/16 Q1014
LL EGLLYYYX EDDFYYYX 021902 METAR LFPG 021902Z 16030KT 9999 FEW030 27/12 Q1005
GG LFPBYYYX LFPBYYYX EGLLYYYX LFPNYYYX 170733 METAR LFPG 170733Z 24332KT 9999 FEW030 3/11 Q1022
FF LFPNYYYX LFPGYYYX 172353 METAR LFPG 172353Z 33141KT 9999 FEW030 5/14 Q1075
LL LFPBYYYX LFPGYYYX LFPOYYYX LFPBYYYX 210632 METAR LFPG 210632Z 00321KT 9999 FEW030 19/9 Q1065
LL LFPBYYYX EDDFYYYX LFPNYYYX EGLLYYYX 160923 METAR LFPG 160923Z 05352KT 9999 FEW030 14/19 Q1006
LL EDDFYYYX EGLLYYYX 221522 METAR LFPG 221522Z 30030KT 9999 FEW030 25/4 Q1082
LL EDDFYYYX LFPOYYYX EDDFYYYX 240131 METAR LFPG 240131Z 19020KT 9999 FEW030 17/7 Q1029
DD LFPOYYYX LFPNYYYX LFPBYYYX 042128 METAR LFPG 042128Z 06656KT 9999 FEW030 26/0 Q1000
SS LFPGYYYX EGLLYYYX 061902 METAR LFPG 061902Z 28010KT 9999 FEW030 5/16 Q1043
SS LFPNYYYX LFPBYYYX LFPNYYYX 111623 METAR LFPG 111623Z 18131KT 9999 FEW030 8/15 Q1099
SS LFPGYYYX EGLLYYYX LFPOYYYX 141913 METAR LFPG 141913Z 23252KT 9999 FEW030 3/18 Q1031
SS LFPOYYYX LFPOYYYX EDDFYYYX LFPOYYYX 152047 METAR LFPG 152047Z 25745KT 9999 FEW030 11/4 Q1065
GG LFPYYYX LFPOYYYX LFPNYYYX 060346 METAR LFPG 060346Z 14454KT 9999 FEW030 22/8 Q1049
KK LFPGYYYX LFPBYYYX LFPNYYYX LFPBYYYX 130244 METAR LFPG 130244Z 26323KT 9999 FEW030 3/16 Q1085
DD LFPYYYX LFPBYYYX LFPOYYYX LFPGYYYX 181242 METAR LFPG 181242Z 08031KT 9999 FEW030 6/1 Q1002
SS LFPGYYYX LFPNYYYX EGLLYYYX 030838 METAR LFPG 030838Z 19727KT 9999 FEW030 14/11 Q1068
KK LFPBYYYX EGLLYYYX LFPGYYYX 012216 METAR LFPG 012216Z 23525KT 9999 FEW030 5/16 Q1020
SS LFPNYYYX LFPNYYYX 251949 METAR LFPG 251949Z 08738KT 9999 FEW030 12/13 Q1050
SS LFPOYYYX LFPGYYYX EDDFYYYX 140357 METAR LFPG 140357Z 09526KT 9999 FEW030 3/2 Q1044
DD LFPGYYYX LFPNYYYX LFPNYYYX LFPOYYYX 091005 METAR LFPG 091005Z 10353KT 9999 FEW030 15/19 Q1072
KK LFPOYYYX LFPGYYYX EDDFYYYX EGLLYYYX 221138 METAR LFPG 221138Z 12848KT 9999 FEW030 22/10 Q1051
FF LFPGYYYX LFPGYYYX LFPNYYYX 131812 METAR LFPG 131812Z 23151KT 9999 FEW030 9/3 Q1063
GG LFPBYYYX EGLLYYYX LFPGYYYX 090205 METAR LFPG 090205Z 09513KT 9999 FEW030 6/17 Q1010
FF LFPOYYYX LFPNYYYX 022002 METAR LFPG 022002Z 16021KT 9999 FEW030 16/14 Q1038
DD LFPOYYYX LFPOYYYX EGLLYYYX EDDFYYYX 061238 METAR LFPG 061238Z 24836KT 9999 FEW030 4/9 Q1020
GG LFPBYYYX EGLLYYYX 011137 METAR LFPG 011137Z 00736KT 9999 FEW030 8/11 Q1020
FF LFPBYYYX LFPOYYYX LFPNYYYX LFPOYYYX 171416 METAR LFPG 171416Z 10735KT 9999 FEW030 0/17 Q1050
FF EDDFYYYX LFPGYYYX LFPNYYYX LFPGYYYX 220318 METAR LFPG 220318Z 28816KT 9999 FEW030 5/17 Q1035
DD LFPOYYYX LFPOYYYX 080911 METAR LFPG 080911Z 22210KT 9999 FEW030 12/1 Q1044
KK LFPGYYYX LFPOYYYX 152038 METAR LFPG 152038Z 01757KT 9999 FEW030 21/11 Q1044
GG LFPGYYYX LFPBYYYX LFPNYYYX 101202 METAR LFPG 101202Z 27241KT 9999 FEW030 19/5 Q1054
GG EDDFYYYX LFPGYYYX 101914 METAR LFPG 101914Z 23252KT 9999 FEW030 13/10 Q1024
DD LFPGYYYX EDDFYYYX 051856 METAR LFPG 051856Z 08755KT 9999 FEW030 1/4 Q1003
DD LFPGYYYX LFPOYYYX LFPNYYYX 131012 METAR LFPG 131012Z 34231KT 9999 FEW030 29/4 Q1015
KK LFPOYYYX LFPGYYYX LFPOYYYX 051801 METAR LFPG 051801Z 27119KT 9999 FEW030 0/14 Q1070
GG LFPOYYYX EGLLYYYX LFPGYYYX 111658 METAR LFPG 111658Z 15647KT 9999 FEW030 10/14 Q1087
SS EGLLYYYX LFPBYYYX EDDFYYYX 141105 METAR LFPG 141105Z 34414KT 9999 FEW030 21/5 Q1029
SS EDDFYYYX LFPNYYYX EDDFYYYX LFPGYYYX 231226 METAR LFPG 231226Z 05735KT 9999 FEW030 17/17 Q1077
SS LFPBYYYX LFPNYYYX EDDFYYYX EGLLYYYX 181949 METAR LFPG 181949Z 32858KT 9999 FEW030 22/4 Q1094
FF LFPBYYYX LFPOYYYX 251405 METAR LFPG 251405Z 03543KT 9999 FEW030 12/3 Q1095
DD LFPBYYYX EGLLYYYX 240152 METAR LFPG 240152Z 02250KT 9999 FEW030 12/2 Q1025
LL EGLLYYYX LFPGYYYX LFPBYYYX LFPNYYYX 190827 METAR LFPG 190827Z 12534KT 9999 FEW030 29/1 Q1050
DD LFPYYYX LFPGYYYX 062026 METAR LFPG 062026Z 18414KT 9999 FEW030 2/13 Q1039
SS LFPBYYYX LFPOYYYX LFPGYYYX 141558 METAR LFPG 141558Z 27616KT 9999 FEW030 9/12 Q1030
DD LFPNYYYX EGLLYYYX EDDFYYYX EDDFYYYX 230007 METAR LFPG 230007Z 16515KT 9999 FEW030 0/6 Q1058
GG EDDFYYYX LFPBYYYX 082159 METAR LFPG 082159Z 21028KT 9999 FEW030 27/3 Q1037
FF LFPNYYYX LFPNYYYX 041408 METAR LFPG 041408Z 34657KT 9999 FEW030 18/18 Q1036
KK LFPOYYYX EDDFYYYX EGLLYYYX 151231 METAR LFPG 151231Z 00959KT 9999 FEW030 23/3 Q1003
SS LFPGYYYX EDDFYYYX EDDFYYYX LFPBYYYX 040636 METAR LFPG 040636Z 18635KT 9999 FEW030 3/15 Q1024
SS EDDFYYYX EDDFYYYX EDDFYYYX LFPOYYYX 280520 METAR LFPG 280520Z 29038KT 9999 FEW030 29/4 Q1041
KK EGLLYYYX LFPNYYYX EDDFYYYX LFPNYYYX 162127 METAR LFPG 162127Z 17746KT 9999 FEW030 11/11 Q1010
FF LFPYYYX EGLLYYYX 082204 METAR LFPG 082204Z 16213KT 9999 FEW030 1/11 Q1087
DD LFPOYYYX LFPBYYYX 041356 METAR LFPG 041356Z 15444KT 9999 FEW030 5/3 Q1007
DD LFPOYYYX EGLLYYYX EGLLYYYX EGLLYYYX 101610 METAR LFPG 101610Z 10829KT 9999 FEW030 24/7 Q1045
KK LFPBYYYX LFPOYYYX LFPGYYYX LFPGYYYX 242228 METAR LFPG 242228Z 30657KT 9999 FEW030 24/7 Q1047
GG LFPBYYYX EDDFYYYX LFPGYYYX 230959 METAR LFPG 230959Z 02937KT 9999 FEW030 29/10 Q1004
SS EDDFYYYX LFPOYYYX 112058 METAR LFPG 112058Z 08917KT 9999 FEW030 3/12 Q1058
GG LFPOYYYX LFPBYYYX 261950 METAR LFPG 261950Z 08848KT 9999 FEW030 7/16 Q1068
DD EDDFYYYX LFPNYYYX LFPBYYYX 081416 METAR LFPG 081416Z 22645KT 9999 FEW030 16/11 Q1028
FF LFPGYYYX LFPOYYYX LFPOYYYX LFPBYYYX 230458 METAR LFPG 230458Z 33757KT 9999 FEW030 11/11 Q1092
FF EGLLYYYX LFPNYYYX LFPBYYYX 051017 METAR LFPG 051017Z 17555KT 9999 FEW030 4/9 Q1013
SS EDDFYYYX LFPNYYYX 100758 METAR LFPG 100758Z 02836KT 9999 FEW030 19/4 Q1085
KK EDDFYYYX EGLLYYYX LFPOYYYX EGLLYYYX 060442 METAR LFPG 060442Z 31220KT 9999 FEW030 16/1 Q1099
SS LFPYYYX LFPOYYYX LFPOYYYX EGLLYYYX 230430 METAR LFPG 230430Z 12159KT 9999 FEW030 17/6 Q1024
LL LFPBYYYX LFPBYYYX 231339 METAR LFPG 231339Z 00958KT 9999 FEW030 0/8 Q1082
DD LFPYYYX LFPNYYYX 060721 METAR LFPG 060721Z 17250KT 9999 FEW030 17/14 Q1088
FF EGLLYYYX LFPGYYYX EGLLYYYX LFPBYYYX 120511 METAR LFPG 120511Z 16930KT 9999 FEW030 19/8 Q1031
DD LFPOYYYX LFPBYYYX LFPOYYYX LFPGYYYX 231315 METAR LFPG 231315Z 10513KT 9999 FEW030 5/3 Q1080
DD EGLLYYYX EGLLYYYX 141105 METAR LFPG 141105Z 10434KT 9999 FEW030 8/12 Q1048
SS LFPNYYYX LFPOYYYX 090317 METAR LFPG 090317Z 28746KT 9999 FEW030 24/9 Q1099
KK LFPYYYX LFPNYYYX LFPBYYYX 141553 METAR LFPG 141553Z 20424KT 9999 FEW030 5/0 Q1031
GG LFPOYYYX LFPOYYYX LFPNYYYX 011441 METAR LFPG 011441Z 25119KT 9999 FEW030 5/1 Q1083
GG LFPOYYYX EGLLYYYX LFPBYYYX LFPGYYYX 280508 METAR LFPG 280508Z 09826KT 9999 FEW030 14/17 Q1099
DD LFPNYYYX EDDFYYYX 161836 METAR LFPG 161836Z 25425KT 9999 FEW030 17/11 Q1010
GG EGLLYYYX LFPOYYYX LFPBYYYX 180329 METAR LFPG 180329Z 12038KT 9999 FEW030 23/11 Q1024
SS LFPYYYX LFPGYYYX 260342 METAR LFPG 260342Z 31210KT 9999 FEW030 10/9 Q1080
SS LFPOYYYX EGLLYYYX 150458 METAR LFPG 150458Z 09757KT 9999 FEW030 9/10 Q1099
FF LFPNYYYX LFPGYYYX LFPOYYYX LFPOYYYX 011452 METAR LFPG 011452Z 08311KT 9999 FEW030 7/18 Q1015
SS LFPBYYYX EGLLYYYX LFPNYYYX EDDFYYYX 190019 METAR LFPG 190019Z 35747KT 9999 FEW030 16/6 Q1002
KK LFPGYYYX LFPOYYYX LFPNYYYX EDDFYYYX 150846 METAR LFPG 150846Z 07715KT 9999 FEW030 26/15 Q1016
DD EDDFYYYX LFPGYYYX EDDFYYYX LFPOYYYX 070019 METAR LFPG 070019Z 23737KT 9999 FEW030 11/6 Q1023
KK LFPOYYYX LFPNYYYX LFPGYYYX 072127 METAR LFPG 072127Z 18515KT 9999 FEW030 24/11 Q1015
DD EGLLYYYX EGLLYYYX LFPBYYYX 201352 METAR LFPG 201352Z 32240KT 9999 FEW030 23/14 Q1054
GG EDDFYYYX LFPGYYYX 282240 METAR LFPG 282240Z 25859KT 9999 FEW030 24/7 Q1063
SS EDDFYYYX LFPNYYYX LFPBYYYX LFPOYYYX 182325 METAR LFPG 182325Z 23634KT 9999 FEW030 14/6 Q1069
KK LFPGYYYX LFPOYYYX EDDFYYYX 011053 METAR LFPG 011053Z 27151KT 9999 FEW030 1/2 Q1072
KK EGLLYYYX LFPNYYYX 131833 METAR LFPG 131833Z 06321KT 9999 FEW030 16/5 Q1013
LL LFPOYYYX LFPBYYYX 271255 METAR LFPG 271255Z 27323KT 9999 FEW030 20/7 Q1021
SS LFPOYYYX LFPNYYYX LFPOYYYX 080151 METAR LFPG 080151Z 14250KT 9999 FEW030 22/16 Q1057
DD LFPYYYX EGLLYYYX LFPOYYYX LFPOYYYX 021909 METAR LFPG 021909Z 04018KT 9999 FEW030 14/18 Q1066
KK LFPBYYYX LFPGYYYX EDDFYYYX LFPGYYYX 222014 METAR LFPG 222014Z 35222KT 9999 FEW030 9/2 Q1000
DD EDDFYYYX LFPBYYYX 020353 METAR LFPG 020353Z 14412KT 9999 FEW030 15/2 Q1035
DD LFPOYYYX LFPNYYYX EDDFYYYX 060334 METAR LFPG 060334Z 31232KT 9999 FEW030 8/0 Q1089
LL LFPNYYYX LFPBYYYX LFPOYYYX 270911 METAR LFPG 270911Z 22120KT 9999 FEW030 27/8 Q1096
SS LFPOYYYX LFPBYYYX 261510 METAR LFPG 261510Z 22848KT 9999 FEW030 9/13 Q1081
FF LFPYYYX LFPGYYYX 142305 METAR LFPG 142305Z 16324KT 9999 FEW030 9/7 Q1092
SS EDDFYYYX EDDFYYYX 080127 METAR LFPG 080127Z 11836KT 9999 FEW030 5/19 Q1042
LL LFPNYYYX LFPBYYYX EGLLYYYX 050353 METAR LFPG 050353Z 02351KT 9999 FEW030 13/6 Q1053
SS LFPGYYYX LFPNYYYX 082147 METAR LFPG 082147Z 25726KT 9999 FEW030 12/13 Q1028
GG LFPYYYX EDDFYYYX EGLLYYYX 140746 METAR LFPG 140746Z 07634KT 9999 FEW030 23/19 Q1095
DD LFPBYYYX LFPBYYYX LFPOYYYX LFPOYYYX 250216 METAR LFPG 250216Z 16757KT 9999 FEW030 28/8 Q1023
SS LFPBYYYX LFPGYYYX EDDFYYYX EDDFYYYX 242115 METAR LFPG 242115Z 23434KT 9999 FEW030 10/16 Q1014
FF LFPOYYYX LFPNYYYX LFPOYYYX LFPBYYYX 241307 METAR LFPG 241307Z 22626KT 9999 FEW030 14/19 Q1006
SS LFPNYYYX LFPOYYYX EGLLYYYX LFPGYYYX 062002 METAR LFPG 062002Z 04041KT 9999 FEW030 21/18 Q1065
KK EGLLYYYX LFPOYYYX 202115 METAR LFPG 202115Z 34654KT 9999 FEW030 9/10 Q1065
DD LFPGYYYX EDDFYYYX 021530 METAR LFPG 021530Z 06058KT 9999 FEW030 28/14 Q1096
FF EGLLYYYX EDDFYYYX 050609 METAR LFPG 050609Z 21947KT 9999 FEW030 19/17 Q1049
LL LFPGYYYX LFPGYYYX 081028 METAR LFPG 081028Z 24647KT 9999 FEW030 21/0 Q1081
FF LFPOYYYX LFPGYYYX LFPBYYYX 051517 METAR LFPG 051517Z 34756KT 9999 FEW030 15/3 Q1090
FF LFPNYYYX LFPNYYYX LFPGYYYX 120155 METAR LFPG 120155Z 33414KT 9999 FEW030 5/14 Q1034
FF LFPYYYX LFPGYYYX EDDFYYYX LFPNYYYX 250644 METAR LFPG 250644Z 19513KT 9999 FEW030 29/3 Q1098
GG LFPNYYYX EGLLYYYX 081320 METAR LFPG 081320Z 05858KT 9999 FEW030 16/3 Q1044
LL LFPGYYYX LFPNYYYX EGLLYYYX EDDFYYYX 091153 METAR LFPG 091153Z 03121KT 9999 FEW030 2/10 Q1015
LL EDDFYYYX LFPGYYYX LFPBYYYX LFPGYYYX 270143 METAR LFPG 270143Z 26132KT 9999 FEW030 27/2 Q1076
SS LFPYYYX LFPNYYYX EDDFYYYX 160244 METAR LFPG 160244Z 14253KT 9999 FEW030 10/13 Q1062
LL LFPNYYYX EGLLYYYX EDDFYYYX LFPOYYYX 101141 METAR LFPG 101141Z 08050KT 9999 FEW030 20/13 Q1071
LL LFPNYYYX LFPNYYYX 081700 METAR LFPG 081700Z 15828KT 9999 FEW030 13/15 Q1061
FF LFPGYYYX LFPOYYYX EGLLYYYX 270826 METAR LFPG 270826Z 24555KT 9999 FEW030 22/16 Q1007
FF LFPYYYX EDDFYYYX EDDFYYYX 140757 METAR LFPG 140757Z 14756KT 9999 FEW030 27/17 Q1073
KK LFPYYYX LFPOYYYX LFPGYYYX 030014 METAR LFPG 030014Z 16423KT 9999 FEW030 19/3 Q1058
GG LFPNYYYX LFPGYYYX 231623 METAR LFPG 231623Z 30121KT 9999 FEW030 10/10 Q1065
GG EDDFYYYX LFPBYYYX 210620 METAR LFPG 210620Z 05139KT 9999 FEW030 20/4 Q1086
SS LFPOYYYX LFPGYYYX LFPGYYYX 021101 METAR LFPG 021101Z 15230KT 9999 FEW030 5/8 Q1077
SS EGLLYYYX EDDFYYYX LFPNYYYX LFPNYYYX 282240 METAR LFPG 282240Z 01829KT 9999 FEW030 26/14 Q1075
SS LFPOYYYX LFPNYYYX LFPOYYYX 171557 METAR LFPG 171557Z 27546KT 9999 FEW030 26/18 Q1045
DD LFPYYYX EDDFYYYX LFPBYYYX EDDFYYYX 071230 METAR LFPG 071230Z 12949KT 9999 FEW030 4/10 Q1015
FF LFPBYYYX EGLLYYYX LFPNYYYX 110139 METAR LFPG 110139Z 30958KT 9999 FEW030 17/18 Q1085
FF LFPOYYYX LFPBYYYX LFPNYYYX EGLLYYYX 170612 METAR LFPG 170612Z 05051KT 9999 FEW030 2/14 Q1044
DD LFPOYYYX LFPOYYYX LFPNYYYX EDDFYYYX 160252 METAR LFPG 160252Z 02250KT 9999 FEW030 17/6 Q1016
LL LFPGYYYX LFPNYYYX 240904 METAR LFPG 240904Z 34242KT 9999 FEW030 19/0 Q1031
FF LFPNYYYX EGLLYYYX EGLLYYYX LFPNYYYX 201744 METAR LFPG 201744Z 01452KT 9999 FEW030 25/11 Q1045
FF LFPOYYYX EGLLYYYX LFPNYYYX 011001 METAR LFPG 011001Z 15159KT 9999 FEW030 25/5 Q1043
FF LFPYYYX LFPGYYYX LFPOYYYX LFPOYYYX 241432 METAR LFPG 241432Z 25031KT 9999 FEW030 9/1 Q1078
LL LFPOYYYX LFPBYYYX LFPBYYYX 280132 METAR LFPG 280132Z 07040KT 9999 FEW030 21/3 Q1097
SS LFPGYYYX EGLLYYYX 201712 METAR LFPG 201712Z 11020KT 9999 FEW030 5/5 Q1025
SS EGLLYYYX LFPGYYYX LFPBYYYX 042152 METAR LFPG 042152Z 21040KT 9999 FEW030 28/18 Q1087
FF LFPOYYYX EDDFYYYX 120608 METAR LFPG 120608Z 09837KT 9999 FEW030 18/1 Q1053
KK LFPGYYYX EDDFYYYX EGLLYYYX 091012 METAR LFPG 091012Z 10211KT 9999 FEW030 27/0 Q1070
KK LFPOYYYX EDDFYYYX LFPBYYYX EDDFYYYX 201040 METAR LFPG 201040Z 31849KT 9999 FEW030 7/13 Q1047
GG LFPBYYYX EDDFYYYX LFPOYYYX EDDFYYYX 181901 METAR LFPG 181901Z 28040KT 9999 FEW030 11/18 Q1058
GG LFPBYYYX LFPGYYYX LFPNYYYX LFPOYYYX 110519 METAR LFPG 110519Z 16928KT 9999 FEW030 3/3 Q1027
FF EDDFYYYX LFPGYYYX EDDFYYYX 230555 METAR LFPG 230555Z 26513KT 9999 FEW030 22/4 Q1042
SS LFPNYYYX LFPBYYYX LFPNYYYX LFPBYYYX 261105 METAR LFPG 261105Z 22424KT 9999 FEW030 15/8 Q1000
SS EGLLYYYX EDDFYYYX LFPOYYYX 161736 METAR LFPG 161736Z 01414KT 9999 FEW030 27/7 Q1027
SS LFPBYYYX EGLLYYYX EGLLYYYX LFPBYYYX 060714 METAR LFPG 060714Z 05232KT 9999 FEW030 10/17 Q1013
FF LFPYYYX LFPGYYYX EDDFYYYX 101118 METAR LFPG 101118Z 17656KT 9999 FEW030 18/6 Q1053
FF LFPGYYYX LFPOYYYX LFPOYYYX LFPGYYYX 130737 METAR LFPG 130737Z 30756KT 9999 FEW030 20/12 Q1093
GG EDDFYYYX LFPGYYYX LFPOYYYX EGLLYYYX 281004 METAR LFPG 281004Z 10213KT 9999 FEW030 0/15 Q1050
GG LFPOYYYX EDDFYYYX LFPOYYYX LFPOYYYX 061541 METAR LFPG 061541Z 25230KT 9999 FEW030 11/14 Q1001
FF LFPGYYYX EGLLYYYX 201735 METAR LFPG 201735Z 01314KT 9999 FEW030 18/16 Q1013
GG LFPBYYYX EDDFYYYX 080532 METAR LFPG 080532Z 12240KT 9999 FEW030 19/12 Q1075
FF EGLLYYYX EDDFYYYX EGLLYYYX LFPOYYYX 032135 METAR LFPG 032135Z 30524KT 9999 FEW030 5/19 Q1069
DD LFPYYYX LFPOYYYX EDDFYYYX LFPGYYYX 030050 METAR LFPG 030050Z 14019KT 9999 FEW030 24/14 Q1003
KK LFPGYYYX LFPGYYYX 070442 METAR LFPG 070442Z 31343KT 9999 FEW030 21/19 Q1067
KK EDDFYYYX LFPOYYYX 070051 METAR LFPG 070051Z 02139KT 9999 FEW030 12/5 Q1068
LL LFPYYYX EGLLYYYX LFPGYYYX 231646 METAR LFPG 231646Z 08435KT 9999 FEW030 20/16 Q1004
LL LFPGYYYX EDDFYYYX EDDFYYYX EDDFYYYX 251433 METAR LFPG 251433Z 13111KT 9999 FEW030 18/7 Q1009
KK LFPBYYYX LFPGYYYX 150434 METAR LFPG 150434Z 07353KT 9999 FEW030 3/0 Q1044
LL LFPOYYYX EGLLYYYX LFPGYYYX 060014 METAR LFPG 060014Z 28414KT 9999 FEW030 9/1 Q1094
SS LFPGYYYX EGLLYYYX 131113 METAR LFPG 131113Z 34312KT 9999 FEW030 20/5 Q1037
LL LFPGYYYX LFPNYYYX 031619 METAR LFPG 031619Z 10947KT 9999 FEW030 8/3 Q1056
FF EGLLYYYX LFPNYYYX EGLLYYYX EGLLYYYX 191707 METAR LFPG 191707Z 03716KT 9999 FEW030 1/13 Q1098
DD LFPYYYX LFPNYYYX LFPNYYYX 061141 METAR LFPG 061141Z 32020KT 9999 FEW030 26/0 Q1055
SS LFPOYYYX LFPBYYYX EDDFYYYX 200555 METAR LFPG 200555Z 26654KT 9999 FEW030 14/7 Q1030
GG LFPBYYYX LFPOYYYX 160624 METAR LFPG 160624Z 12242KT 9999 FEW030 17/7 Q1009
DD LFPYYYX LFPOYYYX 110935 METAR LFPG 110935Z 24534KT 9999 FEW030 3/2 Q1069
SS LFPGYYYX LFPNYYYX EGLLYYYX EDDFYYYX 230446 METAR LFPG 230446Z 26445KT 9999 FEW030 27/7 Q1025
GG LFPGYYYX EGLLYYYX LFPOYYYX LFPBYYYX 231242 METAR LFPG 231242Z 20111KT 9999 FEW030 5/4 Q1072
GG LFPNYYYX LFPNYYYX EGLLYYYX EDDFYYYX 282123 METAR LFPG 282123Z 11442KT 9999 FEW030 21/8 Q1084
KK LFPGYYYX EGLLYYYX LFPGYYYX LFPGYYYX 040947 METAR LFPG 040947Z 31816KT 9999 FEW030 27/2 Q1002
KK LFPYYYX EDDFYYYX EGLLYYYX 121824 METAR LFPG 121824Z 06243KT 9999 FEW030 17/16 Q1088
KK LFPNYYYX LFPBYYYX LFPNYYYX EGLLYYYX 240511 METAR LFPG 240511Z 17050KT 9999 FEW030 8/6 Q1059
DD LFPOYYYX EDDFYYYX 041000 METAR LFPG 041000Z 15028KT 9999 FEW030 1/1 Q1054
FF LFPGYYYX EGLLYYYX LFPGYYYX 070007 METAR LFPG 070007Z 16515KT 9999 FEW030 29/18 Q1019
FF EGLLYYYX EGLLYYYX 011432 METAR LFPG 011432Z 25131KT 9999 FEW030 29/1 Q1060
LL LFPGYYYX EDDFYYYX EDDFYYYX 261558 METAR LFPG 261558Z 27656KT 9999 FEW030 6/9 Q1012
GG EDDFYYYX LFPBYYYX LFPBYYYX 061105 METAR LFPG 061105Z 22424KT 9999 FEW030 18/11 Q1038
LL LFPOYYYX EGLLYYYX 202147 METAR LFPG 202147Z 01816KT 9999 FEW030 5/18 Q1050
LL LFPGYYYX EGLLYYYX 061242 METAR LFPG 061242Z 20051KT 9999 FEW030 20/0 Q1094
KK LFPNYYYX LFPOYYYX LFPOYYYX LFPGYYYX 181554 METAR LFPG 181554Z 32432KT 9999 FEW030 28/13 Q1015
DD LFPOYYYX EDDFYYYX LFPGYYYX LFPGYYYX 212204 METAR LFPG 212204Z 04333KT 9999 FEW030 0/3 Q1003
DD LFPBYYYX EDDFYYYX LFPOYYYX LFPBYYYX 250621 METAR LFPG 250621Z 17149KT 9999 FEW030 20/3 Q1034
SS EDDFYYYX LFPNYYYX 131041 METAR LFPG 131041Z 31949KT 9999 FEW030 23/12 Q1027
DD LFPGYYYX LFPBYYYX 211036 METAR LFPG 211036Z 12735KT 9999 FEW030 23/18 Q1063
KK LFPYYYX LFPBYYYX EGLLYYYX LFPBYYYX 041708 METAR LFPG 041708Z 03836KT 9999 FEW030 7/8 Q1011
SS LFPYYYX LFPGYYYX EGLLYYYX EDDFYYYX 280519 METAR LFPG 280519Z 05058KT 9999 FEW030 23/0 Q1067
SS LFPYYYX LFPBYYYX EGLLYYYX 061518 METAR LFPG 061518Z 34836KT 9999 FEW030 3/6 Q1057
DD LFPNYYYX LFPGYYYX EGLLYYYX EDDFYYYX 051533 METAR LFPG 051533Z 01111KT 9999 FEW030 1/19 Q1011
KK EDDFYYYX LFPNYYYX LFPGYYYX 130624 METAR LFPG 130624Z 12343KT 9999 FEW030 27/3 Q1020
GG EDDFYYYX EGLLYYYX LFPNYYYX LFPOYYYX 250713 METAR LFPG 250713Z 17112KT 9999 FEW030 28/6 Q1020
FF LFPBYYYX EDDFYYYX 020345 METAR LFPG 020345Z 14354KT 9999 FEW030 5/5 Q1029
LL EDDFYYYX LFPGYYYX LFPGYYYX 042139 METAR LFPG 042139Z 01838KT 9999 FEW030 12/1 Q1075
DD LFPOYYYX LFPOYYYX 101658 METAR LFPG 101658Z 03647KT 9999 FEW030 5/15 Q1039
SS LFPOYYYX LFPOYYYX 021949 METAR LFPG 021949Z 32828KT 9999 FEW030 9/1 Q1007
FF LFPOYYYX LFPGYYYX LFPGYYYX 032038 METAR LFPG 032038Z 01747KT 9999 FEW030 2/5 Q1027
LL LFPOYYYX LFPOYYYX LFPGYYYX LFPNYYYX 052228 METAR LFPG 052228Z 06717KT 9999 FEW030 4/14 Q1040
SS LFPGYYYX EGLLYYYX LFPOYYYX LFPGYYYX 162152 METAR LFPG 162152Z 33030KT 9999 FEW030 10/5 Q1078
LL LFPNYYYX LFPNYYYX 100038 METAR LFPG 100038Z 18847KT 9999 FEW030 1/9 Q1039
KK LFPGYYYX LFPBYYYX LFPBYYYX LFPNYYYX 270430 METAR LFPG 270430Z 00049KT 9999 FEW030 28/19 Q1081
SS LFPOYYYX LFPOYYYX LFPNYYYX LFPOYYYX 140310 METAR LFPG 140310Z 04848KT 9999 FEW030 28/4 Q1040
GG LFPGYYYX LFPGYYYX EGLLYYYX EDDFYYYX 021618 METAR LFPG 021618Z 22819KT 9999 FEW030 3/6 Q1022
SS LFPOYYYX LFPNYYYX LFPOYYYX LFPOYYYX 230834 METAR LFPG 230834Z 12513KT 9999 FEW030 1/9 Q1058
FF EDDFYYYX LFPBYYYX 022002 METAR LFPG 022002Z 28021KT 9999 FEW030 11/4 Q1096
DD EDDFYYYX EGLLYYYX EDDFYYYX 110119 METAR LFPG 110119Z 11737KT 9999 FEW030 3/11 Q1000
DD EGLLYYYX EDDFYYYX 080108 METAR LFPG 080108Z 04626KT 9999 FEW030 4/18 Q1025
LL LFPYYYX EDDFYYYX EDDFYYYX LFPBYYYX 200924 METAR LFPG 200924Z 29412KT 9999 FEW030 2/6 Q1005
KK EGLLYYYX LFPBYYYX EDDFYYYX EGLLYYYX 141214 METAR LFPG 141214Z 34412KT 9999 FEW030 27/6 Q1089
GG LFPYYYX LFPOYYYX LFPNYYYX LFPGYYYX 032147 METAR LFPG 032147Z 25747KT 9999 FEW030 5/14 Q1000
SS LFPGYYYX EGLLYYYX LFPBYYYX 040904 METAR LFPG 040904Z 10252KT 9999 FEW030 4/10 Q1098
SS LFPGYYYX LFPBYYYX LFPNYYYX 241800 METAR LFPG 241800Z 15849KT 9999 FEW030 13/1 Q1041
GG LFPYYYX LFPOYYYX 250329 METAR LFPG 250329Z 23958KT 9999 FEW030 16/19 Q1065
FF LFPGYYYX LFPOYYYX 080559 METAR LFPG 080559Z 21838KT 9999 FEW030 29/13 Q1070
LL LFPNYYYX EDDFYYYX LFPBYYYX 210220 METAR LFPG 210220Z 35849KT 9999 FEW030 2/1 Q1007
SS LFPBYYYX LFPNYYYX LFPOYYYX LFPNYYYX 091832 METAR LFPG 091832Z 06321KT 9999 FEW030 19/13 Q1070
KK LFPOYYYX LFPBYYYX 080512 METAR LFPG 080512Z 29020KT 9999 FEW030 11/7 Q1007
SS LFPOYYYX EDDFYYYX 102050 METAR LFPG 102050Z 20858KT 9999 FEW030 23/5 Q1004
GG EDDFYYYX LFPGYYYX 272058 METAR LFPG 272058Z 20847KT 9999 FEW030 14/11 Q1087
FF EGLLYYYX LFPGYYYX 250221 METAR LFPG 250221Z 23919KT 9999 FEW030 11/16 Q1027
LL EGLLYYYX EGLLYYYX 120103 METAR LFPG 120103Z 21412KT 9999 FEW030 6/18 Q1016
DD LFPNYYYX EGLLYYYX 130257 METAR LFPG 130257Z 09515KT 9999 FEW030 12/17 Q1051
GG LFPYYYX LFPNYYYX 051453 METAR LFPG 051453Z 20321KT 9999 FEW030 13/17 Q1004
GG LFPOYYYX LFPGYYYX 132216 METAR LFPG 132216Z 35525KT 9999 FEW030 19/18 Q1013
GG LFPYYYX LFPNYYYX 152159 METAR LFPG 152159Z 20940KT 9999 FEW030 6/6 Q1093
SS LFPOYYYX EDDFYYYX LFPNYYYX 021506 METAR LFPG 021506Z 15614KT 9999 FEW030 25/10 Q1062
FF LFPOYYYX LFPNYYYX LFPBYYYX 090220 METAR LFPG 090220Z 23919KT 9999 FEW030 14/6 Q1028
SS EDDFYYYX LFPGYYYX EDDFYYYX 110054 METAR LFPG 110054Z 21353KT 9999 FEW030 1/11 Q1009
DD LFPNYYYX EDDFYYYX 280648 METAR LFPG 280648Z 02657KT 9999 FEW030 7/12 Q1036
DD LFPNYYYX LFPGYYYX LFPOYYYX 030835 METAR LFPG 030835Z 24543KT 9999 FEW030 28/11 Q1089
FF EGLLYYYX EGLLYYYX LFPNYYYX LFPBYYYX 101230 METAR LFPG 101230Z 00859KT 9999 FEW030 6/14 Q1054
GG LFPGYYYX LFPOYYYX LFPBYYYX 271755 METAR LFPG 271755Z 32544KT 9999 FEW030 5/10 Q1047
DD LFPGYYYX LFPGYYYX 272011 METAR LFPG 272011Z 16129KT 9999 FEW030 25/19 Q1027
SS LFPNYYYX EGLLYYYX LFPNYYYX 210204 METAR LFPG 210204Z 33553KT 9999 FEW030 1/12 Q1011
GG EDDFYYYX LFPBYYYX 101610 METAR LFPG 101610Z 22829KT 9999 FEW030 19/4 Q1032
FF LFPYYYX LFPNYYYX 270826 METAR LFPG 270826Z 12525KT 9999 FEW030 18/10 Q1009
SS LFPOYYYX EGLLYYYX EGLLYYYX 170341 METAR LFPG 170341Z 31120KT 9999 FEW030 7/3 Q1074
LL LFPBYYYX LFPGYYYX LFPGYYYX LFPOYYYX 070802 METAR LFPG 070802Z 10111KT 9999 FEW030 11/1 Q1048
FF LFPBYYYX LFPGYYYX LFPBYYYX 271343 METAR LFPG 271343Z 32142KT 9999 FEW030 4/18 Q1054
SS LFPYYYX EDDFYYYX 230431 METAR LFPG 230431Z 24111KT 9999 FEW030 19/2 Q1094
KK LFPGYYYX EGLLYYYX 261238 METAR LFPG 261238Z 12857KT 9999 FEW030 8/18 Q1058
KK LFPYYYX LFPNYYYX LFPGYYYX LFPNYYYX 201731 METAR LFPG 201731Z 06230KT 9999 FEW030 14/18 Q1008
FF LFPBYYYX EDDFYYYX 020322 METAR LFPG 020322Z 00040KT 9999 FEW030 17/7 Q1077
DD LFPYYYX EDDFYYYX EGLLYYYX LFPNYYYX 082140 METAR LFPG 082140Z 01828KT 9999 FEW030 9/6 Q1065
GG EDDFYYYX LFPBYYYX LFPNYYYX 131048 METAR LFPG 131048Z 19937KT 9999 FEW030 22/6 Q1075
LL LFPYYYX LFPGYYYX LFPGYYYX LFPNYYYX 171837 METAR LFPG 171837Z 00715KT 9999 FEW030 23/17 Q1014
FF EGLLYYYX LFPGYYYX LFPNYYYX 190850 METAR LFPG 190850Z 26939KT 9999 FEW030 20/4 Q1093
SS EDDFYYYX EDDFYYYX 171117 METAR LFPG 171117Z 05546KT 9999 FEW030 21/18 Q1018
LL LFPGYYYX LFPGYYYX LFPOYYYX LFPBYYYX 191230 METAR LFPG 191230Z 12939KT 9999 FEW030 16/7 Q1063
DD EGLLYYYX EDDFYYYX EDDFYYYX 012329 METAR LFPG 012329Z 30718KT 9999 FEW030 28/8 Q1040
FF LFPYYYX EDDFYYYX LFPBYYYX 050637 METAR LFPG 050637Z 07515KT 9999 FEW030 10/2 Q1035
FF EDDFYYYX LFPOYYYX LFPOYYYX 220750 METAR LFPG 220750Z 26058KT 9999 FEW030 5/1 Q1017
SS LFPGYYYX EDDFYYYX LFPGYYYX 010256 METAR LFPG 010256Z 33525KT 9999 FEW030 16/19 Q1028
KK LFPBYYYX EDDFYYYX 131925 METAR LFPG 131925Z 18354KT 9999 FEW030 27/6 Q1069
LL LFPNYYYX LFPNYYYX EGLLYYYX EGLLYYYX 251053 METAR LFPG 251053Z 03111KT 9999 FEW030 29/7 Q1081
KK LFPOYYYX EDDFYYYX LFPOYYYX EDDFYYYX 092337 METAR LFPG 092337Z 06756KT 9999 FEW030 26/7 Q1003
LL LFPYYYX LFPGYYYX LFPNYYYX EDDFYYYX 131408 METAR LFPG 131408Z 34717KT 9999 FEW030 10/15 Q1006
FF LFPYYYX EDDFYYYX EDDFYYYX 040139 METAR LFPG 040139Z 07028KT 9999 FEW030 16/12 Q1007
DD LFPBYYYX LFPGYYYX 180318 METAR LFPG 180318Z 16816KT 9999 FEW030 28/13 Q1057
KK LFPBYYYX LFPGYYYX LFPGYYYX 222010 METAR LFPG 222010Z 04019KT 9999 FEW030 3/12 Q1071
KK LFPOYYYX EGLLYYYX EGLLYYYX EDDFYYYX 061910 METAR LFPG 061910Z 28048KT 9999 FEW030 15/1 Q1086
KK EGLLYYYX LFPGYYYX EGLLYYYX 211117 METAR LFPG 211117Z 05515KT 9999 FEW030 27/18 Q1072
KK EGLLYYYX LFPOYYYX LFPGYYYX 141113 METAR LFPG 141113Z 22442KT 9999 FEW030 6/16 Q1079
KK EDDFYYYX LFPGYYYX LFPNYYYX 110003 METAR LFPG 110003Z 09321KT 9999 FEW030 0/18 Q1064
SS EGLLYYYX LFPNYYYX 150054 METAR LFPG 150054Z 09313KT 9999 FEW030 4/10 Q1031
DD EGLLYYYX LFPBYYYX LFPOYYYX 261910 METAR LFPG 261910Z 16058KT 9999 FEW030 24/12 Q1020
SS LFPNYYYX LFPGYYYX 031619 METAR LFPG 031619Z 34917KT 9999 FEW030 15/10 Q1068
DD LFPOYYYX EGLLYYYX EGLLYYYX LFPBYYYX 262022 METAR LFPG 262022Z 11231KT 9999 FEW030 23/19 Q1012
KK LFPNYYYX LFPNYYYX EGLLYYYX 250657 METAR LFPG 250657Z 14745KT 9999 FEW030 10/0 Q1031
SS LFPNYYYX LFPGYYYX EGLLYYYX EGLLYYYX 021105 METAR LFPG 021105Z 22454KT 9999 FEW030 1/9 Q1054
KK LFPYYYX EDDFYYYX LFPNYYYX 240127 METAR LFPG 240127Z 23756KT 9999 FEW030 27/14 Q1025
FF LFPGYYYX LFPGYYYX EDDFYYYX LFPGYYYX 020353 METAR LFPG 020353Z 26422KT 9999 FEW030 6/3 Q1042
DD LFPGYYYX EDDFYYYX EGLLYYYX LFPGYYYX 260306 METAR LFPG 260306Z 09644KT 9999 FEW030 23/0 Q1023
FF LFPOYYYX EDDFYYYX LFPOYYYX EGLLYYYX 020318 METAR LFPG 020318Z 04856KT 9999 FEW030 17/8 Q1043
FF EGLLYYYX LFPOYYYX 200608 METAR LFPG 200608Z 21857KT 9999 FEW030 20/19 Q1027
GG LFPYYYX EGLLYYYX 052249 METAR LFPG 052249Z 13947KT 9999 FEW030 5/14 Q1007
GG LFPGYYYX LFPOYYYX 120532 METAR LFPG 120532Z 12210KT 9999 FEW030 1/12 Q1002
FF LFPOYYYX EDDFYYYX EDDFYYYX 070131 METAR LFPG 070131Z 06919KT 9999 FEW030 12/6 Q1059
FF LFPOYYYX LFPOYYYX 101933 METAR LFPG 101933Z 06442KT 9999 FEW030 19/14 Q1098
SS LFPOYYYX LFPOYYYX 070951 METAR LFPG 070951Z 26959KT 9999 FEW030 19/13 Q1048
FF LFPYYYX LFPBYYYX LFPNYYYX 272038 METAR LFPG 272038Z 13717KT 9999 FEW030 11/0 Q1060
FF LFPBYYYX EDDFYYYX 211432 METAR LFPG 211432Z 25151KT 9999 FEW030 18/4 Q1007
FF LFPBYYYX EGLLYYYX 231207 METAR LFPG 231207Z 10535KT 9999 FEW030 27/10 Q1037
KK LFPGYYYX LFPNYYYX LFPGYYYX 081028 METAR LFPG 081028Z 00637KT 9999 FEW030 0/8 Q1012
GG LFPGYYYX LFPOYYYX 130317 METAR LFPG 130317Z 04736KT 9999 FEW030 24/11 Q1073
LL EDDFYYYX EDDFYYYX EDDFYYYX LFPNYYYX 241755 METAR LFPG 241755Z 32644KT 9999 FEW030 15/8 Q1095
LL LFPBYYYX LFPGYYYX 022305 METAR LFPG 022305Z 04414KT 9999 FEW030 7/12 Q1047
SS EGLLYYYX EDDFYYYX LFPBYYYX 110559 METAR LFPG 110559Z 33718KT 9999 FEW030 5/0 Q1091
LL EGLLYYYX LFPOYYYX LFPBYYYX LFPOYYYX 241700 METAR LFPG 241700Z 03858KT 9999 FEW030 18/15 Q1084
DD EGLLYYYX EGLLYYYX 080512 METAR LFPG 080512Z 29030KT 9999 FEW030 5/14 Q1003
LL LFPGYYYX LFPGYYYX LFPBYYYX LFPNYYYX 091808 METAR LFPG 091808Z 03917KT 9999 FEW030 14/3 Q1030
FF LFPOYYYX LFPNYYYX EDDFYYYX EDDFYYYX 210317 METAR LFPG 210317Z 28716KT 9999 FEW030 27/13 Q1039
LL LFPGYYYX LFPOYYYX EDDFYYYX LFPNYYYX 182046 METAR LFPG 182046Z 01645KT 9999 FEW030 9/19 Q1055
GG LFPOYYYX LFPGYYYX EDDFYYYX LFPNYYYX 190939 METAR LFPG 190939Z 19737KT 9999 FEW030 14/11 Q1080
KK EGLLYYYX LFPGYYYX LFPOYYYX LFPNYYYX 251441 METAR LFPG 251441Z 13149KT 9999 FEW030 20/15 Q1045
KK EGLLYYYX LFPBYYYX 190903 METAR LFPG 190903Z 09351KT 9999 FEW030 25/11 Q1022
FF LFPOYYYX EGLLYYYX LFPGYYYX EGLLYYYX 131053 METAR LFPG 131053Z 27121KT 9999 FEW030 27/4 Q1007
LL LFPNYYYX LFPOYYYX EDDFYYYX 261242 METAR LFPG 261242Z 20051KT 9999 FEW030 21/6 Q1051
DD LFPYYYX LFPGYYYX LFPBYYYX 190847 METAR LFPG 190847Z 31725KT 9999 FEW030 0/19 Q1059
DD LFPBYYYX LFPOYYYX LFPBYYYX LFPGYYYX 101154 METAR LFPG 101154Z 03252KT 9999 FEW030 19/0 Q1032
LL LFPBYYYX EDDFYYYX 100410 METAR LFPG 100410Z 16818KT 9999 FEW030 18/15 Q1038
DD LFPBYYYX EGLLYYYX EGLLYYYX 201355 METAR LFPG 201355Z 14644KT 9999 FEW030 8/6 Q1047
LL EGLLYYYX LFPGYYYX LFPGYYYX 100721 METAR LFPG 100721Z 17250KT 9999 FEW030 9/12 Q1029
DD EGLLYYYX EGLLYYYX 261114 METAR LFPG 261114Z 10422KT 9999 FEW030 13/15 Q1001
FF LFPBYYYX LFPBYYYX 050345 METAR LFPG 050345Z 02334KT 9999 FEW030 27/6 Q1057
FF EGLLYYYX LFPNYYYX LFPBYYYX 010648 METAR LFPG 010648Z 14617KT 9999 FEW030 13/19 Q1009
FF LFPNYYYX LFPBYYYX LFPNYYYX LFPOYYYX 010621 METAR LFPG 010621Z 29129KT 9999 FEW030 20/3 Q1087
KK EGLLYYYX LFPOYYYX EDDFYYYX EDDFYYYX 011849 METAR LFPG 011849Z 32747KT 9999 FEW030 0/2 Q1084
KK LFPNYYYX EGLLYYYX LFPGYYYX LFPNYYYX 090205 METAR LFPG 090205Z 33533KT 9999 FEW030 21/6 Q1010
KK LFPYYYX EGLLYYYX EDDFYYYX 080523 METAR LFPG 080523Z 00122KT 9999 FEW030 22/7 Q1026
FF LFPNYYYX LFPOYYYX 271315 METAR LFPG 271315Z 22554KT 9999 FEW030 18/7 Q1036
FF EGLLYYYX LFPGYYYX 172216 METAR LFPG 172216Z 22725KT 9999 FEW030 2/8 Q1014
LL LFPYYYX LFPBYYYX EDDFYYYX LFPNYYYX 130725 METAR LFPG 130725Z 12314KT 9999 FEW030 23/18 Q1064
DD EDDFYYYX LFPOYYYX LFPBYYYX LFPGYYYX 131452 METAR LFPG 131452Z 20351KT 9999 FEW030 25/19 Q1045
SS LFPBYYYX EGLLYYYX LFPNYYYX 080915 METAR LFPG 080915Z 05434KT 9999 FEW030 22/12 Q1051
DD EGLLYYYX LFPOYYYX EDDFYYYX EGLLYYYX 170252 METAR LFPG 170252Z 02321KT 9999 FEW030 12/0 Q1062
LL LFPYYYX LFPGYYYX LFPNYYYX LFPBYYYX 081036 METAR LFPG 081036Z 12625KT 9999 FEW030 0/12 Q1063
SS LFPYYYX LFPBYYYX LFPOYYYX 152058 METAR LFPG 152058Z 08947KT 9999 FEW030 5/0 Q1053
KK LFPBYYYX LFPGYYYX 150903 METAR LFPG 150903Z 22151KT 9999 FEW030 22/3 Q1002
FF LFPOYYYX LFPNYYYX EGLLYYYX 120108 METAR LFPG 120108Z 28626KT 9999 FEW030 9/7 Q1029
GG EGLLYYYX LFPNYYYX LFPOYYYX 051452 METAR LFPG 051452Z 32341KT 9999 FEW030 28/12 Q1013
KK EGLLYYYX EGLLYYYX LFPBYYYX 200131 METAR LFPG 200131Z 18250KT 9999 FEW030 11/1 Q1051
KK EGLLYYYX EGLLYYYX LFPOYYYX LFPNYYYX 251445 METAR LFPG 251445Z 20353KT 9999 FEW030 7/18 Q1095
DD EGLLYYYX EGLLYYYX 220725 METAR LFPG 220725Z 24434KT 9999 FEW030 1/11 Q1070
GG LFPNYYYX LFPGYYYX 211141 METAR LFPG 211141Z 31940KT 9999 FEW030 21/7 Q1033
DD LFPBYYYX EGLLYYYX LFPBYYYX LFPOYYYX 020725 METAR LFPG 020725Z 12424KT 9999 FEW030 18/11 Q1045
GG LFPYYYX EGLLYYYX LFPNYYYX EDDFYYYX 012252 METAR LFPG 012252Z 09141KT 9999 FEW030 27/2 Q1047
GG LFPYYYX LFPGYYYX EGLLYYYX LFPNYYYX 110435 METAR LFPG 110435Z 19333KT 9999 FEW030 14/3 Q1040
LL LFPBYYYX LFPGYYYX 181150 METAR LFPG 181150Z 20048KT 9999 FEW030 3/14 Q1028
SS LFPGYYYX LFPGYYYX EDDFYYYX LFPGYYYX 211848 METAR LFPG 211848Z 32737KT 9999 FEW030 14/18 Q1028
LL EGLLYYYX LFPBYYYX 110143 METAR LFPG 110143Z 25311KT 9999 FEW030 21/14 Q1020
LL LFPNYYYX EGLLYYYX 101557 METAR LFPG 101557Z 15626KT 9999 FEW030 10/14 Q1012
FF EDDFYYYX EGLLYYYX LFPBYYYX 150458 METAR LFPG 150458Z 33757KT 9999 FEW030 24/0 Q1083
DD LFPGYYYX LFPBYYYX LFPBYYYX 062010 METAR LFPG 062010Z 28049KT 9999 FEW030 10/17 Q1054
GG LFPOYYYX LFPOYYYX LFPNYYYX LFPGYYYX 170632 METAR LFPG 170632Z 00321KT 9999 FEW030 7/18 Q1053
FF LFPOYYYX EGLLYYYX EDDFYYYX 220418 METAR LFPG 220418Z 04857KT 9999 FEW030 5/7 Q1042
LL LFPYYYX LFPNYYYX LFPGYYYX 032115 METAR LFPG 032115Z 23313KT 9999 FEW030 14/1 Q1067
KK LFPYYYX LFPBYYYX EDDFYYYX LFPGYYYX 271207 METAR LFPG 271207Z 22535KT 9999 FEW030 18/17 Q1097
LL LFPOYYYX EDDFYYYX LFPBYYYX LFPOYYYX 182314 METAR LFPG 182314Z 16432KT 9999 FEW030 0/10 Q1011
DD EGLLYYYX EGLLYYYX LFPNYYYX 230155 METAR LFPG 230155Z 21314KT 9999 FEW030 24/18 Q1018
KK LFPBYYYX LFPBYYYX LFPOYYYX EDDFYYYX 051824 METAR LFPG 051824Z 30313KT 9999 FEW030 27/6 Q1086
FF LFPOYYYX LFPBYYYX LFPGYYYX 151618 METAR LFPG 151618Z 34929KT 9999 FEW030 26/7 Q1014
KK LFPBYYYX LFPBYYYX 062318 METAR LFPG 062318Z 35626KT 9999 FEW030 16/14 Q1067
LL EDDFYYYX LFPOYYYX EDDFYYYX 210625 METAR LFPG 210625Z 00343KT 9999 FEW030 27/9 Q1089
GG EDDFYYYX LFPBYYYX LFPOYYYX LFPBYYYX 262301 METAR LFPG 262301Z 33250KT 9999 FEW030 8/8 Q1041
GG LFPYYYX LFPBYYYX 032139 METAR LFPG 032139Z 13748KT 9999 FEW030 28/17 Q1055
KK EGLLYYYX LFPBYYYX 200916 METAR LFPG 200916Z 05454KT 9999 FEW030 17/6 Q1018
KK LFPGYYYX LFPOYYYX LFPBYYYX LFPOYYYX 210621 METAR LFPG 210621Z 17119KT 9999 FEW030 27/2 Q1020
FF LFPBYYYX EGLLYYYX 091857 METAR LFPG 091857Z 20755KT 9999 FEW030 15/6 Q1071
SS LFPOYYYX LFPBYYYX 231207 METAR LFPG 231207Z 22525KT 9999 FEW030 8/8 Q1059
LL LFPOYYYX LFPBYYYX EDDFYYYX 081040 METAR LFPG 081040Z 07849KT 9999 FEW030 16/8 Q1029
FF EDDFYYYX EGLLYYYX LFPBYYYX 040952 METAR LFPG 040952Z 03020KT 9999 FEW030 10/13 Q1054
FF LFPYYYX LFPOYYYX LFPGYYYX LFPBYYYX 010205 METAR LFPG 010205Z 21523KT 9999 FEW030 27/4 Q1097
LL LFPOYYYX LFPOYYYX LFPNYYYX 260357 METAR LFPG 260357Z 09556KT 9999 FEW030 2/9 Q1091
KK LFPGYYYX EGLLYYYX EDDFYYYX EGLLYYYX 241836 METAR LFPG 241836Z 13425KT 9999 FEW030 16/1 Q1017
KK LFPYYYX LFPNYYYX LFPOYYYX LFPBYYYX 201743 METAR LFPG 201743Z 13442KT 9999 FEW030 6/9 Q1066
FF LFPGYYYX LFPNYYYX 060746 METAR LFPG 060746Z 19644KT 9999 FEW030 12/3 Q1064
DD LFPBYYYX LFPGYYYX 110054 METAR LFPG 110054Z 09343KT 9999 FEW030 3/14 Q1077
GG LFPBYYYX LFPBYYYX LFPBYYYX 021129 METAR LFPG 021129Z 00828KT 9999 FEW030 21/11 Q1084
FF LFPYYYX EDDFYYYX LFPNYYYX 120939 METAR LFPG 120939Z 19748KT 9999 FEW030 5/2 Q1057
KK LFPNYYYX EGLLYYYX LFPBYYYX LFPNYYYX 070422 METAR LFPG 070422Z 24151KT 9999 FEW030 1/1 Q1037
FF EDDFYYYX LFPBYYYX EGLLYYYX LFPNYYYX 011921 METAR LFPG 011921Z 23140KT 9999 FEW030 4/14 Q1028
SS LFPOYYYX LFPNYYYX LFPGYYYX LFPOYYYX 030826 METAR LFPG 030826Z 00535KT 9999 FEW030 22/4 Q1058
DD EGLLYYYX EDDFYYYX LFPNYYYX LFPNYYYX 140322 METAR LFPG 140322Z 11210KT 9999 FEW030 21/11 Q1017
FF EGLLYYYX LFPOYYYX 050620 METAR LFPG 050620Z 05139KT 9999 FEW030 3/12 Q1060
SS LFPNYYYX EDDFYYYX LFPGYYYX 171812 METAR LFPG 171812Z 35131KT 9999 FEW030 7/0 Q1032
GG LFPNYYYX LFPBYYYX EDDFYYYX LFPGYYYX 020721 METAR LFPG 020721Z 29210KT 9999 FEW030 21/18 Q1090
FF EDDFYYYX LFPBYYYX 162135 METAR LFPG 162135Z 18644KT 9999 FEW030 17/9 Q1099
GG LFPBYYYX LFPOYYYX 142329 METAR LFPG 142329Z 06838KT 9999 FEW030 23/14 Q1054
LL LFPNYYYX EGLLYYYX LFPOYYYX 250721 METAR LFPG 250721Z 29150KT 9999 FEW030 20/9 Q1009
SS LFPOYYYX LFPOYYYX 091901 METAR LFPG 091901Z 15940KT 9999 FEW030 12/14 Q1030
SS LFPNYYYX LFPGYYYX EDDFYYYX 171101 METAR LFPG 171101Z 03120KT 9999 FEW030 17/16 Q1031
DD LFPYYYX LFPBYYYX LFPOYYYX LFPOYYYX 281048 METAR LFPG 281048Z 31847KT 9999 FEW030 8/1 Q1018
GG LFPGYYYX EGLLYYYX LFPBYYYX LFPNYYYX 040151 METAR LFPG 040151Z 26220KT 9999 FEW030 24/19 Q1092
LL LFPBYYYX LFPBYYYX EDDFYYYX 051024 METAR LFPG 051024Z 17543KT 9999 FEW030 1/2 Q1009
DD LFPGYYYX LFPNYYYX EDDFYYYX LFPOYYYX 142318 METAR LFPG 142318Z 35636KT 9999 FEW030 7/11 Q1056
DD LFPBYYYX EGLLYYYX EDDFYYYX 012200 METAR LFPG 012200Z 21139KT 9999 FEW030 24/15 Q1046
LL LFPYYYX LFPNYYYX 090737 METAR LFPG 090737Z 31526KT 9999 FEW030 13/10 Q1049
GG LFPOYYYX EGLLYYYX 110014 METAR LFPG 110014Z 28553KT 9999 FEW030 3/2 Q1082
GG LFPBYYYX EGLLYYYX LFPBYYYX EDDFYYYX 131013 METAR LFPG 131013Z 34311KT 9999 FEW030 6/14 Q1088
LL EDDFYYYX LFPGYYYX EGLLYYYX LFPBYYYX 020745 METAR LFPG 020745Z 19634KT 9999 FEW030 21/13 Q1044
DD LFPOYYYX EDDFYYYX LFPBYYYX 030430 METAR LFPG 030430Z 00129KT 9999 FEW030 11/11 Q1062
SS EGLLYYYX LFPNYYYX LFPGYYYX LFPNYYYX 011557 METAR LFPG 011557Z 15526KT 9999 FEW030 28/6 Q1021
FF LFPGYYYX LFPOYYYX 101945 METAR LFPG 101945Z 01544KT 9999 FEW030 12/5 Q1014
GG LFPBYYYX EGLLYYYX 091040 METAR LFPG 091040Z 31939KT 9999 FEW030 20/3 Q1014
KK LFPBYYYX LFPGYYYX LFPOYYYX LFPNYYYX 110802 METAR LFPG 110802Z 10151KT 9999 FEW030 24/2 Q1055
DD LFPBYYYX LFPBYYYX EDDFYYYX 150030 METAR LFPG 150030Z 06849KT 9999 FEW030 5/3 Q1017
KK LFPYYYX LFPGYYYX 021945 METAR LFPG 021945Z 25644KT 9999 FEW030 24/4 Q1021
KK LFPYYYX LFPOYYYX EDDFYYYX EGLLYYYX 022313 METAR LFPG 022313Z 16434KT 9999 FEW030 27/10 Q1023
KK LFPYYYX EGLLYYYX 170721 METAR LFPG 170721Z 05120KT 9999 FEW030 17/15 Q1031
SS LFPBYYYX EGLLYYYX 152035 METAR LFPG 152035Z 18523KT 9999 FEW030 13/17 Q1039
KK LFPBYYYX LFPBYYYX LFPNYYYX EDDFYYYX 262342 METAR LFPG 262342Z 26020KT 9999 FEW030 25/14 Q1001
LL LFPYYYX LFPOYYYX 061114 METAR LFPG 061114Z 22412KT 9999 FEW030 9/6 Q1065
GG LFPNYYYX LFPGYYYX 091028 METAR LFPG 091028Z 00717KT 9999 FEW030 6/16 Q1096
KK LFPBYYYX EGLLYYYX 050220 METAR LFPG 050220Z 11129KT 9999 FEW030 3/6 Q1043
KK EGLLYYYX EGLLYYYX LFPGYYYX EGLLYYYX 011533 METAR LFPG 011533Z 13152KT 9999 FEW030 28/15 Q1053
GG EDDFYYYX LFPGYYYX 270003 METAR LFPG 270003Z 33331KT 9999 FEW030 2/9 Q1010
LL EDDFYYYX EDDFYYYX 080648 METAR LFPG 080648Z 02627KT 9999 FEW030 0/10 Q1056
GG LFPGYYYX LFPBYYYX EDDFYYYX EGLLYYYX 101510 METAR LFPG 101510Z 34818KT 9999 FEW030 26/14 Q1055
LL EDDFYYYX EDDFYYYX LFPGYYYX LFPNYYYX 011417 METAR LFPG 011417Z 22715KT 9999 FEW030 16/17 Q1091
LL EGLLYYYX LFPNYYYX LFPNYYYX LFPOYYYX 241303 METAR LFPG 241303Z 03422KT 9999 FEW030 7/1 Q1084
DD EDDFYYYX EGLLYYYX 060038 METAR LFPG 060038Z 06837KT 9999 FEW030 24/18 Q1078
DD LFPBYYYX EGLLYYYX LFPGYYYX 250252 METAR LFPG 250252Z 14341KT 9999 FEW030 20/2 Q1041
KK LFPGYYYX EDDFYYYX LFPGYYYX 111759 METAR LFPG 111759Z 15738KT 9999 FEW030 2/5 Q1045
SS LFPOYYYX EDDFYYYX EGLLYYYX LFPNYYYX 282200 METAR LFPG 282200Z 09028KT 9999 FEW030 7/4 Q1098
DD LFPNYYYX LFPNYYYX 110847 METAR LFPG 110847Z 19735KT 9999 FEW030 6/8 Q1077
DD EDDFYYYX LFPBYYYX 211153 METAR LFPG 211153Z 27111KT 9999 FEW030 25/15 Q1009
FF LFPOYYYX EGLLYYYX EDDFYYYX EGLLYYYX 280536 METAR LFPG 280536Z 31414KT 9999 FEW030 20/11 Q1046
GG LFPNYYYX LFPGYYYX LFPBYYYX 071659 METAR LFPG 071659Z 15717KT 9999 FEW030 18/1 Q1069
FF LFPYYYX LFPBYYYX 161808 METAR LFPG 161808Z 27836KT 9999 FEW030 1/11 Q1040
KK LFPNYYYX LFPBYYYX 210648 METAR LFPG 210648Z 26727KT 9999 FEW030 24/9 Q1036
KK LFPNYYYX EGLLYYYX 042240 METAR LFPG 042240Z 13849KT 9999 FEW030 28/19 Q1034
LL LFPOYYYX LFPGYYYX LFPOYYYX LFPOYYYX 141126 METAR LFPG 141126Z 29634KT 9999 FEW030 19/8 Q1072
LL EGLLYYYX LFPOYYYX LFPGYYYX LFPBYYYX 201308 METAR LFPG 201308Z 34616KT 9999 FEW030 13/10 Q1009
DD EDDFYYYX LFPBYYYX EGLLYYYX LFPNYYYX 231230 METAR LFPG 231230Z 00829KT 9999 FEW030 18/3 Q1071
GG LFPGYYYX EDDFYYYX 262326 METAR LFPG 262326Z 35624KT 9999 FEW030 18/5 Q1075
FF LFPBYYYX LFPBYYYX LFPGYYYX 250608 METAR LFPG 250608Z 33957KT 9999 FEW030 5/5 Q1048
KK EGLLYYYX LFPGYYYX 050353 METAR LFPG 050353Z 26322KT 9999 FEW030 2/19 Q1008
KK EGLLYYYX EDDFYYYX 062305 METAR LFPG 062305Z 28444KT 9999 FEW030 27/10 Q1065
KK LFPGYYYX LFPNYYYX 021925 METAR LFPG 021925Z 18434KT 9999 FEW030 22/12 Q1007
FF LFPOYYYX EDDFYYYX LFPBYYYX 190939 METAR LFPG 190939Z 31718KT 9999 FEW030 18/15 Q1049
FF LFPNYYYX LFPOYYYX EGLLYYYX 091453 METAR LFPG 091453Z 32311KT 9999 FEW030 6/17 Q1018
SS LFPNYYYX LFPNYYYX LFPOYYYX 031646 METAR LFPG 031646Z 32555KT 9999 FEW030 12/6 Q1090
DD LFPBYYYX EDDFYYYX LFPGYYYX LFPOYYYX 160911 METAR LFPG 160911Z 22230KT 9999 FEW030 11/19 Q1028
LL LFPBYYYX EGLLYYYX EDDFYYYX LFPGYYYX 150951 METAR LFPG 150951Z 14940KT 9999 FEW030 3/8 Q1088
FF EGLLYYYX LFPGYYYX EGLLYYYX LFPGYYYX 241456 METAR LFPG 241456Z 26625KT 9999 FEW030 21/19 Q1055
KK EGLLYYYX LFPNYYYX LFPBYYYX 081820 METAR LFPG 081820Z 35059KT 9999 FEW030 19/17 Q1056
GG EGLLYYYX LFPBYYYX LFPBYYYX EDDFYYYX 280204 METAR LFPG 280204Z 21443KT 9999 FEW030 8/13 Q1047
DD LFPBYYYX EGLLYYYX LFPGYYYX EDDFYYYX 200916 METAR LFPG 200916Z 28634KT 9999 FEW030 2/5 Q1030
KK LFPBYYYX LFPGYYYX LFPNYYYX 170656 METAR LFPG 170656Z 02715KT 9999 FEW030 25/5 Q1010
DD EDDFYYYX EDDFYYYX EGLLYYYX 151646 METAR LFPG 151646Z 20515KT 9999 FEW030 27/13 Q1006
LL LFPBYYYX LFPGYYYX LFPGYYYX 060713 METAR LFPG 060713Z 05112KT 9999 FEW030 29/8 Q1013
FF LFPOYYYX LFPBYYYX 211428 METAR LFPG 211428Z 29937KT 9999 FEW030 19/2 Q1041
DD LFPGYYYX LFPOYYYX LFPNYYYX 271630 METAR LFPG 271630Z 06129KT 9999 FEW030 3/9 Q1079
GG LFPOYYYX EDDFYYYX 260702 METAR LFPG 260702Z 10020KT 9999 FEW030 17/9 Q1074
SS EGLLYYYX LFPNYYYX EGLLYYYX 040952 METAR LFPG 040952Z 03040KT 9999 FEW030 11/11 Q1082
FF LFPOYYYX EGLLYYYX EGLLYYYX EGLLYYYX 101118 METAR LFPG 101118Z 05636KT 9999 FEW030 20/2 Q1023
GG LFPYYYX LFPNYYYX 280232 METAR LFPG 280232Z 31011KT 9999 FEW030 17/13 Q1028
GG LFPOYYYX LFPGYYYX LFPGYYYX EDDFYYYX 101518 METAR LFPG 101518Z 22836KT 9999 FEW030 7/3 Q1003
DD LFPYYYX EDDFYYYX LFPOYYYX 261937 METAR LFPG 261937Z 01656KT 9999 FEW030 9/2 Q1027
LL LFPYYYX EGLLYYYX 230939 METAR LFPG 230939Z 31728KT 9999 FEW030 15/3 Q1089
DD LFPGYYYX EGLLYYYX LFPBYYYX 071351 METAR LFPG 071351Z 32120KT 9999 FEW030 1/17 Q1022
FF LFPYYYX LFPNYYYX 221945 METAR LFPG 221945Z 01654KT 9999 FEW030 8/5 Q1057
LL EGLLYYYX EDDFYYYX 102313 METAR LFPG 102313Z 16332KT 9999 FEW030 19/10 Q1033
DD LFPBYYYX LFPGYYYX LFPOYYYX LFPNYYYX 032026 METAR LFPG 032026Z 06535KT 9999 FEW030 14/5 Q1003
FF EDDFYYYX EGLLYYYX 122139 METAR LFPG 122139Z 01828KT 9999 FEW030 2/18 Q1007
KK LFPOYYYX LFPBYYYX 200952 METAR LFPG 200952Z 33939KT 9999 FEW030 26/3 Q1088
SS EDDFYYYX LFPBYYYX EGLLYYYX 210244 METAR LFPG 210244Z 02313KT 9999 FEW030 23/14 Q1076
KK EGLLYYYX LFPOYYYX 202116 METAR LFPG 202116Z 11414KT 9999 FEW030 29/0 Q1020
GG EGLLYYYX LFPBYYYX 101546 METAR LFPG 101546Z 32424KT 9999 FEW030 3/12 Q1066
SS LFPNYYYX EGLLYYYX LFPBYYYX EGLLYYYX 230458 METAR LFPG 230458Z 21647KT 9999 FEW030 28/1 Q1067
DD LFPYYYX EGLLYYYX 051028 METAR LFPG 051028Z 24727KT 9999 FEW030 3/15 Q1024
DD LFPBYYYX LFPOYYYX EDDFYYYX EGLLYYYX 181230 METAR LFPG 181230Z 12839KT 9999 FEW030 17/15 Q1038
DD LFPNYYYX EDDFYYYX LFPBYYYX 162127 METAR LFPG 162127Z 18636KT 9999 FEW030 27/14 Q1067
DD LFPNYYYX LFPGYYYX EGLLYYYX 270822 METAR LFPG 270822Z 29351KT 9999 FEW030 26/9 Q1039
GG LFPGYYYX LFPNYYYX LFPBYYYX 140018 METAR LFPG 140018Z 11616KT 9999 FEW030 4/4 Q1056
DD EDDFYYYX LFPNYYYX 211529 METAR LFPG 211529Z 05918KT 9999 FEW030 20/5 Q1038
DD LFPYYYX LFPGYYYX 051048 METAR LFPG 051048Z 31937KT 9999 FEW030 22/15 Q1016
KK LFPOYYYX LFPBYYYX LFPGYYYX LFPBYYYX 101913 METAR LFPG 101913Z 23122KT 9999 FEW030 29/7 Q1090
LL EDDFYYYX EGLLYYYX EGLLYYYX 232034 METAR LFPG 232034Z 18513KT 9999 FEW030 25/16 Q1047
SS LFPYYYX EDDFYYYX EGLLYYYX EGLLYYYX 271243 METAR LFPG 271243Z 20131KT 9999 FEW030 15/7 Q1054
KK LFPYYYX LFPNYYYX 120928 METAR LFPG 120928Z 00646KT 9999 FEW030 5/3 Q1043
FF LFPBYYYX LFPGYYYX EDDFYYYX 101141 METAR LFPG 101141Z 32020KT 9999 FEW030 1/16 Q1085
SS LFPBYYYX LFPGYYYX EDDFYYYX 071254 METAR LFPG 071254Z 15353KT 9999 FEW030 26/16 Q1078
LL LFPGYYYX EGLLYYYX LFPGYYYX 161331 METAR LFPG 161331Z 25030KT 9999 FEW030 8/15 Q1050
DD LFPGYYYX LFPGYYYX LFPGYYYX LFPNYYYX 271634 METAR LFPG 271634Z 13253KT 9999 FEW030 23/12 Q1026
LL EDDFYYYX EDDFYYYX 180721 METAR LFPG 180721Z 17220KT 9999 FEW030 15/17 Q1005
SS LFPBYYYX LFPGYYYX LFPNYYYX LFPNYYYX 152014 METAR LFPG 152014Z 35353KT 9999 FEW030 20/12 Q1086
FF EDDFYYYX EDDFYYYX LFPGYYYX 280240 METAR LFPG 280240Z 19028KT 9999 FEW030 20/2 Q1065
SS EDDFYYYX EDDFYYYX 020345 METAR LFPG 020345Z 26424KT 9999 FEW030 8/6 Q1089
DD EDDFYYYX EDDFYYYX 080903 METAR LFPG 080903Z 10112KT 9999 FEW030 9/3 Q1088
DD LFPYYYX EGLLYYYX EDDFYYYX LFPOYYYX 120228 METAR LFPG 120228Z 23816KT 9999 FEW030 8/12 Q1066
LL LFPOYYYX EGLLYYYX LFPGYYYX 140317 METAR LFPG 140317Z 16846KT 9999 FEW030 2/11 Q1019
GG LFPGYYYX LFPOYYYX LFPBYYYX EDDFYYYX 042200 METAR LFPG 042200Z 09029KT 9999 FEW030 27/18 Q1078
LL EDDFYYYX LFPBYYYX EGLLYYYX LFPNYYYX 030422 METAR LFPG 030422Z 12159KT 9999 FEW030 2/13 Q1070
GG LFPBYYYX LFPBYYYX LFPBYYYX 220318 METAR LFPG 220318Z 04836KT 9999 FEW030 23/7 Q1070
GG LFPNYYYX EDDFYYYX LFPNYYYX 122204 METAR LFPG 122204Z 04242KT 9999 FEW030 22/11 Q1052
SS LFPOYYYX EGLLYYYX 041812 METAR LFPG 041812Z 35010KT 9999 FEW030 12/1 Q1057
FF EGLLYYYX EGLLYYYX EDDFYYYX EGLLYYYX 041707 METAR LFPG 041707Z 27846KT 9999 FEW030 12/5 Q1007
SS LFPNYYYX EGLLYYYX EGLLYYYX 210608 METAR LFPG 210608Z 33957KT 9999 FEW030 26/7 Q1087
SS LFPOYYYX LFPBYYYX 030915 METAR LFPG 030915Z 17344KT 9999 FEW030 15/2 Q1085
LL LFPYYYX EDDFYYYX 031243 METAR LFPG 031243Z 20151KT 9999 FEW030 17/5 Q1041
FF LFPYYYX LFPBYYYX LFPBYYYX 121351 METAR LFPG 121351Z 08220KT 9999 FEW030 0/11 Q1000
SS LFPBYYYX LFPNYYYX LFPGYYYX 132317 METAR LFPG 132317Z 35536KT 9999 FEW030 8/12 Q1076
DD LFPNYYYX LFPGYYYX LFPBYYYX 051808 METAR LFPG 051808Z 15917KT 9999 FEW030 12/1 Q1028
KK LFPBYYYX LFPOYYYX EDDFYYYX LFPNYYYX 011809 METAR LFPG 011809Z 03927KT 9999 FEW030 17/8 Q1049
SS EGLLYYYX LFPGYYYX EDDFYYYX 041036 METAR LFPG 041036Z 24645KT 9999 FEW030 26/15 Q1085
GG LFPNYYYX LFPOYYYX LFPNYYYX LFPBYYYX 252248 METAR LFPG 252248Z 25917KT 9999 FEW030 13/13 Q1051
DD LFPNYYYX EGLLYYYX EDDFYYYX LFPGYYYX 080620 METAR LFPG 080620Z 17041KT 9999 FEW030 27/4 Q1011
SS EGLLYYYX EDDFYYYX LFPOYYYX 201356 METAR LFPG 201356Z 27414KT 9999 FEW030 16/19 Q1065
DD LFPOYYYX LFPGYYYX EDDFYYYX LFPGYYYX 201416 METAR LFPG 201416Z 34615KT 9999 FEW030 10/2 Q1064
GG LFPBYYYX EDDFYYYX EGLLYYYX 260758 METAR LFPG 260758Z 14846KT 9999 FEW030 4/8 Q1026
FF EDDFYYYX LFPGYYYX 270038 METAR LFPG 270038Z 06947KT 9999 FEW030 20/4 Q1064
KK LFPOYYYX LFPNYYYX LFPGYYYX 192151 METAR LFPG 192151Z 08959KT 9999 FEW030 15/12 Q1071
LL LFPOYYYX EGLLYYYX 251808 METAR LFPG 251808Z 15957KT 9999 FEW030 7/15 Q1001
GG LFPOYYYX LFPOYYYX 151227 METAR LFPG 151227Z 29735KT 9999 FEW030 8/17 Q1097
SS LFPGYYYX LFPBYYYX 171844 METAR LFPG 171844Z 01545KT 9999 FEW030 0/1 Q1081
FF LFPBYYYX LFPGYYYX 211857 METAR LFPG 211857Z 32714KT 9999 FEW030 24/12 Q1092
KK EGLLYYYX EDDFYYYX LFPNYYYX EDDFYYYX 230859 METAR LFPG 230859Z 14917KT 9999 FEW030 22/4 Q1030
SS LFPNYYYX LFPBYYYX 231630 METAR LFPG 231630Z 06149KT 9999 FEW030 6/3 Q1026
GG LFPBYYYX LFPBYYYX LFPBYYYX 251025 METAR LFPG 251025Z 05523KT 9999 FEW030 13/12 Q1020
DD LFPNYYYX EGLLYYYX 070038 METAR LFPG 070038Z 30929KT 9999 FEW030 1/15 Q1005
GG EDDFYYYX LFPGYYYX 071606 METAR LFPG 071606Z 15745KT 9999 FEW030 12/3 Q1049
GG LFPNYYYX LFPNYYYX 030927 METAR LFPG 030927Z 00535KT 9999 FEW030 6/2 Q1032
FF LFPBYYYX LFPOYYYX LFPBYYYX 091101 METAR LFPG 091101Z 15149KT 9999 FEW030 15/1 Q1010
FF LFPGYYYX EGLLYYYX EDDFYYYX 250317 METAR LFPG 250317Z 28736KT 9999 FEW030 13/19 Q1010
GG LFPNYYYX LFPGYYYX LFPOYYYX LFPGYYYX 091925 METAR LFPG 091925Z 06314KT 9999 FEW030 4/6 Q1081
SS LFPYYYX EGLLYYYX LFPNYYYX 190903 METAR LFPG 190903Z 10122KT 9999 FEW030 16/12 Q1029
FF EDDFYYYX EGLLYYYX 151654 METAR LFPG 151654Z 20523KT 9999 FEW030 12/15 Q1017
LL LFPBYYYX EDDFYYYX EGLLYYYX 160547 METAR LFPG 160547Z 02646KT 9999 FEW030 17/12 Q1017
GG EGLLYYYX LFPOYYYX LFPOYYYX 252213 METAR LFPG 252213Z 04351KT 9999 FEW030 17/2 Q1056
LL LFPOYYYX LFPOYYYX LFPOYYYX EGLLYYYX 221902 METAR LFPG 221902Z 16020KT 9999 FEW030 19/16 Q1012
LL LFPOYYYX LFPGYYYX LFPNYYYX LFPBYYYX 260446 METAR LFPG 260446Z 26415KT 9999 FEW030 15/13 Q1089
DD EDDFYYYX LFPGYYYX EGLLYYYX 071230 METAR LFPG 071230Z 00849KT 9999 FEW030 12/2 Q1056
DD LFPOYYYX LFPBYYYX 201340 METAR LFPG 201340Z 25028KT 9999 FEW030 26/8 Q1058
LL LFPYYYX EDDFYYYX LFPNYYYX 252212 METAR LFPG 252212Z 16343KT 9999 FEW030 3/12 Q1083
SS LFPYYYX LFPNYYYX EGLLYYYX 230834 METAR LFPG 230834Z 24553KT 9999 FEW030 8/4 Q1056
SS LFPOYYYX EGLLYYYX EGLLYYYX LFPBYYYX 161808 METAR LFPG 161808Z 15817KT 9999 FEW030 24/3 Q1093
LL LFPGYYYX EDDFYYYX 130216 METAR LFPG 130216Z 28745KT 9999 FEW030 7/14 Q1011
SS LFPOYYYX LFPOYYYX EGLLYYYX LFPOYYYX 130601 METAR LFPG 130601Z 33929KT 9999 FEW030 3/13 Q1072
FF LFPYYYX EGLLYYYX 090725 METAR LFPG 090725Z 12344KT 9999 FEW030 2/15 Q1037
SS LFPYYYX LFPNYYYX LFPOYYYX 040134 METAR LFPG 040134Z 13252KT 9999 FEW030 23/4 Q1056
GG LFPGYYYX EGLLYYYX EGLLYYYX 220721 METAR LFPG 220721Z 29230KT 9999 FEW030 15/12 Q1082
FF LFPOYYYX LFPNYYYX 141646 METAR LFPG 141646Z 08445KT 9999 FEW030 22/5 Q1039
LL LFPOYYYX LFPGYYYX 231659 METAR LFPG 231659Z 15727KT 9999 FEW030 10/16 Q1049
GG LFPBYYYX LFPOYYYX LFPGYYYX 040244 METAR LFPG 040244Z 26212KT 9999 FEW030 7/18 Q1071
DD EGLLYYYX LFPBYYYX 071255 METAR LFPG 071255Z 15353KT 9999 FEW030 0/6 Q1014
KK LFPOYYYX LFPGYYYX LFPNYYYX LFPOYYYX 090305 METAR LFPG 090305Z 21524KT 9999 FEW030 7/7 Q1094
LL LFPYYYX LFPBYYYX EGLLYYYX LFPOYYYX 060701 METAR LFPG 060701Z 34020KT 9999 FEW030 16/14 Q1052
LL LFPBYYYX LFPBYYYX LFPBYYYX 180701 METAR LFPG 180701Z 22050KT 9999 FEW030 29/17 Q1046
FF LFPBYYYX LFPBYYYX LFPGYYYX 240507 METAR LFPG 240507Z 33846KT 9999 FEW030 9/1 Q1085
DD LFPBYYYX LFPBYYYX LFPBYYYX 220038 METAR LFPG 220038Z 06817KT 9999 FEW030 22/3 Q1067
KK EGLLYYYX LFPOYYYX LFPOYYYX 130204 METAR LFPG 130204Z 21533KT 9999 FEW030 1/13 Q1062
LL LFPNYYYX EDDFYYYX EDDFYYYX LFPOYYYX 110803 METAR LFPG 110803Z 10131KT 9999 FEW030 4/7 Q1022
FF LFPBYYYX LFPGYYYX 040536 METAR LFPG 040536Z 31444KT 9999 FEW030 19/13 Q1089
SS EGLLYYYX EDDFYYYX 220333 METAR LFPG 220333Z 07242KT 9999 FEW030 21/8 Q1001
FF LFPGYYYX LFPOYYYX EGLLYYYX EDDFYYYX 092252 METAR LFPG 092252Z 00159KT 9999 FEW030 23/6 Q1039
GG LFPOYYYX EDDFYYYX EDDFYYYX LFPGYYYX 141522 METAR LFPG 141522Z 18010KT 9999 FEW030 26/9 Q1070
SS LFPBYYYX EGLLYYYX EGLLYYYX 131517 METAR LFPG 131517Z 34726KT 9999 FEW030 4/16 Q1066
SS LFPGYYYX EDDFYYYX LFPOYYYX 181505 METAR LFPG 181505Z 27514KT 9999 FEW030 27/13 Q1056
FF LFPNYYYX LFPGYYYX EDDFYYYX 241844 METAR LFPG 241844Z 01443KT 9999 FEW030 18/14 Q1000
LL LFPNYYYX LFPOYYYX LFPBYYYX 231243 METAR LFPG 231243Z 20111KT 9999 FEW030 21/8 Q1014
DD LFPNYYYX LFPGYYYX 062010 METAR LFPG 062010Z 28018KT 9999 FEW030 1/2 Q1045
KK LFPYYYX LFPOYYYX EDDFYYYX 270055 METAR LFPG 270055Z 33353KT 9999 FEW030 28/13 Q1009
SS LFPGYYYX LFPGYYYX LFPBYYYX 061529 METAR LFPG 061529Z 06040KT 9999 FEW030 7/16 Q1091
SS EDDFYYYX LFPGYYYX 162139 METAR LFPG 162139Z 25738KT 9999 FEW030 29/10 Q1000
SS LFPGYYYX LFPOYYYX LFPNYYYX 141106 METAR LFPG 141106Z 22414KT 9999 FEW030 1/10 Q1047
DD EGLLYYYX LFPGYYYX LFPBYYYX 171105 METAR LFPG 171105Z 22334KT 9999 FEW030 12/5 Q1011
LL LFPBYYYX LFPBYYYX 271606 METAR LFPG 271606Z 27757KT 9999 FEW030 18/9 Q1098
GG EGLLYYYX LFPNYYYX 060702 METAR LFPG 060702Z 34020KT 9999 FEW030 26/6 Q1041
SS LFPNYYYX LFPOYYYX LFPOYYYX 121000 METAR LFPG 121000Z 27019KT 9999 FEW030 29/19 Q1073
FF LFPGYYYX EGLLYYYX 131404 METAR LFPG 131404Z 15543KT 9999 FEW030 16/3 Q1049
DD LFPGYYYX LFPGYYYX 180721 METAR LFPG 180721Z 17120KT 9999 FEW030 7/1 Q1060
KK LFPOYYYX LFPOYYYX 100721 METAR LFPG 100721Z 29250KT 9999 FEW030 19/18 Q1068
KK LFPYYYX LFPNYYYX 272014 METAR LFPG 272014Z 23243KT 9999 FEW030 25/10 Q1051
LL LFPBYYYX LFPGYYYX LFPGYYYX 091001 METAR LFPG 091001Z 03159KT 9999 FEW030 16/8 Q1030
FF LFPOYYYX LFPGYYYX 112029 METAR LFPG 112029Z 24718KT 9999 FEW030 26/3 Q1070
KK LFPGYYYX LFPOYYYX 260826 METAR LFPG 260826Z 00455KT 9999 FEW030 28/18 Q1082
GG LFPOYYYX EGLLYYYX LFPGYYYX EGLLYYYX 121735 METAR LFPG 121735Z 01334KT 9999 FEW030 19/18 Q1078
SS EGLLYYYX LFPBYYYX LFPGYYYX 230430 METAR LFPG 230430Z 00159KT 9999 FEW030 19/18 Q1095
GG EGLLYYYX EDDFYYYX LFPOYYYX 072139 METAR LFPG 072139Z 13738KT 9999 FEW030 10/6 Q1071
FF LFPOYYYX LFPOYYYX 110815 METAR LFPG 110815Z 05343KT 9999 FEW030 28/17 Q1048
LL LFPYYYX LFPNYYYX LFPOYYYX LFPGYYYX 200532 METAR LFPG 200532Z 00210KT 9999 FEW030 12/10 Q1078
SS LFPBYYYX LFPBYYYX 110511 METAR LFPG 110511Z 16939KT 9999 FEW030 11/8 Q1096
GG LFPGYYYX LFPNYYYX 261510 METAR LFPG 261510Z 22858KT 9999 FEW030 15/11 Q1019
DD LFPGYYYX LFPNYYYX LFPOYYYX EGLLYYYX 100710 METAR LFPG 100710Z 10048KT 9999 FEW030 19/14 Q1013
LL LFPOYYYX LFPBYYYX LFPBYYYX EGLLYYYX 080951 METAR LFPG 080951Z 14930KT 9999 FEW030 13/10 Q1051
DD EDDFYYYX LFPBYYYX LFPBYYYX 020709 METAR LFPG 020709Z 22038KT 9999 FEW030 6/13 Q1000
SS EGLLYYYX LFPGYYYX EGLLYYYX 240216 METAR LFPG 240216Z 28625KT 9999 FEW030 25/16 Q1083
SS EDDFYYYX LFPBYYYX 241328 METAR LFPG 241328Z 17846KT 9999 FEW030 11/19 Q1088
DD LFPBYYYX LFPOYYYX LFPOYYYX 190006 METAR LFPG 190006Z 28535KT 9999 FEW030 2/11 Q1050
LL EDDFYYYX EGLLYYYX LFPNYYYX 052205 METAR LFPG 052205Z 28313KT 9999 FEW030 13/17 Q1092
SS LFPNYYYX LFPBYYYX 281736 METAR LFPG 281736Z 01414KT 9999 FEW030 26/11 Q1002
LL LFPGYYYX LFPNYYYX 050649 METAR LFPG 050649Z 14717KT 9999 FEW030 14/14 Q1039
LL LFPNYYYX EDDFYYYX LFPGYYYX 191606 METAR LFPG 191606Z 03745KT 9999 FEW030 6/8 Q1046
DD EGLLYYYX LFPGYYYX 221153 METAR LFPG 221153Z 03232KT 9999 FEW030 5/3 Q1078
FF LFPGYYYX LFPGYYYX LFPGYYYX LFPOYYYX 031630 METAR LFPG 031630Z 06159KT 9999 FEW030 17/5 Q1032
SS LFPBYYYX LFPBYYYX 191331 METAR LFPG 191331Z 24910KT 9999 FEW030 8/12 Q1030
FF LFPNYYYX LFPBYYYX LFPBYYYX 230431 METAR LFPG 230431Z 24159KT 9999 FEW030 4/15 Q1070
SS EDDFYYYX LFPBYYYX EDDFYYYX LFPGYYYX 050208 METAR LFPG 050208Z 04717KT 9999 FEW030 2/4 Q1035
LL EGLLYYYX EGLLYYYX LFPNYYYX 281303 METAR LFPG 281303Z 03332KT 9999 FEW030 2/10 Q1078
KK LFPOYYYX LFPGYYYX EDDFYYYX EDDFYYYX 181125 METAR LFPG 181125Z 05644KT 9999 FEW030 28/4 Q1073
FF LFPYYYX EGLLYYYX LFPGYYYX 201731 METAR LFPG 201731Z 30240KT 9999 FEW030 17/12 Q1046
FF EDDFYYYX LFPGYYYX LFPBYYYX LFPBYYYX 201315 METAR LFPG 201315Z 34624KT 9999 FEW030 13/2 Q1090
FF LFPNYYYX LFPOYYYX 080559 METAR LFPG 080559Z 09858KT 9999 FEW030 10/1 Q1005
GG EDDFYYYX EDDFYYYX EGLLYYYX 102349 METAR LFPG 102349Z 26048KT 9999 FEW030 4/19 Q1086
LL LFPOYYYX EDDFYYYX LFPGYYYX 230531 METAR LFPG 230531Z 24120KT 9999 FEW030 20/16 Q1090
SS EDDFYYYX LFPBYYYX 131017 METAR LFPG 131017Z 05555KT 9999 FEW030 18/2 Q1038
DD LFPBYYYX LFPGYYYX EGLLYYYX LFPGYYYX 250733 METAR LFPG 250733Z 12341KT 9999 FEW030 17/8 Q1078
FF EGLLYYYX LFPOYYYX EGLLYYYX 212329 METAR LFPG 212329Z 18747KT 9999 FEW030 18/4 Q1048
LL EGLLYYYX EDDFYYYX EDDFYYYX EGLLYYYX 260721 METAR LFPG 260721Z 29220KT 9999 FEW030 14/13 Q1094
SS EGLLYYYX LFPBYYYX 031642 METAR LFPG 031642Z 13311KT 9999 FEW030 18/4 Q1004
KK LFPYYYX LFPGYYYX LFPGYYYX 280512 METAR LFPG 280512Z 17040KT 9999 FEW030 0/4 Q1073
FF LFPGYYYX EGLLYYYX 230434 METAR LFPG 230434Z 07323KT 9999 FEW030 5/8 Q1004
LL EGLLYYYX LFPOYYYX 201708 METAR LFPG 201708Z 15836KT 9999 FEW030 13/16 Q1076
FF LFPOYYYX LFPBYYYX LFPNYYYX 021545 METAR LFPG 021545Z 20354KT 9999 FEW030 3/19 Q1058
GG LFPBYYYX EDDFYYYX LFPOYYYX EDDFYYYX 030431 METAR LFPG 030431Z 24129KT 9999 FEW030 23/2 Q1021
GG LFPNYYYX EDDFYYYX EGLLYYYX LFPBYYYX 271654 METAR LFPG 271654Z 32523KT 9999 FEW030 29/10 Q1050
LL LFPNYYYX LFPBYYYX 122240 METAR LFPG 122240Z 13858KT 9999 FEW030 19/2 Q1052
GG LFPGYYYX EDDFYYYX LFPOYYYX 071307 METAR LFPG 071307Z 34536KT 9999 FEW030 28/1 Q1091
FF LFPGYYYX LFPBYYYX EDDFYYYX 261957 METAR LFPG 261957Z 32846KT 9999 FEW030 23/2 Q1050
DD EDDFYYYX LFPGYYYX 051837 METAR LFPG 051837Z 25555KT 9999 FEW030 15/11 Q1032
KK LFPOYYYX LFPNYYYX LFPNYYYX 181154 METAR LFPG 181154Z 15222KT 9999 FEW030 14/7 Q1049
FF LFPOYYYX LFPNYYYX LFPNYYYX 190823 METAR LFPG 190823Z 29331KT 9999 FEW030 18/1 Q1039
FF LFPYYYX LFPBYYYX LFPNYYYX 251825 METAR LFPG 251825Z 30343KT 9999 FEW030 2/11 Q1079
KK LFPOYYYX LFPGYYYX 130208 METAR LFPG 130208Z 28637KT 9999 FEW030 20/2 Q1042
GG LFPOYYYX LFPOYYYX LFPNYYYX LFPGYYYX 231207 METAR LFPG 231207Z 10515KT 9999 FEW030 1/12 Q1002
GG LFPBYYYX LFPOYYYX LFPBYYYX LFPGYYYX 152111 METAR LFPG 152111Z 28130KT 9999 FEW030 10/17 Q1052
GG LFPBYYYX LFPNYYYX EDDFYYYX 071611 METAR LFPG 071611Z 34929KT 9999 FEW030 22/17 Q1091
DD LFPGYYYX LFPNYYYX LFPNYYYX 281024 METAR LFPG 281024Z 29413KT 9999 FEW030 10/2 Q1082
KK LFPYYYX EGLLYYYX EDDFYYYX LFPGYYYX 161719 METAR LFPG 161719Z 35048KT 9999 FEW030 18/2 Q1044
GG LFPBYYYX LFPGYYYX EGLLYYYX EDDFYYYX 191655 METAR LFPG 191655Z 32533KT 9999 FEW030 27/4 Q1042
FF LFPYYYX LFPNYYYX LFPGYYYX LFPOYYYX 261153 METAR LFPG 261153Z 27252KT 9999 FEW030 9/10 Q1009
SS LFPOYYYX LFPNYYYX 181558 METAR LFPG 181558Z 27636KT 9999 FEW030 25/19 Q1059
DD EDDFYYYX LFPGYYYX 061517 METAR LFPG 061517Z 34856KT 9999 FEW030 20/10 Q1056
KK EDDFYYYX EDDFYYYX 120240 METAR LFPG 120240Z 07011KT 9999 FEW030 17/11 Q1081
SS EDDFYYYX LFPNYYYX EGLLYYYX 050229 METAR LFPG 050229Z 11917KT 9999 FEW030 18/18 Q1002
GG LFPNYYYX LFPNYYYX LFPBYYYX EDDFYYYX 180406 METAR LFPG 180406Z 33625KT 9999 FEW030 8/3 Q1076
LL LFPNYYYX EGLLYYYX EDDFYYYX LFPGYYYX 161316 METAR LFPG 161316Z 22614KT 9999 FEW030 0/0 Q1078
KK LFPYYYX LFPNYYYX LFPGYYYX LFPGYYYX 271654 METAR LFPG 271654Z 08533KT 9999 FEW030 13/14 Q1048
DD LFPBYYYX EGLLYYYX EGLLYYYX 072027 METAR LFPG 072027Z 30535KT 9999 FEW030 28/5 Q1076
FF LFPYYYX LFPGYYYX 050232 METAR LFPG 050232Z 19111KT 9999 FEW030 16/5 Q1004
GG EGLLYYYX LFPOYYYX LFPBYYYX EDDFYYYX 010240 METAR LFPG 010240Z 19139KT 9999 FEW030 28/5 Q1080
GG LFPYYYX LFPGYYYX LFPNYYYX EDDFYYYX 112051 METAR LFPG 112051Z 32959KT 9999 FEW030 21/6 Q1074
KK LFPNYYYX EDDFYYYX LFPGYYYX 161719 METAR LFPG 161719Z 35030KT 9999 FEW030 24/17 Q1077
LL EGLLYYYX LFPBYYYX LFPOYYYX LFPGYYYX 212349 METAR LFPG 212349Z 25918KT 9999 FEW030 28/0 Q1066
KK LFPNYYYX EDDFYYYX LFPOYYYX 041723 METAR LFPG 041723Z 30242KT 9999 FEW030 15/10 Q1034
GG LFPOYYYX LFPOYYYX 150418 METAR LFPG 150418Z 16917KT 9999 FEW030 15/7 Q1005
FF LFPYYYX LFPNYYYX EGLLYYYX LFPNYYYX 091029 METAR LFPG 091029Z 24747KT 9999 FEW030 8/2 Q1052
FF LFPNYYYX LFPGYYYX 240132 METAR LFPG 240132Z 07050KT 9999 FEW030 23/9 Q1091
DD LFPBYYYX LFPOYYYX EDDFYYYX 170209 METAR LFPG 170209Z 16747KT 9999 FEW030 13/11 Q1094
DD LFPGYYYX LFPBYYYX 050624 METAR LFPG 050624Z 24343KT 9999 FEW030 3/11 Q1066
LL EDDFYYYX LFPOYYYX 231622 METAR LFPG 231622Z 06131KT 9999 FEW030 13/9 Q1066
SS EDDFYYYX LFPOYYYX 190455 METAR LFPG 190455Z 26543KT 9999 FEW030 20/2 Q1011
LL LFPNYYYX EGLLYYYX 090620 METAR LFPG 090620Z 05139KT 9999 FEW030 28/7 Q1004
GG EDDFYYYX EGLLYYYX EDDFYYYX 140822 METAR LFPG 140822Z 17210KT 9999 FEW030 4/2 Q1094
KK LFPNYYYX EGLLYYYX LFPGYYYX 050204 METAR LFPG 050204Z 33553KT 9999 FEW030 29/3 Q1025
SS LFPNYYYX LFPGYYYX 040924 METAR LFPG 040924Z 17432KT 9999 FEW030 23/0 Q1089
KK LFPGYYYX LFPOYYYX 080951 METAR LFPG 080951Z 27040KT 9999 FEW030 3/1 Q1095
FF LFPGYYYX LFPGYYYX EGLLYYYX LFPGYYYX 281315 METAR LFPG 281315Z 22644KT 9999 FEW030 1/9 Q1040
SS LFPBYYYX LFPGYYYX LFPBYYYX 162147 METAR LFPG 162147Z 13856KT 9999 FEW030 16/14 Q1069
DD LFPYYYX LFPGYYYX EDDFYYYX LFPNYYYX 052313 METAR LFPG 052313Z 04321KT 9999 FEW030 24/11 Q1036
DD LFPYYYX LFPBYYYX 200228 METAR LFPG 200228Z 23817KT 9999 FEW030 13/15 Q1065
DD LFPNYYYX LFPNYYYX LFPGYYYX 030458 METAR LFPG 030458Z 21757KT 9999 FEW030 26/3 Q1037
KK LFPYYYX EGLLYYYX EGLLYYYX EGLLYYYX 232151 METAR LFPG 232151Z 32940KT 9999 FEW030 1/0 Q1078
GG EDDFYYYX EGLLYYYX EGLLYYYX 061522 METAR LFPG 061522Z 06050KT 9999 FEW030 7/0 Q1039
KK LFPGYYYX LFPNYYYX LFPNYYYX 200151 METAR LFPG 200151Z 02230KT 9999 FEW030 11/17 Q1093
SS LFPNYYYX EDDFYYYX 280127 METAR LFPG 280127Z 35836KT 9999 FEW030 29/9 Q1033
DD LFPNYYYX LFPNYYYX LFPOYYYX 142038 METAR LFPG 142038Z 13637KT 9999 FEW030 22/10 Q1045
LL EGLLYYYX LFPNYYYX LFPBYYYX 092225 METAR LFPG 092225Z 23523KT 9999 FEW030 13/1 Q1089
KK LFPGYYYX LFPGYYYX LFPGYYYX EDDFYYYX 121016 METAR LFPG 121016Z 05425KT 9999 FEW030 17/17 Q1068
FF EDDFYYYX LFPBYYYX 191202 METAR LFPG 191202Z 03341KT 9999 FEW030 8/17 Q1013
DD EDDFYYYX LFPGYYYX LFPGYYYX 080543 METAR LFPG 080543Z 07352KT 9999 FEW030 1/6 Q1080
KK LFPOYYYX LFPNYYYX EGLLYYYX 120108 METAR LFPG 120108Z 04646KT 9999 FEW030 8/10 Q1078
FF LFPYYYX EDDFYYYX EDDFYYYX LFPNYYYX 062058 METAR LFPG 062058Z 08826KT 9999 FEW030 3/11 Q1015
KK EDDFYYYX LFPNYYYX EGLLYYYX 220006 METAR LFPG 220006Z 28444KT 9999 FEW030 23/4 Q1049
SS EDDFYYYX EGLLYYYX LFPNYYYX EDDFYYYX 080520 METAR LFPG 080520Z 17018KT 9999 FEW030 3/17 Q1024
KK EGLLYYYX EGLLYYYX LFPOYYYX EDDFYYYX 230139 METAR LFPG 230139Z 18958KT 9999 FEW030 5/17 Q1028
FF LFPOYYYX LFPOYYYX LFPGYYYX LFPOYYYX 051824 METAR LFPG 051824Z 06313KT 9999 FEW030 3/8 Q1036
LL EGLLYYYX LFPOYYYX LFPBYYYX LFPBYYYX 091533 METAR LFPG 091533Z 00321KT 9999 FEW030 24/18 Q1091
LL EGLLYYYX LFPNYYYX 201040 METAR LFPG 201040Z 19859KT 9999 FEW030 14/18 Q1056
KK LFPBYYYX EGLLYYYX LFPBYYYX LFPOYYYX 190423 METAR LFPG 190423Z 12131KT 9999 FEW030 1/14 Q1024
KK EGLLYYYX LFPGYYYX LFPGYYYX 150834 METAR LFPG 150834Z 00543KT 9999 FEW030 17/3 Q1009
KK LFPGYYYX LFPBYYYX EGLLYYYX LFPBYYYX 241016 METAR LFPG 241016Z 20523KT 9999 FEW030 3/9 Q1032
KK LFPGYYYX EDDFYYYX LFPGYYYX EGLLYYYX 111643 METAR LFPG 111643Z 01351KT 9999 FEW030 4/10 Q1008
GG LFPBYYYX EDDFYYYX EGLLYYYX 110447 METAR LFPG 110447Z 02525KT 9999 FEW030 20/4 Q1005
GG EGLLYYYX LFPOYYYX 120507 METAR LFPG 120507Z 09836KT 9999 FEW030 15/19 Q1089
GG EGLLYYYX LFPOYYYX LFPBYYYX EGLLYYYX 011457 METAR LFPG 011457Z 15515KT 9999 FEW030 17/15 Q1019
SS LFPYYYX LFPBYYYX 012353 METAR LFPG 012353Z 33152KT 9999 FEW030 26/0 Q1027
GG EGLLYYYX EDDFYYYX LFPOYYYX 211457 METAR LFPG 211457Z 15525KT 9999 FEW030 12/9 Q1013
GG LFPNYYYX LFPGYYYX EDDFYYYX 140434 METAR LFPG 140434Z 07212KT 9999 FEW030 23/5 Q1031
GG EGLLYYYX LFPGYYYX LFPNYYYX 191231 METAR LFPG 191231Z 24949KT 9999 FEW030 3/10 Q1014
SS LFPOYYYX LFPBYYYX LFPBYYYX EGLLYYYX 172248 METAR LFPG 172248Z 13947KT 9999 FEW030 25/9 Q1096
LL LFPNYYYX LFPBYYYX LFPGYYYX 041748 METAR LFPG 041748Z 08646KT 9999 FEW030 7/11 Q1087
DD LFPOYYYX EGLLYYYX EDDFYYYX 230838 METAR LFPG 230838Z 31737KT 9999 FEW030 2/4 Q1012
DD EGLLYYYX LFPNYYYX LFPOYYYX 141141 METAR LFPG 141141Z 32050KT 9999 FEW030 17/8 Q1052
KK LFPGYYYX EGLLYYYX LFPBYYYX 251441 METAR LFPG 251441Z 25141KT 9999 FEW030 21/18 Q1036
FF LFPNYYYX EGLLYYYX LFPGYYYX LFPBYYYX 082248 METAR LFPG 082248Z 13817KT 9999 FEW030 3/2 Q1030
FF EGLLYYYX LFPNYYYX EGLLYYYX EDDFYYYX 061521 METAR LFPG 061521Z 05210KT 9999 FEW030 19/3 Q1005
GG LFPGYYYX EDDFYYYX LFPBYYYX 191623 METAR LFPG 191623Z 06111KT 9999 FEW030 3/16 Q1061
KK LFPGYYYX LFPGYYYX EDDFYYYX 170305 METAR LFPG 170305Z 33544KT 9999 FEW030 19/1 Q1093
KK LFPOYYYX LFPOYYYX LFPOYYYX LFPOYYYX 270107 METAR LFPG 270107Z 28545KT 9999 FEW030 4/4 Q1076
GG EGLLYYYX LFPBYYYX LFPBYYYX LFPOYYYX 050309 METAR LFPG 050309Z 04718KT 9999 FEW030 18/15 Q1010
SS EGLLYYYX EDDFYYYX LFPOYYYX EDDFYYYX 160948 METAR LFPG 160948Z 31816KT 9999 FEW030 2/6 Q1051
GG LFPGYYYX LFPGYYYX 270850 METAR LFPG 270850Z 14959KT 9999 FEW030 17/1 Q1074
GG LFPNYYYX LFPNYYYX 071635 METAR LFPG 071635Z 13353KT 9999 FEW030 13/5 Q1022
SS LFPGYYYX LFPBYYYX 170757 METAR LFPG 170757Z 26746KT 9999 FEW030 10/9 Q1098
SS LFPYYYX LFPOYYYX EDDFYYYX 040535 METAR LFPG 040535Z 07434KT 9999 FEW030 1/13 Q1045
DD LFPGYYYX EDDFYYYX 090649 METAR LFPG 090649Z 26737KT 9999 FEW030 19/8 Q1092
LL EDDFYYYX EDDFYYYX 020749 METAR LFPG 020749Z 02818KT 9999 FEW030 2/13 Q1098
GG LFPYYYX LFPBYYYX 130321 METAR LFPG 130321Z 35930KT 9999 FEW030 8/12 Q1013
DD LFPOYYYX EDDFYYYX 181130 METAR LFPG 181130Z 24848KT 9999 FEW030 29/6 Q1082
LL LFPYYYX LFPNYYYX LFPOYYYX 122159 METAR LFPG 122159Z 21050KT 9999 FEW030 3/6 Q1014
LL EDDFYYYX EDDFYYYX EGLLYYYX 050232 METAR LFPG 050232Z 19121KT 9999 FEW030 19/15 Q1086
DD EDDFYYYX EGLLYYYX 051837 METAR LFPG 051837Z 01525KT 9999 FEW030 5/15 Q1079
GG LFPGYYYX LFPNYYYX LFPOYYYX LFPOYYYX 110039 METAR LFPG 110039Z 06937KT 9999 FEW030 12/3 Q1018
LL LFPYYYX LFPOYYYX LFPOYYYX 031658 METAR LFPG 031658Z 27727KT 9999 FEW030 14/18 Q1075
LL EGLLYYYX LFPOYYYX 260318 METAR LFPG 260318Z 16836KT 9999 FEW030 8/10 Q1021
DD LFPNYYYX LFPOYYYX 261558 METAR LFPG 261558Z 15616KT 9999 FEW030 0/4 Q1077
DD EGLLYYYX EGLLYYYX LFPGYYYX 221105 METAR LFPG 221105Z 09654KT 9999 FEW030 13/16 Q1085
FF LFPOYYYX LFPGYYYX 160928 METAR LFPG 160928Z 11826KT 9999 FEW030 17/14 Q1069
DD EDDFYYYX LFPBYYYX 210620 METAR LFPG 210620Z 05129KT 9999 FEW030 15/3 Q1084
GG LFPBYYYX EDDFYYYX EDDFYYYX LFPNYYYX 152139 METAR LFPG 152139Z 13748KT 9999 FEW030 16/4 Q1053
FF EGLLYYYX LFPBYYYX 100406 METAR LFPG 100406Z 33615KT 9999 FEW030 17/10 Q1029
GG LFPYYYX LFPBYYYX EDDFYYYX LFPNYYYX 071707 METAR LFPG 071707Z 27735KT 9999 FEW030 0/18 Q1059
DD EDDFYYYX LFPBYYYX LFPGYYYX LFPOYYYX 101909 METAR LFPG 101909Z 28048KT 9999 FEW030 7/13 Q1090
SS LFPOYYYX LFPGYYYX LFPNYYYX 111606 METAR LFPG 111606Z 03755KT 9999 FEW030 17/13 Q1030
SS LFPGYYYX LFPNYYYX LFPBYYYX 141254 METAR LFPG 141254Z 27252KT 9999 FEW030 17/17 Q1097
KK LFPYYYX EGLLYYYX 201315 METAR LFPG 201315Z 34614KT 9999 FEW030 13/13 Q1003
FF LFPNYYYX LFPGYYYX 021957 METAR LFPG 021957Z 08716KT 9999 FEW030 7/17 Q1049
DD LFPNYYYX LFPGYYYX LFPOYYYX EDDFYYYX 110442 METAR LFPG 110442Z 31333KT 9999 FEW030 27/18 Q1008
SS LFPGYYYX LFPBYYYX LFPGYYYX 281028 METAR LFPG 281028Z 23836KT 9999 FEW030 25/7 Q1000
DD EGLLYYYX LFPOYYYX LFPGYYYX LFPGYYYX 050645 METAR LFPG 050645Z 19543KT 9999 FEW030 16/7 Q1022
GG LFPNYYYX EDDFYYYX LFPBYYYX LFPNYYYX 171801 METAR LFPG 171801Z 15119KT 9999 FEW030 15/15 Q1090
LL LFPNYYYX LFPOYYYX LFPNYYYX 041824 METAR LFPG 041824Z 06223KT 9999 FEW030 20/8 Q1065
GG LFPGYYYX EGLLYYYX EDDFYYYX LFPBYYYX 080132 METAR LFPG 080132Z 07040KT 9999 FEW030 10/13 Q1016
KK EGLLYYYX EGLLYYYX LFPGYYYX 091105 METAR LFPG 091105Z 34354KT 9999 FEW030 18/14 Q1033
DD LFPBYYYX EGLLYYYX 191755 METAR LFPG 191755Z 08523KT 9999 FEW030 12/15 Q1008
GG EGLLYYYX EGLLYYYX EGLLYYYX LFPBYYYX 270811 METAR LFPG 270811Z 34139KT 9999 FEW030 11/2 Q1064
SS LFPGYYYX LFPGYYYX 221130 METAR LFPG 221130Z 24858KT 9999 FEW030 12/18 Q1086
LL LFPNYYYX LFPGYYYX LFPBYYYX LFPBYYYX 181521 METAR LFPG 181521Z 06010KT 9999 FEW030 8/13 Q1024
SS LFPOYYYX EGLLYYYX LFPGYYYX LFPBYYYX 082140 METAR LFPG 082140Z 25058KT 9999 FEW030 9/8 Q1035
KK LFPBYYYX EGLLYYYX LFPNYYYX 231610 METAR LFPG 231610Z 10959KT 9999 FEW030 22/17 Q1061
DD EGLLYYYX EGLLYYYX EDDFYYYX 070850 METAR LFPG 070850Z 02119KT 9999 FEW030 7/13 Q1060
FF EDDFYYYX LFPBYYYX EGLLYYYX 221517 METAR LFPG 221517Z 22836KT 9999 FEW030 8/18 Q1010
KK LFPOYYYX LFPGYYYX LFPGYYYX EDDFYYYX 080924 METAR LFPG 080924Z 17452KT 9999 FEW030 27/4 Q1077
KK EGLLYYYX LFPGYYYX LFPBYYYX LFPGYYYX 070826 METAR LFPG 070826Z 12535KT 9999 FEW030 12/18 Q1088
GG LFPYYYX LFPNYYYX EDDFYYYX 220346 METAR LFPG 220346Z 02414KT 9999 FEW030 6/19 Q1013
SS EDDFYYYX LFPNYYYX LFPGYYYX EDDFYYYX 062325 METAR LFPG 062325Z 11544KT 9999 FEW030 20/3 Q1074
GG LFPOYYYX LFPOYYYX LFPBYYYX 192014 METAR LFPG 192014Z 11253KT 9999 FEW030 29/15 Q1099
GG LFPOYYYX EDDFYYYX 171000 METAR LFPG 171000Z 03049KT 9999 FEW030 20/15 Q1045
GG EDDFYYYX LFPNYYYX EDDFYYYX LFPNYYYX 010636 METAR LFPG 010636Z 19515KT 9999 FEW030 9/4 Q1095
LL LFPYYYX LFPOYYYX 211429 METAR LFPG 211429Z 17957KT 9999 FEW030 5/7 Q1084
KK LFPOYYYX EDDFYYYX LFPNYYYX LFPNYYYX 241344 METAR LFPG 241344Z 08212KT 9999 FEW030 3/14 Q1060
DD LFPOYYYX EDDFYYYX LFPBYYYX LFPNYYYX 130725 METAR LFPG 130725Z 12323KT 9999 FEW030 26/0 Q1034
KK LFPNYYYX EDDFYYYX 041332 METAR LFPG 041332Z 01010KT 9999 FEW030 8/0 Q1012
KK LFPNYYYX LFPOYYYX 131000 METAR LFPG 131000Z 03159KT 9999 FEW030 11/15 Q1025
LL LFPYYYX LFPOYYYX EDDFYYYX 100333 METAR LFPG 100333Z 19242KT 9999 FEW030 26/0 Q1074
KK LFPGYYYX LFPBYYYX LFPNYYYX LFPGYYYX 160119 METAR LFPG 160119Z 23038KT 9999 FEW030 25/16 Q1041
GG LFPGYYYX LFPGYYYX LFPBYYYX LFPOYYYX 041420 METAR LFPG 041420Z 29839KT 9999 FEW030 0/9 Q1074
KK LFPGYYYX EDDFYYYX 162228 METAR LFPG 162228Z 30646KT 9999 FEW030 20/1 Q1004
FF EDDFYYYX EDDFYYYX 170256 METAR LFPG 170256Z 09555KT 9999 FEW030 1/13 Q1008
SS LFPYYYX EGLLYYYX 210305 METAR LFPG 210305Z 09534KT 9999 FEW030 6/4 Q1035
SS LFPNYYYX LFPBYYYX LFPOYYYX LFPOYYYX 171141 METAR LFPG 171141Z 19920KT 9999 FEW030 25/17 Q1061
LL LFPOYYYX LFPBYYYX LFPNYYYX LFPNYYYX 131417 METAR LFPG 131417Z 34715KT 9999 FEW030 13/16 Q1050
LL LFPNYYYX EDDFYYYX EDDFYYYX EDDFYYYX 101622 METAR LFPG 101622Z 30011KT 9999 FEW030 1/4 Q1088
LL EDDFYYYX LFPNYYYX EDDFYYYX LFPGYYYX 260814 METAR LFPG 260814Z 05253KT 9999 FEW030 27/7 Q1063
KK EDDFYYYX LFPNYYYX 051417 METAR LFPG 051417Z 10715KT 9999 FEW030 4/10 Q1079
LL EDDFYYYX LFPGYYYX EDDFYYYX EGLLYYYX 251029 METAR LFPG 251029Z 24747KT 9999 FEW030 7/0 Q1091
FF LFPYYYX EGLLYYYX EGLLYYYX EDDFYYYX 110802 METAR LFPG 110802Z 34021KT 9999 FEW030 15/14 Q1011
FF EGLLYYYX LFPNYYYX 100305 METAR LFPG 100305Z 21524KT 9999 FEW030 22/16 Q1080
FF LFPOYYYX EDDFYYYX EGLLYYYX 020826 METAR LFPG 020826Z 00415KT 9999 FEW030 26/12 Q1050
KK EDDFYYYX LFPGYYYX LFPGYYYX 110442 METAR LFPG 110442Z 31331KT 9999 FEW030 16/17 Q1023
LL LFPNYYYX LFPOYYYX 091417 METAR LFPG 091417Z 10745KT 9999 FEW030 3/13 Q1028
DD LFPBYYYX EDDFYYYX LFPBYYYX 151218 METAR LFPG 151218Z 29737KT 9999 FEW030 17/12 Q1042
DD LFPBYYYX LFPBYYYX LFPGYYYX LFPNYYYX 091836 METAR LFPG 091836Z 13455KT 9999 FEW030 10/0 Q1054
KK LFPOYYYX EGLLYYYX EGLLYYYX 110410 METAR LFPG 110410Z 04959KT 9999 FEW030 26/10 Q1021
SS LFPNYYYX LFPBYYYX LFPGYYYX 121432 METAR LFPG 121432Z 13031KT 9999 FEW030 0/7 Q1084
LL EGLLYYYX LFPOYYYX 092313 METAR LFPG 092313Z 28352KT 9999 FEW030 16/2 Q1001
SS LFPGYYYX LFPBYYYX EGLLYYYX EGLLYYYX 122127 METAR LFPG 122127Z 06546KT 9999 FEW030 12/11 Q1030
KK EGLLYYYX LFPGYYYX 211801 METAR LFPG 211801Z 27959KT 9999 FEW030 21/17 Q1012
GG LFPNYYYX LFPOYYYX 251844 METAR LFPG 251844Z 13523KT 9999 FEW030 9/1 Q1029
GG LFPGYYYX LFPOYYYX EDDFYYYX LFPNYYYX 240915 METAR LFPG 240915Z 04514KT 9999 FEW030 22/15 Q1052
SS LFPGYYYX LFPOYYYX LFPOYYYX LFPOYYYX 230839 METAR LFPG 230839Z 07737KT 9999 FEW030 28/1 Q1031
DD LFPNYYYX EGLLYYYX 121744 METAR LFPG 121744Z 25442KT 9999 FEW030 7/9 Q1044
KK EGLLYYYX EDDFYYYX EDDFYYYX EDDFYYYX 061957 METAR LFPG 061957Z 08816KT 9999 FEW030 3/4 Q1010
FF LFPBYYYX EGLLYYYX LFPBYYYX EGLLYYYX 070018 METAR LFPG 070018Z 23737KT 9999 FEW030 7/7 Q1042
GG LFPNYYYX LFPNYYYX LFPOYYYX LFPBYYYX 281028 METAR LFPG 281028Z 00656KT 9999 FEW030 29/9 Q1088
LL LFPGYYYX LFPBYYYX EDDFYYYX 150155 METAR LFPG 150155Z 21324KT 9999 FEW030 1/4 Q1096
GG LFPNYYYX EGLLYYYX LFPBYYYX 081736 METAR LFPG 081736Z 01434KT 9999 FEW030 24/12 Q1092
KK EDDFYYYX EDDFYYYX LFPGYYYX 072135 METAR LFPG 072135Z 06514KT 9999 FEW030 20/2 Q1087
LL LFPNYYYX LFPBYYYX LFPBYYYX LFPOYYYX 010329 METAR LFPG 010329Z 23918KT 9999 FEW030 26/19 Q1098
KK EGLLYYYX LFPBYYYX LFPGYYYX LFPNYYYX 071250 METAR LFPG 071250Z 20049KT 9999 FEW030 0/6 Q1059
SS LFPNYYYX LFPGYYYX LFPGYYYX 161711 METAR LFPG 161711Z 11020KT 9999 FEW030 3/17 Q1021
KK LFPOYYYX LFPNYYYX EGLLYYYX LFPNYYYX 062329 METAR LFPG 062329Z 06818KT 9999 FEW030 26/8 Q1024
LL LFPNYYYX EGLLYYYX LFPBYYYX EGLLYYYX 090657 METAR LFPG 090657Z 02735KT 9999 FEW030 28/16 Q1023
LL LFPGYYYX LFPBYYYX EDDFYYYX 051452 METAR LFPG 051452Z 32341KT 9999 FEW030 6/11 Q1032
FF LFPGYYYX EDDFYYYX 011428 METAR LFPG 011428Z 05947KT 9999 FEW030 24/15 Q1042
DD LFPOYYYX EDDFYYYX LFPBYYYX 130621 METAR LFPG 130621Z 29121KT 9999 FEW030 21/10 Q1025
DD LFPBYYYX EDDFYYYX LFPGYYYX 091025 METAR LFPG 091025Z 05533KT 9999 FEW030 7/7 Q1094
LL EDDFYYYX EDDFYYYX EGLLYYYX 100341 METAR LFPG 100341Z 07230KT 9999 FEW030 28/13 Q1083
GG LFPYYYX LFPOYYYX 221518 METAR LFPG 221518Z 10846KT 9999 FEW030 17/13 Q1005
LL LFPBYYYX LFPNYYYX LFPOYYYX LFPNYYYX 121848 METAR LFPG 121848Z 20646KT 9999 FEW030 0/13 Q1006
FF LFPOYYYX EDDFYYYX 270051 METAR LFPG 270051Z 26159KT 9999 FEW030 7/10 Q1073
FF LFPBYYYX LFPGYYYX EDDFYYYX 131017 METAR LFPG 131017Z 05525KT 9999 FEW030 16/2 Q1072
DD LFPNYYYX LFPOYYYX 060810 METAR LFPG 060810Z 34018KT 9999 FEW030 13/4 Q1028
KK LFPNYYYX EGLLYYYX LFPBYYYX 242104 METAR LFPG 242104Z 16242KT 9999 FEW030 19/18 Q1035
KK EGLLYYYX LFPBYYYX 080547 METAR LFPG 080547Z 26616KT 9999 FEW030 16/17 Q1083
LL EGLLYYYX LFPNYYYX EGLLYYYX EDDFYYYX 141949 METAR LFPG 141949Z 32848KT 9999 FEW030 22/10 Q1046
FF LFPGYYYX EGLLYYYX 010209 METAR LFPG 010209Z 28727KT 9999 FEW030 24/7 Q1000
GG LFPOYYYX EDDFYYYX EGLLYYYX EDDFYYYX 020050 METAR LFPG 020050Z 26059KT 9999 FEW030 10/2 Q1032
LL LFPOYYYX LFPBYYYX EGLLYYYX EGLLYYYX 181153 METAR LFPG 181153Z 14442KT 9999 FEW030 26/17 Q1011
KK EGLLYYYX EDDFYYYX LFPBYYYX LFPNYYYX 241307 METAR LFPG 241307Z 10636KT 9999 FEW030 14/14 Q1004
LL LFPGYYYX LFPBYYYX LFPOYYYX EGLLYYYX 230846 METAR LFPG 230846Z 19735KT 9999 FEW030 5/19 Q1049
FF LFPBYYYX LFPOYYYX LFPGYYYX LFPNYYYX 251812 METAR LFPG 251812Z 23111KT 9999 FEW030 14/13 Q1016
LL LFPGYYYX LFPNYYYX LFPGYYYX LFPNYYYX 252201 METAR LFPG 252201Z 33159KT 9999 FEW030 7/3 Q1033
KK LFPYYYX LFPOYYYX EDDFYYYX LFPGYYYX 112123 METAR LFPG 112123Z 23314KT 9999 FEW030 4/7 Q1099
GG LFPGYYYX LFPOYYYX EDDFYYYX LFPGYYYX 182318 METAR LFPG 182318Z 35656KT 9999 FEW030 11/4 Q1059
DD LFPBYYYX LFPNYYYX 272139 METAR LFPG 272139Z 25728KT 9999 FEW030 15/13 Q1034
DD LFPOYYYX LFPNYYYX 030014 METAR LFPG 030014Z 28523KT 9999 FEW030 24/3 Q1059
DD EDDFYYYX EDDFYYYX 231606 METAR LFPG 231606Z 27715KT 9999 FEW030 21/0 Q1062
LL EDDFYYYX EDDFYYYX LFPOYYYX LFPBYYYX 200151 METAR LFPG 200151Z 02120KT 9999 FEW030 18/6 Q1013
FF LFPOYYYX EDDFYYYX 011933 METAR LFPG 011933Z 30322KT 9999 FEW030 13/5 Q1056
SS LFPGYYYX EGLLYYYX 052313 METAR LFPG 052313Z 16321KT 9999 FEW030 27/9 Q1087
FF LFPBYYYX LFPGYYYX EGLLYYYX 052204 METAR LFPG 052204Z 27533KT 9999 FEW030 1/2 Q1050
GG EDDFYYYX LFPNYYYX LFPNYYYX LFPGYYYX 100353 METAR LFPG 100353Z 26432KT 9999 FEW030 24/5 Q1028
LL EDDFYYYX LFPGYYYX 132241 METAR LFPG 132241Z 01919KT 9999 FEW030 2/15 Q1046
KK LFPYYYX LFPGYYYX LFPBYYYX LFPNYYYX 222306 METAR LFPG 222306Z 04434KT 9999 FEW030 1/4 Q1085
LL LFPYYYX EGLLYYYX LFPGYYYX LFPOYYYX 062038 METAR LFPG 062038Z 13617KT 9999 FEW030 8/16 Q1061
SS EDDFYYYX LFPGYYYX LFPBYYYX LFPNYYYX 241000 METAR LFPG 241000Z 15039KT 9999 FEW030 13/3 Q1014
LL LFPNYYYX LFPGYYYX 091004 METAR LFPG 091004Z 34333KT 9999 FEW030 0/3 Q1060
GG EDDFYYYX LFPGYYYX 021522 METAR LFPG 021522Z 30020KT 9999 FEW030 21/19 Q1064
SS LFPNYYYX LFPGYYYX LFPNYYYX EGLLYYYX 122159 METAR LFPG 122159Z 33028KT 9999 FEW030 3/12 Q1037
LL LFPOYYYX EDDFYYYX 121744 METAR LFPG 121744Z 01412KT 9999 FEW030 0/10 Q1099
LL LFPOYYYX LFPNYYYX 222349 METAR LFPG 222349Z 26028KT 9999 FEW030 18/12 Q1086
SS EGLLYYYX LFPOYYYX LFPNYYYX EGLLYYYX 181921 METAR LFPG 181921Z 35140KT 9999 FEW030 25/10 Q1091
KK EDDFYYYX EDDFYYYX LFPOYYYX LFPOYYYX 261901 METAR LFPG 261901Z 15150KT 9999 FEW030 17/10 Q1052
KK LFPYYYX LFPOYYYX LFPOYYYX EGLLYYYX 221101 METAR LFPG 221101Z 27110KT 9999 FEW030 22/18 Q1067
SS EGLLYYYX LFPBYYYX LFPBYYYX 071243 METAR LFPG 071243Z 20131KT 9999 FEW030 16/13 Q1031
SS LFPGYYYX EDDFYYYX 242111 METAR LFPG 242111Z 28230KT 9999 FEW030 27/11 Q1028
LL LFPNYYYX EDDFYYYX LFPBYYYX LFPNYYYX 121824 METAR LFPG 121824Z 18252KT 9999 FEW030 14/12 Q1063
LL EDDFYYYX LFPOYYYX LFPOYYYX LFPBYYYX 070802 METAR LFPG 070802Z 34021KT 9999 FEW030 5/3 Q1034
LL LFPBYYYX LFPBYYYX LFPOYYYX 040900 METAR LFPG 040900Z 27038KT 9999 FEW030 6/1 Q1049
FF LFPOYYYX LFPOYYYX LFPBYYYX 260434 METAR LFPG 260434Z 07233KT 9999 FEW030 23/0 Q1080
LL LFPYYYX LFPGYYYX LFPOYYYX LFPOYYYX 230006 METAR LFPG 230006Z 28515KT 9999 FEW030 8/16 Q1070
SS EDDFYYYX LFPNYYYX 240511 METAR LFPG 240511Z 17020KT 9999 FEW030 17/9 Q1049
SS EDDFYYYX LFPOYYYX LFPNYYYX EDDFYYYX 131937 METAR LFPG 131937Z 13546KT 9999 FEW030 26/3 Q1058
GG LFPOYYYX LFPGYYYX LFPNYYYX LFPNYYYX 171848 METAR LFPG 171848Z 32637KT 9999 FEW030 19/2 Q1095
KK LFPBYYYX LFPGYYYX EDDFYYYX LFPBYYYX 100838 METAR LFPG 100838Z 07637KT 9999 FEW030 14/7 Q1097
DD EGLLYYYX LFPOYYYX LFPOYYYX 060333 METAR LFPG 060333Z 31252KT 9999 FEW030 21/14 Q1091
LL EDDFYYYX EGLLYYYX LFPGYYYX LFPNYYYX 021118 METAR LFPG 021118Z 29626KT 9999 FEW030 10/15 Q1054
GG LFPGYYYX LFPNYYYX EGLLYYYX LFPNYYYX 220721 METAR LFPG 220721Z 17220KT 9999 FEW030 18/13 Q1057
LL LFPBYYYX LFPNYYYX 010253 METAR LFPG 010253Z 14311KT 9999 FEW030 2/11 Q1019
LL LFPNYYYX LFPOYYYX LFPOYYYX 110814 METAR LFPG 110814Z 29313KT 9999 FEW030 6/8 Q1013
LL EDDFYYYX LFPBYYYX LFPNYYYX LFPNYYYX 150835 METAR LFPG 150835Z 24513KT 9999 FEW030 1/2 Q1094
SS LFPBYYYX LFPGYYYX 281755 METAR LFPG 281755Z 32624KT 9999 FEW030 4/3 Q1088
DD LFPNYYYX LFPGYYYX LFPBYYYX LFPGYYYX 250601 METAR LFPG 250601Z 33919KT 9999 FEW030 14/19 Q1010
DD LFPBYYYX LFPNYYYX EDDFYYYX LFPNYYYX 120103 METAR LFPG 120103Z 21412KT 9999 FEW030 21/4 Q1098
FF LFPYYYX LFPGYYYX 071607 METAR LFPG 071607Z 15745KT 9999 FEW030 7/0 Q1027
FF LFPYYYX EDDFYYYX LFPNYYYX LFPOYYYX 280904 METAR LFPG 280904Z 34232KT 9999 FEW030 16/3 Q1035
KK LFPYYYX EDDFYYYX EGLLYYYX 251000 METAR LFPG 251000Z 27129KT 9999 FEW030 18/9 Q1079
SS EGLLYYYX LFPNYYYX 042139 METAR LFPG 042139Z 25818KT 9999 FEW030 17/19 Q1045
FF EDDFYYYX EDDFYYYX 091129 METAR LFPG 091129Z 12748KT 9999 FEW030 11/8 Q1082
DD LFPNYYYX LFPOYYYX EGLLYYYX EGLLYYYX 130649 METAR LFPG 130649Z 26737KT 9999 FEW030 5/5 Q1074
GG LFPYYYX EGLLYYYX LFPGYYYX 221250 METAR LFPG 221250Z 08028KT 9999 FEW030 19/15 Q1076
DD LFPYYYX EDDFYYYX 211800 METAR LFPG 211800Z 27929KT 9999 FEW030 12/18 Q1018
FF LFPOYYYX EDDFYYYX LFPNYYYX 010632 METAR LFPG 010632Z 24341KT 9999 FEW030 19/9 Q1009
FF LFPOYYYX EGLLYYYX LFPOYYYX 080240 METAR LFPG 080240Z 31039KT 9999 FEW030 0/8 Q1054
DD EDDFYYYX EDDFYYYX LFPBYYYX 141606 METAR LFPG 141606Z 27645KT 9999 FEW030 9/13 Q1027
DD LFPBYYYX LFPGYYYX 131052 METAR LFPG 131052Z 03111KT 9999 FEW030 8/11 Q1056
SS LFPYYYX LFPBYYYX 170637 METAR LFPG 170637Z 07535KT 9999 FEW030 5/15 Q1053
KK LFPOYYYX LFPNYYYX EDDFYYYX LFPGYYYX 110014 METAR LFPG 110014Z 04553KT 9999 FEW030 17/8 Q1054
KK LFPYYYX LFPGYYYX LFPNYYYX 281700 METAR LFPG 281700Z 27858KT 9999 FEW030 6/10 Q1048
GG EDDFYYYX EGLLYYYX LFPOYYYX 110434 METAR LFPG 110434Z 07323KT 9999 FEW030 24/12 Q1024
KK LFPNYYYX EGLLYYYX 270519 METAR LFPG 270519Z 28957KT 9999 FEW030 13/7 Q1097
DD LFPBYYYX LFPBYYYX 281848 METAR LFPG 281848Z 32626KT 9999 FEW030 24/7 Q1016
FF LFPBYYYX EDDFYYYX 042140 METAR LFPG 042140Z 01838KT 9999 FEW030 28/0 Q1061
KK LFPOYYYX EDDFYYYX LFPOYYYX LFPNYYYX 141206 METAR LFPG 141206Z 34425KT 9999 FEW030 7/11 Q1089
FF LFPYYYX LFPOYYYX 030442 METAR LFPG 030442Z 19321KT 9999 FEW030 18/9 Q1046
DD LFPNYYYX EGLLYYYX 092253 METAR LFPG 092253Z 21141KT 9999 FEW030 11/3 Q1002
KK LFPNYYYX EDDFYYYX 041708 METAR LFPG 041708Z 27826KT 9999 FEW030 0/7 Q1026
LL LFPYYYX LFPNYYYX 130745 METAR LFPG 130745Z 07533KT 9999 FEW030 12/0 Q1023
GG LFPOYYYX LFPGYYYX 221517 METAR LFPG 221517Z 10816KT 9999 FEW030 27/7 Q1029
LL EDDFYYYX LFPNYYYX 240636 METAR LFPG 240636Z 31415KT 9999 FEW030 28/14 Q1055
GG LFPOYYYX EGLLYYYX EDDFYYYX LFPGYYYX 080536 METAR LFPG 080536Z 07454KT 9999 FEW030 10/0 Q1046
LL EGLLYYYX EGLLYYYX LFPBYYYX EGLLYYYX 051036 METAR LFPG 051036Z 12715KT 9999 FEW030 7/15 Q1084
LL LFPGYYYX EGLLYYYX EGLLYYYX LFPBYYYX 111707 METAR LFPG 111707Z 15746KT 9999 FEW030 21/9 Q1030
KK LFPGYYYX LFPGYYYX LFPBYYYX LFPBYYYX 040923 METAR LFPG 040923Z 29342KT 9999 FEW030 19/3 Q1054
KK LFPNYYYX EDDFYYYX EGLLYYYX 110859 METAR LFPG 110859Z 02927KT 9999 FEW030 29/10 Q1093
LL LFPYYYX LFPNYYYX EGLLYYYX 060042 METAR LFPG 060042Z 26050KT 9999 FEW030 25/14 Q1035
SS LFPOYYYX EDDFYYYX LFPGYYYX LFPBYYYX 171444 METAR LFPG 171444Z 08243KT 9999 FEW030 9/18 Q1056
DD LFPOYYYX EGLLYYYX LFPOYYYX LFPNYYYX 230935 METAR LFPG 230935Z 12554KT 9999 FEW030 5/19 Q1070
SS LFPGYYYX EGLLYYYX LFPGYYYX LFPNYYYX 050749 METAR LFPG 050749Z 02748KT 9999 FEW030 1/2 Q1070
KK LFPYYYX LFPBYYYX LFPBYYYX LFPNYYYX 040903 METAR LFPG 040903Z 34242KT 9999 FEW030 28/1 Q1039
DD EDDFYYYX LFPOYYYX LFPOYYYX 170713 METAR LFPG 170713Z 05132KT 9999 FEW030 12/11 Q1000
FF LFPBYYYX LFPGYYYX EDDFYYYX LFPBYYYX 100710 METAR LFPG 100710Z 34028KT 9999 FEW030 13/19 Q1034
LL LFPYYYX LFPBYYYX EGLLYYYX LFPOYYYX 280916 METAR LFPG 280916Z 29444KT 9999 FEW030 2/0 Q1098
SS EDDFYYYX LFPOYYYX LFPBYYYX 130353 METAR LFPG 130353Z 02322KT 9999 FEW030 13/19 Q1065
SS LFPYYYX EGLLYYYX 202103 METAR LFPG 202103Z 28212KT 9999 FEW030 14/8 Q1017
GG LFPOYYYX LFPBYYYX EGLLYYYX EGLLYYYX 280128 METAR LFPG 280128Z 11836KT 9999 FEW030 13/5 Q1021
GG EGLLYYYX LFPNYYYX 021105 METAR LFPG 021105Z 22444KT 9999 FEW030 3/5 Q1074
GG EGLLYYYX EDDFYYYX LFPBYYYX 140758 METAR LFPG 140758Z 02846KT 9999 FEW030 22/17 Q1009
LL LFPBYYYX LFPGYYYX LFPGYYYX 122123 METAR LFPG 122123Z 11442KT 9999 FEW030 0/0 Q1029
SS LFPNYYYX LFPNYYYX LFPNYYYX EGLLYYYX 201711 METAR LFPG 201711Z 10910KT 9999 FEW030 1/13 Q1017
SS LFPOYYYX LFPGYYYX 051432 METAR LFPG 051432Z 01111KT 9999 FEW030 4/15 Q1082
KK LFPGYYYX EDDFYYYX LFPNYYYX 181202 METAR LFPG 181202Z 27211KT 9999 FEW030 8/16 Q1084
GG LFPOYYYX LFPNYYYX LFPOYYYX LFPNYYYX 091444 METAR LFPG 091444Z 08353KT 9999 FEW030 3/8 Q1057
KK LFPNYYYX LFPOYYYX 101914 METAR LFPG 101914Z 23212KT 9999 FEW030 15/11 Q1085
GG LFPOYYYX LFPBYYYX EGLLYYYX 270810 METAR LFPG 270810Z 34029KT 9999 FEW030 16/17 Q1081
GG LFPBYYYX EDDFYYYX EDDFYYYX LFPNYYYX 211433 METAR LFPG 211433Z 25141KT 9999 FEW030 21/19 Q1028
LL LFPGYYYX LFPBYYYX LFPNYYYX LFPNYYYX 051429 METAR LFPG 051429Z 17957KT 9999 FEW030 21/10 Q1074
GG EDDFYYYX LFPOYYYX 071239 METAR LFPG 071239Z 12917KT 9999 FEW030 6/14 Q1098
SS LFPBYYYX LFPNYYYX 081759 METAR LFPG 081759Z 27818KT 9999 FEW030 9/11 Q1083
SS LFPBYYYX LFPOYYYX EGLLYYYX EDDFYYYX 131029 METAR LFPG 131029Z 12757KT 9999 FEW030 21/3 Q1071
DD LFPGYYYX EDDFYYYX LFPNYYYX LFPOYYYX 150935 METAR LFPG 150935Z 24524KT 9999 FEW030 1/9 Q1036
GG EGLLYYYX EDDFYYYX LFPBYYYX EGLLYYYX 092225 METAR LFPG 092225Z 23525KT 9999 FEW030 26/15 Q1081
DD LFPNYYYX LFPNYYYX 281004 METAR LFPG 281004Z 34223KT 9999 FEW030 25/3 Q1052
KK LFPBYYYX LFPOYYYX 192046 METAR LFPG 192046Z 13725KT 9999 FEW030 12/8 Q1048
GG EGLLYYYX LFPBYYYX 280644 METAR LFPG 280644Z 07433KT 9999 FEW030 14/9 Q1084
FF LFPOYYYX LFPBYYYX LFPGYYYX 211029 METAR LFPG 211029Z 12727KT 9999 FEW030 11/9 Q1022
GG LFPOYYYX LFPNYYYX 172228 METAR LFPG 172228Z 30617KT 9999 FEW030 23/5 Q1040
DD LFPYYYX LFPNYYYX 031303 METAR LFPG 031303Z 15322KT 9999 FEW030 3/15 Q1085
DD EGLLYYYX LFPNYYYX LFPOYYYX LFPGYYYX 121743 METAR LFPG 121743Z 25432KT 9999 FEW030 18/2 Q1094
GG LFPNYYYX LFPGYYYX LFPNYYYX 272058 METAR LFPG 272058Z 32917KT 9999 FEW030 15/4 Q1049
GG LFPGYYYX LFPGYYYX 091000 METAR LFPG 091000Z 27119KT 9999 FEW030 29/10 Q1081
KK LFPBYYYX LFPBYYYX LFPGYYYX 181630 METAR LFPG 181630Z 06029KT 9999 FEW030 4/7 Q1041
LL EDDFYYYX EGLLYYYX 011521 METAR LFPG 011521Z 29950KT 9999 FEW030 7/3 Q1098
GG LFPOYYYX LFPGYYYX 040911 METAR LFPG 040911Z 34230KT 9999 FEW030 10/13 Q1089
DD EGLLYYYX EDDFYYYX LFPGYYYX LFPGYYYX 070531 METAR LFPG 070531Z 12150KT 9999 FEW030 4/6 Q1041
DD EDDFYYYX LFPGYYYX 030051 METAR LFPG 030051Z 26149KT 9999 FEW030 6/5 Q1088
KK LFPBYYYX EGLLYYYX LFPGYYYX EGLLYYYX 070555 METAR LFPG 070555Z 26534KT 9999 FEW030 15/7 Q1013
FF LFPYYYX LFPBYYYX 250613 METAR LFPG 250613Z 29111KT 9999 FEW030 15/6 Q1047
LL LFPBYYYX LFPOYYYX EDDFYYYX LFPBYYYX 280632 METAR LFPG 280632Z 00211KT 9999 FEW030 9/13 Q1066
GG EGLLYYYX LFPBYYYX 082200 METAR LFPG 082200Z 21028KT 9999 FEW030 19/1 Q1033
DD LFPNYYYX LFPGYYYX 130608 METAR LFPG 130608Z 09957KT 9999 FEW030 10/10 Q1057
LL LFPOYYYX LFPOYYYX 101646 METAR LFPG 101646Z 20445KT 9999 FEW030 0/14 Q1068
LL EGLLYYYX LFPGYYYX LFPOYYYX 210244 METAR LFPG 210244Z 14333KT 9999 FEW030 3/6 Q1055
LL LFPGYYYX EDDFYYYX 101218 METAR LFPG 101218Z 29647KT 9999 FEW030 19/10 Q1047
SS LFPBYYYX LFPGYYYX LFPBYYYX 240535 METAR LFPG 240535Z 07434KT 9999 FEW030 11/3 Q1077
KK LFPGYYYX LFPGYYYX EDDFYYYX LFPGYYYX 210256 METAR LFPG 210256Z 33535KT 9999 FEW030 15/17 Q1011
LL LFPNYYYX LFPOYYYX 040535 METAR LFPG 040535Z 19314KT 9999 FEW030 28/15 Q1004
GG EDDFYYYX LFPBYYYX EGLLYYYX LFPGYYYX 040152 METAR LFPG 040152Z 26220KT 9999 FEW030 19/16 Q1020
FF LFPGYYYX EDDFYYYX 060713 METAR LFPG 060713Z 17212KT 9999 FEW030 1/16 Q1044
LL LFPOYYYX LFPBYYYX LFPNYYYX 230419 METAR LFPG 230419Z 04917KT 9999 FEW030 11/18 Q1058
LL EGLLYYYX EGLLYYYX EGLLYYYX LFPNYYYX 010633 METAR LFPG 010633Z 00341KT 9999 FEW030 29/14 Q1085
DD EDDFYYYX EDDFYYYX LFPOYYYX LFPNYYYX 261945 METAR LFPG 261945Z 01614KT 9999 FEW030 24/2 Q1015
LL EGLLYYYX LFPBYYYX LFPOYYYX 210600 METAR LFPG 210600Z 09929KT 9999 FEW030 22/9 Q1029
SS LFPNYYYX LFPNYYYX EGLLYYYX 181254 METAR LFPG 181254Z 27252KT 9999 FEW030 20/17 Q1046
GG LFPBYYYX LFPBYYYX EDDFYYYX 211836 METAR LFPG 211836Z 12745KT 9999 FEW030 15/6 Q1060
FF LFPBYYYX LFPNYYYX LFPOYYYX LFPNYYYX 270834 METAR LFPG 270834Z 12513KT 9999 FEW030 17/17 Q1010
KK LFPNYYYX EDDFYYYX LFPGYYYX 180810 METAR LFPG 180810Z 34038KT 9999 FEW030 27/7 Q1093
FF EDDFYYYX LFPGYYYX 271203 METAR LFPG 271203Z 27341KT 9999 FEW030 2/3 Q1036
KK LFPBYYYX LFPOYYYX LFPOYYYX LFPOYYYX 230419 METAR LFPG 230419Z 28937KT 9999 FEW030 1/9 Q1093
DD LFPYYYX EGLLYYYX 250305 METAR LFPG 250305Z 33543KT 9999 FEW030 22/11 Q1009
SS LFPGYYYX EDDFYYYX LFPBYYYX LFPBYYYX 211420 METAR LFPG 211420Z 17929KT 9999 FEW030 20/1 Q1019
FF LFPOYYYX LFPOYYYX EDDFYYYX LFPBYYYX 072014 METAR LFPG 072014Z 23343KT 9999 FEW030 26/1 Q1060
LL LFPGYYYX EGLLYYYX LFPOYYYX LFPBYYYX 080128 METAR LFPG 080128Z 11826KT 9999 FEW030 14/15 Q1085
SS LFPNYYYX LFPNYYYX EDDFYYYX LFPGYYYX 030422 METAR LFPG 030422Z 00131KT 9999 FEW030 21/13 Q1092
LL LFPNYYYX LFPOYYYX LFPOYYYX LFPBYYYX 011405 METAR LFPG 011405Z 15533KT 9999 FEW030 8/2 Q1076
SS LFPOYYYX LFPGYYYX LFPGYYYX LFPOYYYX 121634 METAR LFPG 121634Z 25252KT 9999 FEW030 19/18 Q1090
FF EGLLYYYX EGLLYYYX EDDFYYYX EDDFYYYX 171824 METAR LFPG 171824Z 18253KT 9999 FEW030 14/9 Q1046
LL EDDFYYYX LFPNYYYX LFPGYYYX LFPBYYYX 221226 METAR LFPG 221226Z 17625KT 9999 FEW030 20/19 Q1032
GG LFPBYYYX LFPBYYYX 220354 METAR LFPG 220354Z 26442KT 9999 FEW030 0/8 Q1045
