SS LFPYYYX LFPGYYYX EDDFYYYX LFPGYYYX 040232 METAR LFPG 040232Z 30211KT 9999 FEW030 17/6 Q1064
LL EDDFYYYX LFPOYYYX LFPBYYYX 181909 METAR LFPG 181909Z 28018KT 9999 FEW030 29/16 Q1070
FF LFPYYYX LFPOYYYX 051404 METAR LFPG 051404Z 15433KT 9999 FEW030 27/5 Q1060
FF LFPYYYX LFPGYYYX LFPNYYYX LFPOYYYX 180310 METAR LFPG 180310Z 04848KT 9999 FEW030 15/14 Q1046
GG EDDFYYYX EGLLYYYX 072047 METAR LFPG 072047Z 13735KT 9999 FEW030 27/2 Q1040
DD EGLLYYYX EDDFYYYX 050221 METAR LFPG 050221Z 23949KT 9999 FEW030 13/17 Q1020
FF EGLLYYYX LFPNYYYX LFPBYYYX EDDFYYYX 232015 METAR LFPG 232015Z 35323KT 9999 FEW030 12/14 Q1096
GG EDDFYYYX LFPNYYYX EGLLYYYX 121356 METAR LFPG 121356Z 15454KT 9999 FEW030 5/0 Q1088
LL LFPYYYX LFPNYYYX 251404 METAR LFPG 251404Z 15523KT 9999 FEW030 18/12 Q1062
GG LFPGYYYX EGLLYYYX EGLLYYYX EGLLYYYX 110127 METAR LFPG 110127Z 11756KT 9999 FEW030 24/11 Q1060
SS LFPBYYYX LFPNYYYX EGLLYYYX 212205 METAR LFPG 212205Z 16353KT 9999 FEW030 14/3 Q1059
FF LFPOYYYX LFPOYYYX EDDFYYYX 281040 METAR LFPG 281040Z 19848KT 9999 FEW030 23/3 Q1098
GG LFPOYYYX LFPOYYYX LFPNYYYX LFPOYYYX 041352 METAR LFPG 041352Z 20230KT 9999 FEW030 17/11 Q1026
SS LFPYYYX LFPOYYYX 090305 METAR LFPG 090305Z 21524KT 9999 FEW030 5/15 Q1030
FF LFPGYYYX EDDFYYYX 061925 METAR LFPG 061925Z 18444KT 9999 FEW030 8/0 Q1060
KK LFPOYYYX LFPBYYYX LFPOYYYX LFPNYYYX 182313 METAR LFPG 182313Z 16422KT 9999 FEW030 1/3 Q1092
DD LFPOYYYX LFPGYYYX EGLLYYYX LFPNYYYX 010725 METAR LFPG 010725Z 12343KT 9999 FEW030 25/1 Q1070
FF LFPYYYX LFPOYYYX EDDFYYYX 012205 METAR LFPG 012205Z 28353KT 9999 FEW030 17/0 Q1056
DD LFPNYYYX LFPBYYYX EDDFYYYX 030811 METAR LFPG 030811Z 22139KT 9999 FEW030 27/8 Q1046
KK LFPOYYYX EDDFYYYX 251444 METAR LFPG 251444Z 08213KT 9999 FEW030 13/8 Q1068
KK EDDFYYYX LFPGYYYX 150030 METAR LFPG 150030Z 18939KT 9999 FEW030 4/12 Q1023
SS LFPGYYYX LFPOYYYX LFPBYYYX LFPBYYYX 250644 METAR LFPG 250644Z 07553KT 9999 FEW030 1/0 Q1031
LL LFPOYYYX EGLLYYYX EDDFYYYX EDDFYYYX 081824 METAR LFPG 081824Z 06243KT 9999 FEW030 15/11 Q1034
FF EGLLYYYX EGLLYYYX 241456 METAR LFPG 241456Z 15435KT 9999 FEW030 29/15 Q1000
LL EDDFYYYX LFPOYYYX LFPBYYYX EDDFYYYX 182314 METAR LFPG 182314Z 04432KT 9999 FEW030 21/8 Q1065
FF LFPOYYYX LFPOYYYX EDDFYYYX 050633 METAR LFPG 050633Z 12311KT 9999 FEW030 22/14 Q1073
DD LFPOYYYX LFPGYYYX EDDFYYYX 130721 METAR LFPG 130721Z 29139KT 9999 FEW030 23/4 Q1091
GG LFPYYYX EGLLYYYX LFPNYYYX LFPGYYYX 200608 METAR LFPG 200608Z 33847KT 9999 FEW030 15/11 Q1012
FF LFPNYYYX LFPBYYYX EDDFYYYX 130737 METAR LFPG 130737Z 19535KT 9999 FEW030 26/8 Q1018
LL LFPOYYYX LFPGYYYX EDDFYYYX 131837 METAR LFPG 131837Z 01555KT 9999 FEW030 9/3 Q1011
FF LFPNYYYX LFPOYYYX 262329 METAR LFPG 262329Z 18758KT 9999 FEW030 5/17 Q1013
KK LFPYYYX EGLLYYYX 080923 METAR LFPG 080923Z 05412KT 9999 FEW030 4/5 Q1006
FF LFPOYYYX EDDFYYYX LFPBYYYX 220002 METAR LFPG 220002Z 09211KT 9999 FEW030 25/15 Q1067
LL EGLLYYYX LFPBYYYX LFPGYYYX 090221 METAR LFPG 090221Z 23919KT 9999 FEW030 26/18 Q1015
DD LFPNYYYX LFPOYYYX LFPBYYYX 110410 METAR LFPG 110410Z 04959KT 9999 FEW030 29/9 Q1083
GG LFPGYYYX LFPOYYYX EDDFYYYX LFPNYYYX 121340 METAR LFPG 121340Z 13038KT 9999 FEW030 2/1 Q1064
LL LFPBYYYX LFPNYYYX EGLLYYYX 071214 METAR LFPG 071214Z 10523KT 9999 FEW030 12/10 Q1072
SS EDDFYYYX LFPOYYYX 020354 METAR LFPG 020354Z 14452KT 9999 FEW030 3/3 Q1065
GG LFPBYYYX LFPGYYYX LFPNYYYX EGLLYYYX 281836 METAR LFPG 281836Z 13455KT 9999 FEW030 28/17 Q1096
SS LFPGYYYX LFPNYYYX 121712 METAR LFPG 121712Z 35050KT 9999 FEW030 8/13 Q1060
SS EDDFYYYX LFPBYYYX LFPGYYYX EGLLYYYX 010208 METAR LFPG 010208Z 28747KT 9999 FEW030 17/4 Q1069
KK LFPOYYYX LFPGYYYX LFPBYYYX LFPGYYYX 241444 METAR LFPG 241444Z 32232KT 9999 FEW030 27/1 Q1048
DD LFPOYYYX LFPNYYYX 230406 METAR LFPG 230406Z 33715KT 9999 FEW030 24/5 Q1057
KK LFPNYYYX LFPOYYYX LFPOYYYX 032046 METAR LFPG 032046Z 13745KT 9999 FEW030 17/3 Q1041
DD LFPYYYX LFPOYYYX LFPGYYYX EDDFYYYX 201743 METAR LFPG 201743Z 01442KT 9999 FEW030 26/0 Q1036
FF EGLLYYYX LFPGYYYX EGLLYYYX LFPOYYYX 271610 METAR LFPG 271610Z 10849KT 9999 FEW030 5/7 Q1007
KK LFPGYYYX LFPNYYYX LFPNYYYX LFPGYYYX 102329 METAR LFPG 102329Z 30818KT 9999 FEW030 29/4 Q1016
FF LFPYYYX EGLLYYYX LFPNYYYX 012237 METAR LFPG 012237Z 06725KT 9999 FEW030 11/13 Q1058
FF LFPOYYYX EGLLYYYX EGLLYYYX EGLLYYYX 122148 METAR LFPG 122148Z 25826KT 9999 FEW030 4/18 Q1083
SS LFPBYYYX EGLLYYYX 072147 METAR LFPG 072147Z 25716KT 9999 FEW030 8/15 Q1040
DD LFPNYYYX LFPGYYYX LFPOYYYX EDDFYYYX 131025 METAR LFPG 131025Z 29533KT 9999 FEW030 28/0 Q1002
SS EDDFYYYX LFPNYYYX 121351 METAR LFPG 121351Z 32250KT 9999 FEW030 7/12 Q1052
LL LFPBYYYX EGLLYYYX LFPNYYYX 040600 METAR LFPG 040600Z 33829KT 9999 FEW030 29/17 Q1092
GG LFPYYYX LFPNYYYX 251040 METAR LFPG 251040Z 07859KT 9999 FEW030 21/2 Q1044
LL LFPYYYX EDDFYYYX LFPOYYYX 131037 METAR LFPG 131037Z 00755KT 9999 FEW030 14/12 Q1067
KK EDDFYYYX LFPNYYYX 091824 METAR LFPG 091824Z 18253KT 9999 FEW030 22/5 Q1000
FF LFPYYYX LFPNYYYX 220422 METAR LFPG 220422Z 12031KT 9999 FEW030 24/14 Q1045
KK LFPGYYYX LFPGYYYX EDDFYYYX 061658 METAR LFPG 061658Z 03616KT 9999 FEW030 13/15 Q1052
LL LFPYYYX LFPOYYYX LFPOYYYX LFPOYYYX 140721 METAR LFPG 140721Z 17250KT 9999 FEW030 11/15 Q1073
KK EGLLYYYX EGLLYYYX EGLLYYYX EDDFYYYX 230851 METAR LFPG 230851Z 26159KT 9999 FEW030 15/13 Q1009
FF LFPYYYX EGLLYYYX 251409 METAR LFPG 251409Z 10727KT 9999 FEW030 15/7 Q1070
DD LFPNYYYX EDDFYYYX EDDFYYYX LFPBYYYX 181606 METAR LFPG 181606Z 15624KT 9999 FEW030 17/1 Q1058
KK EGLLYYYX LFPOYYYX LFPOYYYX 080151 METAR LFPG 080151Z 02130KT 9999 FEW030 14/5 Q1087
SS LFPGYYYX EGLLYYYX 101522 METAR LFPG 101522Z 30040KT 9999 FEW030 28/15 Q1010
SS LFPNYYYX LFPOYYYX LFPOYYYX LFPGYYYX 281052 METAR LFPG 281052Z 15011KT 9999 FEW030 10/2 Q1094
SS LFPNYYYX LFPGYYYX 132213 METAR LFPG 132213Z 04311KT 9999 FEW030 5/12 Q1013
KK EGLLYYYX LFPNYYYX EGLLYYYX EGLLYYYX 241812 METAR LFPG 241812Z 11041KT 9999 FEW030 17/19 Q1077
FF EGLLYYYX LFPGYYYX LFPGYYYX LFPBYYYX 281719 METAR LFPG 281719Z 35058KT 9999 FEW030 29/11 Q1046
SS LFPGYYYX LFPOYYYX LFPOYYYX EDDFYYYX 071643 METAR LFPG 071643Z 01311KT 9999 FEW030 27/8 Q1025
FF LFPOYYYX LFPNYYYX 141921 METAR LFPG 141921Z 23150KT 9999 FEW030 18/3 Q1016
SS LFPOYYYX LFPOYYYX 221934 METAR LFPG 221934Z 30442KT 9999 FEW030 5/3 Q1082
FF LFPOYYYX EGLLYYYX LFPOYYYX EGLLYYYX 071307 METAR LFPG 071307Z 22516KT 9999 FEW030 28/16 Q1067
SS LFPYYYX EGLLYYYX 221921 METAR LFPG 221921Z 23210KT 9999 FEW030 17/12 Q1069
SS LFPGYYYX LFPBYYYX LFPOYYYX EGLLYYYX 200952 METAR LFPG 200952Z 27030KT 9999 FEW030 0/6 Q1094
SS LFPBYYYX EGLLYYYX LFPBYYYX EGLLYYYX 221946 METAR LFPG 221946Z 13624KT 9999 FEW030 28/4 Q1076
FF EDDFYYYX EGLLYYYX LFPOYYYX LFPBYYYX 240256 METAR LFPG 240256Z 33414KT 9999 FEW030 21/0 Q1096
LL LFPNYYYX LFPNYYYX EDDFYYYX LFPGYYYX 152058 METAR LFPG 152058Z 32947KT 9999 FEW030 28/14 Q1019
DD LFPNYYYX LFPBYYYX LFPGYYYX 280903 METAR LFPG 280903Z 34242KT 9999 FEW030 16/4 Q1061
FF LFPNYYYX LFPNYYYX LFPNYYYX LFPGYYYX 131800 METAR LFPG 131800Z 03839KT 9999 FEW030 25/6 Q1019
LL LFPYYYX LFPGYYYX EDDFYYYX LFPBYYYX 201428 METAR LFPG 201428Z 17857KT 9999 FEW030 27/10 Q1076
DD LFPYYYX EGLLYYYX LFPNYYYX 100750 METAR LFPG 100750Z 26828KT 9999 FEW030 1/12 Q1086
FF LFPNYYYX LFPNYYYX 150055 METAR LFPG 150055Z 21353KT 9999 FEW030 11/8 Q1051
SS EGLLYYYX LFPNYYYX EGLLYYYX EGLLYYYX 080512 METAR LFPG 080512Z 05010KT 9999 FEW030 10/1 Q1003
FF LFPGYYYX LFPOYYYX EDDFYYYX 041328 METAR LFPG 041328Z 17826KT 9999 FEW030 1/1 Q1096
LL LFPOYYYX LFPGYYYX EGLLYYYX LFPGYYYX 060410 METAR LFPG 060410Z 16819KT 9999 FEW030 26/10 Q1069
DD LFPOYYYX LFPGYYYX LFPOYYYX EDDFYYYX 232038 METAR LFPG 232038Z 00957KT 9999 FEW030 28/17 Q1043
LL LFPNYYYX EDDFYYYX LFPNYYYX 012213 METAR LFPG 012213Z 28351KT 9999 FEW030 7/0 Q1060
FF LFPGYYYX LFPNYYYX LFPBYYYX 160924 METAR LFPG 160924Z 17452KT 9999 FEW030 1/18 Q1052
DD LFPOYYYX LFPGYYYX LFPOYYYX 151307 METAR LFPG 151307Z 34515KT 9999 FEW030 26/18 Q1098
DD LFPGYYYX LFPNYYYX 270143 METAR LFPG 270143Z 14112KT 9999 FEW030 15/2 Q1064
FF LFPBYYYX LFPGYYYX LFPBYYYX LFPOYYYX 281040 METAR LFPG 281040Z 31848KT 9999 FEW030 16/18 Q1084
KK EDDFYYYX EDDFYYYX 221105 METAR LFPG 221105Z 10414KT 9999 FEW030 24/2 Q1077
DD LFPYYYX LFPBYYYX LFPOYYYX LFPBYYYX 231203 METAR LFPG 231203Z 15351KT 9999 FEW030 26/11 Q1063
LL LFPOYYYX LFPGYYYX EDDFYYYX 201004 METAR LFPG 201004Z 22222KT 9999 FEW030 10/5 Q1067
SS LFPBYYYX LFPOYYYX 131036 METAR LFPG 131036Z 00715KT 9999 FEW030 17/10 Q1049
KK LFPBYYYX EDDFYYYX LFPNYYYX 231203 METAR LFPG 231203Z 27351KT 9999 FEW030 26/1 Q1031
KK LFPNYYYX LFPOYYYX LFPOYYYX 140458 METAR LFPG 140458Z 09647KT 9999 FEW030 3/15 Q1029
LL LFPGYYYX EGLLYYYX 160904 METAR LFPG 160904Z 10222KT 9999 FEW030 13/14 Q1006
LL LFPYYYX EDDFYYYX EGLLYYYX LFPOYYYX 040500 METAR LFPG 040500Z 21828KT 9999 FEW030 22/6 Q1059
LL LFPOYYYX LFPBYYYX LFPGYYYX LFPNYYYX 060434 METAR LFPG 060434Z 07233KT 9999 FEW030 1/2 Q1063
KK LFPGYYYX LFPNYYYX 250233 METAR LFPG 250233Z 31151KT 9999 FEW030 12/6 Q1095
LL LFPOYYYX LFPOYYYX LFPBYYYX 190407 METAR LFPG 190407Z 33745KT 9999 FEW030 20/13 Q1014
FF EDDFYYYX LFPNYYYX LFPOYYYX 042100 METAR LFPG 042100Z 09030KT 9999 FEW030 18/0 Q1066
GG EGLLYYYX LFPNYYYX LFPNYYYX EGLLYYYX 172253 METAR LFPG 172253Z 09121KT 9999 FEW030 1/4 Q1050
GG LFPGYYYX EDDFYYYX LFPGYYYX 162116 METAR LFPG 162116Z 23424KT 9999 FEW030 29/5 Q1061
SS EDDFYYYX EGLLYYYX LFPBYYYX LFPBYYYX 171833 METAR LFPG 171833Z 30331KT 9999 FEW030 20/10 Q1039
FF LFPOYYYX LFPNYYYX 151203 METAR LFPG 151203Z 15321KT 9999 FEW030 3/9 Q1063
DD LFPYYYX LFPNYYYX LFPOYYYX EGLLYYYX 141129 METAR LFPG 141129Z 00848KT 9999 FEW030 12/2 Q1068
GG LFPGYYYX LFPBYYYX LFPNYYYX EGLLYYYX 101937 METAR LFPG 101937Z 24746KT 9999 FEW030 24/17 Q1003
KK LFPYYYX EDDFYYYX LFPOYYYX LFPBYYYX 010357 METAR LFPG 010357Z 33545KT 9999 FEW030 26/19 Q1083
LL EGLLYYYX LFPOYYYX 221642 METAR LFPG 221642Z 13220KT 9999 FEW030 16/1 Q1072
SS LFPBYYYX LFPBYYYX LFPNYYYX EGLLYYYX 030725 METAR LFPG 030725Z 24344KT 9999 FEW030 11/18 Q1073
LL LFPBYYYX LFPGYYYX EGLLYYYX 220333 METAR LFPG 220333Z 31252KT 9999 FEW030 24/19 Q1088
FF LFPNYYYX LFPOYYYX 121712 METAR LFPG 121712Z 35050KT 9999 FEW030 14/19 Q1068
KK EDDFYYYX LFPGYYYX LFPNYYYX LFPNYYYX 071654 METAR LFPG 071654Z 20545KT 9999 FEW030 2/9 Q1008
DD LFPOYYYX EDDFYYYX EDDFYYYX 120648 METAR LFPG 120648Z 02627KT 9999 FEW030 8/12 Q1048
KK EDDFYYYX LFPNYYYX 111619 METAR LFPG 111619Z 22917KT 9999 FEW030 13/6 Q1077
KK LFPOYYYX LFPNYYYX LFPNYYYX EDDFYYYX 202123 METAR LFPG 202123Z 35434KT 9999 FEW030 0/9 Q1082
DD LFPOYYYX LFPOYYYX EGLLYYYX LFPGYYYX 160924 METAR LFPG 160924Z 05422KT 9999 FEW030 5/16 Q1099
LL LFPYYYX EDDFYYYX LFPOYYYX EDDFYYYX 180002 METAR LFPG 180002Z 33210KT 9999 FEW030 25/1 Q1089
KK LFPOYYYX EDDFYYYX EDDFYYYX LFPGYYYX 190043 METAR LFPG 190043Z 26141KT 9999 FEW030 19/17 Q1010
LL EGLLYYYX EDDFYYYX LFPOYYYX LFPBYYYX 051141 METAR LFPG 051141Z 19950KT 9999 FEW030 0/10 Q1083
FF LFPNYYYX EDDFYYYX EGLLYYYX LFPBYYYX 032135 METAR LFPG 032135Z 30525KT 9999 FEW030 20/1 Q1076
DD LFPGYYYX LFPNYYYX 260810 METAR LFPG 260810Z 34039KT 9999 FEW030 8/17 Q1061
FF EDDFYYYX EGLLYYYX LFPGYYYX 261506 METAR LFPG 261506Z 15644KT 9999 FEW030 16/11 Q1018
KK EGLLYYYX LFPGYYYX 130317 METAR LFPG 130317Z 28736KT 9999 FEW030 2/10 Q1002
SS LFPGYYYX LFPNYYYX LFPGYYYX EDDFYYYX 231755 METAR LFPG 231755Z 20524KT 9999 FEW030 22/0 Q1060
DD EDDFYYYX LFPBYYYX LFPOYYYX 180306 METAR LFPG 180306Z 21634KT 9999 FEW030 7/13 Q1052
DD LFPOYYYX EDDFYYYX EGLLYYYX LFPGYYYX 191239 METAR LFPG 191239Z 12947KT 9999 FEW030 23/7 Q1087
FF LFPBYYYX EGLLYYYX LFPNYYYX 102338 METAR LFPG 102338Z 30856KT 9999 FEW030 4/12 Q1075
GG EGLLYYYX EGLLYYYX 090357 METAR LFPG 090357Z 33535KT 9999 FEW030 6/15 Q1029
KK LFPYYYX LFPOYYYX 041732 METAR LFPG 041732Z 30240KT 9999 FEW030 15/17 Q1037
GG LFPGYYYX LFPGYYYX LFPGYYYX LFPGYYYX 080959 METAR LFPG 080959Z 15038KT 9999 FEW030 17/19 Q1006
LL LFPOYYYX LFPBYYYX EDDFYYYX 240548 METAR LFPG 240548Z 26616KT 9999 FEW030 18/6 Q1004
LL LFPYYYX LFPNYYYX LFPBYYYX LFPOYYYX 192059 METAR LFPG 192059Z 32917KT 9999 FEW030 3/16 Q1010
GG LFPYYYX LFPNYYYX 031219 METAR LFPG 031219Z 17737KT 9999 FEW030 6/11 Q1055
KK LFPYYYX EDDFYYYX LFPNYYYX LFPOYYYX 252353 METAR LFPG 252353Z 09152KT 9999 FEW030 23/19 Q1089
SS LFPYYYX LFPBYYYX EDDFYYYX 120648 METAR LFPG 120648Z 14617KT 9999 FEW030 0/5 Q1092
DD LFPOYYYX EGLLYYYX LFPGYYYX LFPNYYYX 190911 METAR LFPG 190911Z 34159KT 9999 FEW030 27/2 Q1001
GG LFPBYYYX EGLLYYYX LFPBYYYX LFPGYYYX 160952 METAR LFPG 160952Z 15030KT 9999 FEW030 21/8 Q1051
DD EGLLYYYX LFPGYYYX LFPNYYYX LFPGYYYX 211037 METAR LFPG 211037Z 00725KT 9999 FEW030 10/13 Q1093
LL LFPBYYYX LFPGYYYX LFPNYYYX LFPNYYYX 031711 METAR LFPG 031711Z 22950KT 9999 FEW030 27/9 Q1086
DD LFPYYYX LFPNYYYX EDDFYYYX 191723 METAR LFPG 191723Z 30112KT 9999 FEW030 21/16 Q1070
LL LFPGYYYX EGLLYYYX LFPNYYYX 140701 METAR LFPG 140701Z 10040KT 9999 FEW030 4/3 Q1056
LL LFPBYYYX EGLLYYYX LFPGYYYX 201308 METAR LFPG 201308Z 10616KT 9999 FEW030 23/16 Q1096
FF LFPYYYX EDDFYYYX 190823 METAR LFPG 190823Z 29311KT 9999 FEW030 13/8 Q1080
LL EGLLYYYX LFPBYYYX 150535 METAR LFPG 150535Z 19343KT 9999 FEW030 7/16 Q1013
FF EGLLYYYX EDDFYYYX LFPBYYYX LFPBYYYX 211409 METAR LFPG 211409Z 22717KT 9999 FEW030 15/16 Q1063
SS LFPNYYYX LFPOYYYX 101141 METAR LFPG 101141Z 32010KT 9999 FEW030 1/3 Q1037
KK EDDFYYYX EGLLYYYX EGLLYYYX LFPNYYYX 160947 METAR LFPG 160947Z 19836KT 9999 FEW030 11/19 Q1030
DD LFPGYYYX LFPGYYYX 132212 METAR LFPG 132212Z 28341KT 9999 FEW030 10/8 Q1054
SS LFPBYYYX LFPOYYYX 150430 METAR LFPG 150430Z 00119KT 9999 FEW030 11/8 Q1039
LL LFPYYYX EGLLYYYX LFPNYYYX 131037 METAR LFPG 131037Z 00755KT 9999 FEW030 0/8 Q1023
KK LFPYYYX LFPGYYYX LFPGYYYX 191303 METAR LFPG 191303Z 27312KT 9999 FEW030 1/13 Q1093
FF EGLLYYYX LFPNYYYX LFPGYYYX LFPGYYYX 051420 METAR LFPG 051420Z 17829KT 9999 FEW030 8/10 Q1011
KK LFPOYYYX LFPGYYYX EGLLYYYX LFPNYYYX 152159 METAR LFPG 152159Z 20938KT 9999 FEW030 14/8 Q1023
KK LFPOYYYX LFPOYYYX 111711 METAR LFPG 111711Z 34940KT 9999 FEW030 16/8 Q1062
DD LFPGYYYX EGLLYYYX LFPNYYYX LFPGYYYX 201707 METAR LFPG 201707Z 15846KT 9999 FEW030 17/19 Q1007
LL LFPOYYYX LFPBYYYX EDDFYYYX 220345 METAR LFPG 220345Z 02414KT 9999 FEW030 29/17 Q1076
SS LFPYYYX EDDFYYYX EGLLYYYX 280240 METAR LFPG 280240Z 19028KT 9999 FEW030 6/11 Q1072
DD LFPGYYYX LFPOYYYX LFPNYYYX LFPOYYYX 260701 METAR LFPG 260701Z 22050KT 9999 FEW030 10/18 Q1000
LL LFPGYYYX LFPNYYYX LFPOYYYX LFPNYYYX 100309 METAR LFPG 100309Z 28858KT 9999 FEW030 23/3 Q1030
FF EDDFYYYX EGLLYYYX EDDFYYYX EGLLYYYX 160208 METAR LFPG 160208Z 04637KT 9999 FEW030 4/14 Q1011
LL LFPYYYX EGLLYYYX LFPNYYYX LFPNYYYX 141153 METAR LFPG 141153Z 03222KT 9999 FEW030 24/5 Q1045
SS LFPNYYYX EGLLYYYX 200244 METAR LFPG 200244Z 02213KT 9999 FEW030 27/4 Q1072
KK LFPBYYYX LFPGYYYX 100018 METAR LFPG 100018Z 11627KT 9999 FEW030 13/17 Q1069
SS EGLLYYYX LFPGYYYX LFPBYYYX 200523 METAR LFPG 200523Z 00112KT 9999 FEW030 23/10 Q1067
FF LFPNYYYX EGLLYYYX EDDFYYYX 152003 METAR LFPG 152003Z 16111KT 9999 FEW030 15/15 Q1074
KK LFPGYYYX LFPBYYYX EDDFYYYX 281308 METAR LFPG 281308Z 22656KT 9999 FEW030 24/15 Q1029
KK EDDFYYYX LFPNYYYX LFPNYYYX EGLLYYYX 131429 METAR LFPG 131429Z 17947KT 9999 FEW030 20/0 Q1002
SS LFPBYYYX LFPOYYYX LFPOYYYX 112038 METAR LFPG 112038Z 13717KT 9999 FEW030 12/16 Q1069
LL LFPBYYYX LFPBYYYX LFPBYYYX 190823 METAR LFPG 190823Z 17321KT 9999 FEW030 1/11 Q1012
SS LFPGYYYX LFPNYYYX 130229 METAR LFPG 130229Z 35957KT 9999 FEW030 19/16 Q1056
DD LFPBYYYX EGLLYYYX 280144 METAR LFPG 280144Z 14252KT 9999 FEW030 17/0 Q1066
LL LFPGYYYX EDDFYYYX LFPOYYYX LFPGYYYX 120535 METAR LFPG 120535Z 19444KT 9999 FEW030 21/19 Q1053
FF LFPNYYYX LFPNYYYX EDDFYYYX 071631 METAR LFPG 071631Z 18149KT 9999 FEW030 21/18 Q1002
DD LFPGYYYX LFPOYYYX LFPOYYYX 030115 METAR LFPG 030115Z 04534KT 9999 FEW030 9/15 Q1003
DD EGLLYYYX LFPBYYYX LFPGYYYX LFPOYYYX 261914 METAR LFPG 261914Z 11252KT 9999 FEW030 28/17 Q1037
SS EGLLYYYX EDDFYYYX EDDFYYYX 030422 METAR LFPG 030422Z 24151KT 9999 FEW030 12/7 Q1039
FF LFPOYYYX LFPOYYYX EGLLYYYX 250321 METAR LFPG 250321Z 23950KT 9999 FEW030 15/4 Q1079
LL LFPNYYYX LFPOYYYX LFPBYYYX 260329 METAR LFPG 260329Z 12038KT 9999 FEW030 6/14 Q1053
DD LFPNYYYX LFPOYYYX 171053 METAR LFPG 171053Z 03121KT 9999 FEW030 11/18 Q1060
DD LFPOYYYX LFPOYYYX LFPNYYYX 240220 METAR LFPG 240220Z 35839KT 9999 FEW030 13/10 Q1095
GG LFPBYYYX LFPNYYYX LFPGYYYX LFPBYYYX 040115 METAR LFPG 040115Z 04614KT 9999 FEW030 13/5 Q1086
SS EDDFYYYX LFPOYYYX 030139 METAR LFPG 030139Z 18918KT 9999 FEW030 19/9 Q1007
LL EGLLYYYX EGLLYYYX 181610 METAR LFPG 181610Z 10858KT 9999 FEW030 2/6 Q1061
DD EDDFYYYX LFPNYYYX 281800 METAR LFPG 281800Z 27849KT 9999 FEW030 5/15 Q1075
LL EGLLYYYX LFPBYYYX 041700 METAR LFPG 041700Z 27818KT 9999 FEW030 9/6 Q1049
FF EGLLYYYX LFPGYYYX 210649 METAR LFPG 210649Z 02747KT 9999 FEW030 11/6 Q1014
GG EDDFYYYX LFPOYYYX 220353 METAR LFPG 220353Z 02442KT 9999 FEW030 20/17 Q1007
GG LFPBYYYX LFPGYYYX LFPBYYYX LFPNYYYX 160155 METAR LFPG 160155Z 08634KT 9999 FEW030 4/8 Q1042
GG LFPOYYYX LFPGYYYX LFPGYYYX LFPOYYYX 100454 METAR LFPG 100454Z 26432KT 9999 FEW030 7/2 Q1016
DD LFPNYYYX LFPNYYYX 150815 METAR LFPG 150815Z 05313KT 9999 FEW030 10/5 Q1039
LL LFPOYYYX LFPOYYYX 171913 METAR LFPG 171913Z 23122KT 9999 FEW030 13/12 Q1090
LL EDDFYYYX LFPBYYYX LFPOYYYX LFPOYYYX 181521 METAR LFPG 181521Z 06030KT 9999 FEW030 4/6 Q1061
LL LFPBYYYX EDDFYYYX 200648 METAR LFPG 200648Z 02647KT 9999 FEW030 13/6 Q1034
FF EGLLYYYX LFPNYYYX LFPOYYYX 222354 METAR LFPG 222354Z 33212KT 9999 FEW030 23/4 Q1004
KK LFPNYYYX LFPBYYYX 061142 METAR LFPG 061142Z 20030KT 9999 FEW030 24/10 Q1008
GG LFPNYYYX EGLLYYYX LFPOYYYX 152046 METAR LFPG 152046Z 01755KT 9999 FEW030 3/15 Q1088
FF LFPNYYYX LFPGYYYX 141957 METAR LFPG 141957Z 08846KT 9999 FEW030 18/13 Q1006
FF LFPOYYYX LFPOYYYX 240151 METAR LFPG 240151Z 14240KT 9999 FEW030 25/2 Q1036
FF LFPGYYYX LFPOYYYX EDDFYYYX LFPGYYYX 152023 METAR LFPG 152023Z 23321KT 9999 FEW030 9/3 Q1049
LL LFPGYYYX LFPOYYYX LFPOYYYX LFPGYYYX 052228 METAR LFPG 052228Z 18717KT 9999 FEW030 27/11 Q1001
SS LFPGYYYX EGLLYYYX LFPNYYYX LFPNYYYX 060701 METAR LFPG 060701Z 21920KT 9999 FEW030 4/3 Q1024
SS LFPBYYYX EGLLYYYX LFPNYYYX 081800 METAR LFPG 081800Z 27849KT 9999 FEW030 15/3 Q1024
FF LFPOYYYX LFPNYYYX LFPGYYYX 101238 METAR LFPG 101238Z 00816KT 9999 FEW030 28/11 Q1007
FF EDDFYYYX LFPGYYYX 261945 METAR LFPG 261945Z 25654KT 9999 FEW030 10/4 Q1007
DD EDDFYYYX LFPGYYYX 062305 METAR LFPG 062305Z 16434KT 9999 FEW030 12/15 Q1005
KK LFPGYYYX LFPBYYYX LFPNYYYX LFPNYYYX 051012 METAR LFPG 051012Z 34231KT 9999 FEW030 23/6 Q1004
KK LFPNYYYX EGLLYYYX EDDFYYYX LFPBYYYX 060733 METAR LFPG 060733Z 00432KT 9999 FEW030 27/19 Q1012
GG LFPNYYYX EDDFYYYX EGLLYYYX EDDFYYYX 241356 METAR LFPG 241356Z 03434KT 9999 FEW030 2/19 Q1072
LL LFPYYYX LFPGYYYX 030442 METAR LFPG 030442Z 07231KT 9999 FEW030 23/13 Q1004
GG LFPNYYYX LFPOYYYX LFPBYYYX LFPGYYYX 140722 METAR LFPG 140722Z 05240KT 9999 FEW030 15/2 Q1061
SS EDDFYYYX LFPNYYYX 120924 METAR LFPG 120924Z 17422KT 9999 FEW030 21/19 Q1069
KK LFPBYYYX LFPBYYYX 192103 METAR LFPG 192103Z 28122KT 9999 FEW030 13/9 Q1015
LL LFPBYYYX LFPGYYYX EDDFYYYX 131445 METAR LFPG 131445Z 08353KT 9999 FEW030 7/8 Q1092
SS LFPGYYYX LFPNYYYX LFPNYYYX 230455 METAR LFPG 230455Z 26523KT 9999 FEW030 22/9 Q1064
FF LFPOYYYX LFPNYYYX LFPGYYYX 192039 METAR LFPG 192039Z 25717KT 9999 FEW030 18/5 Q1059
SS LFPOYYYX LFPGYYYX EDDFYYYX 241820 METAR LFPG 241820Z 11018KT 9999 FEW030 4/8 Q1076
KK LFPOYYYX EGLLYYYX EGLLYYYX LFPGYYYX 111327 METAR LFPG 111327Z 17755KT 9999 FEW030 23/11 Q1006
SS LFPOYYYX EGLLYYYX LFPGYYYX LFPBYYYX 221230 METAR LFPG 221230Z 24839KT 9999 FEW030 9/5 Q1092
SS LFPYYYX LFPGYYYX LFPGYYYX 190042 METAR LFPG 190042Z 14151KT 9999 FEW030 26/2 Q1021
GG LFPBYYYX EGLLYYYX LFPBYYYX 021533 METAR LFPG 021533Z 13222KT 9999 FEW030 29/5 Q1067
DD LFPYYYX LFPNYYYX EDDFYYYX EGLLYYYX 151355 METAR LFPG 151355Z 14554KT 9999 FEW030 25/8 Q1097
KK LFPNYYYX EGLLYYYX LFPOYYYX LFPBYYYX 240936 METAR LFPG 240936Z 12614KT 9999 FEW030 19/0 Q1077
GG EGLLYYYX LFPOYYYX 011149 METAR LFPG 011149Z 31938KT 9999 FEW030 6/10 Q1010
SS LFPBYYYX LFPBYYYX 250701 METAR LFPG 250701Z 21950KT 9999 FEW030 9/3 Q1067
SS LFPNYYYX EGLLYYYX 080155 METAR LFPG 080155Z 21454KT 9999 FEW030 8/11 Q1049
FF LFPNYYYX LFPNYYYX LFPGYYYX 012353 METAR LFPG 012353Z 21122KT 9999 FEW030 10/0 Q1066
LL LFPNYYYX EDDFYYYX LFPNYYYX 030003 METAR LFPG 030003Z 21311KT 9999 FEW030 24/1 Q1044
FF LFPBYYYX EGLLYYYX LFPOYYYX 161759 METAR LFPG 161759Z 03028KT 9999 FEW030 3/17 Q1079
SS LFPGYYYX LFPBYYYX LFPNYYYX 180802 METAR LFPG 180802Z 10031KT 9999 FEW030 18/11 Q1042
LL EGLLYYYX EGLLYYYX EDDFYYYX EDDFYYYX 081755 METAR LFPG 081755Z 20546KT 9999 FEW030 16/19 Q1008
SS LFPGYYYX LFPGYYYX LFPBYYYX LFPNYYYX 211420 METAR LFPG 211420Z 05819KT 9999 FEW030 23/10 Q1024
DD LFPGYYYX LFPBYYYX 070511 METAR LFPG 070511Z 16920KT 9999 FEW030 26/17 Q1052
FF EDDFYYYX EDDFYYYX 081700 METAR LFPG 081700Z 03838KT 9999 FEW030 20/19 Q1067
DD EGLLYYYX EDDFYYYX LFPOYYYX 150042 METAR LFPG 150042Z 02121KT 9999 FEW030 15/10 Q1081
KK EGLLYYYX EGLLYYYX 171125 METAR LFPG 171125Z 05514KT 9999 FEW030 2/5 Q1092
LL EGLLYYYX EGLLYYYX LFPGYYYX 171845 METAR LFPG 171845Z 01543KT 9999 FEW030 4/9 Q1094
GG LFPOYYYX EDDFYYYX 120940 METAR LFPG 120940Z 19828KT 9999 FEW030 4/1 Q1042
DD LFPYYYX LFPNYYYX LFPGYYYX 121024 METAR LFPG 121024Z 29433KT 9999 FEW030 0/5 Q1035
KK EDDFYYYX LFPGYYYX EGLLYYYX LFPBYYYX 062317 METAR LFPG 062317Z 23536KT 9999 FEW030 6/10 Q1025
KK LFPNYYYX LFPNYYYX EDDFYYYX 022338 METAR LFPG 022338Z 06816KT 9999 FEW030 1/6 Q1053
KK LFPGYYYX LFPGYYYX 060341 METAR LFPG 060341Z 31242KT 9999 FEW030 9/18 Q1015
KK LFPOYYYX EDDFYYYX LFPBYYYX EDDFYYYX 142338 METAR LFPG 142338Z 06848KT 9999 FEW030 18/19 Q1044
KK LFPYYYX EGLLYYYX EGLLYYYX 100826 METAR LFPG 100826Z 24455KT 9999 FEW030 19/1 Q1047
SS LFPOYYYX LFPNYYYX LFPGYYYX EGLLYYYX 080531 METAR LFPG 080531Z 12230KT 9999 FEW030 29/9 Q1075
DD EGLLYYYX LFPOYYYX LFPOYYYX 101610 METAR LFPG 101610Z 10818KT 9999 FEW030 19/1 Q1036
GG LFPGYYYX LFPGYYYX 040936 METAR LFPG 040936Z 12624KT 9999 FEW030 20/17 Q1011
KK LFPNYYYX LFPOYYYX LFPGYYYX LFPOYYYX 262330 METAR LFPG 262330Z 06828KT 9999 FEW030 26/1 Q1014
GG LFPYYYX EGLLYYYX 160232 METAR LFPG 160232Z 07050KT 9999 FEW030 11/4 Q1072
KK EGLLYYYX LFPNYYYX LFPBYYYX 240523 METAR LFPG 240523Z 00252KT 9999 FEW030 7/3 Q1026
DD LFPNYYYX LFPOYYYX LFPOYYYX 050233 METAR LFPG 050233Z 31141KT 9999 FEW030 28/0 Q1063
LL LFPNYYYX LFPBYYYX EDDFYYYX EDDFYYYX 062341 METAR LFPG 062341Z 14040KT 9999 FEW030 20/19 Q1068
DD LFPYYYX EDDFYYYX LFPOYYYX 272139 METAR LFPG 272139Z 13758KT 9999 FEW030 22/1 Q1042
LL LFPYYYX LFPGYYYX LFPOYYYX LFPGYYYX 020341 METAR LFPG 020341Z 31210KT 9999 FEW030 29/2 Q1086
KK LFPYYYX LFPOYYYX 100318 METAR LFPG 100318Z 04846KT 9999 FEW030 17/14 Q1068
GG EDDFYYYX LFPBYYYX LFPBYYYX LFPNYYYX 231202 METAR LFPG 231202Z 27351KT 9999 FEW030 15/6 Q1071
SS LFPNYYYX LFPGYYYX EGLLYYYX 090221 METAR LFPG 090221Z 35959KT 9999 FEW030 8/15 Q1053
FF LFPYYYX EDDFYYYX LFPNYYYX 171053 METAR LFPG 171053Z 03151KT 9999 FEW030 22/9 Q1041
GG EGLLYYYX LFPNYYYX LFPNYYYX 242140 METAR LFPG 242140Z 25818KT 9999 FEW030 21/13 Q1079
KK LFPGYYYX LFPOYYYX EDDFYYYX LFPBYYYX 211925 METAR LFPG 211925Z 06313KT 9999 FEW030 11/0 Q1005
KK LFPBYYYX EGLLYYYX 280600 METAR LFPG 280600Z 21839KT 9999 FEW030 29/15 Q1004
KK LFPBYYYX LFPGYYYX LFPNYYYX LFPGYYYX 281848 METAR LFPG 281848Z 20657KT 9999 FEW030 21/0 Q1031
SS LFPBYYYX LFPBYYYX 011509 METAR LFPG 011509Z 22718KT 9999 FEW030 25/9 Q1099
DD EGLLYYYX LFPNYYYX 071630 METAR LFPG 071630Z 18159KT 9999 FEW030 21/18 Q1028
GG LFPYYYX LFPOYYYX LFPBYYYX 041328 METAR LFPG 041328Z 29856KT 9999 FEW030 0/12 Q1057
SS LFPOYYYX LFPBYYYX 142318 METAR LFPG 142318Z 35636KT 9999 FEW030 3/17 Q1039
DD EDDFYYYX LFPOYYYX 222317 METAR LFPG 222317Z 11516KT 9999 FEW030 7/2 Q1024
KK LFPBYYYX LFPBYYYX LFPNYYYX LFPBYYYX 012325 METAR LFPG 012325Z 35534KT 9999 FEW030 19/18 Q1068
GG LFPBYYYX LFPBYYYX 081735 METAR LFPG 081735Z 13324KT 9999 FEW030 12/0 Q1054
KK LFPOYYYX EGLLYYYX LFPBYYYX EGLLYYYX 220446 METAR LFPG 220446Z 02414KT 9999 FEW030 5/7 Q1097
GG LFPGYYYX EDDFYYYX LFPOYYYX LFPNYYYX 141242 METAR LFPG 141242Z 08041KT 9999 FEW030 13/8 Q1064
FF LFPBYYYX LFPNYYYX 110859 METAR LFPG 110859Z 02947KT 9999 FEW030 4/6 Q1059
GG LFPGYYYX LFPNYYYX 040648 METAR LFPG 040648Z 26656KT 9999 FEW030 6/1 Q1019
DD LFPBYYYX LFPNYYYX EGLLYYYX LFPNYYYX 230039 METAR LFPG 230039Z 06947KT 9999 FEW030 23/0 Q1051
SS EDDFYYYX LFPOYYYX 052252 METAR LFPG 052252Z 09131KT 9999 FEW030 28/5 Q1096
GG LFPGYYYX LFPNYYYX LFPOYYYX LFPGYYYX 170745 METAR LFPG 170745Z 31554KT 9999 FEW030 25/18 Q1039
GG LFPBYYYX LFPNYYYX 241848 METAR LFPG 241848Z 32647KT 9999 FEW030 10/0 Q1049
DD LFPBYYYX LFPOYYYX LFPBYYYX 140838 METAR LFPG 140838Z 19646KT 9999 FEW030 4/9 Q1015
DD LFPYYYX LFPNYYYX EDDFYYYX LFPOYYYX 050317 METAR LFPG 050317Z 04716KT 9999 FEW030 18/13 Q1050
KK LFPGYYYX EGLLYYYX 141934 METAR LFPG 141934Z 18442KT 9999 FEW030 17/13 Q1088
KK LFPNYYYX EDDFYYYX EGLLYYYX LFPBYYYX 082128 METAR LFPG 082128Z 30656KT 9999 FEW030 24/19 Q1047
DD LFPYYYX LFPGYYYX LFPNYYYX LFPGYYYX 160952 METAR LFPG 160952Z 27020KT 9999 FEW030 0/12 Q1035
GG LFPGYYYX LFPNYYYX EDDFYYYX 080632 METAR LFPG 080632Z 12211KT 9999 FEW030 15/12 Q1044
GG LFPNYYYX LFPGYYYX LFPGYYYX LFPGYYYX 180442 METAR LFPG 180442Z 07241KT 9999 FEW030 29/10 Q1080
DD EDDFYYYX EDDFYYYX 190927 METAR LFPG 190927Z 00526KT 9999 FEW030 5/6 Q1024
GG LFPBYYYX LFPOYYYX LFPOYYYX EDDFYYYX 221226 METAR LFPG 221226Z 05634KT 9999 FEW030 0/14 Q1032
KK LFPYYYX EGLLYYYX LFPNYYYX 160131 METAR LFPG 160131Z 31030KT 9999 FEW030 26/11 Q1053
SS LFPNYYYX EGLLYYYX 122200 METAR LFPG 122200Z 09028KT 9999 FEW030 29/5 Q1024
LL EDDFYYYX LFPOYYYX 042112 METAR LFPG 042112Z 28250KT 9999 FEW030 15/7 Q1034
KK LFPBYYYX LFPOYYYX 190019 METAR LFPG 190019Z 11737KT 9999 FEW030 5/16 Q1096
SS LFPYYYX EGLLYYYX LFPOYYYX 130644 METAR LFPG 130644Z 07543KT 9999 FEW030 13/14 Q1066
DD EDDFYYYX LFPGYYYX LFPBYYYX LFPBYYYX 170733 METAR LFPG 170733Z 00352KT 9999 FEW030 6/16 Q1077
GG EGLLYYYX LFPGYYYX LFPOYYYX LFPGYYYX 221925 METAR LFPG 221925Z 30424KT 9999 FEW030 11/17 Q1091
GG LFPBYYYX LFPGYYYX LFPNYYYX EDDFYYYX 160624 METAR LFPG 160624Z 00212KT 9999 FEW030 22/8 Q1013
DD LFPOYYYX LFPBYYYX 150823 METAR LFPG 150823Z 05311KT 9999 FEW030 17/12 Q1063
SS LFPGYYYX EGLLYYYX EDDFYYYX 212325 METAR LFPG 212325Z 23554KT 9999 FEW030 2/1 Q1037
GG LFPYYYX LFPBYYYX EDDFYYYX LFPBYYYX 252228 METAR LFPG 252228Z 18757KT 9999 FEW030 18/13 Q1007
SS LFPOYYYX LFPBYYYX LFPOYYYX 100709 METAR LFPG 100709Z 21958KT 9999 FEW030 3/12 Q1024
GG EGLLYYYX LFPGYYYX 070859 METAR LFPG 070859Z 14947KT 9999 FEW030 5/6 Q1097
LL EGLLYYYX LFPNYYYX LFPNYYYX EGLLYYYX 032050 METAR LFPG 032050Z 20919KT 9999 FEW030 9/12 Q1092
LL LFPGYYYX LFPBYYYX 200912 METAR LFPG 200912Z 10230KT 9999 FEW030 5/5 Q1053
DD LFPBYYYX LFPOYYYX 252225 METAR LFPG 252225Z 11553KT 9999 FEW030 0/16 Q1094
GG LFPBYYYX EDDFYYYX LFPOYYYX LFPBYYYX 241736 METAR LFPG 241736Z 25434KT 9999 FEW030 24/4 Q1045
GG LFPNYYYX LFPGYYYX 011440 METAR LFPG 011440Z 01129KT 9999 FEW030 3/11 Q1046
GG LFPOYYYX LFPOYYYX 171429 METAR LFPG 171429Z 29957KT 9999 FEW030 26/13 Q1007
GG EGLLYYYX EGLLYYYX EDDFYYYX LFPGYYYX 040107 METAR LFPG 040107Z 04546KT 9999 FEW030 17/12 Q1058
DD LFPGYYYX EDDFYYYX LFPBYYYX 060309 METAR LFPG 060309Z 28728KT 9999 FEW030 1/12 Q1095
SS LFPYYYX LFPBYYYX EGLLYYYX EGLLYYYX 230519 METAR LFPG 230519Z 28958KT 9999 FEW030 16/6 Q1060
GG LFPGYYYX LFPBYYYX LFPGYYYX LFPGYYYX 190014 METAR LFPG 190014Z 16553KT 9999 FEW030 23/12 Q1076
KK LFPOYYYX LFPNYYYX 242152 METAR LFPG 242152Z 09030KT 9999 FEW030 13/14 Q1078
GG EDDFYYYX EGLLYYYX EDDFYYYX 132200 METAR LFPG 132200Z 21151KT 9999 FEW030 26/16 Q1076
SS LFPYYYX LFPBYYYX 091005 METAR LFPG 091005Z 34323KT 9999 FEW030 13/15 Q1067
FF LFPYYYX EDDFYYYX EDDFYYYX LFPGYYYX 101114 METAR LFPG 101114Z 22452KT 9999 FEW030 27/11 Q1071
FF LFPGYYYX LFPOYYYX 260006 METAR LFPG 260006Z 28445KT 9999 FEW030 2/13 Q1070
FF LFPBYYYX LFPGYYYX LFPGYYYX EDDFYYYX 051052 METAR LFPG 051052Z 27141KT 9999 FEW030 22/4 Q1040
FF LFPYYYX EDDFYYYX 261522 METAR LFPG 261522Z 18020KT 9999 FEW030 4/12 Q1032
DD EDDFYYYX EDDFYYYX LFPGYYYX 200644 METAR LFPG 200644Z 07412KT 9999 FEW030 1/2 Q1023
LL EGLLYYYX EDDFYYYX LFPGYYYX LFPNYYYX 040151 METAR LFPG 040151Z 26110KT 9999 FEW030 20/2 Q1022
GG LFPYYYX EDDFYYYX 012240 METAR LFPG 012240Z 25959KT 9999 FEW030 22/9 Q1066
GG LFPOYYYX LFPOYYYX LFPBYYYX 040924 METAR LFPG 040924Z 17442KT 9999 FEW030 10/4 Q1049
FF LFPOYYYX EGLLYYYX LFPOYYYX 110015 METAR LFPG 110015Z 28553KT 9999 FEW030 13/6 Q1049
DD LFPYYYX LFPNYYYX LFPOYYYX LFPBYYYX 260357 METAR LFPG 260357Z 09636KT 9999 FEW030 9/18 Q1092
KK LFPBYYYX LFPGYYYX EGLLYYYX 110431 METAR LFPG 110431Z 00149KT 9999 FEW030 16/6 Q1038
SS EGLLYYYX EGLLYYYX EDDFYYYX 280612 METAR LFPG 280612Z 17041KT 9999 FEW030 10/7 Q1092
SS EGLLYYYX LFPOYYYX EGLLYYYX 210216 METAR LFPG 210216Z 16725KT 9999 FEW030 19/17 Q1020
KK EGLLYYYX LFPBYYYX LFPBYYYX 110015 METAR LFPG 110015Z 16543KT 9999 FEW030 22/10 Q1079
FF LFPNYYYX EDDFYYYX EGLLYYYX 140305 METAR LFPG 140305Z 21634KT 9999 FEW030 25/8 Q1057
LL LFPGYYYX EGLLYYYX LFPGYYYX 121732 METAR LFPG 121732Z 18220KT 9999 FEW030 4/8 Q1062
SS LFPOYYYX LFPNYYYX LFPBYYYX LFPGYYYX 231355 METAR LFPG 231355Z 15324KT 9999 FEW030 9/9 Q1056
LL LFPOYYYX LFPGYYYX EDDFYYYX 271606 METAR LFPG 271606Z 27745KT 9999 FEW030 25/3 Q1043
FF LFPBYYYX LFPBYYYX 051101 METAR LFPG 051101Z 27110KT 9999 FEW030 24/5 Q1062
SS LFPOYYYX LFPNYYYX LFPGYYYX 111202 METAR LFPG 111202Z 27331KT 9999 FEW030 8/14 Q1061
LL LFPGYYYX LFPOYYYX 270139 METAR LFPG 270139Z 18928KT 9999 FEW030 19/16 Q1064
KK LFPNYYYX EGLLYYYX EGLLYYYX LFPNYYYX 101106 METAR LFPG 101106Z 10414KT 9999 FEW030 6/12 Q1091
FF LFPYYYX LFPGYYYX 211137 METAR LFPG 211137Z 12748KT 9999 FEW030 4/13 Q1040
GG LFPNYYYX LFPGYYYX 271242 METAR LFPG 271242Z 32111KT 9999 FEW030 0/10 Q1083
GG LFPGYYYX EDDFYYYX 200104 METAR LFPG 200104Z 21442KT 9999 FEW030 26/14 Q1073
GG LFPNYYYX EGLLYYYX LFPOYYYX EDDFYYYX 070419 METAR LFPG 070419Z 28937KT 9999 FEW030 15/8 Q1044
LL EDDFYYYX EDDFYYYX LFPGYYYX 140722 METAR LFPG 140722Z 29250KT 9999 FEW030 1/14 Q1084
FF EGLLYYYX LFPGYYYX LFPOYYYX EDDFYYYX 240143 METAR LFPG 240143Z 26122KT 9999 FEW030 5/18 Q1046
SS LFPYYYX LFPBYYYX LFPGYYYX 252217 METAR LFPG 252217Z 35535KT 9999 FEW030 13/12 Q1060
FF LFPBYYYX LFPNYYYX LFPGYYYX 282224 METAR LFPG 282224Z 23423KT 9999 FEW030 25/15 Q1026
SS EDDFYYYX EDDFYYYX 261517 METAR LFPG 261517Z 10856KT 9999 FEW030 1/10 Q1088
DD LFPOYYYX LFPBYYYX 051417 METAR LFPG 051417Z 10725KT 9999 FEW030 12/3 Q1045
LL LFPBYYYX LFPOYYYX EDDFYYYX 211125 METAR LFPG 211125Z 29524KT 9999 FEW030 25/19 Q1064
FF LFPYYYX EGLLYYYX LFPBYYYX LFPOYYYX 041344 METAR LFPG 041344Z 08212KT 9999 FEW030 26/2 Q1085
KK LFPGYYYX LFPOYYYX EGLLYYYX 211833 METAR LFPG 211833Z 18351KT 9999 FEW030 20/2 Q1081
SS LFPYYYX LFPNYYYX LFPGYYYX LFPNYYYX 121000 METAR LFPG 121000Z 15058KT 9999 FEW030 29/7 Q1019
SS EGLLYYYX LFPOYYYX 101105 METAR LFPG 101105Z 34344KT 9999 FEW030 17/11 Q1025
KK LFPGYYYX LFPGYYYX 271659 METAR LFPG 271659Z 27747KT 9999 FEW030 23/2 Q1066
LL LFPOYYYX LFPNYYYX 120107 METAR LFPG 120107Z 16626KT 9999 FEW030 6/11 Q1058
LL EGLLYYYX EGLLYYYX 091937 METAR LFPG 091937Z 01515KT 9999 FEW030 18/9 Q1056
KK LFPGYYYX EDDFYYYX LFPOYYYX EGLLYYYX 110007 METAR LFPG 110007Z 28535KT 9999 FEW030 22/2 Q1082
SS LFPNYYYX EDDFYYYX LFPGYYYX 031735 METAR LFPG 031735Z 25314KT 9999 FEW030 3/19 Q1094
KK LFPYYYX LFPOYYYX LFPNYYYX EDDFYYYX 081327 METAR LFPG 081327Z 17846KT 9999 FEW030 0/2 Q1032
DD EDDFYYYX LFPOYYYX LFPNYYYX EGLLYYYX 251453 METAR LFPG 251453Z 08321KT 9999 FEW030 0/12 Q1088
DD EGLLYYYX EDDFYYYX EDDFYYYX EGLLYYYX 211845 METAR LFPG 211845Z 01553KT 9999 FEW030 4/13 Q1069
GG LFPYYYX LFPOYYYX 021150 METAR LFPG 021150Z 32028KT 9999 FEW030 22/8 Q1063
LL EDDFYYYX EDDFYYYX LFPOYYYX 070143 METAR LFPG 070143Z 14132KT 9999 FEW030 28/19 Q1095
LL EDDFYYYX LFPBYYYX 171113 METAR LFPG 171113Z 10344KT 9999 FEW030 24/3 Q1031
LL LFPBYYYX LFPGYYYX 091053 METAR LFPG 091053Z 15111KT 9999 FEW030 24/5 Q1031
GG LFPBYYYX LFPOYYYX EGLLYYYX LFPBYYYX 230030 METAR LFPG 230030Z 18919KT 9999 FEW030 14/14 Q1041
DD LFPOYYYX LFPBYYYX EDDFYYYX LFPBYYYX 241820 METAR LFPG 241820Z 35019KT 9999 FEW030 0/1 Q1023
LL LFPYYYX LFPNYYYX EDDFYYYX LFPGYYYX 140309 METAR LFPG 140309Z 16818KT 9999 FEW030 2/1 Q1011
LL LFPGYYYX LFPBYYYX LFPGYYYX 070003 METAR LFPG 070003Z 21341KT 9999 FEW030 8/9 Q1015
DD LFPNYYYX LFPNYYYX LFPBYYYX EDDFYYYX 280519 METAR LFPG 280519Z 17038KT 9999 FEW030 29/10 Q1077
FF EGLLYYYX LFPBYYYX 240519 METAR LFPG 240519Z 05018KT 9999 FEW030 11/9 Q1019
LL LFPYYYX LFPBYYYX 152038 METAR LFPG 152038Z 13727KT 9999 FEW030 13/14 Q1072
FF EGLLYYYX EGLLYYYX LFPOYYYX 151226 METAR LFPG 151226Z 05735KT 9999 FEW030 6/9 Q1020
SS LFPBYYYX EGLLYYYX LFPOYYYX EDDFYYYX 121316 METAR LFPG 121316Z 22634KT 9999 FEW030 29/9 Q1056
GG LFPGYYYX LFPNYYYX LFPNYYYX LFPBYYYX 160228 METAR LFPG 160228Z 11847KT 9999 FEW030 24/18 Q1040
DD EDDFYYYX LFPOYYYX LFPGYYYX LFPOYYYX 101141 METAR LFPG 101141Z 32010KT 9999 FEW030 20/7 Q1093
LL LFPGYYYX LFPNYYYX EDDFYYYX LFPOYYYX 121724 METAR LFPG 121724Z 30212KT 9999 FEW030 15/16 Q1097
GG LFPBYYYX LFPBYYYX LFPBYYYX 241307 METAR LFPG 241307Z 34546KT 9999 FEW030 3/16 Q1043
SS LFPOYYYX EDDFYYYX LFPNYYYX 030454 METAR LFPG 030454Z 02553KT 9999 FEW030 24/2 Q1007
LL EDDFYYYX EGLLYYYX LFPNYYYX 040947 METAR LFPG 040947Z 19846KT 9999 FEW030 0/17 Q1007
FF EGLLYYYX EDDFYYYX LFPNYYYX LFPGYYYX 250721 METAR LFPG 250721Z 17130KT 9999 FEW030 8/7 Q1067
KK LFPGYYYX EDDFYYYX EGLLYYYX 100738 METAR LFPG 100738Z 19626KT 9999 FEW030 15/16 Q1069
KK LFPNYYYX LFPBYYYX EGLLYYYX 140750 METAR LFPG 140750Z 14848KT 9999 FEW030 2/12 Q1035
DD LFPYYYX EDDFYYYX LFPOYYYX LFPNYYYX 101910 METAR LFPG 101910Z 28018KT 9999 FEW030 26/15 Q1081
KK LFPGYYYX EDDFYYYX LFPOYYYX 280512 METAR LFPG 280512Z 05050KT 9999 FEW030 10/10 Q1062
FF EGLLYYYX EDDFYYYX EDDFYYYX 191618 METAR LFPG 191618Z 22827KT 9999 FEW030 21/16 Q1018
LL LFPOYYYX LFPOYYYX EGLLYYYX LFPOYYYX 280128 METAR LFPG 280128Z 11836KT 9999 FEW030 13/15 Q1069
DD LFPBYYYX EDDFYYYX 102341 METAR LFPG 102341Z 02030KT 9999 FEW030 9/0 Q1024
DD LFPBYYYX LFPGYYYX LFPNYYYX EDDFYYYX 232010 METAR LFPG 232010Z 04119KT 9999 FEW030 13/9 Q1052
DD LFPBYYYX EGLLYYYX 222354 METAR LFPG 222354Z 21232KT 9999 FEW030 9/11 Q1038
LL LFPGYYYX LFPBYYYX EGLLYYYX EGLLYYYX 211433 METAR LFPG 211433Z 25141KT 9999 FEW030 0/6 Q1088
KK LFPGYYYX LFPGYYYX EGLLYYYX 261529 METAR LFPG 261529Z 18018KT 9999 FEW030 2/10 Q1018
LL EDDFYYYX EGLLYYYX EDDFYYYX LFPOYYYX 021105 METAR LFPG 021105Z 10424KT 9999 FEW030 20/2 Q1069
GG EGLLYYYX EDDFYYYX LFPNYYYX LFPGYYYX 211040 METAR LFPG 211040Z 07919KT 9999 FEW030 29/0 Q1038
DD LFPYYYX LFPBYYYX 021517 METAR LFPG 021517Z 22836KT 9999 FEW030 11/5 Q1051
SS LFPGYYYX LFPOYYYX LFPOYYYX LFPNYYYX 131457 METAR LFPG 131457Z 27535KT 9999 FEW030 3/12 Q1035
KK EGLLYYYX LFPOYYYX EDDFYYYX 080555 METAR LFPG 080555Z 02614KT 9999 FEW030 6/18 Q1031
FF EGLLYYYX EGLLYYYX LFPGYYYX LFPBYYYX 020454 METAR LFPG 020454Z 02432KT 9999 FEW030 17/6 Q1097
DD LFPNYYYX EGLLYYYX 020038 METAR LFPG 020038Z 06847KT 9999 FEW030 13/6 Q1020
DD LFPNYYYX LFPBYYYX LFPGYYYX 272034 METAR LFPG 272034Z 30533KT 9999 FEW030 14/18 Q1058
SS EGLLYYYX LFPBYYYX EDDFYYYX LFPNYYYX 181922 METAR LFPG 181922Z 35220KT 9999 FEW030 14/7 Q1087
KK LFPOYYYX EGLLYYYX LFPBYYYX 100353 METAR LFPG 100353Z 14452KT 9999 FEW030 20/15 Q1072
FF LFPBYYYX LFPNYYYX LFPBYYYX 042147 METAR LFPG 042147Z 25846KT 9999 FEW030 27/1 Q1039
DD LFPNYYYX LFPNYYYX 150531 METAR LFPG 150531Z 24130KT 9999 FEW030 15/13 Q1000
FF LFPYYYX LFPGYYYX 031219 METAR LFPG 031219Z 05747KT 9999 FEW030 15/15 Q1001
SS LFPYYYX LFPNYYYX LFPNYYYX 241735 METAR LFPG 241735Z 25424KT 9999 FEW030 14/15 Q1008
DD LFPYYYX LFPBYYYX LFPOYYYX 182038 METAR LFPG 182038Z 13646KT 9999 FEW030 29/17 Q1030
FF EGLLYYYX LFPNYYYX 231226 METAR LFPG 231226Z 17745KT 9999 FEW030 22/9 Q1082
KK LFPYYYX LFPGYYYX LFPBYYYX LFPNYYYX 082103 METAR LFPG 082103Z 16222KT 9999 FEW030 11/4 Q1027
SS LFPGYYYX LFPGYYYX 070406 METAR LFPG 070406Z 33745KT 9999 FEW030 19/7 Q1083
FF EGLLYYYX LFPNYYYX 101202 METAR LFPG 101202Z 03211KT 9999 FEW030 19/1 Q1007
FF LFPYYYX EGLLYYYX EGLLYYYX 151719 METAR LFPG 151719Z 34918KT 9999 FEW030 19/11 Q1017
FF LFPBYYYX EGLLYYYX 210721 METAR LFPG 210721Z 29140KT 9999 FEW030 3/7 Q1083
SS LFPGYYYX LFPNYYYX LFPNYYYX LFPOYYYX 040511 METAR LFPG 040511Z 17020KT 9999 FEW030 6/13 Q1003
SS EGLLYYYX LFPOYYYX EDDFYYYX 131052 METAR LFPG 131052Z 15131KT 9999 FEW030 21/0 Q1027
LL EDDFYYYX EDDFYYYX LFPGYYYX 010620 METAR LFPG 010620Z 17129KT 9999 FEW030 24/19 Q1076
KK LFPNYYYX LFPGYYYX LFPOYYYX 160228 METAR LFPG 160228Z 23847KT 9999 FEW030 14/19 Q1021
SS LFPOYYYX LFPGYYYX 040244 METAR LFPG 040244Z 14213KT 9999 FEW030 12/17 Q1081
GG LFPGYYYX LFPOYYYX LFPBYYYX EGLLYYYX 271655 METAR LFPG 271655Z 20513KT 9999 FEW030 27/7 Q1036
GG EDDFYYYX LFPNYYYX LFPGYYYX LFPOYYYX 061925 METAR LFPG 061925Z 30414KT 9999 FEW030 10/6 Q1017
LL EDDFYYYX EDDFYYYX LFPBYYYX LFPGYYYX 181658 METAR LFPG 181658Z 03637KT 9999 FEW030 26/9 Q1022
DD LFPOYYYX EDDFYYYX LFPGYYYX 081743 METAR LFPG 081743Z 01452KT 9999 FEW030 15/1 Q1015
FF LFPOYYYX EGLLYYYX LFPGYYYX LFPGYYYX 180454 METAR LFPG 180454Z 02432KT 9999 FEW030 0/0 Q1044
KK LFPGYYYX LFPGYYYX LFPOYYYX LFPGYYYX 021606 METAR LFPG 021606Z 03614KT 9999 FEW030 25/6 Q1013
LL LFPGYYYX EDDFYYYX LFPGYYYX 162152 METAR LFPG 162152Z 09050KT 9999 FEW030 23/10 Q1025
DD LFPGYYYX LFPOYYYX 280923 METAR LFPG 280923Z 17412KT 9999 FEW030 29/14 Q1051
DD LFPNYYYX LFPGYYYX EGLLYYYX LFPNYYYX 280252 METAR LFPG 280252Z 26241KT 9999 FEW030 10/18 Q1065
DD LFPGYYYX EGLLYYYX LFPOYYYX 010228 METAR LFPG 010228Z 35947KT 9999 FEW030 21/4 Q1012
DD LFPBYYYX EDDFYYYX LFPNYYYX LFPNYYYX 261206 METAR LFPG 261206Z 34424KT 9999 FEW030 11/11 Q1002
LL EGLLYYYX LFPNYYYX 121800 METAR LFPG 121800Z 03839KT 9999 FEW030 18/16 Q1007
LL LFPGYYYX EDDFYYYX 100822 METAR LFPG 100822Z 17231KT 9999 FEW030 14/11 Q1088
KK EDDFYYYX EDDFYYYX EGLLYYYX 261238 METAR LFPG 261238Z 00817KT 9999 FEW030 5/7 Q1017
FF LFPOYYYX LFPBYYYX 101126 METAR LFPG 101126Z 05644KT 9999 FEW030 5/4 Q1047
DD EGLLYYYX LFPOYYYX EDDFYYYX 201743 METAR LFPG 201743Z 13422KT 9999 FEW030 5/8 Q1087
DD LFPGYYYX LFPBYYYX LFPNYYYX LFPBYYYX 081351 METAR LFPG 081351Z 20120KT 9999 FEW030 17/13 Q1075
DD LFPBYYYX LFPNYYYX 091821 METAR LFPG 091821Z 23159KT 9999 FEW030 29/5 Q1017
DD LFPOYYYX LFPGYYYX EGLLYYYX LFPNYYYX 010345 METAR LFPG 010345Z 13554KT 9999 FEW030 28/13 Q1086
FF LFPBYYYX LFPBYYYX 060850 METAR LFPG 060850Z 14839KT 9999 FEW030 16/2 Q1049
DD EDDFYYYX LFPBYYYX LFPBYYYX LFPBYYYX 250713 METAR LFPG 250713Z 05132KT 9999 FEW030 21/18 Q1065
DD LFPYYYX LFPBYYYX LFPGYYYX 011825 METAR LFPG 011825Z 30333KT 9999 FEW030 7/8 Q1062
SS LFPNYYYX LFPOYYYX 051441 METAR LFPG 051441Z 01129KT 9999 FEW030 6/1 Q1003
GG EGLLYYYX EGLLYYYX 101950 METAR LFPG 101950Z 08818KT 9999 FEW030 27/8 Q1047
DD LFPYYYX LFPOYYYX 120535 METAR LFPG 120535Z 31344KT 9999 FEW030 17/12 Q1001
DD LFPGYYYX LFPNYYYX LFPGYYYX 270054 METAR LFPG 270054Z 33233KT 9999 FEW030 19/6 Q1064
FF LFPOYYYX EGLLYYYX LFPNYYYX 021154 METAR LFPG 021154Z 15222KT 9999 FEW030 22/6 Q1059
DD LFPNYYYX LFPGYYYX EDDFYYYX 230446 METAR LFPG 230446Z 14555KT 9999 FEW030 28/8 Q1095
DD LFPNYYYX EDDFYYYX LFPGYYYX LFPBYYYX 181950 METAR LFPG 181950Z 32818KT 9999 FEW030 14/12 Q1004
FF LFPBYYYX LFPOYYYX 191231 METAR LFPG 191231Z 12129KT 9999 FEW030 29/16 Q1034
KK EGLLYYYX LFPOYYYX 250216 METAR LFPG 250216Z 04745KT 9999 FEW030 19/19 Q1067
FF LFPNYYYX LFPNYYYX 040531 METAR LFPG 040531Z 24230KT 9999 FEW030 17/14 Q1034
LL EDDFYYYX LFPNYYYX EDDFYYYX 112022 METAR LFPG 112022Z 11341KT 9999 FEW030 12/6 Q1026
GG LFPNYYYX EDDFYYYX EGLLYYYX EDDFYYYX 190143 METAR LFPG 190143Z 26142KT 9999 FEW030 15/1 Q1060
KK LFPGYYYX LFPOYYYX EDDFYYYX 182349 METAR LFPG 182349Z 01928KT 9999 FEW030 26/4 Q1006
KK LFPOYYYX EDDFYYYX LFPGYYYX 091529 METAR LFPG 091529Z 17920KT 9999 FEW030 18/2 Q1064
DD LFPGYYYX LFPOYYYX EDDFYYYX LFPGYYYX 091445 METAR LFPG 091445Z 08313KT 9999 FEW030 16/7 Q1067
LL EDDFYYYX LFPNYYYX LFPNYYYX LFPOYYYX 032022 METAR LFPG 032022Z 11341KT 9999 FEW030 29/17 Q1000
DD EGLLYYYX EDDFYYYX LFPNYYYX 110915 METAR LFPG 110915Z 05314KT 9999 FEW030 3/10 Q1088
DD LFPNYYYX LFPNYYYX EGLLYYYX LFPBYYYX 281444 METAR LFPG 281444Z 08213KT 9999 FEW030 15/10 Q1072
FF LFPNYYYX LFPOYYYX EDDFYYYX 282103 METAR LFPG 282103Z 28222KT 9999 FEW030 17/8 Q1018
DD LFPOYYYX LFPOYYYX LFPOYYYX LFPOYYYX 132201 METAR LFPG 132201Z 09119KT 9999 FEW030 10/15 Q1026
GG LFPOYYYX LFPOYYYX EDDFYYYX 261226 METAR LFPG 261226Z 05645KT 9999 FEW030 18/5 Q1035
SS LFPGYYYX LFPGYYYX 160927 METAR LFPG 160927Z 12656KT 9999 FEW030 2/4 Q1091
SS LFPBYYYX LFPGYYYX LFPNYYYX 272010 METAR LFPG 272010Z 16159KT 9999 FEW030 20/3 Q1064
SS EGLLYYYX EDDFYYYX 170636 METAR LFPG 170636Z 07515KT 9999 FEW030 28/2 Q1047
FF LFPOYYYX LFPOYYYX 112139 METAR LFPG 112139Z 13758KT 9999 FEW030 5/16 Q1030
FF LFPOYYYX LFPBYYYX EDDFYYYX 050612 METAR LFPG 050612Z 05131KT 9999 FEW030 21/0 Q1073
LL LFPGYYYX LFPNYYYX EDDFYYYX 142349 METAR LFPG 142349Z 02048KT 9999 FEW030 3/4 Q1082
FF LFPOYYYX LFPGYYYX LFPOYYYX 030531 METAR LFPG 030531Z 24119KT 9999 FEW030 26/0 Q1037
SS EGLLYYYX LFPBYYYX EGLLYYYX 261518 METAR LFPG 261518Z 22836KT 9999 FEW030 18/12 Q1018
DD LFPOYYYX EDDFYYYX 222050 METAR LFPG 222050Z 08828KT 9999 FEW030 2/15 Q1078
LL LFPBYYYX LFPOYYYX 171505 METAR LFPG 171505Z 27524KT 9999 FEW030 22/16 Q1024
SS EGLLYYYX LFPNYYYX EGLLYYYX LFPGYYYX 161028 METAR LFPG 161028Z 24617KT 9999 FEW030 6/17 Q1041
GG LFPYYYX EDDFYYYX 100354 METAR LFPG 100354Z 26452KT 9999 FEW030 6/12 Q1042
FF LFPNYYYX LFPOYYYX 141654 METAR LFPG 141654Z 08453KT 9999 FEW030 10/4 Q1013
DD EGLLYYYX LFPBYYYX 251040 METAR LFPG 251040Z 31849KT 9999 FEW030 9/19 Q1017
SS LFPOYYYX LFPGYYYX EGLLYYYX 260838 METAR LFPG 260838Z 31617KT 9999 FEW030 19/10 Q1039
LL LFPNYYYX LFPBYYYX LFPBYYYX 250244 METAR LFPG 250244Z 02253KT 9999 FEW030 0/5 Q1024
SS LFPGYYYX LFPGYYYX 072039 METAR LFPG 072039Z 25737KT 9999 FEW030 7/10 Q1004
LL EDDFYYYX LFPOYYYX 080915 METAR LFPG 080915Z 05424KT 9999 FEW030 26/4 Q1042
KK LFPOYYYX LFPNYYYX LFPNYYYX LFPNYYYX 131048 METAR LFPG 131048Z 31947KT 9999 FEW030 3/16 Q1066
LL LFPGYYYX EDDFYYYX LFPOYYYX EGLLYYYX 112147 METAR LFPG 112147Z 25756KT 9999 FEW030 7/5 Q1076
KK LFPGYYYX EGLLYYYX LFPGYYYX LFPBYYYX 180353 METAR LFPG 180353Z 02422KT 9999 FEW030 25/11 Q1028
LL LFPGYYYX LFPNYYYX LFPOYYYX 130725 METAR LFPG 130725Z 24344KT 9999 FEW030 10/17 Q1086
FF LFPOYYYX LFPGYYYX 102337 METAR LFPG 102337Z 30856KT 9999 FEW030 27/3 Q1020
FF LFPOYYYX EDDFYYYX EGLLYYYX 232011 METAR LFPG 232011Z 16149KT 9999 FEW030 12/2 Q1053
GG LFPGYYYX LFPBYYYX LFPOYYYX 190422 METAR LFPG 190422Z 00011KT 9999 FEW030 6/11 Q1007
FF LFPGYYYX LFPGYYYX LFPGYYYX 030935 METAR LFPG 030935Z 00543KT 9999 FEW030 23/7 Q1055
KK LFPGYYYX LFPOYYYX EGLLYYYX 280144 METAR LFPG 280144Z 14222KT 9999 FEW030 15/16 Q1027
KK EDDFYYYX EDDFYYYX LFPOYYYX 041755 METAR LFPG 041755Z 08634KT 9999 FEW030 1/2 Q1021
FF LFPNYYYX EGLLYYYX LFPGYYYX 131405 METAR LFPG 131405Z 15543KT 9999 FEW030 23/15 Q1043
LL LFPNYYYX LFPOYYYX LFPNYYYX 150523 METAR LFPG 150523Z 24152KT 9999 FEW030 23/5 Q1019
SS LFPBYYYX EGLLYYYX 230038 METAR LFPG 230038Z 18917KT 9999 FEW030 13/8 Q1045
LL EDDFYYYX LFPGYYYX LFPBYYYX 101622 METAR LFPG 101622Z 06011KT 9999 FEW030 9/16 Q1092
GG LFPOYYYX EDDFYYYX EGLLYYYX 071735 METAR LFPG 071735Z 13354KT 9999 FEW030 27/6 Q1027
GG LFPGYYYX EDDFYYYX 150815 METAR LFPG 150815Z 28543KT 9999 FEW030 11/0 Q1040
LL EDDFYYYX LFPBYYYX 240559 METAR LFPG 240559Z 21818KT 9999 FEW030 8/7 Q1027
GG LFPOYYYX LFPOYYYX 051037 METAR LFPG 051037Z 24715KT 9999 FEW030 20/13 Q1010
FF LFPGYYYX LFPBYYYX EGLLYYYX 252313 METAR LFPG 252313Z 16342KT 9999 FEW030 9/3 Q1063
LL LFPNYYYX LFPGYYYX LFPNYYYX 170656 METAR LFPG 170656Z 14725KT 9999 FEW030 26/3 Q1043
KK LFPYYYX LFPBYYYX 100701 METAR LFPG 100701Z 21920KT 9999 FEW030 14/18 Q1015
SS LFPNYYYX LFPGYYYX EGLLYYYX LFPBYYYX 032002 METAR LFPG 032002Z 27331KT 9999 FEW030 28/0 Q1025
SS EDDFYYYX LFPNYYYX LFPBYYYX LFPGYYYX 250216 METAR LFPG 250216Z 04735KT 9999 FEW030 16/19 Q1061
KK LFPYYYX EDDFYYYX 102010 METAR LFPG 102010Z 04029KT 9999 FEW030 22/7 Q1015
SS LFPYYYX LFPBYYYX 021206 METAR LFPG 021206Z 10425KT 9999 FEW030 1/17 Q1036
KK LFPBYYYX LFPGYYYX EDDFYYYX 050341 METAR LFPG 050341Z 31129KT 9999 FEW030 10/3 Q1002
FF LFPOYYYX LFPOYYYX LFPOYYYX 211813 METAR LFPG 211813Z 23121KT 9999 FEW030 24/10 Q1002
FF EDDFYYYX LFPGYYYX LFPGYYYX 140702 METAR LFPG 140702Z 34020KT 9999 FEW030 18/4 Q1014
FF LFPBYYYX LFPOYYYX 270038 METAR LFPG 270038Z 18959KT 9999 FEW030 29/7 Q1051
LL LFPOYYYX LFPGYYYX 201848 METAR LFPG 201848Z 08657KT 9999 FEW030 29/6 Q1012
DD LFPNYYYX EDDFYYYX 131848 METAR LFPG 131848Z 20617KT 9999 FEW030 4/5 Q1030
KK EDDFYYYX EGLLYYYX EGLLYYYX LFPGYYYX 142046 METAR LFPG 142046Z 25615KT 9999 FEW030 6/8 Q1023
SS EDDFYYYX LFPOYYYX 062305 METAR LFPG 062305Z 16424KT 9999 FEW030 7/11 Q1065
LL EDDFYYYX EGLLYYYX LFPBYYYX 020014 METAR LFPG 020014Z 04412KT 9999 FEW030 29/9 Q1047
SS LFPNYYYX LFPGYYYX 210228 METAR LFPG 210228Z 23817KT 9999 FEW030 17/4 Q1046
SS EGLLYYYX LFPBYYYX 011957 METAR LFPG 011957Z 32756KT 9999 FEW030 21/5 Q1000
SS EGLLYYYX LFPBYYYX 070951 METAR LFPG 070951Z 14940KT 9999 FEW030 5/19 Q1023
DD LFPBYYYX LFPGYYYX LFPBYYYX 251933 METAR LFPG 251933Z 06342KT 9999 FEW030 22/19 Q1091
LL EGLLYYYX LFPBYYYX LFPOYYYX 061921 METAR LFPG 061921Z 35220KT 9999 FEW030 14/16 Q1011
LL EDDFYYYX EDDFYYYX EDDFYYYX EGLLYYYX 050600 METAR LFPG 050600Z 09939KT 9999 FEW030 6/5 Q1017
FF EDDFYYYX LFPNYYYX EDDFYYYX LFPOYYYX 281307 METAR LFPG 281307Z 22646KT 9999 FEW030 25/14 Q1099
SS LFPOYYYX LFPBYYYX LFPOYYYX LFPBYYYX 072014 METAR LFPG 072014Z 35313KT 9999 FEW030 15/1 Q1056
FF LFPGYYYX EDDFYYYX LFPGYYYX 061606 METAR LFPG 061606Z 03644KT 9999 FEW030 11/6 Q1070
SS LFPOYYYX LFPGYYYX LFPOYYYX LFPGYYYX 011456 METAR LFPG 011456Z 27535KT 9999 FEW030 14/14 Q1020
SS EGLLYYYX LFPNYYYX LFPBYYYX 201432 METAR LFPG 201432Z 25051KT 9999 FEW030 24/13 Q1026
GG LFPGYYYX LFPGYYYX LFPGYYYX EDDFYYYX 101925 METAR LFPG 101925Z 30454KT 9999 FEW030 0/0 Q1012
KK LFPGYYYX EDDFYYYX EGLLYYYX EDDFYYYX 121708 METAR LFPG 121708Z 03856KT 9999 FEW030 16/1 Q1077
LL EGLLYYYX EGLLYYYX LFPGYYYX LFPNYYYX 021557 METAR LFPG 021557Z 27636KT 9999 FEW030 19/4 Q1074
SS LFPGYYYX EGLLYYYX 110543 METAR LFPG 110543Z 07321KT 9999 FEW030 9/16 Q1066
DD LFPYYYX EGLLYYYX 271711 METAR LFPG 271711Z 10910KT 9999 FEW030 19/1 Q1021
LL LFPNYYYX EDDFYYYX EGLLYYYX 041327 METAR LFPG 041327Z 29816KT 9999 FEW030 10/9 Q1028
KK LFPOYYYX LFPBYYYX EGLLYYYX LFPOYYYX 270007 METAR LFPG 270007Z 16555KT 9999 FEW030 2/18 Q1002
SS LFPBYYYX LFPBYYYX 110446 METAR LFPG 110446Z 26535KT 9999 FEW030 24/5 Q1079
DD LFPYYYX EGLLYYYX EDDFYYYX LFPBYYYX 042026 METAR LFPG 042026Z 18445KT 9999 FEW030 8/5 Q1076
SS LFPYYYX LFPGYYYX EGLLYYYX LFPOYYYX 201351 METAR LFPG 201351Z 32250KT 9999 FEW030 8/0 Q1008
GG LFPYYYX EGLLYYYX 170253 METAR LFPG 170253Z 02331KT 9999 FEW030 21/9 Q1059
DD LFPBYYYX LFPBYYYX LFPGYYYX EGLLYYYX 281028 METAR LFPG 281028Z 12617KT 9999 FEW030 9/17 Q1087
DD LFPNYYYX EDDFYYYX LFPNYYYX 081420 METAR LFPG 081420Z 29859KT 9999 FEW030 6/0 Q1087
KK LFPYYYX LFPNYYYX EDDFYYYX 211037 METAR LFPG 211037Z 12725KT 9999 FEW030 27/0 Q1028
FF LFPGYYYX LFPGYYYX EGLLYYYX 201307 METAR LFPG 201307Z 22646KT 9999 FEW030 10/8 Q1043
KK LFPOYYYX LFPBYYYX 251832 METAR LFPG 251832Z 30311KT 9999 FEW030 9/16 Q1092
SS LFPOYYYX LFPOYYYX LFPBYYYX 110827 METAR LFPG 110827Z 12535KT 9999 FEW030 24/9 Q1055
FF LFPYYYX LFPGYYYX 202228 METAR LFPG 202228Z 06627KT 9999 FEW030 0/8 Q1074
KK LFPGYYYX EGLLYYYX 240155 METAR LFPG 240155Z 09434KT 9999 FEW030 10/5 Q1036
LL LFPGYYYX LFPOYYYX LFPBYYYX 150442 METAR LFPG 150442Z 19231KT 9999 FEW030 1/9 Q1071
GG LFPNYYYX LFPOYYYX EDDFYYYX 070822 METAR LFPG 070822Z 17331KT 9999 FEW030 16/14 Q1090
FF LFPGYYYX LFPOYYYX 050625 METAR LFPG 050625Z 12333KT 9999 FEW030 1/15 Q1082
DD EDDFYYYX EDDFYYYX LFPGYYYX EDDFYYYX 092200 METAR LFPG 092200Z 33019KT 9999 FEW030 11/19 Q1096
FF LFPGYYYX LFPBYYYX 012353 METAR LFPG 012353Z 21122KT 9999 FEW030 16/8 Q1079
KK EGLLYYYX LFPOYYYX LFPOYYYX 230026 METAR LFPG 230026Z 11715KT 9999 FEW030 2/11 Q1064
GG EGLLYYYX EGLLYYYX LFPBYYYX LFPGYYYX 162140 METAR LFPG 162140Z 25848KT 9999 FEW030 20/7 Q1072
DD LFPOYYYX LFPOYYYX LFPBYYYX EGLLYYYX 100850 METAR LFPG 100850Z 26839KT 9999 FEW030 12/9 Q1093
FF LFPYYYX EDDFYYYX LFPNYYYX EDDFYYYX 110803 METAR LFPG 110803Z 22151KT 9999 FEW030 7/2 Q1068
DD LFPNYYYX LFPBYYYX EDDFYYYX EGLLYYYX 051408 METAR LFPG 051408Z 10717KT 9999 FEW030 17/15 Q1009
DD LFPGYYYX LFPNYYYX 042103 METAR LFPG 042103Z 04252KT 9999 FEW030 25/0 Q1089
SS LFPBYYYX LFPOYYYX 080952 METAR LFPG 080952Z 03010KT 9999 FEW030 18/17 Q1070
DD LFPOYYYX LFPGYYYX LFPBYYYX LFPGYYYX 261138 METAR LFPG 261138Z 12826KT 9999 FEW030 16/16 Q1064
DD LFPBYYYX LFPBYYYX LFPBYYYX 010609 METAR LFPG 010609Z 09937KT 9999 FEW030 22/0 Q1091
FF LFPBYYYX EGLLYYYX LFPGYYYX LFPNYYYX 190155 METAR LFPG 190155Z 21354KT 9999 FEW030 21/14 Q1065
LL LFPYYYX LFPNYYYX EDDFYYYX EDDFYYYX 180038 METAR LFPG 180038Z 30846KT 9999 FEW030 8/4 Q1035
DD LFPYYYX LFPBYYYX LFPNYYYX 202252 METAR LFPG 202252Z 09041KT 9999 FEW030 4/14 Q1097
KK EDDFYYYX LFPOYYYX LFPBYYYX 050657 METAR LFPG 050657Z 14725KT 9999 FEW030 14/11 Q1003
DD LFPBYYYX EDDFYYYX 170656 METAR LFPG 170656Z 14725KT 9999 FEW030 26/1 Q1018
DD LFPBYYYX LFPNYYYX 141218 METAR LFPG 141218Z 17637KT 9999 FEW030 0/13 Q1073
SS LFPBYYYX EGLLYYYX LFPGYYYX 212212 METAR LFPG 212212Z 16311KT 9999 FEW030 29/0 Q1063
SS LFPOYYYX LFPNYYYX LFPGYYYX 221558 METAR LFPG 221558Z 27616KT 9999 FEW030 26/12 Q1068
LL LFPGYYYX LFPGYYYX LFPNYYYX 191607 METAR LFPG 191607Z 15745KT 9999 FEW030 10/8 Q1065
SS LFPBYYYX LFPOYYYX LFPGYYYX LFPBYYYX 121444 METAR LFPG 121444Z 32213KT 9999 FEW030 0/12 Q1038
LL LFPNYYYX EDDFYYYX LFPOYYYX 221150 METAR LFPG 221150Z 32058KT 9999 FEW030 10/2 Q1085
DD LFPGYYYX LFPGYYYX EDDFYYYX EDDFYYYX 211417 METAR LFPG 211417Z 34725KT 9999 FEW030 19/6 Q1017
FF LFPBYYYX EGLLYYYX 270418 METAR LFPG 270418Z 28817KT 9999 FEW030 3/9 Q1017
GG LFPYYYX LFPOYYYX 091800 METAR LFPG 091800Z 03859KT 9999 FEW030 20/12 Q1070
FF EGLLYYYX LFPOYYYX EGLLYYYX 141506 METAR LFPG 141506Z 27634KT 9999 FEW030 8/12 Q1042
LL LFPYYYX LFPGYYYX EDDFYYYX LFPNYYYX 211844 METAR LFPG 211844Z 13433KT 9999 FEW030 21/10 Q1019
GG LFPGYYYX EDDFYYYX 080940 METAR LFPG 080940Z 07848KT 9999 FEW030 29/18 Q1024
FF EDDFYYYX EDDFYYYX LFPGYYYX 051037 METAR LFPG 051037Z 00745KT 9999 FEW030 0/15 Q1067
FF LFPNYYYX LFPOYYYX EDDFYYYX LFPBYYYX 060345 METAR LFPG 060345Z 02414KT 9999 FEW030 21/8 Q1026
LL LFPNYYYX LFPNYYYX LFPGYYYX 152035 METAR LFPG 152035Z 18523KT 9999 FEW030 23/5 Q1000
FF LFPGYYYX LFPBYYYX EDDFYYYX LFPBYYYX 180054 METAR LFPG 180054Z 33243KT 9999 FEW030 17/13 Q1004
DD EGLLYYYX EDDFYYYX EGLLYYYX LFPOYYYX 141914 METAR LFPG 141914Z 35232KT 9999 FEW030 19/10 Q1079
DD LFPBYYYX LFPGYYYX 131925 METAR LFPG 131925Z 30314KT 9999 FEW030 5/17 Q1012
GG LFPGYYYX LFPOYYYX LFPOYYYX 140430 METAR LFPG 140430Z 00039KT 9999 FEW030 22/11 Q1031
GG LFPYYYX LFPOYYYX LFPBYYYX 011025 METAR LFPG 011025Z 29553KT 9999 FEW030 21/5 Q1016
SS LFPOYYYX LFPOYYYX LFPOYYYX 200120 METAR LFPG 200120Z 11818KT 9999 FEW030 29/19 Q1045
FF EGLLYYYX EDDFYYYX EGLLYYYX EGLLYYYX 261934 METAR LFPG 261934Z 06442KT 9999 FEW030 25/9 Q1071
DD LFPOYYYX LFPOYYYX LFPOYYYX EGLLYYYX 101646 METAR LFPG 101646Z 32425KT 9999 FEW030 20/7 Q1022
GG LFPYYYX LFPGYYYX EGLLYYYX LFPBYYYX 121308 METAR LFPG 121308Z 10616KT 9999 FEW030 16/19 Q1033
GG LFPBYYYX LFPGYYYX LFPOYYYX LFPBYYYX 191203 METAR LFPG 191203Z 15321KT 9999 FEW030 16/1 Q1091
FF LFPYYYX LFPNYYYX LFPOYYYX LFPGYYYX 121000 METAR LFPG 121000Z 27049KT 9999 FEW030 25/11 Q1020
KK LFPGYYYX EGLLYYYX 030803 METAR LFPG 030803Z 10121KT 9999 FEW030 11/7 Q1053
LL LFPNYYYX LFPNYYYX 040948 METAR LFPG 040948Z 19836KT 9999 FEW030 0/3 Q1064
LL LFPYYYX LFPBYYYX 201836 METAR LFPG 201836Z 13414KT 9999 FEW030 1/0 Q1076
DD LFPYYYX EGLLYYYX LFPNYYYX 011812 METAR LFPG 011812Z 35121KT 9999 FEW030 12/9 Q1000
GG EDDFYYYX LFPNYYYX 041747 METAR LFPG 041747Z 32626KT 9999 FEW030 29/17 Q1060
SS LFPBYYYX LFPGYYYX EDDFYYYX LFPBYYYX 251041 METAR LFPG 251041Z 19949KT 9999 FEW030 5/3 Q1080
KK LFPGYYYX LFPBYYYX 131041 METAR LFPG 131041Z 19949KT 9999 FEW030 10/2 Q1038
LL LFPOYYYX EGLLYYYX 051933 METAR LFPG 051933Z 18312KT 9999 FEW030 6/10 Q1022
GG LFPOYYYX LFPGYYYX LFPGYYYX 020850 METAR LFPG 020850Z 26829KT 9999 FEW030 6/1 Q1052
SS LFPNYYYX EDDFYYYX 080559 METAR LFPG 080559Z 09758KT 9999 FEW030 27/17 Q1021
LL EDDFYYYX LFPOYYYX LFPOYYYX 201736 METAR LFPG 201736Z 13424KT 9999 FEW030 16/17 Q1080
GG EDDFYYYX LFPNYYYX EGLLYYYX LFPGYYYX 240624 METAR LFPG 240624Z 12242KT 9999 FEW030 9/0 Q1021
KK LFPNYYYX LFPBYYYX 270903 METAR LFPG 270903Z 22122KT 9999 FEW030 1/11 Q1038
KK LFPGYYYX LFPBYYYX 070519 METAR LFPG 070519Z 28958KT 9999 FEW030 21/8 Q1039
SS EGLLYYYX EGLLYYYX EGLLYYYX EGLLYYYX 100846 METAR LFPG 100846Z 07624KT 9999 FEW030 22/12 Q1089
GG EDDFYYYX EGLLYYYX LFPOYYYX 151255 METAR LFPG 151255Z 27343KT 9999 FEW030 14/5 Q1031
LL LFPGYYYX LFPNYYYX LFPOYYYX 282127 METAR LFPG 282127Z 18616KT 9999 FEW030 29/5 Q1086
DD EGLLYYYX LFPNYYYX 121000 METAR LFPG 121000Z 03038KT 9999 FEW030 6/6 Q1083
KK LFPYYYX EDDFYYYX LFPOYYYX LFPGYYYX 141642 METAR LFPG 141642Z 25251KT 9999 FEW030 22/11 Q1083
SS EGLLYYYX LFPOYYYX EGLLYYYX EGLLYYYX 061557 METAR LFPG 061557Z 03626KT 9999 FEW030 28/4 Q1054
KK EGLLYYYX LFPGYYYX EGLLYYYX 270431 METAR LFPG 270431Z 00129KT 9999 FEW030 6/10 Q1055
LL LFPNYYYX EDDFYYYX 211420 METAR LFPG 211420Z 05949KT 9999 FEW030 8/4 Q1064
FF EDDFYYYX LFPOYYYX 162252 METAR LFPG 162252Z 33011KT 9999 FEW030 14/12 Q1025
LL EDDFYYYX EGLLYYYX 011024 METAR LFPG 011024Z 17543KT 9999 FEW030 21/11 Q1026
GG EGLLYYYX LFPGYYYX LFPNYYYX LFPNYYYX 181238 METAR LFPG 181238Z 12856KT 9999 FEW030 17/19 Q1074
SS LFPBYYYX EGLLYYYX 230443 METAR LFPG 230443Z 07341KT 9999 FEW030 26/8 Q1090
FF LFPNYYYX LFPNYYYX LFPBYYYX EDDFYYYX 141934 METAR LFPG 141934Z 18412KT 9999 FEW030 0/10 Q1006
DD LFPNYYYX EGLLYYYX 231218 METAR LFPG 231218Z 05757KT 9999 FEW030 27/13 Q1055
FF LFPNYYYX LFPBYYYX EGLLYYYX LFPBYYYX 030042 METAR LFPG 030042Z 14031KT 9999 FEW030 3/2 Q1082
GG LFPNYYYX EGLLYYYX LFPNYYYX 251801 METAR LFPG 251801Z 27939KT 9999 FEW030 26/8 Q1053
FF LFPNYYYX LFPBYYYX 202216 METAR LFPG 202216Z 11435KT 9999 FEW030 24/7 Q1074
KK EGLLYYYX EDDFYYYX LFPBYYYX 191719 METAR LFPG 191719Z 22957KT 9999 FEW030 1/17 Q1072
SS EGLLYYYX LFPNYYYX LFPOYYYX 101113 METAR LFPG 101113Z 10452KT 9999 FEW030 8/19 Q1012
LL LFPYYYX LFPNYYYX 050321 METAR LFPG 050321Z 11950KT 9999 FEW030 28/3 Q1066
GG LFPOYYYX LFPOYYYX 181958 METAR LFPG 181958Z 08836KT 9999 FEW030 10/0 Q1091
DD EDDFYYYX LFPBYYYX LFPNYYYX LFPBYYYX 212240 METAR LFPG 212240Z 13919KT 9999 FEW030 5/0 Q1034
LL LFPBYYYX LFPBYYYX 191747 METAR LFPG 191747Z 20526KT 9999 FEW030 16/9 Q1032
DD LFPBYYYX EDDFYYYX LFPGYYYX LFPGYYYX 140321 METAR LFPG 140321Z 23930KT 9999 FEW030 2/18 Q1033
KK LFPYYYX LFPGYYYX LFPOYYYX LFPOYYYX 032014 METAR LFPG 032014Z 11343KT 9999 FEW030 8/12 Q1012
KK LFPNYYYX LFPBYYYX LFPGYYYX LFPGYYYX 170725 METAR LFPG 170725Z 00354KT 9999 FEW030 23/2 Q1086
LL LFPOYYYX EGLLYYYX 072038 METAR LFPG 072038Z 25737KT 9999 FEW030 11/2 Q1062
FF EGLLYYYX LFPOYYYX 160543 METAR LFPG 160543Z 19452KT 9999 FEW030 29/19 Q1050
KK LFPNYYYX LFPOYYYX 221910 METAR LFPG 221910Z 16018KT 9999 FEW030 29/4 Q1058
KK EGLLYYYX LFPBYYYX EDDFYYYX 080156 METAR LFPG 080156Z 21444KT 9999 FEW030 28/17 Q1037
KK EDDFYYYX LFPOYYYX 131937 METAR LFPG 131937Z 01535KT 9999 FEW030 21/19 Q1088
GG LFPBYYYX EDDFYYYX 182026 METAR LFPG 182026Z 30415KT 9999 FEW030 15/4 Q1008
SS LFPGYYYX LFPOYYYX LFPBYYYX 260750 METAR LFPG 260750Z 14828KT 9999 FEW030 21/2 Q1086
SS LFPYYYX LFPBYYYX 190055 METAR LFPG 190055Z 21333KT 9999 FEW030 9/19 Q1016
FF LFPOYYYX EGLLYYYX EDDFYYYX LFPOYYYX 051017 METAR LFPG 051017Z 29555KT 9999 FEW030 5/1 Q1059
KK LFPBYYYX LFPBYYYX EDDFYYYX EGLLYYYX 222353 METAR LFPG 222353Z 21232KT 9999 FEW030 24/17 Q1060
LL LFPYYYX LFPNYYYX EDDFYYYX EGLLYYYX 062337 METAR LFPG 062337Z 18826KT 9999 FEW030 13/10 Q1079
SS LFPBYYYX EGLLYYYX EGLLYYYX 091416 METAR LFPG 091416Z 34725KT 9999 FEW030 26/4 Q1011
SS LFPOYYYX LFPBYYYX LFPBYYYX LFPBYYYX 140734 METAR LFPG 140734Z 12432KT 9999 FEW030 26/5 Q1016
FF EGLLYYYX LFPGYYYX EDDFYYYX 080108 METAR LFPG 080108Z 16656KT 9999 FEW030 13/18 Q1043
FF LFPYYYX EDDFYYYX LFPBYYYX LFPBYYYX 051452 METAR LFPG 051452Z 08341KT 9999 FEW030 2/6 Q1082
GG LFPGYYYX EDDFYYYX 021153 METAR LFPG 021153Z 27212KT 9999 FEW030 15/0 Q1019
DD LFPGYYYX LFPOYYYX LFPNYYYX 160244 METAR LFPG 160244Z 14213KT 9999 FEW030 10/5 Q1036
KK LFPNYYYX EGLLYYYX 181618 METAR LFPG 181618Z 22837KT 9999 FEW030 27/8 Q1061
DD EGLLYYYX LFPBYYYX LFPOYYYX EDDFYYYX 080951 METAR LFPG 080951Z 03030KT 9999 FEW030 12/17 Q1099
LL LFPGYYYX EDDFYYYX 171521 METAR LFPG 171521Z 05929KT 9999 FEW030 25/8 Q1052
KK LFPBYYYX EDDFYYYX EGLLYYYX 250733 METAR LFPG 250733Z 12312KT 9999 FEW030 11/13 Q1078
KK EDDFYYYX LFPBYYYX LFPBYYYX 281856 METAR LFPG 281856Z 20635KT 9999 FEW030 9/19 Q1011
GG EGLLYYYX LFPOYYYX 021610 METAR LFPG 021610Z 22819KT 9999 FEW030 5/0 Q1052
SS LFPOYYYX LFPNYYYX LFPNYYYX 240923 METAR LFPG 240923Z 17422KT 9999 FEW030 23/18 Q1066
SS LFPBYYYX LFPBYYYX LFPBYYYX LFPGYYYX 040556 METAR LFPG 040556Z 26614KT 9999 FEW030 8/13 Q1007
DD LFPOYYYX LFPGYYYX LFPOYYYX LFPOYYYX 201708 METAR LFPG 201708Z 27826KT 9999 FEW030 24/7 Q1063
GG LFPNYYYX LFPNYYYX LFPBYYYX 231227 METAR LFPG 231227Z 05735KT 9999 FEW030 26/14 Q1056
FF LFPBYYYX EDDFYYYX 011901 METAR LFPG 011901Z 03940KT 9999 FEW030 12/5 Q1090
GG LFPYYYX EGLLYYYX 241456 METAR LFPG 241456Z 03445KT 9999 FEW030 12/15 Q1010
LL EGLLYYYX LFPGYYYX LFPOYYYX LFPNYYYX 120555 METAR LFPG 120555Z 26534KT 9999 FEW030 15/12 Q1013
KK LFPYYYX EDDFYYYX LFPBYYYX 221618 METAR LFPG 221618Z 22857KT 9999 FEW030 21/7 Q1052
FF LFPGYYYX LFPNYYYX 091925 METAR LFPG 091925Z 18324KT 9999 FEW030 10/4 Q1079
KK EGLLYYYX LFPGYYYX EDDFYYYX 041708 METAR LFPG 041708Z 03816KT 9999 FEW030 27/9 Q1067
LL LFPYYYX EDDFYYYX 131432 METAR LFPG 131432Z 25111KT 9999 FEW030 4/12 Q1036
SS LFPBYYYX EGLLYYYX 050725 METAR LFPG 050725Z 00324KT 9999 FEW030 10/11 Q1065
GG LFPNYYYX LFPBYYYX LFPOYYYX 260733 METAR LFPG 260733Z 00312KT 9999 FEW030 22/3 Q1045
FF LFPBYYYX EGLLYYYX EDDFYYYX 201332 METAR LFPG 201332Z 25050KT 9999 FEW030 3/9 Q1094
LL LFPGYYYX EGLLYYYX EDDFYYYX LFPNYYYX 030434 METAR LFPG 030434Z 19353KT 9999 FEW030 18/9 Q1080
SS LFPBYYYX LFPBYYYX LFPBYYYX 272115 METAR LFPG 272115Z 23333KT 9999 FEW030 3/3 Q1065
FF EDDFYYYX LFPGYYYX 261910 METAR LFPG 261910Z 04038KT 9999 FEW030 3/8 Q1036
LL LFPNYYYX LFPGYYYX LFPNYYYX 070435 METAR LFPG 070435Z 07333KT 9999 FEW030 18/7 Q1028
LL LFPOYYYX LFPBYYYX 172325 METAR LFPG 172325Z 11543KT 9999 FEW030 5/15 Q1088
LL LFPYYYX EGLLYYYX LFPOYYYX LFPNYYYX 181913 METAR LFPG 181913Z 23232KT 9999 FEW030 14/9 Q1033
KK EDDFYYYX EDDFYYYX 241755 METAR LFPG 241755Z 20524KT 9999 FEW030 22/10 Q1052
DD LFPOYYYX LFPGYYYX LFPBYYYX LFPNYYYX 230535 METAR LFPG 230535Z 19334KT 9999 FEW030 14/11 Q1036
GG LFPOYYYX EGLLYYYX 061646 METAR LFPG 061646Z 32415KT 9999 FEW030 8/3 Q1071
KK LFPNYYYX LFPGYYYX LFPNYYYX 091025 METAR LFPG 091025Z 29533KT 9999 FEW030 21/1 Q1027
KK LFPBYYYX LFPOYYYX LFPNYYYX 050240 METAR LFPG 050240Z 19139KT 9999 FEW030 19/7 Q1091
DD LFPNYYYX LFPGYYYX 190015 METAR LFPG 190015Z 28553KT 9999 FEW030 6/9 Q1080
KK LFPBYYYX LFPBYYYX EGLLYYYX 171937 METAR LFPG 171937Z 00716KT 9999 FEW030 3/1 Q1070
LL EGLLYYYX LFPOYYYX LFPOYYYX 171457 METAR LFPG 171457Z 03535KT 9999 FEW030 5/0 Q1038
KK LFPGYYYX LFPGYYYX 051036 METAR LFPG 051036Z 00755KT 9999 FEW030 19/7 Q1080
LL LFPYYYX EGLLYYYX LFPNYYYX EDDFYYYX 220802 METAR LFPG 220802Z 34050KT 9999 FEW030 27/17 Q1064
SS EDDFYYYX EDDFYYYX EDDFYYYX 131800 METAR LFPG 131800Z 15939KT 9999 FEW030 8/0 Q1021
LL EGLLYYYX EGLLYYYX EGLLYYYX 102338 METAR LFPG 102338Z 18846KT 9999 FEW030 20/1 Q1072
FF EDDFYYYX LFPNYYYX LFPNYYYX EGLLYYYX 130240 METAR LFPG 130240Z 07059KT 9999 FEW030 27/6 Q1041
LL LFPOYYYX LFPNYYYX 030039 METAR LFPG 030039Z 30917KT 9999 FEW030 8/9 Q1046
LL LFPYYYX LFPBYYYX LFPNYYYX 080923 METAR LFPG 080923Z 17412KT 9999 FEW030 27/4 Q1007
GG LFPNYYYX LFPNYYYX 070007 METAR LFPG 070007Z 28515KT 9999 FEW030 1/8 Q1046
FF EDDFYYYX LFPNYYYX LFPOYYYX LFPNYYYX 151238 METAR LFPG 151238Z 12837KT 9999 FEW030 6/11 Q1085
SS LFPOYYYX LFPBYYYX EGLLYYYX EDDFYYYX 200644 METAR LFPG 200644Z 31442KT 9999 FEW030 17/13 Q1004
SS LFPGYYYX LFPBYYYX EGLLYYYX EGLLYYYX 232010 METAR LFPG 232010Z 16119KT 9999 FEW030 26/12 Q1072
GG LFPNYYYX LFPOYYYX LFPBYYYX LFPNYYYX 261117 METAR LFPG 261117Z 29536KT 9999 FEW030 15/18 Q1014
LL LFPBYYYX EDDFYYYX EDDFYYYX LFPNYYYX 082127 METAR LFPG 082127Z 06656KT 9999 FEW030 7/5 Q1027
DD LFPGYYYX LFPGYYYX EGLLYYYX EDDFYYYX 041327 METAR LFPG 041327Z 05826KT 9999 FEW030 12/1 Q1067
DD LFPNYYYX LFPOYYYX EDDFYYYX LFPGYYYX 191327 METAR LFPG 191327Z 05735KT 9999 FEW030 16/17 Q1086
GG EDDFYYYX LFPBYYYX LFPOYYYX 230155 METAR LFPG 230155Z 21353KT 9999 FEW030 26/5 Q1089
DD EDDFYYYX LFPOYYYX 190810 METAR LFPG 190810Z 22149KT 9999 FEW030 16/12 Q1010
GG LFPBYYYX LFPBYYYX 152139 METAR LFPG 152139Z 25738KT 9999 FEW030 28/11 Q1096
LL EGLLYYYX LFPBYYYX LFPNYYYX 141150 METAR LFPG 141150Z 32038KT 9999 FEW030 13/0 Q1079
KK LFPNYYYX EGLLYYYX LFPOYYYX 110030 METAR LFPG 110030Z 18849KT 9999 FEW030 6/9 Q1092
FF LFPOYYYX LFPGYYYX 030103 METAR LFPG 030103Z 09321KT 9999 FEW030 13/13 Q1061
LL LFPGYYYX LFPOYYYX LFPGYYYX EGLLYYYX 062341 METAR LFPG 062341Z 26050KT 9999 FEW030 4/18 Q1011
SS LFPYYYX EDDFYYYX EGLLYYYX LFPNYYYX 142313 METAR LFPG 142313Z 28432KT 9999 FEW030 18/15 Q1021
LL LFPYYYX LFPGYYYX LFPGYYYX 261226 METAR LFPG 261226Z 05615KT 9999 FEW030 5/6 Q1016
GG EGLLYYYX LFPNYYYX LFPOYYYX 170305 METAR LFPG 170305Z 21533KT 9999 FEW030 27/9 Q1039
DD LFPGYYYX LFPNYYYX EGLLYYYX 171017 METAR LFPG 171017Z 17525KT 9999 FEW030 21/18 Q1062
GG LFPNYYYX LFPGYYYX EDDFYYYX LFPGYYYX 041820 METAR LFPG 041820Z 35049KT 9999 FEW030 29/5 Q1064
KK LFPYYYX LFPNYYYX EGLLYYYX 071319 METAR LFPG 071319Z 05718KT 9999 FEW030 10/4 Q1042
FF LFPOYYYX EGLLYYYX 240156 METAR LFPG 240156Z 09434KT 9999 FEW030 29/9 Q1094
LL LFPBYYYX LFPGYYYX EGLLYYYX 210205 METAR LFPG 210205Z 33523KT 9999 FEW030 13/9 Q1093
DD LFPYYYX EGLLYYYX LFPGYYYX LFPNYYYX 110014 METAR LFPG 110014Z 04443KT 9999 FEW030 27/3 Q1007
DD LFPNYYYX EGLLYYYX EGLLYYYX 281747 METAR LFPG 281747Z 20616KT 9999 FEW030 13/5 Q1070
LL EGLLYYYX LFPOYYYX LFPGYYYX 240532 METAR LFPG 240532Z 00250KT 9999 FEW030 1/5 Q1092
SS LFPOYYYX LFPGYYYX 081747 METAR LFPG 081747Z 32646KT 9999 FEW030 29/8 Q1009
GG LFPGYYYX EDDFYYYX LFPNYYYX LFPGYYYX 030826 METAR LFPG 030826Z 12515KT 9999 FEW030 21/15 Q1023
KK EDDFYYYX LFPBYYYX LFPNYYYX 080608 METAR LFPG 080608Z 33827KT 9999 FEW030 7/14 Q1074
DD LFPGYYYX EGLLYYYX LFPGYYYX 221242 METAR LFPG 221242Z 20011KT 9999 FEW030 23/6 Q1060
SS LFPOYYYX LFPOYYYX EGLLYYYX 260026 METAR LFPG 260026Z 35654KT 9999 FEW030 12/13 Q1030
FF LFPYYYX LFPOYYYX LFPGYYYX 091933 METAR LFPG 091933Z 30322KT 9999 FEW030 1/10 Q1033
GG LFPGYYYX LFPBYYYX LFPNYYYX EDDFYYYX 040624 METAR LFPG 040624Z 00253KT 9999 FEW030 5/1 Q1023
GG LFPOYYYX LFPBYYYX LFPOYYYX EGLLYYYX 072015 METAR LFPG 072015Z 23333KT 9999 FEW030 0/14 Q1023
FF EDDFYYYX EDDFYYYX LFPOYYYX LFPGYYYX 151203 METAR LFPG 151203Z 15331KT 9999 FEW030 23/2 Q1049
LL EDDFYYYX EDDFYYYX EGLLYYYX EGLLYYYX 190903 METAR LFPG 190903Z 34141KT 9999 FEW030 5/12 Q1004
KK LFPGYYYX LFPNYYYX LFPGYYYX 051837 METAR LFPG 051837Z 01525KT 9999 FEW030 22/10 Q1059
SS EGLLYYYX LFPNYYYX EDDFYYYX 241319 METAR LFPG 241319Z 17858KT 9999 FEW030 17/14 Q1081
SS LFPBYYYX LFPOYYYX EGLLYYYX 142058 METAR LFPG 142058Z 20827KT 9999 FEW030 0/4 Q1012
DD EGLLYYYX LFPNYYYX 111331 METAR LFPG 111331Z 00919KT 9999 FEW030 15/10 Q1016
KK LFPOYYYX LFPBYYYX LFPBYYYX EDDFYYYX 222317 METAR LFPG 222317Z 35546KT 9999 FEW030 6/6 Q1006
SS EDDFYYYX LFPBYYYX 140042 METAR LFPG 140042Z 02051KT 9999 FEW030 13/19 Q1074
GG LFPBYYYX EDDFYYYX LFPOYYYX EGLLYYYX 090737 METAR LFPG 090737Z 31516KT 9999 FEW030 21/19 Q1080
KK LFPOYYYX EDDFYYYX EGLLYYYX EGLLYYYX 062038 METAR LFPG 062038Z 25616KT 9999 FEW030 26/17 Q1073
SS LFPNYYYX LFPOYYYX EGLLYYYX LFPOYYYX 130608 METAR LFPG 130608Z 09917KT 9999 FEW030 1/9 Q1070
SS LFPGYYYX LFPBYYYX LFPBYYYX LFPOYYYX 210317 METAR LFPG 210317Z 04736KT 9999 FEW030 22/12 Q1062
LL LFPYYYX LFPNYYYX 061522 METAR LFPG 061522Z 30010KT 9999 FEW030 9/16 Q1087
SS LFPOYYYX LFPNYYYX 272115 METAR LFPG 272115Z 35314KT 9999 FEW030 7/6 Q1069
FF EDDFYYYX EDDFYYYX EDDFYYYX 192051 METAR LFPG 192051Z 08959KT 9999 FEW030 25/14 Q1044
FF EDDFYYYX EDDFYYYX LFPGYYYX 230151 METAR LFPG 230151Z 02120KT 9999 FEW030 0/10 Q1072
FF LFPOYYYX LFPGYYYX LFPOYYYX LFPBYYYX 261545 METAR LFPG 261545Z 20334KT 9999 FEW030 7/12 Q1038
FF LFPBYYYX EGLLYYYX EGLLYYYX 080232 METAR LFPG 080232Z 19040KT 9999 FEW030 28/19 Q1080
KK EGLLYYYX LFPOYYYX EDDFYYYX 020329 METAR LFPG 020329Z 00018KT 9999 FEW030 8/16 Q1043
LL LFPYYYX EGLLYYYX 181949 METAR LFPG 181949Z 20828KT 9999 FEW030 10/1 Q1033
DD EGLLYYYX LFPGYYYX EDDFYYYX LFPBYYYX 040947 METAR LFPG 040947Z 07856KT 9999 FEW030 13/18 Q1036
GG LFPGYYYX LFPGYYYX LFPGYYYX LFPOYYYX 042159 METAR LFPG 042159Z 21038KT 9999 FEW030 29/0 Q1040
KK LFPBYYYX LFPOYYYX LFPNYYYX LFPGYYYX 212216 METAR LFPG 212216Z 23545KT 9999 FEW030 29/19 Q1065
KK LFPGYYYX EGLLYYYX LFPBYYYX 080507 METAR LFPG 080507Z 21836KT 9999 FEW030 2/2 Q1026
SS LFPBYYYX LFPBYYYX LFPBYYYX LFPGYYYX 211445 METAR LFPG 211445Z 20353KT 9999 FEW030 14/7 Q1018
GG EGLLYYYX LFPBYYYX 121836 METAR LFPG 121836Z 13445KT 9999 FEW030 18/13 Q1091
LL LFPNYYYX EGLLYYYX 281755 METAR LFPG 281755Z 20554KT 9999 FEW030 11/0 Q1064
KK LFPBYYYX LFPBYYYX 180353 METAR LFPG 180353Z 02452KT 9999 FEW030 22/4 Q1043
FF LFPGYYYX LFPGYYYX LFPNYYYX LFPBYYYX 192135 METAR LFPG 192135Z 30514KT 9999 FEW030 8/5 Q1050
FF EGLLYYYX LFPBYYYX EGLLYYYX EGLLYYYX 111606 METAR LFPG 111606Z 27715KT 9999 FEW030 22/2 Q1068
LL EDDFYYYX LFPGYYYX LFPOYYYX 030422 METAR LFPG 030422Z 12141KT 9999 FEW030 20/6 Q1042
GG LFPYYYX EGLLYYYX EDDFYYYX LFPOYYYX 241824 METAR LFPG 241824Z 18223KT 9999 FEW030 4/2 Q1082
SS LFPNYYYX EDDFYYYX EGLLYYYX 010656 METAR LFPG 010656Z 14715KT 9999 FEW030 11/4 Q1058
KK EGLLYYYX LFPBYYYX 172213 METAR LFPG 172213Z 04311KT 9999 FEW030 2/19 Q1020
SS LFPGYYYX LFPOYYYX 070434 METAR LFPG 070434Z 31313KT 9999 FEW030 6/6 Q1016
DD LFPOYYYX LFPBYYYX 131557 METAR LFPG 131557Z 03555KT 9999 FEW030 11/11 Q1094
SS LFPGYYYX EDDFYYYX 080531 METAR LFPG 080531Z 12210KT 9999 FEW030 20/8 Q1010
SS LFPGYYYX EDDFYYYX EGLLYYYX EGLLYYYX 150846 METAR LFPG 150846Z 19615KT 9999 FEW030 9/17 Q1041
DD LFPYYYX LFPBYYYX LFPNYYYX EGLLYYYX 141541 METAR LFPG 141541Z 13150KT 9999 FEW030 17/15 Q1003
GG LFPNYYYX LFPOYYYX EDDFYYYX EGLLYYYX 061117 METAR LFPG 061117Z 29626KT 9999 FEW030 5/0 Q1024
SS LFPBYYYX EDDFYYYX LFPOYYYX 140713 METAR LFPG 140713Z 17232KT 9999 FEW030 14/4 Q1035
FF LFPGYYYX LFPBYYYX LFPGYYYX 112046 METAR LFPG 112046Z 13735KT 9999 FEW030 21/3 Q1088
FF EGLLYYYX EGLLYYYX LFPNYYYX EGLLYYYX 020714 METAR LFPG 020714Z 29242KT 9999 FEW030 1/10 Q1057
KK EDDFYYYX LFPOYYYX 260329 METAR LFPG 260329Z 00028KT 9999 FEW030 21/9 Q1007
SS EGLLYYYX LFPOYYYX LFPGYYYX 020446 METAR LFPG 020446Z 14415KT 9999 FEW030 20/5 Q1018
DD LFPNYYYX LFPOYYYX 200911 METAR LFPG 200911Z 34230KT 9999 FEW030 20/14 Q1065
SS LFPBYYYX LFPOYYYX 110422 METAR LFPG 110422Z 00131KT 9999 FEW030 14/15 Q1074
KK LFPOYYYX EGLLYYYX LFPBYYYX 062353 METAR LFPG 062353Z 33212KT 9999 FEW030 27/15 Q1051
DD LFPGYYYX LFPNYYYX LFPNYYYX 150407 METAR LFPG 150407Z 09715KT 9999 FEW030 15/11 Q1063
LL LFPGYYYX LFPNYYYX EGLLYYYX 171833 METAR LFPG 171833Z 30341KT 9999 FEW030 15/2 Q1091
DD EDDFYYYX EGLLYYYX LFPNYYYX 021902 METAR LFPG 021902Z 04020KT 9999 FEW030 27/3 Q1089
LL LFPBYYYX EGLLYYYX EGLLYYYX 252212 METAR LFPG 252212Z 28231KT 9999 FEW030 20/8 Q1077
DD LFPYYYX LFPOYYYX EGLLYYYX 150406 METAR LFPG 150406Z 21715KT 9999 FEW030 19/8 Q1006
KK LFPBYYYX LFPBYYYX LFPNYYYX EGLLYYYX 071251 METAR LFPG 071251Z 08149KT 9999 FEW030 15/1 Q1040
SS LFPYYYX LFPGYYYX 241824 METAR LFPG 241824Z 06222KT 9999 FEW030 1/11 Q1090
KK EDDFYYYX LFPOYYYX 230043 METAR LFPG 230043Z 14121KT 9999 FEW030 24/13 Q1091
GG EDDFYYYX EGLLYYYX EGLLYYYX LFPBYYYX 012317 METAR LFPG 012317Z 23556KT 9999 FEW030 11/14 Q1011
GG LFPYYYX LFPOYYYX 190026 METAR LFPG 190026Z 23725KT 9999 FEW030 25/4 Q1007
GG EDDFYYYX LFPBYYYX EGLLYYYX 040131 METAR LFPG 040131Z 18910KT 9999 FEW030 12/0 Q1041
LL EGLLYYYX EGLLYYYX LFPNYYYX EGLLYYYX 160216 METAR LFPG 160216Z 28645KT 9999 FEW030 1/6 Q1038
LL LFPNYYYX LFPOYYYX 071618 METAR LFPG 071618Z 10957KT 9999 FEW030 16/14 Q1045
SS LFPYYYX LFPOYYYX LFPOYYYX LFPBYYYX 181957 METAR LFPG 181957Z 20826KT 9999 FEW030 0/10 Q1060
GG EGLLYYYX LFPOYYYX LFPNYYYX LFPBYYYX 232010 METAR LFPG 232010Z 04139KT 9999 FEW030 25/19 Q1080
KK LFPYYYX LFPGYYYX 012305 METAR LFPG 012305Z 28323KT 9999 FEW030 2/15 Q1049
DD LFPBYYYX EGLLYYYX 082140 METAR LFPG 082140Z 25838KT 9999 FEW030 11/16 Q1089
FF LFPNYYYX EGLLYYYX LFPBYYYX 130208 METAR LFPG 130208Z 28737KT 9999 FEW030 23/12 Q1060
GG LFPNYYYX LFPOYYYX 182317 METAR LFPG 182317Z 35646KT 9999 FEW030 14/10 Q1065
DD LFPBYYYX LFPOYYYX EDDFYYYX 211001 METAR LFPG 211001Z 15119KT 9999 FEW030 2/4 Q1014
KK EDDFYYYX LFPOYYYX 210713 METAR LFPG 210713Z 17112KT 9999 FEW030 27/16 Q1060
KK LFPYYYX LFPGYYYX 190031 METAR LFPG 190031Z 18929KT 9999 FEW030 19/3 Q1059
KK EGLLYYYX LFPOYYYX LFPOYYYX 132353 METAR LFPG 132353Z 21152KT 9999 FEW030 24/3 Q1005
FF LFPBYYYX LFPOYYYX EDDFYYYX 042136 METAR LFPG 042136Z 06644KT 9999 FEW030 11/10 Q1078
SS LFPNYYYX LFPGYYYX LFPBYYYX 190019 METAR LFPG 190019Z 11757KT 9999 FEW030 6/10 Q1020
KK LFPOYYYX LFPNYYYX LFPGYYYX LFPBYYYX 120644 METAR LFPG 120644Z 31433KT 9999 FEW030 6/18 Q1006
FF LFPBYYYX LFPNYYYX 131848 METAR LFPG 131848Z 20727KT 9999 FEW030 23/12 Q1054
GG EDDFYYYX LFPOYYYX 231606 METAR LFPG 231606Z 15735KT 9999 FEW030 15/3 Q1065
DD EGLLYYYX EGLLYYYX 081735 METAR LFPG 081735Z 25324KT 9999 FEW030 27/0 Q1092
SS LFPBYYYX EGLLYYYX EGLLYYYX LFPNYYYX 192011 METAR LFPG 192011Z 28139KT 9999 FEW030 6/13 Q1053
DD LFPGYYYX LFPBYYYX 160220 METAR LFPG 160220Z 11849KT 9999 FEW030 28/14 Q1048
LL EDDFYYYX LFPGYYYX LFPOYYYX 020738 METAR LFPG 020738Z 19646KT 9999 FEW030 28/17 Q1042
SS LFPNYYYX LFPOYYYX LFPNYYYX 211421 METAR LFPG 211421Z 29929KT 9999 FEW030 16/9 Q1020
KK LFPGYYYX LFPGYYYX LFPOYYYX LFPOYYYX 191723 METAR LFPG 191723Z 18151KT 9999 FEW030 1/10 Q1073
DD EGLLYYYX EGLLYYYX LFPGYYYX LFPGYYYX 271202 METAR LFPG 271202Z 27331KT 9999 FEW030 14/16 Q1088
GG LFPOYYYX LFPGYYYX 172317 METAR LFPG 172317Z 23526KT 9999 FEW030 12/4 Q1053
FF LFPOYYYX LFPBYYYX 190043 METAR LFPG 190043Z 14111KT 9999 FEW030 20/15 Q1016
DD EGLLYYYX LFPGYYYX 241743 METAR LFPG 241743Z 01422KT 9999 FEW030 25/5 Q1045
LL LFPBYYYX LFPGYYYX LFPBYYYX 140750 METAR LFPG 140750Z 02848KT 9999 FEW030 14/6 Q1036
DD LFPYYYX LFPBYYYX LFPNYYYX 211901 METAR LFPG 211901Z 15930KT 9999 FEW030 8/17 Q1048
LL LFPBYYYX LFPBYYYX 251440 METAR LFPG 251440Z 01119KT 9999 FEW030 21/2 Q1090
LL LFPBYYYX LFPGYYYX LFPNYYYX LFPOYYYX 070107 METAR LFPG 070107Z 16546KT 9999 FEW030 0/0 Q1044
GG LFPYYYX EGLLYYYX LFPBYYYX EGLLYYYX 030419 METAR LFPG 030419Z 16947KT 9999 FEW030 17/3 Q1069
KK LFPGYYYX LFPOYYYX 091832 METAR LFPG 091832Z 06211KT 9999 FEW030 5/14 Q1076
SS LFPYYYX LFPGYYYX EGLLYYYX 170613 METAR LFPG 170613Z 05151KT 9999 FEW030 6/2 Q1084
GG EDDFYYYX LFPGYYYX 242116 METAR LFPG 242116Z 11414KT 9999 FEW030 13/7 Q1080
FF LFPGYYYX LFPGYYYX EGLLYYYX EDDFYYYX 041328 METAR LFPG 041328Z 05846KT 9999 FEW030 0/8 Q1087
SS EDDFYYYX LFPBYYYX LFPBYYYX 051012 METAR LFPG 051012Z 34321KT 9999 FEW030 27/9 Q1013
FF LFPOYYYX LFPNYYYX EGLLYYYX LFPNYYYX 022329 METAR LFPG 022329Z 18748KT 9999 FEW030 18/19 Q1056
LL LFPYYYX LFPNYYYX LFPOYYYX 070018 METAR LFPG 070018Z 35757KT 9999 FEW030 19/18 Q1053
DD EGLLYYYX LFPOYYYX LFPBYYYX LFPBYYYX 180346 METAR LFPG 180346Z 02414KT 9999 FEW030 29/8 Q1067
DD LFPNYYYX LFPGYYYX LFPOYYYX 281747 METAR LFPG 281747Z 08636KT 9999 FEW030 6/6 Q1085
DD LFPNYYYX LFPOYYYX LFPOYYYX 242248 METAR LFPG 242248Z 13827KT 9999 FEW030 19/19 Q1080
FF EDDFYYYX EGLLYYYX LFPGYYYX 130701 METAR LFPG 130701Z 09910KT 9999 FEW030 14/19 Q1028
LL LFPGYYYX EGLLYYYX 110131 METAR LFPG 110131Z 30920KT 9999 FEW030 19/0 Q1091
FF LFPYYYX LFPNYYYX 081307 METAR LFPG 081307Z 10546KT 9999 FEW030 7/10 Q1016
SS LFPGYYYX LFPGYYYX LFPOYYYX EGLLYYYX 190802 METAR LFPG 190802Z 22151KT 9999 FEW030 7/19 Q1048
FF LFPNYYYX LFPGYYYX 110935 METAR LFPG 110935Z 24514KT 9999 FEW030 14/0 Q1001
GG LFPNYYYX LFPBYYYX EGLLYYYX LFPBYYYX 251913 METAR LFPG 251913Z 23142KT 9999 FEW030 4/9 Q1018
FF EDDFYYYX LFPBYYYX 260850 METAR LFPG 260850Z 02819KT 9999 FEW030 24/11 Q1025
LL LFPYYYX EGLLYYYX LFPOYYYX LFPGYYYX 221945 METAR LFPG 221945Z 25614KT 9999 FEW030 24/15 Q1014
LL EGLLYYYX LFPNYYYX LFPOYYYX 230915 METAR LFPG 230915Z 29323KT 9999 FEW030 6/16 Q1048
LL LFPBYYYX LFPBYYYX LFPBYYYX 190507 METAR LFPG 190507Z 33746KT 9999 FEW030 2/7 Q1000
DD LFPOYYYX LFPBYYYX EDDFYYYX LFPBYYYX 051909 METAR LFPG 051909Z 27950KT 9999 FEW030 9/4 Q1075
LL EDDFYYYX LFPBYYYX 051833 METAR LFPG 051833Z 30341KT 9999 FEW030 15/8 Q1007
DD LFPNYYYX LFPNYYYX LFPBYYYX LFPOYYYX 141101 METAR LFPG 141101Z 15150KT 9999 FEW030 26/15 Q1060
FF EGLLYYYX LFPOYYYX 060737 METAR LFPG 060737Z 18836KT 9999 FEW030 14/5 Q1022
SS LFPGYYYX EGLLYYYX LFPOYYYX LFPGYYYX 170329 METAR LFPG 170329Z 23918KT 9999 FEW030 11/3 Q1036
FF LFPNYYYX EGLLYYYX EDDFYYYX 030935 METAR LFPG 030935Z 24514KT 9999 FEW030 21/4 Q1082
KK EGLLYYYX LFPGYYYX EDDFYYYX 280131 METAR LFPG 280131Z 07020KT 9999 FEW030 0/3 Q1011
GG LFPNYYYX LFPOYYYX LFPGYYYX 010600 METAR LFPG 010600Z 21919KT 9999 FEW030 11/12 Q1032
SS LFPYYYX LFPOYYYX LFPGYYYX 242147 METAR LFPG 242147Z 25846KT 9999 FEW030 3/19 Q1078
GG LFPOYYYX LFPOYYYX EGLLYYYX 111643 METAR LFPG 111643Z 25341KT 9999 FEW030 11/9 Q1066
FF LFPOYYYX LFPOYYYX LFPOYYYX LFPBYYYX 021533 METAR LFPG 021533Z 25232KT 9999 FEW030 14/9 Q1000
DD EDDFYYYX LFPBYYYX EDDFYYYX 251901 METAR LFPG 251901Z 27929KT 9999 FEW030 16/16 Q1008
FF EDDFYYYX LFPGYYYX LFPNYYYX LFPOYYYX 101622 METAR LFPG 101622Z 18021KT 9999 FEW030 19/1 Q1027
LL LFPYYYX LFPBYYYX EGLLYYYX 150031 METAR LFPG 150031Z 30929KT 9999 FEW030 10/8 Q1052
FF LFPNYYYX EDDFYYYX LFPOYYYX LFPNYYYX 051040 METAR LFPG 051040Z 31919KT 9999 FEW030 25/17 Q1062
SS EDDFYYYX EGLLYYYX EDDFYYYX LFPBYYYX 130305 METAR LFPG 130305Z 09514KT 9999 FEW030 24/8 Q1046
KK LFPNYYYX LFPGYYYX LFPGYYYX EDDFYYYX 171113 METAR LFPG 171113Z 34322KT 9999 FEW030 14/18 Q1079
KK EDDFYYYX LFPNYYYX EDDFYYYX 092329 METAR LFPG 092329Z 18747KT 9999 FEW030 13/7 Q1055
SS LFPYYYX LFPGYYYX LFPGYYYX 240127 METAR LFPG 240127Z 11856KT 9999 FEW030 15/10 Q1045
SS EDDFYYYX EDDFYYYX LFPGYYYX 111251 METAR LFPG 111251Z 32119KT 9999 FEW030 13/4 Q1026
DD LFPGYYYX LFPBYYYX 011913 METAR LFPG 011913Z 11132KT 9999 FEW030 26/3 Q1057
SS EDDFYYYX LFPBYYYX LFPNYYYX 140026 METAR LFPG 140026Z 35655KT 9999 FEW030 6/0 Q1099
SS LFPGYYYX EGLLYYYX LFPNYYYX LFPBYYYX 160151 METAR LFPG 160151Z 02220KT 9999 FEW030 13/10 Q1090
GG EGLLYYYX LFPBYYYX LFPGYYYX 070019 METAR LFPG 070019Z 10917KT 9999 FEW030 23/15 Q1071
LL LFPYYYX LFPNYYYX LFPOYYYX 190131 METAR LFPG 190131Z 06110KT 9999 FEW030 18/3 Q1019
GG LFPYYYX LFPGYYYX 100345 METAR LFPG 100345Z 13534KT 9999 FEW030 7/18 Q1044
GG EGLLYYYX LFPGYYYX LFPOYYYX LFPBYYYX 041836 METAR LFPG 041836Z 25424KT 9999 FEW030 10/12 Q1067
FF LFPBYYYX EDDFYYYX LFPNYYYX 180305 METAR LFPG 180305Z 09516KT 9999 FEW030 14/16 Q1074
SS LFPNYYYX LFPNYYYX EGLLYYYX 130709 METAR LFPG 130709Z 09938KT 9999 FEW030 22/8 Q1045
GG LFPNYYYX LFPGYYYX LFPBYYYX LFPGYYYX 250648 METAR LFPG 250648Z 01937KT 9999 FEW030 14/5 Q1018
SS EGLLYYYX EDDFYYYX LFPGYYYX LFPOYYYX 191231 METAR LFPG 191231Z 24949KT 9999 FEW030 8/0 Q1057
DD LFPBYYYX EGLLYYYX LFPBYYYX LFPBYYYX 100006 METAR LFPG 100006Z 28455KT 9999 FEW030 26/10 Q1042
SS EGLLYYYX LFPGYYYX 090333 METAR LFPG 090333Z 07121KT 9999 FEW030 6/6 Q1063
LL LFPNYYYX EDDFYYYX LFPOYYYX LFPBYYYX 120204 METAR LFPG 120204Z 09443KT 9999 FEW030 11/7 Q1043
LL LFPGYYYX LFPBYYYX 071622 METAR LFPG 071622Z 30141KT 9999 FEW030 12/17 Q1096
DD LFPNYYYX LFPGYYYX LFPGYYYX LFPGYYYX 061922 METAR LFPG 061922Z 23240KT 9999 FEW030 16/6 Q1027
SS LFPNYYYX EDDFYYYX LFPNYYYX EGLLYYYX 010217 METAR LFPG 010217Z 28745KT 9999 FEW030 15/15 Q1026
GG EDDFYYYX LFPOYYYX EGLLYYYX 210636 METAR LFPG 210636Z 07555KT 9999 FEW030 18/18 Q1048
KK EDDFYYYX LFPOYYYX 060357 METAR LFPG 060357Z 21616KT 9999 FEW030 21/8 Q1005
FF LFPGYYYX LFPOYYYX LFPNYYYX 080924 METAR LFPG 080924Z 17422KT 9999 FEW030 22/12 Q1073
DD LFPBYYYX LFPNYYYX 071631 METAR LFPG 071631Z 30159KT 9999 FEW030 3/16 Q1047
DD LFPYYYX EGLLYYYX 221925 METAR LFPG 221925Z 06444KT 9999 FEW030 10/12 Q1077
LL EGLLYYYX EDDFYYYX LFPGYYYX 100713 METAR LFPG 100713Z 17212KT 9999 FEW030 11/2 Q1078
DD LFPNYYYX LFPOYYYX 191654 METAR LFPG 191654Z 20523KT 9999 FEW030 26/18 Q1000
GG LFPGYYYX LFPNYYYX 231634 METAR LFPG 231634Z 01323KT 9999 FEW030 19/8 Q1067
FF EDDFYYYX LFPOYYYX 160128 METAR LFPG 160128Z 11856KT 9999 FEW030 17/1 Q1001
GG LFPOYYYX LFPGYYYX LFPOYYYX 192039 METAR LFPG 192039Z 13727KT 9999 FEW030 10/2 Q1087
KK LFPOYYYX LFPNYYYX LFPOYYYX 062329 METAR LFPG 062329Z 30838KT 9999 FEW030 13/6 Q1012
SS LFPNYYYX EGLLYYYX EGLLYYYX 281747 METAR LFPG 281747Z 08646KT 9999 FEW030 14/17 Q1091
LL EDDFYYYX EGLLYYYX 061521 METAR LFPG 061521Z 30020KT 9999 FEW030 22/3 Q1027
DD EDDFYYYX EDDFYYYX EDDFYYYX LFPNYYYX 111250 METAR LFPG 111250Z 20121KT 9999 FEW030 25/2 Q1021
DD LFPYYYX EDDFYYYX EDDFYYYX 021606 METAR LFPG 021606Z 15625KT 9999 FEW030 24/17 Q1089
LL LFPYYYX LFPNYYYX EDDFYYYX 031630 METAR LFPG 031630Z 30159KT 9999 FEW030 23/17 Q1019
SS LFPGYYYX LFPOYYYX EDDFYYYX 231711 METAR LFPG 231711Z 10120KT 9999 FEW030 16/8 Q1056
KK LFPNYYYX LFPGYYYX EGLLYYYX 150935 METAR LFPG 150935Z 12514KT 9999 FEW030 14/0 Q1025
FF LFPBYYYX LFPOYYYX EGLLYYYX LFPBYYYX 052305 METAR LFPG 052305Z 04353KT 9999 FEW030 26/8 Q1052
FF LFPGYYYX LFPOYYYX LFPGYYYX EDDFYYYX 220446 METAR LFPG 220446Z 14455KT 9999 FEW030 20/15 Q1023
DD LFPNYYYX EDDFYYYX 100758 METAR LFPG 100758Z 02846KT 9999 FEW030 6/4 Q1076
GG LFPGYYYX EGLLYYYX LFPNYYYX 051836 METAR LFPG 051836Z 01425KT 9999 FEW030 27/13 Q1048
LL LFPBYYYX LFPBYYYX LFPOYYYX EDDFYYYX 070006 METAR LFPG 070006Z 28515KT 9999 FEW030 10/7 Q1013
SS LFPOYYYX EDDFYYYX 101153 METAR LFPG 101153Z 15222KT 9999 FEW030 1/9 Q1036
KK LFPOYYYX LFPBYYYX LFPOYYYX 161308 METAR LFPG 161308Z 22646KT 9999 FEW030 28/18 Q1093
SS LFPNYYYX EGLLYYYX EGLLYYYX 111239 METAR LFPG 111239Z 24947KT 9999 FEW030 4/17 Q1029
GG LFPNYYYX LFPOYYYX LFPOYYYX LFPOYYYX 022301 METAR LFPG 022301Z 09110KT 9999 FEW030 8/4 Q1000
KK LFPNYYYX LFPBYYYX EGLLYYYX 022326 METAR LFPG 022326Z 11654KT 9999 FEW030 7/0 Q1010
SS LFPYYYX LFPNYYYX EGLLYYYX EGLLYYYX 251957 METAR LFPG 251957Z 20726KT 9999 FEW030 21/0 Q1013
GG LFPBYYYX LFPNYYYX LFPBYYYX EDDFYYYX 111251 METAR LFPG 111251Z 32159KT 9999 FEW030 19/13 Q1074
KK EGLLYYYX EDDFYYYX LFPNYYYX 220357 METAR LFPG 220357Z 09656KT 9999 FEW030 9/13 Q1002
DD EGLLYYYX EDDFYYYX LFPNYYYX 032123 METAR LFPG 032123Z 35322KT 9999 FEW030 9/1 Q1094
GG LFPOYYYX LFPNYYYX LFPOYYYX LFPGYYYX 080948 METAR LFPG 080948Z 19856KT 9999 FEW030 16/8 Q1024
LL EDDFYYYX LFPGYYYX LFPGYYYX 031230 METAR LFPG 031230Z 00859KT 9999 FEW030 11/3 Q1005
KK LFPGYYYX LFPOYYYX LFPNYYYX 071735 METAR LFPG 071735Z 01314KT 9999 FEW030 28/5 Q1087
GG LFPYYYX LFPNYYYX LFPGYYYX EDDFYYYX 011052 METAR LFPG 011052Z 27051KT 9999 FEW030 20/7 Q1085
FF LFPOYYYX EDDFYYYX EGLLYYYX 230555 METAR LFPG 230555Z 26534KT 9999 FEW030 27/2 Q1099
FF EDDFYYYX LFPNYYYX 072058 METAR LFPG 072058Z 32947KT 9999 FEW030 13/8 Q1017
KK LFPOYYYX EDDFYYYX LFPBYYYX 032147 METAR LFPG 032147Z 25756KT 9999 FEW030 6/18 Q1096
GG LFPYYYX EDDFYYYX LFPOYYYX 160151 METAR LFPG 160151Z 02220KT 9999 FEW030 23/17 Q1000
GG LFPBYYYX LFPBYYYX 221558 METAR LFPG 221558Z 15656KT 9999 FEW030 11/17 Q1088
KK LFPGYYYX LFPBYYYX LFPNYYYX EDDFYYYX 070019 METAR LFPG 070019Z 35727KT 9999 FEW030 15/12 Q1038
SS EDDFYYYX LFPNYYYX LFPNYYYX LFPNYYYX 250620 METAR LFPG 250620Z 17139KT 9999 FEW030 21/4 Q1092
DD LFPYYYX LFPNYYYX LFPOYYYX LFPOYYYX 152046 METAR LFPG 152046Z 13755KT 9999 FEW030 22/5 Q1043
LL LFPYYYX LFPNYYYX EGLLYYYX 240915 METAR LFPG 240915Z 17434KT 9999 FEW030 3/12 Q1096
LL EGLLYYYX LFPNYYYX LFPOYYYX 270511 METAR LFPG 270511Z 04919KT 9999 FEW030 11/13 Q1079
FF EGLLYYYX LFPGYYYX LFPOYYYX 060822 METAR LFPG 060822Z 05221KT 9999 FEW030 27/2 Q1064
GG LFPBYYYX EDDFYYYX 040948 METAR LFPG 040948Z 19826KT 9999 FEW030 5/5 Q1008
DD LFPOYYYX LFPBYYYX 131509 METAR LFPG 131509Z 22748KT 9999 FEW030 9/19 Q1058
KK LFPNYYYX LFPOYYYX LFPOYYYX LFPGYYYX 040928 METAR LFPG 040928Z 00646KT 9999 FEW030 2/10 Q1016
FF LFPNYYYX LFPNYYYX LFPNYYYX 121304 METAR LFPG 121304Z 15412KT 9999 FEW030 12/1 Q1002
DD LFPNYYYX LFPOYYYX LFPGYYYX 051420 METAR LFPG 051420Z 17929KT 9999 FEW030 11/4 Q1061
SS EGLLYYYX LFPGYYYX 150430 METAR LFPG 150430Z 12139KT 9999 FEW030 26/19 Q1072
FF LFPYYYX EDDFYYYX LFPNYYYX 231735 METAR LFPG 231735Z 01323KT 9999 FEW030 13/15 Q1021
LL EGLLYYYX LFPGYYYX 261558 METAR LFPG 261558Z 27616KT 9999 FEW030 18/13 Q1044
SS LFPYYYX LFPGYYYX 211837 METAR LFPG 211837Z 12745KT 9999 FEW030 2/4 Q1072
SS LFPOYYYX EGLLYYYX EGLLYYYX LFPGYYYX 020341 METAR LFPG 020341Z 07250KT 9999 FEW030 19/14 Q1033
DD LFPBYYYX LFPNYYYX LFPGYYYX EDDFYYYX 211553 METAR LFPG 211553Z 20322KT 9999 FEW030 5/2 Q1002
GG LFPYYYX LFPGYYYX LFPNYYYX 162111 METAR LFPG 162111Z 16150KT 9999 FEW030 5/18 Q1022
SS EGLLYYYX LFPBYYYX LFPGYYYX 270422 METAR LFPG 270422Z 24121KT 9999 FEW030 29/17 Q1084
SS LFPOYYYX EDDFYYYX LFPGYYYX LFPOYYYX 281759 METAR LFPG 281759Z 03848KT 9999 FEW030 19/6 Q1012
LL EDDFYYYX LFPGYYYX EGLLYYYX 231635 METAR LFPG 231635Z 25313KT 9999 FEW030 28/9 Q1001
KK EDDFYYYX EGLLYYYX LFPNYYYX EGLLYYYX 121654 METAR LFPG 121654Z 32445KT 9999 FEW030 14/9 Q1072
DD LFPBYYYX LFPBYYYX 070810 METAR LFPG 070810Z 10159KT 9999 FEW030 13/9 Q1014
GG EGLLYYYX LFPOYYYX LFPNYYYX EDDFYYYX 110019 METAR LFPG 110019Z 11737KT 9999 FEW030 3/1 Q1052
KK EDDFYYYX EDDFYYYX 180318 METAR LFPG 180318Z 28856KT 9999 FEW030 7/18 Q1025
DD LFPGYYYX LFPBYYYX 090305 METAR LFPG 090305Z 33544KT 9999 FEW030 7/10 Q1026
SS LFPGYYYX LFPNYYYX LFPGYYYX LFPBYYYX 221118 METAR LFPG 221118Z 29646KT 9999 FEW030 2/0 Q1017
FF LFPOYYYX LFPNYYYX EDDFYYYX 021254 METAR LFPG 021254Z 15223KT 9999 FEW030 13/0 Q1091
KK EGLLYYYX EGLLYYYX 130253 METAR LFPG 130253Z 02331KT 9999 FEW030 16/13 Q1017
KK EGLLYYYX LFPGYYYX EDDFYYYX LFPNYYYX 021105 METAR LFPG 021105Z 10334KT 9999 FEW030 19/18 Q1059
LL LFPGYYYX LFPBYYYX EDDFYYYX 172229 METAR LFPG 172229Z 18727KT 9999 FEW030 17/1 Q1035
SS EGLLYYYX LFPGYYYX 172237 METAR LFPG 172237Z 30725KT 9999 FEW030 29/5 Q1017
SS LFPYYYX LFPGYYYX LFPOYYYX EDDFYYYX 180722 METAR LFPG 180722Z 05240KT 9999 FEW030 27/14 Q1023
FF LFPOYYYX LFPGYYYX LFPOYYYX 120132 METAR LFPG 120132Z 07030KT 9999 FEW030 19/14 Q1062
FF LFPBYYYX EGLLYYYX LFPGYYYX 241707 METAR LFPG 241707Z 15816KT 9999 FEW030 29/15 Q1051
SS LFPYYYX LFPNYYYX LFPGYYYX 010733 METAR LFPG 010733Z 00312KT 9999 FEW030 7/18 Q1011
LL LFPNYYYX LFPBYYYX EDDFYYYX 141509 METAR LFPG 141509Z 10748KT 9999 FEW030 18/8 Q1092
SS EGLLYYYX EDDFYYYX 151607 METAR LFPG 151607Z 15747KT 9999 FEW030 20/3 Q1038
FF LFPOYYYX EGLLYYYX LFPNYYYX 150003 METAR LFPG 150003Z 21351KT 9999 FEW030 28/18 Q1064
FF LFPOYYYX LFPGYYYX 070131 METAR LFPG 070131Z 18930KT 9999 FEW030 9/11 Q1019
DD LFPNYYYX LFPBYYYX EGLLYYYX 260002 METAR LFPG 260002Z 21211KT 9999 FEW030 15/15 Q1053
LL LFPOYYYX LFPGYYYX LFPOYYYX 061254 METAR LFPG 061254Z 15213KT 9999 FEW030 19/2 Q1027
GG EDDFYYYX LFPNYYYX EGLLYYYX 051000 METAR LFPG 051000Z 27159KT 9999 FEW030 8/4 Q1026
FF LFPOYYYX EDDFYYYX LFPNYYYX LFPBYYYX 042252 METAR LFPG 042252Z 21021KT 9999 FEW030 12/5 Q1020
KK EGLLYYYX EDDFYYYX LFPBYYYX 202151 METAR LFPG 202151Z 21030KT 9999 FEW030 16/2 Q1096
DD LFPOYYYX LFPBYYYX 280508 METAR LFPG 280508Z 09836KT 9999 FEW030 7/10 Q1024
GG LFPOYYYX LFPBYYYX 280544 METAR LFPG 280544Z 07422KT 9999 FEW030 25/17 Q1067
SS LFPGYYYX EDDFYYYX EDDFYYYX 161028 METAR LFPG 161028Z 12657KT 9999 FEW030 22/12 Q1023
FF LFPOYYYX LFPBYYYX LFPNYYYX LFPNYYYX 060018 METAR LFPG 060018Z 35617KT 9999 FEW030 16/14 Q1030
GG LFPOYYYX EDDFYYYX EDDFYYYX EGLLYYYX 220422 METAR LFPG 220422Z 12031KT 9999 FEW030 3/16 Q1009
DD LFPNYYYX LFPNYYYX LFPNYYYX 251444 METAR LFPG 251444Z 20213KT 9999 FEW030 0/16 Q1053
LL EDDFYYYX EGLLYYYX EDDFYYYX 261149 METAR LFPG 261149Z 20048KT 9999 FEW030 17/17 Q1030
LL EDDFYYYX EGLLYYYX LFPBYYYX LFPNYYYX 250244 METAR LFPG 250244Z 26233KT 9999 FEW030 25/14 Q1046
KK LFPNYYYX LFPNYYYX 160256 METAR LFPG 160256Z 21415KT 9999 FEW030 11/8 Q1085
KK LFPYYYX EGLLYYYX EGLLYYYX LFPBYYYX 190407 METAR LFPG 190407Z 21757KT 9999 FEW030 26/4 Q1070
KK LFPOYYYX LFPBYYYX 250624 METAR LFPG 250624Z 23533KT 9999 FEW030 26/10 Q1036
FF LFPOYYYX EGLLYYYX 141642 METAR LFPG 141642Z 01240KT 9999 FEW030 26/6 Q1007
FF EDDFYYYX LFPBYYYX LFPGYYYX LFPBYYYX 192014 METAR LFPG 192014Z 11323KT 9999 FEW030 3/1 Q1068
DD LFPBYYYX LFPGYYYX LFPBYYYX LFPNYYYX 151307 METAR LFPG 151307Z 10556KT 9999 FEW030 8/16 Q1063
FF LFPNYYYX LFPNYYYX EDDFYYYX 181517 METAR LFPG 181517Z 34716KT 9999 FEW030 23/19 Q1086
DD LFPBYYYX LFPGYYYX LFPOYYYX 191743 METAR LFPG 191743Z 13332KT 9999 FEW030 1/0 Q1025
SS LFPOYYYX EDDFYYYX LFPBYYYX 141922 METAR LFPG 141922Z 35220KT 9999 FEW030 14/11 Q1019
DD LFPYYYX EGLLYYYX LFPGYYYX EGLLYYYX 171024 METAR LFPG 171024Z 17553KT 9999 FEW030 29/0 Q1020
FF LFPBYYYX LFPOYYYX EGLLYYYX LFPOYYYX 162224 METAR LFPG 162224Z 11453KT 9999 FEW030 11/4 Q1086
FF EDDFYYYX LFPBYYYX 091444 METAR LFPG 091444Z 08313KT 9999 FEW030 14/2 Q1087
DD EGLLYYYX EGLLYYYX EDDFYYYX LFPOYYYX 281707 METAR LFPG 281707Z 03836KT 9999 FEW030 12/9 Q1082
FF LFPGYYYX LFPBYYYX 010341 METAR LFPG 010341Z 07150KT 9999 FEW030 20/12 Q1010
SS LFPOYYYX LFPOYYYX LFPNYYYX 132241 METAR LFPG 132241Z 01929KT 9999 FEW030 2/6 Q1063
LL EDDFYYYX LFPOYYYX 180702 METAR LFPG 180702Z 22020KT 9999 FEW030 6/19 Q1007
FF EGLLYYYX LFPBYYYX LFPBYYYX EGLLYYYX 200927 METAR LFPG 200927Z 00516KT 9999 FEW030 5/6 Q1069
LL EDDFYYYX LFPNYYYX LFPBYYYX LFPNYYYX 170244 METAR LFPG 170244Z 14333KT 9999 FEW030 5/16 Q1025
FF LFPBYYYX LFPNYYYX LFPBYYYX LFPOYYYX 040939 METAR LFPG 040939Z 07858KT 9999 FEW030 13/11 Q1026
KK LFPYYYX EDDFYYYX LFPGYYYX LFPNYYYX 051813 METAR LFPG 051813Z 23131KT 9999 FEW030 20/9 Q1043
GG LFPBYYYX EDDFYYYX EDDFYYYX LFPOYYYX 020750 METAR LFPG 020750Z 02848KT 9999 FEW030 10/4 Q1026
DD LFPOYYYX LFPNYYYX LFPNYYYX 191658 METAR LFPG 191658Z 15727KT 9999 FEW030 23/8 Q1059
DD LFPOYYYX EGLLYYYX 150051 METAR LFPG 150051Z 02149KT 9999 FEW030 20/9 Q1079
SS LFPNYYYX LFPBYYYX LFPOYYYX 130357 METAR LFPG 130357Z 21536KT 9999 FEW030 9/18 Q1070
DD EDDFYYYX EGLLYYYX 060002 METAR LFPG 060002Z 33211KT 9999 FEW030 26/3 Q1058
FF LFPYYYX EDDFYYYX 261254 METAR LFPG 261254Z 15223KT 9999 FEW030 23/11 Q1087
GG LFPYYYX LFPGYYYX LFPBYYYX LFPGYYYX 180701 METAR LFPG 180701Z 22040KT 9999 FEW030 12/19 Q1041
GG EGLLYYYX LFPOYYYX 111619 METAR LFPG 111619Z 22937KT 9999 FEW030 4/16 Q1018
LL LFPYYYX LFPBYYYX EGLLYYYX LFPOYYYX 111659 METAR LFPG 111659Z 27717KT 9999 FEW030 27/9 Q1079
FF LFPGYYYX LFPOYYYX 140434 METAR LFPG 140434Z 31253KT 9999 FEW030 14/8 Q1024
LL EDDFYYYX LFPGYYYX 171101 METAR LFPG 171101Z 27140KT 9999 FEW030 16/3 Q1090
FF LFPOYYYX LFPBYYYX EDDFYYYX 110042 METAR LFPG 110042Z 14021KT 9999 FEW030 9/1 Q1075
GG LFPOYYYX EDDFYYYX 270422 METAR LFPG 270422Z 12131KT 9999 FEW030 2/0 Q1030
GG LFPBYYYX EGLLYYYX 180822 METAR LFPG 180822Z 17221KT 9999 FEW030 28/19 Q1042
KK LFPGYYYX LFPBYYYX 201707 METAR LFPG 201707Z 27846KT 9999 FEW030 26/2 Q1057
KK LFPBYYYX LFPNYYYX LFPOYYYX LFPOYYYX 111659 METAR LFPG 111659Z 27757KT 9999 FEW030 0/4 Q1006
LL LFPOYYYX LFPOYYYX 250612 METAR LFPG 250612Z 17021KT 9999 FEW030 26/4 Q1027
SS LFPYYYX LFPOYYYX 011024 METAR LFPG 011024Z 17533KT 9999 FEW030 12/2 Q1080
LL LFPOYYYX EGLLYYYX LFPNYYYX 080204 METAR LFPG 080204Z 21413KT 9999 FEW030 27/14 Q1064
SS LFPNYYYX LFPNYYYX LFPNYYYX 270431 METAR LFPG 270431Z 00139KT 9999 FEW030 6/18 Q1039
