FF LFPYYYX EGLLYYYX LFPNYYYX LFPBYYYX 040900 METAR LFPG 040900Z 03048KT 9999 FEW030 19/16 Q1020
GG EDDFYYYX LFPNYYYX 270155 METAR LFPG 270155Z 09354KT 9999 FEW030 27/4 Q1050
FF EGLLYYYX LFPOYYYX LFPNYYYX 211456 METAR LFPG 211456Z 03555KT 9999 FEW030 3/9 Q1028
SS LFPYYYX EGLLYYYX LFPNYYYX LFPNYYYX 220722 METAR LFPG 220722Z 17230KT 9999 FEW030 2/12 Q1096
SS LFPYYYX LFPBYYYX LFPOYYYX 012353 METAR LFPG 012353Z 09142KT 9999 FEW030 24/14 Q1003
FF LFPOYYYX EGLLYYYX 091833 METAR LFPG 091833Z 30341KT 9999 FEW030 0/15 Q1069
KK EGLLYYYX EGLLYYYX EDDFYYYX EDDFYYYX 232135 METAR LFPG 232135Z 06534KT 9999 FEW030 15/9 Q1056
SS EDDFYYYX LFPNYYYX LFPBYYYX EDDFYYYX 070454 METAR LFPG 070454Z 14523KT 9999 FEW030 17/10 Q1036
DD LFPOYYYX EGLLYYYX LFPNYYYX LFPNYYYX 230107 METAR LFPG 230107Z 16536KT 9999 FEW030 4/1 Q1064
DD LFPNYYYX LFPOYYYX 030851 METAR LFPG 030851Z 14919KT 9999 FEW030 0/2 Q1028
LL LFPGYYYX EGLLYYYX LFPNYYYX LFPNYYYX 211029 METAR LFPG 211029Z 00727KT 9999 FEW030 12/19 Q1047
FF LFPOYYYX LFPNYYYX 041344 METAR LFPG 041344Z 20232KT 9999 FEW030 10/6 Q1081
SS EDDFYYYX EGLLYYYX 250709 METAR LFPG 250709Z 21957KT 9999 FEW030 10/10 Q1026
KK LFPGYYYX EGLLYYYX EGLLYYYX EDDFYYYX 282200 METAR LFPG 282200Z 33019KT 9999 FEW030 13/9 Q1035
DD LFPYYYX LFPNYYYX LFPBYYYX LFPBYYYX 201352 METAR LFPG 201352Z 08240KT 9999 FEW030 9/15 Q1037
LL LFPBYYYX EGLLYYYX 190519 METAR LFPG 190519Z 16918KT 9999 FEW030 19/9 Q1056
GG LFPBYYYX LFPBYYYX 120935 METAR LFPG 120935Z 24534KT 9999 FEW030 10/8 Q1010
DD EDDFYYYX LFPNYYYX 021533 METAR LFPG 021533Z 01252KT 9999 FEW030 28/0 Q1055
KK LFPGYYYX LFPNYYYX LFPGYYYX LFPNYYYX 150442 METAR LFPG 150442Z 07331KT 9999 FEW030 12/5 Q1011
DD EGLLYYYX LFPNYYYX LFPBYYYX 091153 METAR LFPG 091153Z 27152KT 9999 FEW030 5/17 Q1079
KK LFPOYYYX LFPGYYYX EGLLYYYX LFPBYYYX 031207 METAR LFPG 031207Z 22555KT 9999 FEW030 1/15 Q1014
KK EDDFYYYX LFPGYYYX LFPOYYYX LFPOYYYX 171921 METAR LFPG 171921Z 35129KT 9999 FEW030 12/13 Q1017
FF LFPGYYYX LFPOYYYX EGLLYYYX LFPGYYYX 091129 METAR LFPG 091129Z 00738KT 9999 FEW030 10/7 Q1076
FF LFPYYYX EDDFYYYX 010601 METAR LFPG 010601Z 33929KT 9999 FEW030 17/6 Q1042
KK LFPOYYYX LFPBYYYX 040912 METAR LFPG 040912Z 22230KT 9999 FEW030 2/16 Q1072
DD LFPOYYYX LFPBYYYX 100738 METAR LFPG 100738Z 07636KT 9999 FEW030 11/0 Q1060
SS LFPYYYX EDDFYYYX 111618 METAR LFPG 111618Z 22949KT 9999 FEW030 26/12 Q1069
SS LFPNYYYX LFPNYYYX 260329 METAR LFPG 260329Z 11948KT 9999 FEW030 19/6 Q1000
GG LFPBYYYX LFPBYYYX LFPBYYYX 190119 METAR LFPG 190119Z 23748KT 9999 FEW030 21/7 Q1032
LL EGLLYYYX LFPGYYYX LFPBYYYX 240900 METAR LFPG 240900Z 03028KT 9999 FEW030 6/19 Q1078
GG LFPYYYX LFPGYYYX 081000 METAR LFPG 081000Z 27029KT 9999 FEW030 11/13 Q1096
FF LFPOYYYX LFPOYYYX 030519 METAR LFPG 030519Z 28918KT 9999 FEW030 13/11 Q1020
KK EDDFYYYX LFPNYYYX LFPGYYYX EDDFYYYX 070455 METAR LFPG 070455Z 26513KT 9999 FEW030 1/2 Q1087
GG EDDFYYYX EGLLYYYX EGLLYYYX EGLLYYYX 242111 METAR LFPG 242111Z 16240KT 9999 FEW030 22/9 Q1036
GG LFPNYYYX LFPGYYYX EGLLYYYX LFPBYYYX 121759 METAR LFPG 121759Z 27818KT 9999 FEW030 22/6 Q1037
KK LFPGYYYX LFPOYYYX LFPOYYYX LFPBYYYX 122123 METAR LFPG 122123Z 35442KT 9999 FEW030 21/12 Q1005
FF LFPNYYYX LFPOYYYX LFPNYYYX 230419 METAR LFPG 230419Z 16927KT 9999 FEW030 29/16 Q1098
LL LFPNYYYX EGLLYYYX 102354 METAR LFPG 102354Z 21212KT 9999 FEW030 16/4 Q1002
SS EGLLYYYX EGLLYYYX 101142 METAR LFPG 101142Z 32010KT 9999 FEW030 17/6 Q1037
FF LFPOYYYX EDDFYYYX LFPOYYYX LFPOYYYX 112059 METAR LFPG 112059Z 20949KT 9999 FEW030 0/14 Q1094
FF LFPOYYYX LFPOYYYX 212337 METAR LFPG 212337Z 18746KT 9999 FEW030 21/19 Q1032
DD LFPBYYYX LFPOYYYX EDDFYYYX 141153 METAR LFPG 141153Z 27132KT 9999 FEW030 20/10 Q1056
KK EDDFYYYX LFPGYYYX LFPGYYYX 190419 METAR LFPG 190419Z 04917KT 9999 FEW030 20/14 Q1051
GG LFPOYYYX LFPOYYYX LFPGYYYX 220354 METAR LFPG 220354Z 02442KT 9999 FEW030 7/2 Q1094
DD LFPBYYYX LFPBYYYX LFPOYYYX 142058 METAR LFPG 142058Z 20857KT 9999 FEW030 24/0 Q1077
SS EDDFYYYX LFPOYYYX 102326 METAR LFPG 102326Z 23644KT 9999 FEW030 26/19 Q1084
DD LFPBYYYX LFPNYYYX LFPGYYYX 142330 METAR LFPG 142330Z 30828KT 9999 FEW030 12/10 Q1074
LL EGLLYYYX EDDFYYYX 180858 METAR LFPG 180858Z 14827KT 9999 FEW030 15/9 Q1014
SS LFPGYYYX LFPGYYYX EGLLYYYX 021606 METAR LFPG 021606Z 15645KT 9999 FEW030 6/16 Q1026
LL EDDFYYYX LFPBYYYX 091452 METAR LFPG 091452Z 32321KT 9999 FEW030 5/11 Q1069
DD LFPGYYYX LFPNYYYX LFPBYYYX 130733 METAR LFPG 130733Z 24332KT 9999 FEW030 20/11 Q1045
FF LFPOYYYX LFPOYYYX LFPGYYYX LFPGYYYX 281700 METAR LFPG 281700Z 15858KT 9999 FEW030 29/16 Q1078
FF EGLLYYYX LFPOYYYX EGLLYYYX EDDFYYYX 071619 METAR LFPG 071619Z 34947KT 9999 FEW030 22/16 Q1037
SS LFPYYYX LFPGYYYX LFPBYYYX LFPOYYYX 062338 METAR LFPG 062338Z 06826KT 9999 FEW030 23/16 Q1007
LL EGLLYYYX EDDFYYYX LFPNYYYX LFPGYYYX 141545 METAR LFPG 141545Z 32454KT 9999 FEW030 14/4 Q1060
DD LFPGYYYX LFPBYYYX LFPGYYYX 071331 METAR LFPG 071331Z 00920KT 9999 FEW030 4/2 Q1010
DD LFPBYYYX LFPBYYYX EGLLYYYX LFPGYYYX 041316 METAR LFPG 041316Z 22654KT 9999 FEW030 1/4 Q1050
KK LFPBYYYX LFPNYYYX LFPGYYYX 212229 METAR LFPG 212229Z 06747KT 9999 FEW030 19/12 Q1053
GG LFPNYYYX EGLLYYYX LFPOYYYX 252241 METAR LFPG 252241Z 13929KT 9999 FEW030 13/15 Q1006
DD EDDFYYYX LFPBYYYX 241707 METAR LFPG 241707Z 27756KT 9999 FEW030 14/19 Q1027
KK EGLLYYYX LFPBYYYX EGLLYYYX EDDFYYYX 141957 METAR LFPG 141957Z 08716KT 9999 FEW030 16/15 Q1042
LL LFPGYYYX LFPNYYYX LFPOYYYX 141518 METAR LFPG 141518Z 22826KT 9999 FEW030 11/4 Q1040
LL LFPBYYYX LFPNYYYX LFPBYYYX 231647 METAR LFPG 231647Z 20525KT 9999 FEW030 23/13 Q1027
DD LFPYYYX EDDFYYYX LFPNYYYX 222314 METAR LFPG 222314Z 28452KT 9999 FEW030 24/3 Q1091
KK LFPYYYX LFPOYYYX LFPBYYYX EGLLYYYX 280543 METAR LFPG 280543Z 31442KT 9999 FEW030 6/17 Q1004
SS LFPBYYYX EGLLYYYX EGLLYYYX EGLLYYYX 030951 METAR LFPG 030951Z 26959KT 9999 FEW030 26/1 Q1006
FF LFPNYYYX LFPBYYYX LFPNYYYX 131821 METAR LFPG 131821Z 35139KT 9999 FEW030 1/0 Q1069
GG LFPGYYYX EDDFYYYX LFPOYYYX 251117 METAR LFPG 251117Z 17536KT 9999 FEW030 9/18 Q1050
LL LFPBYYYX EDDFYYYX LFPOYYYX 131432 METAR LFPG 131432Z 01141KT 9999 FEW030 7/6 Q1062
LL EDDFYYYX EGLLYYYX 242216 METAR LFPG 242216Z 23455KT 9999 FEW030 26/19 Q1054
FF LFPYYYX EDDFYYYX LFPBYYYX LFPBYYYX 031250 METAR LFPG 031250Z 08159KT 9999 FEW030 4/1 Q1041
SS LFPYYYX LFPOYYYX EGLLYYYX EDDFYYYX 110838 METAR LFPG 110838Z 07727KT 9999 FEW030 5/1 Q1033
SS EGLLYYYX EGLLYYYX LFPOYYYX EGLLYYYX 110951 METAR LFPG 110951Z 26940KT 9999 FEW030 0/19 Q1023
GG EDDFYYYX LFPGYYYX LFPBYYYX LFPBYYYX 210220 METAR LFPG 210220Z 11959KT 9999 FEW030 12/11 Q1051
SS EDDFYYYX EDDFYYYX 221117 METAR LFPG 221117Z 05516KT 9999 FEW030 13/6 Q1050
LL EGLLYYYX EDDFYYYX EGLLYYYX 161808 METAR LFPG 161808Z 27817KT 9999 FEW030 8/12 Q1072
DD EDDFYYYX LFPNYYYX EDDFYYYX LFPGYYYX 280120 METAR LFPG 280120Z 23858KT 9999 FEW030 2/19 Q1045
DD EDDFYYYX LFPGYYYX 111203 METAR LFPG 111203Z 15321KT 9999 FEW030 20/6 Q1061
KK LFPOYYYX EDDFYYYX LFPGYYYX 010321 METAR LFPG 010321Z 35959KT 9999 FEW030 21/6 Q1036
DD LFPGYYYX EGLLYYYX EGLLYYYX LFPGYYYX 281707 METAR LFPG 281707Z 15856KT 9999 FEW030 19/4 Q1000
FF EGLLYYYX EGLLYYYX 252252 METAR LFPG 252252Z 33141KT 9999 FEW030 9/13 Q1077
GG EGLLYYYX LFPOYYYX LFPNYYYX EDDFYYYX 150434 METAR LFPG 150434Z 06433KT 9999 FEW030 3/8 Q1052
FF LFPNYYYX LFPOYYYX LFPBYYYX 011012 METAR LFPG 011012Z 22353KT 9999 FEW030 16/1 Q1087
KK LFPBYYYX LFPBYYYX EDDFYYYX LFPBYYYX 142330 METAR LFPG 142330Z 06838KT 9999 FEW030 16/10 Q1036
DD LFPGYYYX EDDFYYYX LFPGYYYX LFPNYYYX 150018 METAR LFPG 150018Z 22937KT 9999 FEW030 17/11 Q1023
SS LFPNYYYX EDDFYYYX LFPGYYYX 242127 METAR LFPG 242127Z 18646KT 9999 FEW030 0/1 Q1076
LL LFPGYYYX LFPBYYYX EGLLYYYX EGLLYYYX 100346 METAR LFPG 100346Z 26414KT 9999 FEW030 1/4 Q1060
FF LFPGYYYX LFPGYYYX 201315 METAR LFPG 201315Z 22614KT 9999 FEW030 5/18 Q1099
KK LFPYYYX EGLLYYYX EDDFYYYX 130256 METAR LFPG 130256Z 09435KT 9999 FEW030 29/12 Q1097
KK EDDFYYYX LFPNYYYX LFPBYYYX 232115 METAR LFPG 232115Z 11314KT 9999 FEW030 0/6 Q1006
SS EDDFYYYX LFPGYYYX EGLLYYYX LFPOYYYX 190850 METAR LFPG 190850Z 14919KT 9999 FEW030 10/13 Q1082
GG EGLLYYYX LFPNYYYX 221945 METAR LFPG 221945Z 01614KT 9999 FEW030 9/4 Q1080
SS LFPGYYYX LFPOYYYX LFPBYYYX 151655 METAR LFPG 151655Z 20525KT 9999 FEW030 1/15 Q1072
DD LFPOYYYX EDDFYYYX EDDFYYYX 141553 METAR LFPG 141553Z 20452KT 9999 FEW030 4/7 Q1012
LL LFPGYYYX LFPGYYYX LFPOYYYX EDDFYYYX 020353 METAR LFPG 020353Z 26432KT 9999 FEW030 17/17 Q1079
GG LFPYYYX LFPBYYYX 231630 METAR LFPG 231630Z 18149KT 9999 FEW030 6/6 Q1061
FF LFPNYYYX LFPBYYYX EDDFYYYX LFPNYYYX 161420 METAR LFPG 161420Z 05828KT 9999 FEW030 0/2 Q1047
FF EGLLYYYX LFPNYYYX EDDFYYYX 160156 METAR LFPG 160156Z 33414KT 9999 FEW030 18/2 Q1035
LL LFPOYYYX EGLLYYYX 280543 METAR LFPG 280543Z 31412KT 9999 FEW030 10/16 Q1067
SS LFPNYYYX LFPNYYYX LFPOYYYX LFPOYYYX 030519 METAR LFPG 030519Z 16927KT 9999 FEW030 28/6 Q1098
DD LFPYYYX EDDFYYYX 111231 METAR LFPG 111231Z 24919KT 9999 FEW030 23/11 Q1090
SS LFPBYYYX EDDFYYYX LFPOYYYX EDDFYYYX 202111 METAR LFPG 202111Z 16250KT 9999 FEW030 8/9 Q1016
KK LFPYYYX LFPBYYYX LFPNYYYX 230410 METAR LFPG 230410Z 16929KT 9999 FEW030 19/11 Q1029
DD EGLLYYYX LFPGYYYX LFPBYYYX 081356 METAR LFPG 081356Z 27434KT 9999 FEW030 17/8 Q1062
SS LFPBYYYX EGLLYYYX LFPNYYYX LFPBYYYX 140321 METAR LFPG 140321Z 12040KT 9999 FEW030 17/5 Q1004
SS EDDFYYYX EGLLYYYX 270935 METAR LFPG 270935Z 12534KT 9999 FEW030 5/16 Q1056
GG LFPGYYYX EDDFYYYX LFPGYYYX EGLLYYYX 261118 METAR LFPG 261118Z 05626KT 9999 FEW030 0/6 Q1031
DD LFPYYYX EDDFYYYX 050253 METAR LFPG 050253Z 14331KT 9999 FEW030 10/3 Q1010
GG LFPNYYYX EDDFYYYX LFPNYYYX LFPNYYYX 170613 METAR LFPG 170613Z 17111KT 9999 FEW030 20/12 Q1097
LL LFPOYYYX LFPGYYYX LFPGYYYX EDDFYYYX 111631 METAR LFPG 111631Z 18119KT 9999 FEW030 5/7 Q1092
LL LFPNYYYX EDDFYYYX EDDFYYYX LFPBYYYX 132204 METAR LFPG 132204Z 28313KT 9999 FEW030 29/9 Q1081
SS EGLLYYYX EDDFYYYX LFPBYYYX 190507 METAR LFPG 190507Z 21756KT 9999 FEW030 6/2 Q1079
FF EGLLYYYX LFPOYYYX LFPBYYYX 100710 METAR LFPG 100710Z 34058KT 9999 FEW030 13/2 Q1099
DD EDDFYYYX LFPOYYYX EGLLYYYX EGLLYYYX 071659 METAR LFPG 071659Z 27757KT 9999 FEW030 15/10 Q1000
SS LFPNYYYX EDDFYYYX LFPGYYYX LFPGYYYX 090309 METAR LFPG 090309Z 28728KT 9999 FEW030 8/2 Q1097
FF LFPGYYYX LFPGYYYX LFPOYYYX LFPBYYYX 240911 METAR LFPG 240911Z 10230KT 9999 FEW030 14/15 Q1050
KK EGLLYYYX EGLLYYYX LFPBYYYX EGLLYYYX 111307 METAR LFPG 111307Z 34526KT 9999 FEW030 23/10 Q1008
LL EGLLYYYX LFPNYYYX EGLLYYYX 010305 METAR LFPG 010305Z 33524KT 9999 FEW030 25/12 Q1070
LL EDDFYYYX EDDFYYYX 152002 METAR LFPG 152002Z 04121KT 9999 FEW030 5/1 Q1039
SS LFPGYYYX EGLLYYYX LFPOYYYX LFPOYYYX 120948 METAR LFPG 120948Z 31826KT 9999 FEW030 24/12 Q1029
KK EDDFYYYX LFPBYYYX LFPNYYYX EDDFYYYX 090345 METAR LFPG 090345Z 02333KT 9999 FEW030 4/5 Q1052
GG LFPYYYX LFPGYYYX LFPBYYYX 091529 METAR LFPG 091529Z 05927KT 9999 FEW030 23/3 Q1065
FF LFPGYYYX EDDFYYYX 050624 METAR LFPG 050624Z 24323KT 9999 FEW030 1/19 Q1065
DD EGLLYYYX EGLLYYYX LFPNYYYX 181546 METAR LFPG 181546Z 32454KT 9999 FEW030 4/13 Q1096
KK LFPGYYYX EDDFYYYX LFPBYYYX 170656 METAR LFPG 170656Z 02725KT 9999 FEW030 20/7 Q1094
GG LFPNYYYX LFPOYYYX EGLLYYYX 111327 METAR LFPG 111327Z 05716KT 9999 FEW030 3/7 Q1010
DD EGLLYYYX LFPNYYYX LFPOYYYX 051957 METAR LFPG 051957Z 08736KT 9999 FEW030 7/7 Q1041
SS LFPOYYYX LFPBYYYX 220822 METAR LFPG 220822Z 05230KT 9999 FEW030 14/19 Q1059
DD EGLLYYYX LFPGYYYX 222306 METAR LFPG 222306Z 16414KT 9999 FEW030 11/8 Q1004
FF LFPNYYYX LFPOYYYX 091820 METAR LFPG 091820Z 23059KT 9999 FEW030 0/0 Q1020
SS LFPNYYYX LFPNYYYX LFPGYYYX 251825 METAR LFPG 251825Z 18313KT 9999 FEW030 17/15 Q1084
GG LFPBYYYX LFPBYYYX LFPOYYYX 221533 METAR LFPG 221533Z 25222KT 9999 FEW030 8/7 Q1070
SS LFPGYYYX LFPBYYYX LFPNYYYX LFPBYYYX 200512 METAR LFPG 200512Z 17030KT 9999 FEW030 21/16 Q1002
LL LFPOYYYX LFPNYYYX 092201 METAR LFPG 092201Z 21119KT 9999 FEW030 14/13 Q1044
KK LFPNYYYX LFPGYYYX 190838 METAR LFPG 190838Z 19657KT 9999 FEW030 4/8 Q1086
DD EDDFYYYX EDDFYYYX LFPNYYYX 081315 METAR LFPG 081315Z 22644KT 9999 FEW030 16/15 Q1098
KK LFPGYYYX LFPGYYYX 120927 METAR LFPG 120927Z 24616KT 9999 FEW030 10/12 Q1051
FF EGLLYYYX LFPOYYYX LFPGYYYX 130600 METAR LFPG 130600Z 09819KT 9999 FEW030 25/9 Q1047
GG LFPOYYYX LFPNYYYX EGLLYYYX 071227 METAR LFPG 071227Z 17725KT 9999 FEW030 26/7 Q1000
FF EGLLYYYX LFPGYYYX 140745 METAR LFPG 140745Z 07614KT 9999 FEW030 28/12 Q1074
DD EDDFYYYX EDDFYYYX 240903 METAR LFPG 240903Z 34232KT 9999 FEW030 28/0 Q1071
LL LFPGYYYX LFPGYYYX 141946 METAR LFPG 141946Z 25624KT 9999 FEW030 15/19 Q1028
DD LFPBYYYX LFPOYYYX 261238 METAR LFPG 261238Z 24827KT 9999 FEW030 12/12 Q1039
GG LFPNYYYX LFPGYYYX 011808 METAR LFPG 011808Z 03947KT 9999 FEW030 24/2 Q1046
GG EGLLYYYX EDDFYYYX 162135 METAR LFPG 162135Z 18644KT 9999 FEW030 4/6 Q1010
KK LFPGYYYX LFPNYYYX LFPGYYYX EGLLYYYX 271659 METAR LFPG 271659Z 03747KT 9999 FEW030 10/3 Q1077
SS EGLLYYYX EDDFYYYX EDDFYYYX LFPOYYYX 280608 METAR LFPG 280608Z 21827KT 9999 FEW030 23/4 Q1020
SS LFPBYYYX LFPBYYYX 151219 METAR LFPG 151219Z 05727KT 9999 FEW030 17/5 Q1015
KK LFPBYYYX LFPOYYYX LFPOYYYX EGLLYYYX 140810 METAR LFPG 140810Z 10038KT 9999 FEW030 12/2 Q1061
LL EDDFYYYX EGLLYYYX 072011 METAR LFPG 072011Z 16139KT 9999 FEW030 18/6 Q1059
DD LFPYYYX EDDFYYYX 142341 METAR LFPG 142341Z 14020KT 9999 FEW030 1/0 Q1098
LL LFPBYYYX LFPBYYYX LFPBYYYX 130205 METAR LFPG 130205Z 33553KT 9999 FEW030 29/16 Q1057
SS LFPOYYYX EGLLYYYX LFPBYYYX 162124 METAR LFPG 162124Z 23454KT 9999 FEW030 0/0 Q1013
KK LFPYYYX LFPNYYYX LFPGYYYX 260702 METAR LFPG 260702Z 10040KT 9999 FEW030 20/11 Q1073
DD EDDFYYYX EGLLYYYX LFPOYYYX EGLLYYYX 071218 METAR LFPG 071218Z 05637KT 9999 FEW030 19/15 Q1043
KK LFPBYYYX LFPNYYYX 080900 METAR LFPG 080900Z 03038KT 9999 FEW030 5/19 Q1058
KK LFPBYYYX LFPGYYYX 051925 METAR LFPG 051925Z 30324KT 9999 FEW030 13/11 Q1028
SS EDDFYYYX LFPNYYYX LFPBYYYX 171000 METAR LFPG 171000Z 27111KT 9999 FEW030 23/15 Q1052
LL LFPYYYX EGLLYYYX EDDFYYYX LFPNYYYX 020333 METAR LFPG 020333Z 18432KT 9999 FEW030 8/10 Q1039
FF LFPGYYYX EGLLYYYX 021517 METAR LFPG 021517Z 22856KT 9999 FEW030 27/17 Q1048
DD LFPBYYYX EDDFYYYX LFPNYYYX EGLLYYYX 011849 METAR LFPG 011849Z 20727KT 9999 FEW030 11/4 Q1031
FF LFPOYYYX LFPOYYYX LFPGYYYX 202116 METAR LFPG 202116Z 11454KT 9999 FEW030 20/2 Q1050
LL LFPYYYX EGLLYYYX EDDFYYYX EGLLYYYX 041344 METAR LFPG 041344Z 20252KT 9999 FEW030 23/2 Q1094
KK LFPBYYYX LFPNYYYX LFPOYYYX LFPNYYYX 101541 METAR LFPG 101541Z 25210KT 9999 FEW030 25/9 Q1085
FF EDDFYYYX EDDFYYYX 071255 METAR LFPG 071255Z 27343KT 9999 FEW030 21/6 Q1046
DD EGLLYYYX LFPGYYYX 192002 METAR LFPG 192002Z 28141KT 9999 FEW030 11/10 Q1027
SS LFPBYYYX LFPBYYYX EGLLYYYX LFPGYYYX 260725 METAR LFPG 260725Z 00424KT 9999 FEW030 16/15 Q1031
GG LFPNYYYX LFPGYYYX 161319 METAR LFPG 161319Z 29818KT 9999 FEW030 15/1 Q1019
LL LFPGYYYX LFPGYYYX LFPNYYYX 110430 METAR LFPG 110430Z 24139KT 9999 FEW030 0/5 Q1035
KK EGLLYYYX EDDFYYYX LFPBYYYX LFPBYYYX 011036 METAR LFPG 011036Z 12715KT 9999 FEW030 19/5 Q1055
KK EDDFYYYX LFPGYYYX EDDFYYYX 112039 METAR LFPG 112039Z 01727KT 9999 FEW030 4/3 Q1028
DD LFPNYYYX LFPNYYYX LFPNYYYX LFPNYYYX 240548 METAR LFPG 240548Z 26626KT 9999 FEW030 17/16 Q1024
LL LFPYYYX EDDFYYYX 162159 METAR LFPG 162159Z 32928KT 9999 FEW030 11/8 Q1035
KK LFPYYYX LFPNYYYX 120916 METAR LFPG 120916Z 05424KT 9999 FEW030 2/9 Q1016
KK LFPGYYYX LFPNYYYX 220342 METAR LFPG 220342Z 07250KT 9999 FEW030 10/8 Q1000
DD LFPGYYYX EGLLYYYX LFPBYYYX 141153 METAR LFPG 141153Z 27122KT 9999 FEW030 4/5 Q1072
SS LFPOYYYX EDDFYYYX EDDFYYYX 161352 METAR LFPG 161352Z 32252KT 9999 FEW030 29/19 Q1020
LL LFPBYYYX LFPBYYYX 130620 METAR LFPG 130620Z 29059KT 9999 FEW030 10/8 Q1000
DD EGLLYYYX LFPBYYYX LFPNYYYX EGLLYYYX 220321 METAR LFPG 220321Z 00050KT 9999 FEW030 2/1 Q1062
SS LFPGYYYX LFPNYYYX LFPBYYYX LFPGYYYX 020306 METAR LFPG 020306Z 21624KT 9999 FEW030 13/16 Q1016
GG EGLLYYYX EDDFYYYX LFPGYYYX LFPNYYYX 101934 METAR LFPG 101934Z 30452KT 9999 FEW030 23/8 Q1012
LL LFPGYYYX EDDFYYYX 021106 METAR LFPG 021106Z 34414KT 9999 FEW030 8/6 Q1027
DD LFPNYYYX LFPNYYYX 272051 METAR LFPG 272051Z 32949KT 9999 FEW030 27/14 Q1056
LL LFPNYYYX LFPBYYYX LFPOYYYX LFPOYYYX 050341 METAR LFPG 050341Z 07130KT 9999 FEW030 0/5 Q1033
LL LFPNYYYX EGLLYYYX 050601 METAR LFPG 050601Z 21919KT 9999 FEW030 2/2 Q1037
DD LFPGYYYX LFPGYYYX LFPGYYYX 221934 METAR LFPG 221934Z 18432KT 9999 FEW030 9/12 Q1017
KK LFPGYYYX LFPBYYYX EGLLYYYX 031658 METAR LFPG 031658Z 27647KT 9999 FEW030 16/5 Q1073
LL EGLLYYYX EGLLYYYX 151251 METAR LFPG 151251Z 20159KT 9999 FEW030 14/18 Q1000
LL LFPNYYYX EDDFYYYX EGLLYYYX 141529 METAR LFPG 141529Z 30018KT 9999 FEW030 5/5 Q1092
SS LFPNYYYX EDDFYYYX 081732 METAR LFPG 081732Z 30230KT 9999 FEW030 11/4 Q1043
GG LFPNYYYX LFPNYYYX EGLLYYYX LFPNYYYX 131049 METAR LFPG 131049Z 31949KT 9999 FEW030 3/12 Q1008
SS LFPNYYYX LFPNYYYX 050205 METAR LFPG 050205Z 33543KT 9999 FEW030 1/14 Q1097
SS LFPOYYYX LFPBYYYX LFPNYYYX EDDFYYYX 010633 METAR LFPG 010633Z 00321KT 9999 FEW030 12/19 Q1017
KK EDDFYYYX EGLLYYYX LFPOYYYX 142353 METAR LFPG 142353Z 21232KT 9999 FEW030 15/2 Q1081
DD EDDFYYYX LFPBYYYX EGLLYYYX EGLLYYYX 272151 METAR LFPG 272151Z 32949KT 9999 FEW030 25/18 Q1049
SS LFPNYYYX LFPOYYYX LFPBYYYX LFPGYYYX 021518 METAR LFPG 021518Z 34856KT 9999 FEW030 26/13 Q1037
FF EGLLYYYX LFPOYYYX 232051 METAR LFPG 232051Z 32959KT 9999 FEW030 12/18 Q1018
KK LFPNYYYX LFPBYYYX 241836 METAR LFPG 241836Z 25435KT 9999 FEW030 1/18 Q1007
KK EDDFYYYX EGLLYYYX EDDFYYYX 250636 METAR LFPG 250636Z 31525KT 9999 FEW030 14/8 Q1015
FF LFPBYYYX LFPBYYYX LFPGYYYX EGLLYYYX 051545 METAR LFPG 051545Z 20334KT 9999 FEW030 27/6 Q1023
FF LFPBYYYX EGLLYYYX 261202 METAR LFPG 261202Z 27211KT 9999 FEW030 27/11 Q1030
FF LFPYYYX LFPBYYYX 150443 METAR LFPG 150443Z 07331KT 9999 FEW030 12/10 Q1045
DD LFPBYYYX EGLLYYYX LFPBYYYX 021914 METAR LFPG 021914Z 35232KT 9999 FEW030 25/2 Q1029
GG LFPBYYYX LFPNYYYX EGLLYYYX 171028 METAR LFPG 171028Z 24737KT 9999 FEW030 23/19 Q1004
SS EGLLYYYX LFPGYYYX LFPNYYYX 171049 METAR LFPG 171049Z 07937KT 9999 FEW030 17/3 Q1090
LL EGLLYYYX LFPBYYYX LFPBYYYX 250253 METAR LFPG 250253Z 14341KT 9999 FEW030 26/13 Q1064
SS LFPYYYX EGLLYYYX 242200 METAR LFPG 242200Z 33058KT 9999 FEW030 15/6 Q1022
KK LFPYYYX LFPBYYYX EDDFYYYX 160916 METAR LFPG 160916Z 29454KT 9999 FEW030 14/15 Q1011
KK EDDFYYYX LFPOYYYX LFPNYYYX 131421 METAR LFPG 131421Z 05939KT 9999 FEW030 1/9 Q1087
SS EGLLYYYX LFPBYYYX LFPOYYYX LFPOYYYX 130713 METAR LFPG 130713Z 29112KT 9999 FEW030 28/11 Q1052
DD LFPBYYYX LFPBYYYX EDDFYYYX 271631 METAR LFPG 271631Z 30121KT 9999 FEW030 20/7 Q1001
KK LFPYYYX LFPBYYYX 220006 METAR LFPG 220006Z 28445KT 9999 FEW030 8/17 Q1088
FF LFPYYYX EDDFYYYX LFPOYYYX EGLLYYYX 130216 METAR LFPG 130216Z 28615KT 9999 FEW030 23/18 Q1070
GG LFPNYYYX LFPBYYYX LFPOYYYX 080900 METAR LFPG 080900Z 27028KT 9999 FEW030 19/10 Q1019
KK LFPGYYYX LFPOYYYX EGLLYYYX EGLLYYYX 241824 METAR LFPG 241824Z 18213KT 9999 FEW030 25/16 Q1028
SS LFPOYYYX EGLLYYYX LFPNYYYX 120519 METAR LFPG 120519Z 17028KT 9999 FEW030 25/6 Q1005
SS LFPYYYX LFPBYYYX EGLLYYYX LFPOYYYX 150834 METAR LFPG 150834Z 12513KT 9999 FEW030 15/5 Q1023
FF LFPNYYYX LFPOYYYX LFPGYYYX LFPNYYYX 280523 METAR LFPG 280523Z 12232KT 9999 FEW030 16/19 Q1015
LL LFPBYYYX EDDFYYYX 200119 METAR LFPG 200119Z 35848KT 9999 FEW030 25/17 Q1032
KK LFPYYYX LFPGYYYX LFPNYYYX LFPNYYYX 070131 METAR LFPG 070131Z 06929KT 9999 FEW030 19/7 Q1073
DD LFPYYYX LFPNYYYX LFPBYYYX 071243 METAR LFPG 071243Z 32141KT 9999 FEW030 5/2 Q1037
DD LFPGYYYX EGLLYYYX LFPGYYYX EGLLYYYX 210609 METAR LFPG 210609Z 33947KT 9999 FEW030 5/6 Q1014
DD EDDFYYYX LFPGYYYX LFPNYYYX 011024 METAR LFPG 011024Z 17523KT 9999 FEW030 4/10 Q1092
KK LFPBYYYX LFPNYYYX LFPNYYYX LFPBYYYX 100713 METAR LFPG 100713Z 05242KT 9999 FEW030 5/18 Q1041
SS LFPYYYX LFPNYYYX 051028 METAR LFPG 051028Z 35917KT 9999 FEW030 24/8 Q1042
LL LFPYYYX LFPNYYYX LFPNYYYX 160256 METAR LFPG 160256Z 08634KT 9999 FEW030 4/1 Q1071
KK EDDFYYYX LFPNYYYX LFPGYYYX 100042 METAR LFPG 100042Z 26030KT 9999 FEW030 3/16 Q1063
LL EGLLYYYX LFPNYYYX LFPNYYYX 100014 METAR LFPG 100014Z 04443KT 9999 FEW030 10/18 Q1066
FF LFPYYYX LFPGYYYX LFPNYYYX LFPOYYYX 200132 METAR LFPG 200132Z 19030KT 9999 FEW030 10/11 Q1042
GG EDDFYYYX EDDFYYYX EGLLYYYX 201735 METAR LFPG 201735Z 01454KT 9999 FEW030 26/15 Q1094
LL EDDFYYYX LFPNYYYX 230851 METAR LFPG 230851Z 02919KT 9999 FEW030 16/16 Q1011
SS EGLLYYYX LFPOYYYX EGLLYYYX LFPOYYYX 130208 METAR LFPG 130208Z 28757KT 9999 FEW030 16/1 Q1098
KK LFPBYYYX LFPGYYYX LFPNYYYX LFPOYYYX 240600 METAR LFPG 240600Z 09819KT 9999 FEW030 12/9 Q1006
SS EDDFYYYX LFPGYYYX 032026 METAR LFPG 032026Z 06525KT 9999 FEW030 21/3 Q1022
SS EGLLYYYX EDDFYYYX 112127 METAR LFPG 112127Z 30526KT 9999 FEW030 26/7 Q1028
FF LFPGYYYX LFPNYYYX LFPGYYYX LFPNYYYX 171041 METAR LFPG 171041Z 19949KT 9999 FEW030 22/3 Q1071
KK EGLLYYYX LFPOYYYX LFPGYYYX EDDFYYYX 131456 METAR LFPG 131456Z 14715KT 9999 FEW030 12/7 Q1030
KK LFPNYYYX LFPGYYYX LFPOYYYX 150859 METAR LFPG 150859Z 02917KT 9999 FEW030 27/1 Q1050
LL EGLLYYYX EGLLYYYX EGLLYYYX LFPNYYYX 261945 METAR LFPG 261945Z 25644KT 9999 FEW030 18/2 Q1009
KK LFPNYYYX LFPBYYYX EGLLYYYX LFPNYYYX 011024 METAR LFPG 011024Z 05453KT 9999 FEW030 9/18 Q1056
DD LFPNYYYX LFPGYYYX EGLLYYYX LFPBYYYX 280620 METAR LFPG 280620Z 17019KT 9999 FEW030 9/19 Q1090
FF EGLLYYYX EDDFYYYX LFPNYYYX EGLLYYYX 152046 METAR LFPG 152046Z 25735KT 9999 FEW030 18/0 Q1054
LL LFPNYYYX LFPNYYYX LFPOYYYX 150851 METAR LFPG 150851Z 14959KT 9999 FEW030 5/0 Q1042
SS LFPBYYYX LFPGYYYX 230802 METAR LFPG 230802Z 34011KT 9999 FEW030 21/11 Q1078
LL EGLLYYYX LFPGYYYX EGLLYYYX LFPOYYYX 052248 METAR LFPG 052248Z 01847KT 9999 FEW030 12/2 Q1076
KK LFPOYYYX LFPBYYYX 051137 METAR LFPG 051137Z 00726KT 9999 FEW030 13/17 Q1027
SS LFPBYYYX LFPOYYYX 020838 METAR LFPG 020838Z 19647KT 9999 FEW030 26/16 Q1017
GG LFPGYYYX EDDFYYYX EGLLYYYX 120143 METAR LFPG 120143Z 02232KT 9999 FEW030 14/8 Q1043
GG LFPOYYYX LFPNYYYX LFPGYYYX EDDFYYYX 160903 METAR LFPG 160903Z 34122KT 9999 FEW030 8/16 Q1060
KK EGLLYYYX LFPOYYYX LFPOYYYX LFPGYYYX 060725 METAR LFPG 060725Z 12424KT 9999 FEW030 13/18 Q1095
KK LFPOYYYX LFPBYYYX 061658 METAR LFPG 061658Z 27627KT 9999 FEW030 20/2 Q1093
SS LFPOYYYX LFPNYYYX 280152 METAR LFPG 280152Z 02220KT 9999 FEW030 18/0 Q1013
GG LFPYYYX EDDFYYYX 061230 METAR LFPG 061230Z 12849KT 9999 FEW030 9/3 Q1007
DD LFPOYYYX LFPNYYYX EGLLYYYX LFPGYYYX 281707 METAR LFPG 281707Z 03846KT 9999 FEW030 21/18 Q1067
FF EGLLYYYX LFPNYYYX LFPGYYYX EDDFYYYX 241432 METAR LFPG 241432Z 01021KT 9999 FEW030 6/16 Q1060
KK EDDFYYYX LFPNYYYX EGLLYYYX LFPNYYYX 271315 METAR LFPG 271315Z 10534KT 9999 FEW030 24/14 Q1057
KK EGLLYYYX LFPNYYYX EDDFYYYX 182010 METAR LFPG 182010Z 28039KT 9999 FEW030 23/11 Q1054
LL LFPBYYYX LFPGYYYX EGLLYYYX 241048 METAR LFPG 241048Z 19847KT 9999 FEW030 13/5 Q1081
LL LFPGYYYX EDDFYYYX LFPOYYYX LFPGYYYX 120511 METAR LFPG 120511Z 29030KT 9999 FEW030 19/7 Q1038
SS LFPGYYYX EDDFYYYX LFPOYYYX 220329 METAR LFPG 220329Z 24058KT 9999 FEW030 12/6 Q1046
DD LFPGYYYX LFPOYYYX 031659 METAR LFPG 031659Z 03737KT 9999 FEW030 24/4 Q1072
LL LFPGYYYX EGLLYYYX LFPGYYYX LFPOYYYX 081356 METAR LFPG 081356Z 27444KT 9999 FEW030 3/7 Q1055
DD LFPGYYYX LFPBYYYX EGLLYYYX LFPNYYYX 030815 METAR LFPG 030815Z 05313KT 9999 FEW030 26/2 Q1093
KK EDDFYYYX LFPOYYYX EGLLYYYX 091809 METAR LFPG 091809Z 03927KT 9999 FEW030 25/16 Q1000
DD EDDFYYYX LFPOYYYX 241304 METAR LFPG 241304Z 27442KT 9999 FEW030 2/3 Q1048
GG LFPYYYX EDDFYYYX LFPOYYYX 050341 METAR LFPG 050341Z 31142KT 9999 FEW030 14/9 Q1043
FF LFPGYYYX LFPNYYYX 091416 METAR LFPG 091416Z 22715KT 9999 FEW030 2/6 Q1064
FF LFPNYYYX LFPBYYYX LFPBYYYX LFPOYYYX 111239 METAR LFPG 111239Z 12937KT 9999 FEW030 29/8 Q1053
FF LFPOYYYX LFPOYYYX LFPNYYYX LFPNYYYX 282148 METAR LFPG 282148Z 25856KT 9999 FEW030 20/15 Q1060
FF LFPOYYYX LFPOYYYX 260410 METAR LFPG 260410Z 28848KT 9999 FEW030 25/6 Q1082
DD LFPBYYYX LFPBYYYX LFPBYYYX LFPBYYYX 032023 METAR LFPG 032023Z 23351KT 9999 FEW030 12/14 Q1083
LL EDDFYYYX LFPNYYYX 182058 METAR LFPG 182058Z 20817KT 9999 FEW030 0/19 Q1080
KK LFPOYYYX EDDFYYYX 121332 METAR LFPG 121332Z 01010KT 9999 FEW030 16/7 Q1027
DD LFPBYYYX EGLLYYYX 251428 METAR LFPG 251428Z 17847KT 9999 FEW030 17/8 Q1073
SS LFPBYYYX EDDFYYYX 162148 METAR LFPG 162148Z 25816KT 9999 FEW030 11/15 Q1082
KK LFPNYYYX LFPNYYYX LFPNYYYX EDDFYYYX 241408 METAR LFPG 241408Z 10637KT 9999 FEW030 14/0 Q1032
SS LFPGYYYX EGLLYYYX EDDFYYYX EDDFYYYX 201808 METAR LFPG 201808Z 03847KT 9999 FEW030 18/1 Q1063
LL EGLLYYYX LFPBYYYX 062330 METAR LFPG 062330Z 30818KT 9999 FEW030 1/1 Q1074
SS EDDFYYYX LFPGYYYX LFPBYYYX EGLLYYYX 072058 METAR LFPG 072058Z 08857KT 9999 FEW030 4/3 Q1082
DD LFPBYYYX LFPOYYYX LFPOYYYX LFPNYYYX 270822 METAR LFPG 270822Z 09141KT 9999 FEW030 10/1 Q1099
GG EGLLYYYX LFPOYYYX 151635 METAR LFPG 151635Z 13323KT 9999 FEW030 27/16 Q1000
GG LFPBYYYX LFPGYYYX LFPOYYYX 250721 METAR LFPG 250721Z 29159KT 9999 FEW030 17/6 Q1002
FF EGLLYYYX LFPBYYYX 281332 METAR LFPG 281332Z 01020KT 9999 FEW030 11/9 Q1022
SS LFPGYYYX LFPBYYYX 201800 METAR LFPG 201800Z 03849KT 9999 FEW030 13/4 Q1045
DD EGLLYYYX LFPOYYYX LFPGYYYX 170713 METAR LFPG 170713Z 05142KT 9999 FEW030 9/8 Q1021
KK LFPBYYYX EDDFYYYX 051453 METAR LFPG 051453Z 20321KT 9999 FEW030 23/16 Q1048
SS LFPOYYYX LFPOYYYX LFPBYYYX LFPGYYYX 120318 METAR LFPG 120318Z 04846KT 9999 FEW030 0/14 Q1074
GG LFPGYYYX LFPBYYYX 061118 METAR LFPG 061118Z 05656KT 9999 FEW030 5/7 Q1073
SS EGLLYYYX LFPBYYYX 031619 METAR LFPG 031619Z 34957KT 9999 FEW030 18/3 Q1022
DD LFPYYYX LFPGYYYX 242159 METAR LFPG 242159Z 08958KT 9999 FEW030 3/17 Q1041
DD LFPBYYYX LFPNYYYX EGLLYYYX LFPNYYYX 231630 METAR LFPG 231630Z 30129KT 9999 FEW030 17/7 Q1061
LL EGLLYYYX LFPNYYYX 250204 METAR LFPG 250204Z 21523KT 9999 FEW030 25/3 Q1070
KK LFPOYYYX LFPNYYYX 230423 METAR LFPG 230423Z 12111KT 9999 FEW030 26/2 Q1048
LL LFPNYYYX EDDFYYYX EDDFYYYX 210649 METAR LFPG 210649Z 02737KT 9999 FEW030 5/0 Q1052
FF LFPNYYYX LFPNYYYX 141541 METAR LFPG 141541Z 01242KT 9999 FEW030 2/17 Q1038
KK LFPGYYYX EDDFYYYX LFPGYYYX EGLLYYYX 111630 METAR LFPG 111630Z 18019KT 9999 FEW030 25/0 Q1061
KK EGLLYYYX EDDFYYYX EDDFYYYX LFPNYYYX 161052 METAR LFPG 161052Z 27011KT 9999 FEW030 7/0 Q1082
SS LFPBYYYX LFPNYYYX EDDFYYYX 151607 METAR LFPG 151607Z 15755KT 9999 FEW030 26/6 Q1023
SS LFPBYYYX LFPBYYYX 120208 METAR LFPG 120208Z 04647KT 9999 FEW030 2/16 Q1047
GG LFPOYYYX EDDFYYYX LFPGYYYX LFPNYYYX 150435 METAR LFPG 150435Z 19333KT 9999 FEW030 11/6 Q1022
KK LFPOYYYX EDDFYYYX 080127 METAR LFPG 080127Z 11856KT 9999 FEW030 8/15 Q1025
KK LFPOYYYX LFPOYYYX 022302 METAR LFPG 022302Z 09220KT 9999 FEW030 25/4 Q1085
DD LFPBYYYX LFPNYYYX EGLLYYYX 270823 METAR LFPG 270823Z 29351KT 9999 FEW030 21/15 Q1044
KK EDDFYYYX EGLLYYYX 011048 METAR LFPG 011048Z 07917KT 9999 FEW030 29/9 Q1066
LL EDDFYYYX LFPNYYYX 282100 METAR LFPG 282100Z 21058KT 9999 FEW030 15/19 Q1092
FF LFPYYYX EGLLYYYX 210645 METAR LFPG 210645Z 07533KT 9999 FEW030 12/9 Q1026
GG LFPGYYYX LFPNYYYX LFPBYYYX LFPBYYYX 241331 METAR LFPG 241331Z 13050KT 9999 FEW030 11/13 Q1078
LL LFPYYYX LFPOYYYX 241408 METAR LFPG 241408Z 34617KT 9999 FEW030 0/14 Q1042
LL LFPYYYX EDDFYYYX 071743 METAR LFPG 071743Z 25332KT 9999 FEW030 10/12 Q1045
DD LFPGYYYX EDDFYYYX EDDFYYYX LFPNYYYX 022026 METAR LFPG 022026Z 30444KT 9999 FEW030 5/0 Q1063
DD LFPGYYYX EGLLYYYX 170240 METAR LFPG 170240Z 19129KT 9999 FEW030 24/14 Q1098
FF LFPOYYYX EGLLYYYX LFPNYYYX LFPGYYYX 141509 METAR LFPG 141509Z 34858KT 9999 FEW030 6/14 Q1022
FF LFPGYYYX EDDFYYYX LFPNYYYX EGLLYYYX 040940 METAR LFPG 040940Z 19848KT 9999 FEW030 18/4 Q1019
DD LFPNYYYX EGLLYYYX EGLLYYYX 171837 METAR LFPG 171837Z 25525KT 9999 FEW030 20/13 Q1028
FF EDDFYYYX LFPGYYYX 030435 METAR LFPG 030435Z 18533KT 9999 FEW030 0/11 Q1042
KK LFPOYYYX LFPNYYYX LFPOYYYX EGLLYYYX 012301 METAR LFPG 012301Z 33150KT 9999 FEW030 1/11 Q1022
LL LFPYYYX LFPGYYYX 240500 METAR LFPG 240500Z 33838KT 9999 FEW030 12/16 Q1085
KK LFPBYYYX EGLLYYYX 040156 METAR LFPG 040156Z 09434KT 9999 FEW030 21/11 Q1001
KK LFPGYYYX EGLLYYYX EDDFYYYX 281344 METAR LFPG 281344Z 08232KT 9999 FEW030 13/14 Q1095
LL LFPNYYYX LFPBYYYX 251808 METAR LFPG 251808Z 15829KT 9999 FEW030 12/10 Q1064
KK LFPOYYYX LFPBYYYX LFPNYYYX 221509 METAR LFPG 221509Z 34828KT 9999 FEW030 26/8 Q1088
DD EGLLYYYX LFPBYYYX LFPBYYYX EGLLYYYX 062305 METAR LFPG 062305Z 28434KT 9999 FEW030 4/9 Q1094
GG EDDFYYYX EGLLYYYX LFPGYYYX EGLLYYYX 161040 METAR LFPG 161040Z 19859KT 9999 FEW030 13/15 Q1098
DD LFPYYYX LFPBYYYX 260333 METAR LFPG 260333Z 31212KT 9999 FEW030 19/6 Q1035
GG EGLLYYYX LFPNYYYX EDDFYYYX LFPOYYYX 241356 METAR LFPG 241356Z 15424KT 9999 FEW030 16/10 Q1078
KK EGLLYYYX EDDFYYYX 261545 METAR LFPG 261545Z 08354KT 9999 FEW030 18/10 Q1080
DD EDDFYYYX LFPOYYYX LFPNYYYX 080156 METAR LFPG 080156Z 21454KT 9999 FEW030 3/13 Q1058
LL LFPNYYYX LFPOYYYX LFPNYYYX 040547 METAR LFPG 040547Z 14646KT 9999 FEW030 7/3 Q1057
FF LFPYYYX LFPOYYYX 140749 METAR LFPG 140749Z 26738KT 9999 FEW030 21/10 Q1068
FF EGLLYYYX LFPOYYYX 100042 METAR LFPG 100042Z 26021KT 9999 FEW030 19/4 Q1080
DD LFPNYYYX EDDFYYYX EDDFYYYX LFPBYYYX 091113 METAR LFPG 091113Z 22352KT 9999 FEW030 2/15 Q1008
FF LFPGYYYX LFPBYYYX LFPOYYYX 021129 METAR LFPG 021129Z 24838KT 9999 FEW030 1/1 Q1031
SS LFPGYYYX EDDFYYYX LFPBYYYX LFPOYYYX 211541 METAR LFPG 211541Z 01139KT 9999 FEW030 17/15 Q1094
FF EDDFYYYX LFPOYYYX 102046 METAR LFPG 102046Z 25615KT 9999 FEW030 26/10 Q1015
FF EGLLYYYX LFPNYYYX LFPBYYYX 242112 METAR LFPG 242112Z 16210KT 9999 FEW030 5/8 Q1056
DD EDDFYYYX LFPBYYYX EDDFYYYX 042152 METAR LFPG 042152Z 09030KT 9999 FEW030 27/17 Q1061
KK LFPGYYYX LFPBYYYX LFPNYYYX EGLLYYYX 050221 METAR LFPG 050221Z 23949KT 9999 FEW030 0/15 Q1024
LL LFPBYYYX LFPGYYYX LFPNYYYX 260430 METAR LFPG 260430Z 12048KT 9999 FEW030 22/19 Q1097
LL LFPBYYYX LFPOYYYX LFPNYYYX EDDFYYYX 161800 METAR LFPG 161800Z 15849KT 9999 FEW030 5/7 Q1098
LL LFPGYYYX EDDFYYYX 270054 METAR LFPG 270054Z 33343KT 9999 FEW030 4/5 Q1086
SS LFPYYYX LFPOYYYX 252337 METAR LFPG 252337Z 18758KT 9999 FEW030 21/18 Q1006
DD LFPBYYYX LFPNYYYX 280904 METAR LFPG 280904Z 10232KT 9999 FEW030 0/5 Q1085
GG LFPGYYYX LFPBYYYX EDDFYYYX LFPOYYYX 110406 METAR LFPG 110406Z 33715KT 9999 FEW030 7/1 Q1070
FF LFPGYYYX LFPOYYYX LFPOYYYX EDDFYYYX 181937 METAR LFPG 181937Z 13536KT 9999 FEW030 20/16 Q1039
DD LFPYYYX LFPBYYYX LFPOYYYX LFPNYYYX 031327 METAR LFPG 031327Z 05736KT 9999 FEW030 15/3 Q1073
SS EGLLYYYX LFPOYYYX LFPGYYYX 232139 METAR LFPG 232139Z 13727KT 9999 FEW030 9/5 Q1087
DD LFPGYYYX EDDFYYYX EDDFYYYX 230423 METAR LFPG 230423Z 12131KT 9999 FEW030 5/4 Q1030
FF LFPGYYYX LFPBYYYX 222046 METAR LFPG 222046Z 13655KT 9999 FEW030 3/9 Q1001
DD EGLLYYYX LFPGYYYX LFPOYYYX LFPOYYYX 221522 METAR LFPG 221522Z 30030KT 9999 FEW030 21/3 Q1069
LL LFPNYYYX EGLLYYYX 270422 METAR LFPG 270422Z 00121KT 9999 FEW030 4/14 Q1046
GG LFPBYYYX LFPGYYYX 050608 METAR LFPG 050608Z 33947KT 9999 FEW030 25/19 Q1013
SS LFPBYYYX LFPOYYYX LFPGYYYX 150814 METAR LFPG 150814Z 17343KT 9999 FEW030 13/12 Q1065
GG EGLLYYYX EGLLYYYX 261202 METAR LFPG 261202Z 27240KT 9999 FEW030 5/7 Q1000
KK LFPOYYYX LFPNYYYX 181250 METAR LFPG 181250Z 20029KT 9999 FEW030 28/14 Q1082
SS EGLLYYYX EGLLYYYX LFPGYYYX LFPGYYYX 012216 METAR LFPG 012216Z 35515KT 9999 FEW030 7/6 Q1036
SS LFPNYYYX LFPNYYYX EGLLYYYX LFPBYYYX 102301 METAR LFPG 102301Z 09210KT 9999 FEW030 4/7 Q1027
GG LFPNYYYX EDDFYYYX 030939 METAR LFPG 030939Z 31718KT 9999 FEW030 24/13 Q1007
GG LFPGYYYX EDDFYYYX LFPNYYYX 240140 METAR LFPG 240140Z 31048KT 9999 FEW030 0/8 Q1077
SS LFPYYYX EGLLYYYX LFPOYYYX 052237 METAR LFPG 052237Z 18735KT 9999 FEW030 1/1 Q1014
GG LFPGYYYX LFPGYYYX 261505 METAR LFPG 261505Z 15624KT 9999 FEW030 12/7 Q1096
SS LFPYYYX LFPGYYYX LFPBYYYX EDDFYYYX 211813 METAR LFPG 211813Z 11121KT 9999 FEW030 2/9 Q1069
GG EDDFYYYX LFPGYYYX 101534 METAR LFPG 101534Z 01242KT 9999 FEW030 5/16 Q1028
GG LFPBYYYX LFPBYYYX 161048 METAR LFPG 161048Z 31836KT 9999 FEW030 16/4 Q1022
KK EGLLYYYX LFPBYYYX LFPNYYYX LFPBYYYX 160912 METAR LFPG 160912Z 22210KT 9999 FEW030 22/8 Q1023
KK LFPOYYYX EDDFYYYX LFPNYYYX 131801 METAR LFPG 131801Z 27929KT 9999 FEW030 24/0 Q1081
KK LFPGYYYX EDDFYYYX 071654 METAR LFPG 071654Z 32533KT 9999 FEW030 22/0 Q1097
FF LFPNYYYX LFPBYYYX LFPNYYYX LFPNYYYX 100318 METAR LFPG 100318Z 28826KT 9999 FEW030 28/10 Q1014
FF LFPOYYYX EGLLYYYX EDDFYYYX LFPOYYYX 091509 METAR LFPG 091509Z 10758KT 9999 FEW030 2/10 Q1014
GG EGLLYYYX LFPGYYYX 181206 METAR LFPG 181206Z 22435KT 9999 FEW030 11/13 Q1024
LL EGLLYYYX LFPNYYYX 222058 METAR LFPG 222058Z 08837KT 9999 FEW030 7/18 Q1061
DD LFPOYYYX LFPNYYYX EGLLYYYX 060357 METAR LFPG 060357Z 33656KT 9999 FEW030 19/17 Q1070
LL LFPNYYYX LFPBYYYX LFPBYYYX LFPNYYYX 070847 METAR LFPG 070847Z 31725KT 9999 FEW030 13/6 Q1015
FF LFPGYYYX LFPNYYYX EDDFYYYX 052253 METAR LFPG 052253Z 33111KT 9999 FEW030 2/3 Q1069
GG LFPNYYYX EGLLYYYX 172337 METAR LFPG 172337Z 06716KT 9999 FEW030 20/0 Q1024
DD LFPBYYYX LFPBYYYX LFPBYYYX 180826 METAR LFPG 180826Z 12415KT 9999 FEW030 22/7 Q1079
LL LFPOYYYX LFPBYYYX LFPOYYYX LFPOYYYX 160555 METAR LFPG 160555Z 02634KT 9999 FEW030 25/15 Q1045
KK LFPBYYYX EGLLYYYX LFPOYYYX LFPNYYYX 111619 METAR LFPG 111619Z 34937KT 9999 FEW030 1/14 Q1002
FF LFPBYYYX EDDFYYYX LFPBYYYX 030054 METAR LFPG 030054Z 21343KT 9999 FEW030 19/10 Q1002
DD LFPNYYYX LFPGYYYX EGLLYYYX 221957 METAR LFPG 221957Z 20826KT 9999 FEW030 27/0 Q1057
KK EGLLYYYX LFPBYYYX LFPBYYYX 112010 METAR LFPG 112010Z 16159KT 9999 FEW030 14/19 Q1076
SS EDDFYYYX LFPOYYYX 031623 METAR LFPG 031623Z 06141KT 9999 FEW030 9/1 Q1077
LL EDDFYYYX EGLLYYYX LFPNYYYX 051949 METAR LFPG 051949Z 32738KT 9999 FEW030 18/17 Q1054
FF EGLLYYYX LFPNYYYX 150055 METAR LFPG 150055Z 21313KT 9999 FEW030 28/4 Q1039
FF EDDFYYYX LFPOYYYX EDDFYYYX LFPBYYYX 030815 METAR LFPG 030815Z 04543KT 9999 FEW030 1/9 Q1047
GG EGLLYYYX EGLLYYYX 221522 METAR LFPG 221522Z 30030KT 9999 FEW030 12/16 Q1020
KK LFPBYYYX LFPBYYYX LFPNYYYX LFPNYYYX 241315 METAR LFPG 241315Z 34634KT 9999 FEW030 18/0 Q1083
FF LFPOYYYX EGLLYYYX LFPNYYYX 162103 METAR LFPG 162103Z 28212KT 9999 FEW030 19/10 Q1095
FF LFPNYYYX LFPGYYYX LFPOYYYX LFPGYYYX 151218 METAR LFPG 151218Z 05617KT 9999 FEW030 8/19 Q1055
KK LFPOYYYX EDDFYYYX 271654 METAR LFPG 271654Z 08523KT 9999 FEW030 19/5 Q1097
LL EDDFYYYX LFPNYYYX LFPNYYYX 012349 METAR LFPG 012349Z 01938KT 9999 FEW030 26/1 Q1077
DD LFPOYYYX EGLLYYYX EGLLYYYX EGLLYYYX 021137 METAR LFPG 021137Z 00756KT 9999 FEW030 26/9 Q1041
KK LFPGYYYX LFPOYYYX EDDFYYYX 042228 METAR LFPG 042228Z 18617KT 9999 FEW030 0/16 Q1058
GG EDDFYYYX EDDFYYYX LFPNYYYX LFPOYYYX 082147 METAR LFPG 082147Z 25838KT 9999 FEW030 15/5 Q1095
KK LFPBYYYX EGLLYYYX 071707 METAR LFPG 071707Z 03728KT 9999 FEW030 18/4 Q1048
GG LFPYYYX LFPNYYYX 142301 METAR LFPG 142301Z 09220KT 9999 FEW030 24/7 Q1078
KK EGLLYYYX LFPGYYYX LFPGYYYX EGLLYYYX 050649 METAR LFPG 050649Z 02757KT 9999 FEW030 24/2 Q1035
DD EGLLYYYX LFPOYYYX LFPNYYYX 121456 METAR LFPG 121456Z 15454KT 9999 FEW030 6/5 Q1065
DD LFPNYYYX EGLLYYYX 071647 METAR LFPG 071647Z 20515KT 9999 FEW030 9/12 Q1015
DD LFPOYYYX EDDFYYYX LFPBYYYX LFPBYYYX 110115 METAR LFPG 110115Z 04544KT 9999 FEW030 12/17 Q1064
KK LFPYYYX LFPNYYYX LFPOYYYX LFPBYYYX 011832 METAR LFPG 011832Z 06351KT 9999 FEW030 12/6 Q1064
FF LFPYYYX LFPNYYYX LFPNYYYX LFPGYYYX 252240 METAR LFPG 252240Z 25849KT 9999 FEW030 2/7 Q1094
FF LFPGYYYX LFPNYYYX LFPNYYYX LFPGYYYX 162128 METAR LFPG 162128Z 30636KT 9999 FEW030 24/3 Q1056
KK LFPGYYYX LFPNYYYX 210209 METAR LFPG 210209Z 16717KT 9999 FEW030 17/13 Q1019
SS LFPNYYYX EGLLYYYX 150442 METAR LFPG 150442Z 07311KT 9999 FEW030 26/12 Q1091
LL LFPOYYYX EGLLYYYX LFPNYYYX LFPNYYYX 190935 METAR LFPG 190935Z 00544KT 9999 FEW030 1/18 Q1007
GG LFPOYYYX LFPOYYYX 141949 METAR LFPG 141949Z 32838KT 9999 FEW030 28/6 Q1060
SS LFPNYYYX EDDFYYYX LFPOYYYX LFPNYYYX 032022 METAR LFPG 032022Z 23311KT 9999 FEW030 5/1 Q1089
DD EDDFYYYX LFPNYYYX LFPGYYYX 140002 METAR LFPG 140002Z 09251KT 9999 FEW030 19/9 Q1065
KK LFPBYYYX LFPGYYYX LFPNYYYX 100838 METAR LFPG 100838Z 19647KT 9999 FEW030 8/9 Q1079
FF EGLLYYYX LFPGYYYX EDDFYYYX 041356 METAR LFPG 041356Z 03434KT 9999 FEW030 8/8 Q1005
KK LFPGYYYX EDDFYYYX LFPOYYYX 011409 METAR LFPG 011409Z 34727KT 9999 FEW030 3/14 Q1098
GG LFPOYYYX LFPBYYYX 220306 METAR LFPG 220306Z 09624KT 9999 FEW030 27/9 Q1046
KK LFPNYYYX EGLLYYYX LFPOYYYX LFPGYYYX 141137 METAR LFPG 141137Z 12746KT 9999 FEW030 11/9 Q1059
SS LFPOYYYX LFPOYYYX LFPOYYYX 120524 METAR LFPG 120524Z 00232KT 9999 FEW030 10/2 Q1072
KK EDDFYYYX LFPOYYYX 101521 METAR LFPG 101521Z 17920KT 9999 FEW030 20/11 Q1055
GG LFPYYYX LFPBYYYX EGLLYYYX LFPOYYYX 241444 METAR LFPG 241444Z 32223KT 9999 FEW030 17/16 Q1098
FF LFPBYYYX LFPBYYYX 122112 METAR LFPG 122112Z 16250KT 9999 FEW030 19/2 Q1089
DD LFPGYYYX LFPBYYYX 011457 METAR LFPG 011457Z 15525KT 9999 FEW030 17/0 Q1056
SS LFPYYYX LFPBYYYX 220750 METAR LFPG 220750Z 02858KT 9999 FEW030 22/0 Q1068
FF EDDFYYYX LFPOYYYX LFPGYYYX 210309 METAR LFPG 210309Z 16717KT 9999 FEW030 16/11 Q1008
DD LFPYYYX LFPGYYYX LFPGYYYX LFPNYYYX 270838 METAR LFPG 270838Z 31657KT 9999 FEW030 27/2 Q1027
KK LFPGYYYX LFPNYYYX LFPOYYYX LFPBYYYX 061950 METAR LFPG 061950Z 20858KT 9999 FEW030 21/10 Q1046
FF LFPGYYYX LFPGYYYX LFPOYYYX 021921 METAR LFPG 021921Z 23130KT 9999 FEW030 27/12 Q1046
SS EDDFYYYX LFPGYYYX 282136 METAR LFPG 282136Z 06624KT 9999 FEW030 24/12 Q1095
SS LFPYYYX LFPOYYYX LFPGYYYX EDDFYYYX 251000 METAR LFPG 251000Z 15129KT 9999 FEW030 24/17 Q1099
SS EGLLYYYX LFPNYYYX LFPGYYYX LFPOYYYX 171001 METAR LFPG 171001Z 27149KT 9999 FEW030 6/8 Q1053
KK LFPGYYYX LFPNYYYX EDDFYYYX 190043 METAR LFPG 190043Z 02111KT 9999 FEW030 23/0 Q1055
DD LFPGYYYX EDDFYYYX 280544 METAR LFPG 280544Z 31452KT 9999 FEW030 6/14 Q1035
KK LFPOYYYX EDDFYYYX LFPGYYYX EDDFYYYX 040140 METAR LFPG 040140Z 19028KT 9999 FEW030 7/8 Q1083
FF EDDFYYYX EGLLYYYX LFPBYYYX LFPBYYYX 130341 METAR LFPG 130341Z 31130KT 9999 FEW030 21/3 Q1092
SS LFPNYYYX EGLLYYYX EDDFYYYX EDDFYYYX 270006 METAR LFPG 270006Z 16445KT 9999 FEW030 28/1 Q1066
DD LFPGYYYX EGLLYYYX LFPNYYYX 120144 METAR LFPG 120144Z 25412KT 9999 FEW030 10/19 Q1054
FF EDDFYYYX LFPGYYYX EDDFYYYX 250721 METAR LFPG 250721Z 17119KT 9999 FEW030 0/13 Q1098
SS LFPBYYYX EDDFYYYX 260054 METAR LFPG 260054Z 21212KT 9999 FEW030 15/7 Q1023
LL EGLLYYYX EGLLYYYX EGLLYYYX LFPBYYYX 041735 METAR LFPG 041735Z 01444KT 9999 FEW030 1/2 Q1007
LL LFPGYYYX LFPBYYYX LFPOYYYX 261138 METAR LFPG 261138Z 00836KT 9999 FEW030 8/2 Q1006
LL LFPGYYYX LFPBYYYX LFPOYYYX 171101 METAR LFPG 171101Z 03150KT 9999 FEW030 14/5 Q1098
FF LFPOYYYX EGLLYYYX LFPOYYYX 262354 METAR LFPG 262354Z 21222KT 9999 FEW030 19/3 Q1096
GG LFPBYYYX EDDFYYYX LFPBYYYX 252228 METAR LFPG 252228Z 06727KT 9999 FEW030 28/5 Q1003
SS LFPOYYYX EGLLYYYX 040536 METAR LFPG 040536Z 07454KT 9999 FEW030 18/1 Q1057
LL LFPGYYYX LFPOYYYX 171433 METAR LFPG 171433Z 25111KT 9999 FEW030 27/19 Q1061
FF LFPYYYX LFPOYYYX LFPOYYYX LFPNYYYX 192159 METAR LFPG 192159Z 08957KT 9999 FEW030 28/0 Q1091
SS LFPBYYYX EDDFYYYX 200624 METAR LFPG 200624Z 12253KT 9999 FEW030 6/5 Q1067
LL LFPNYYYX EGLLYYYX LFPGYYYX LFPNYYYX 220722 METAR LFPG 220722Z 05240KT 9999 FEW030 8/1 Q1059
SS LFPNYYYX LFPBYYYX 181113 METAR LFPG 181113Z 34422KT 9999 FEW030 4/6 Q1035
FF LFPNYYYX LFPBYYYX LFPGYYYX EGLLYYYX 272151 METAR LFPG 272151Z 20920KT 9999 FEW030 24/1 Q1046
DD LFPYYYX LFPGYYYX LFPBYYYX 181622 METAR LFPG 181622Z 06030KT 9999 FEW030 7/13 Q1026
KK LFPGYYYX LFPGYYYX LFPBYYYX LFPOYYYX 021106 METAR LFPG 021106Z 10434KT 9999 FEW030 26/18 Q1096
DD LFPOYYYX LFPGYYYX LFPNYYYX 121355 METAR LFPG 121355Z 27434KT 9999 FEW030 28/3 Q1061
DD LFPBYYYX LFPBYYYX LFPOYYYX EDDFYYYX 091809 METAR LFPG 091809Z 03957KT 9999 FEW030 16/0 Q1017
KK LFPGYYYX EDDFYYYX 180353 METAR LFPG 180353Z 14452KT 9999 FEW030 13/7 Q1044
FF LFPYYYX EGLLYYYX EDDFYYYX EDDFYYYX 231231 METAR LFPG 231231Z 00959KT 9999 FEW030 2/5 Q1044
FF LFPBYYYX LFPOYYYX LFPBYYYX 121720 METAR LFPG 121720Z 23048KT 9999 FEW030 26/6 Q1045
SS LFPBYYYX EGLLYYYX LFPBYYYX 152038 METAR LFPG 152038Z 13757KT 9999 FEW030 27/14 Q1064
DD LFPBYYYX LFPBYYYX 180709 METAR LFPG 180709Z 21928KT 9999 FEW030 2/18 Q1073
SS LFPOYYYX LFPGYYYX LFPOYYYX LFPNYYYX 150959 METAR LFPG 150959Z 26918KT 9999 FEW030 5/11 Q1063
GG EDDFYYYX EDDFYYYX LFPBYYYX 101505 METAR LFPG 101505Z 03614KT 9999 FEW030 7/18 Q1031
KK LFPYYYX LFPBYYYX 171048 METAR LFPG 171048Z 31947KT 9999 FEW030 3/8 Q1045
LL EDDFYYYX LFPGYYYX 231622 METAR LFPG 231622Z 30121KT 9999 FEW030 19/18 Q1027
KK LFPOYYYX LFPOYYYX 261114 METAR LFPG 261114Z 34442KT 9999 FEW030 15/7 Q1090
DD EDDFYYYX LFPBYYYX LFPOYYYX EDDFYYYX 120511 METAR LFPG 120511Z 28240KT 9999 FEW030 25/1 Q1058
DD LFPNYYYX LFPNYYYX EGLLYYYX 270430 METAR LFPG 270430Z 12029KT 9999 FEW030 26/2 Q1056
FF LFPYYYX LFPNYYYX LFPOYYYX LFPGYYYX 140042 METAR LFPG 140042Z 26011KT 9999 FEW030 13/14 Q1033
KK LFPYYYX LFPBYYYX LFPGYYYX LFPOYYYX 180858 METAR LFPG 180858Z 26837KT 9999 FEW030 11/10 Q1041
SS EDDFYYYX EDDFYYYX 080519 METAR LFPG 080519Z 17038KT 9999 FEW030 7/15 Q1099
FF LFPYYYX LFPBYYYX 191251 METAR LFPG 191251Z 20119KT 9999 FEW030 21/12 Q1011
FF LFPBYYYX LFPNYYYX 041404 METAR LFPG 041404Z 03423KT 9999 FEW030 16/2 Q1011
DD LFPOYYYX LFPBYYYX EGLLYYYX 210216 METAR LFPG 210216Z 04715KT 9999 FEW030 3/10 Q1043
DD EDDFYYYX LFPGYYYX EGLLYYYX 041440 METAR LFPG 041440Z 25038KT 9999 FEW030 9/6 Q1044
GG LFPYYYX EDDFYYYX EGLLYYYX LFPGYYYX 221149 METAR LFPG 221149Z 32058KT 9999 FEW030 23/7 Q1022
LL LFPYYYX EDDFYYYX LFPGYYYX 251848 METAR LFPG 251848Z 31917KT 9999 FEW030 5/0 Q1062
FF LFPYYYX LFPGYYYX LFPOYYYX 020734 METAR LFPG 020734Z 24432KT 9999 FEW030 24/6 Q1031
GG EGLLYYYX LFPNYYYX EGLLYYYX 190559 METAR LFPG 190559Z 09738KT 9999 FEW030 2/0 Q1039
SS EGLLYYYX LFPNYYYX 051800 METAR LFPG 051800Z 15959KT 9999 FEW030 16/16 Q1020
LL LFPGYYYX LFPBYYYX LFPOYYYX 141630 METAR LFPG 141630Z 30059KT 9999 FEW030 20/16 Q1032
SS EGLLYYYX LFPBYYYX LFPNYYYX LFPBYYYX 111343 METAR LFPG 111343Z 08152KT 9999 FEW030 16/15 Q1021
DD LFPNYYYX LFPNYYYX LFPGYYYX 082100 METAR LFPG 082100Z 33028KT 9999 FEW030 7/11 Q1050
DD LFPYYYX LFPBYYYX LFPGYYYX 101250 METAR LFPG 101250Z 08019KT 9999 FEW030 10/14 Q1092
FF EGLLYYYX EDDFYYYX LFPBYYYX LFPOYYYX 280115 METAR LFPG 280115Z 16646KT 9999 FEW030 9/18 Q1084
LL LFPYYYX EDDFYYYX LFPBYYYX LFPGYYYX 190915 METAR LFPG 190915Z 17344KT 9999 FEW030 21/2 Q1079
KK LFPGYYYX EDDFYYYX LFPBYYYX LFPNYYYX 110459 METAR LFPG 110459Z 21717KT 9999 FEW030 18/11 Q1071
FF LFPBYYYX EGLLYYYX LFPBYYYX 061945 METAR LFPG 061945Z 25614KT 9999 FEW030 9/18 Q1004
FF LFPYYYX LFPGYYYX LFPNYYYX EGLLYYYX 262034 METAR LFPG 262034Z 30432KT 9999 FEW030 2/6 Q1013
SS LFPYYYX LFPGYYYX EDDFYYYX 051945 METAR LFPG 051945Z 01514KT 9999 FEW030 25/15 Q1083
KK LFPBYYYX LFPBYYYX LFPNYYYX LFPBYYYX 152014 METAR LFPG 152014Z 35353KT 9999 FEW030 7/18 Q1043
KK EGLLYYYX LFPNYYYX 060322 METAR LFPG 060322Z 00040KT 9999 FEW030 19/16 Q1054
GG EDDFYYYX LFPBYYYX LFPOYYYX LFPGYYYX 220822 METAR LFPG 220822Z 29221KT 9999 FEW030 2/17 Q1070
GG LFPOYYYX LFPNYYYX LFPNYYYX LFPOYYYX 220733 METAR LFPG 220733Z 12442KT 9999 FEW030 18/1 Q1069
SS EDDFYYYX LFPGYYYX EDDFYYYX 270935 METAR LFPG 270935Z 12523KT 9999 FEW030 2/11 Q1021
GG LFPYYYX LFPGYYYX LFPBYYYX 200644 METAR LFPG 200644Z 31453KT 9999 FEW030 23/10 Q1038
LL LFPNYYYX EGLLYYYX 271759 METAR LFPG 271759Z 15738KT 9999 FEW030 21/10 Q1072
SS LFPYYYX EDDFYYYX 241315 METAR LFPG 241315Z 22644KT 9999 FEW030 12/7 Q1039
SS LFPGYYYX LFPNYYYX EDDFYYYX LFPNYYYX 111227 METAR LFPG 111227Z 17745KT 9999 FEW030 27/14 Q1072
FF LFPNYYYX EGLLYYYX LFPGYYYX 042240 METAR LFPG 042240Z 13838KT 9999 FEW030 23/15 Q1002
GG EGLLYYYX LFPGYYYX LFPNYYYX 031623 METAR LFPG 031623Z 06141KT 9999 FEW030 18/7 Q1075
SS LFPYYYX LFPOYYYX 152027 METAR LFPG 152027Z 18525KT 9999 FEW030 5/14 Q1012
KK LFPOYYYX EGLLYYYX EGLLYYYX 200507 METAR LFPG 200507Z 21846KT 9999 FEW030 12/3 Q1005
GG LFPYYYX LFPNYYYX LFPBYYYX 091041 METAR LFPG 091041Z 19949KT 9999 FEW030 27/13 Q1089
KK EGLLYYYX LFPBYYYX 122228 METAR LFPG 122228Z 06637KT 9999 FEW030 27/7 Q1031
KK LFPYYYX LFPBYYYX LFPOYYYX LFPBYYYX 120556 METAR LFPG 120556Z 26644KT 9999 FEW030 29/9 Q1044
KK LFPBYYYX EGLLYYYX LFPNYYYX 062349 METAR LFPG 062349Z 26028KT 9999 FEW030 6/8 Q1093
KK EGLLYYYX EGLLYYYX LFPGYYYX LFPNYYYX 262354 METAR LFPG 262354Z 33232KT 9999 FEW030 22/5 Q1062
FF LFPBYYYX LFPBYYYX 251445 METAR LFPG 251445Z 07543KT 9999 FEW030 18/14 Q1017
SS LFPYYYX EDDFYYYX LFPBYYYX 102338 METAR LFPG 102338Z 06858KT 9999 FEW030 16/6 Q1054
LL LFPGYYYX LFPGYYYX 081824 METAR LFPG 081824Z 18213KT 9999 FEW030 14/3 Q1019
KK LFPOYYYX LFPOYYYX LFPGYYYX EGLLYYYX 112115 METAR LFPG 112115Z 11314KT 9999 FEW030 18/16 Q1040
SS LFPGYYYX EGLLYYYX EDDFYYYX 230431 METAR LFPG 230431Z 00149KT 9999 FEW030 8/3 Q1046
KK EGLLYYYX LFPOYYYX 091812 METAR LFPG 091812Z 35121KT 9999 FEW030 2/15 Q1087
KK LFPGYYYX LFPOYYYX LFPOYYYX 160119 METAR LFPG 160119Z 35858KT 9999 FEW030 22/10 Q1069
KK LFPGYYYX EDDFYYYX 042135 METAR LFPG 042135Z 30634KT 9999 FEW030 12/10 Q1071
SS LFPOYYYX LFPGYYYX EDDFYYYX 271202 METAR LFPG 271202Z 03351KT 9999 FEW030 21/17 Q1071
KK LFPNYYYX LFPGYYYX LFPBYYYX 182330 METAR LFPG 182330Z 30838KT 9999 FEW030 1/16 Q1010
DD EDDFYYYX LFPOYYYX LFPNYYYX 101106 METAR LFPG 101106Z 10434KT 9999 FEW030 12/2 Q1012
KK LFPGYYYX LFPBYYYX EGLLYYYX 280256 METAR LFPG 280256Z 09454KT 9999 FEW030 14/14 Q1048
KK LFPNYYYX LFPNYYYX LFPBYYYX LFPNYYYX 140758 METAR LFPG 140758Z 26858KT 9999 FEW030 12/6 Q1083
KK EDDFYYYX EGLLYYYX LFPGYYYX 112003 METAR LFPG 112003Z 04111KT 9999 FEW030 8/6 Q1055
GG LFPNYYYX LFPNYYYX 141230 METAR LFPG 141230Z 00839KT 9999 FEW030 10/18 Q1073
LL EGLLYYYX LFPBYYYX 110418 METAR LFPG 110418Z 16937KT 9999 FEW030 3/11 Q1003
FF EGLLYYYX LFPGYYYX 240256 METAR LFPG 240256Z 09414KT 9999 FEW030 1/15 Q1096
LL LFPYYYX LFPGYYYX 252248 METAR LFPG 252248Z 25957KT 9999 FEW030 28/7 Q1090
KK LFPNYYYX LFPOYYYX LFPOYYYX 170633 METAR LFPG 170633Z 12341KT 9999 FEW030 16/1 Q1074
FF LFPYYYX LFPBYYYX EDDFYYYX EGLLYYYX 191339 METAR LFPG 191339Z 24928KT 9999 FEW030 5/14 Q1081
DD LFPYYYX LFPBYYYX 061946 METAR LFPG 061946Z 25636KT 9999 FEW030 16/3 Q1064
KK LFPNYYYX LFPBYYYX 211812 METAR LFPG 211812Z 23051KT 9999 FEW030 25/19 Q1035
SS LFPYYYX EDDFYYYX EDDFYYYX 180317 METAR LFPG 180317Z 04846KT 9999 FEW030 5/15 Q1017
DD EDDFYYYX LFPOYYYX 020846 METAR LFPG 020846Z 31615KT 9999 FEW030 16/9 Q1072
FF EGLLYYYX EGLLYYYX LFPNYYYX 110443 METAR LFPG 110443Z 07321KT 9999 FEW030 17/19 Q1068
KK EGLLYYYX LFPGYYYX LFPGYYYX 090749 METAR LFPG 090749Z 02758KT 9999 FEW030 14/2 Q1044
KK EDDFYYYX LFPOYYYX LFPNYYYX 202135 METAR LFPG 202135Z 18534KT 9999 FEW030 5/3 Q1029
SS EDDFYYYX LFPNYYYX 070418 METAR LFPG 070418Z 28937KT 9999 FEW030 22/0 Q1008
SS EDDFYYYX LFPNYYYX LFPNYYYX EGLLYYYX 171825 METAR LFPG 171825Z 06313KT 9999 FEW030 11/7 Q1073
KK EGLLYYYX EGLLYYYX 270051 METAR LFPG 270051Z 26139KT 9999 FEW030 12/14 Q1029
SS EGLLYYYX EDDFYYYX 011521 METAR LFPG 011521Z 05120KT 9999 FEW030 24/10 Q1048
GG LFPGYYYX LFPNYYYX 111622 METAR LFPG 111622Z 06011KT 9999 FEW030 8/0 Q1042
GG LFPYYYX EGLLYYYX EGLLYYYX 140357 METAR LFPG 140357Z 09626KT 9999 FEW030 18/15 Q1049
FF LFPYYYX LFPOYYYX LFPGYYYX LFPNYYYX 051553 METAR LFPG 051553Z 20331KT 9999 FEW030 26/3 Q1010
GG LFPBYYYX LFPNYYYX 141934 METAR LFPG 141934Z 30412KT 9999 FEW030 11/8 Q1006
KK EDDFYYYX EGLLYYYX EDDFYYYX 010600 METAR LFPG 010600Z 33829KT 9999 FEW030 28/16 Q1036
SS EDDFYYYX EGLLYYYX LFPGYYYX LFPOYYYX 272022 METAR LFPG 272022Z 23331KT 9999 FEW030 17/14 Q1099
FF LFPOYYYX EDDFYYYX 191315 METAR LFPG 191315Z 10533KT 9999 FEW030 21/8 Q1035
LL LFPGYYYX LFPNYYYX LFPOYYYX 090649 METAR LFPG 090649Z 26737KT 9999 FEW030 8/3 Q1079
FF EGLLYYYX LFPGYYYX 012216 METAR LFPG 012216Z 11535KT 9999 FEW030 10/6 Q1055
GG LFPYYYX EDDFYYYX LFPGYYYX 150431 METAR LFPG 150431Z 00119KT 9999 FEW030 7/12 Q1083
SS LFPBYYYX LFPGYYYX 271219 METAR LFPG 271219Z 17717KT 9999 FEW030 7/8 Q1065
SS LFPOYYYX EGLLYYYX LFPGYYYX LFPNYYYX 231226 METAR LFPG 231226Z 17645KT 9999 FEW030 19/3 Q1087
FF LFPNYYYX LFPGYYYX 200535 METAR LFPG 200535Z 31424KT 9999 FEW030 11/12 Q1013
DD LFPGYYYX LFPNYYYX LFPOYYYX 130204 METAR LFPG 130204Z 33553KT 9999 FEW030 14/8 Q1002
FF EDDFYYYX EGLLYYYX LFPNYYYX 212236 METAR LFPG 212236Z 30745KT 9999 FEW030 29/7 Q1081
FF LFPBYYYX EDDFYYYX EGLLYYYX LFPNYYYX 080555 METAR LFPG 080555Z 26614KT 9999 FEW030 22/12 Q1044
LL LFPNYYYX EDDFYYYX EGLLYYYX 041344 METAR LFPG 041344Z 32242KT 9999 FEW030 23/15 Q1026
LL LFPBYYYX LFPBYYYX LFPOYYYX LFPBYYYX 102026 METAR LFPG 102026Z 18444KT 9999 FEW030 18/11 Q1066
LL LFPBYYYX LFPOYYYX LFPGYYYX 171832 METAR LFPG 171832Z 06341KT 9999 FEW030 29/19 Q1086
LL EDDFYYYX LFPBYYYX EGLLYYYX 261618 METAR LFPG 261618Z 34826KT 9999 FEW030 19/6 Q1067
GG LFPNYYYX LFPOYYYX EDDFYYYX 200107 METAR LFPG 200107Z 04646KT 9999 FEW030 29/18 Q1033
SS LFPYYYX EGLLYYYX EDDFYYYX LFPGYYYX 082127 METAR LFPG 082127Z 30646KT 9999 FEW030 23/10 Q1007
DD LFPNYYYX LFPGYYYX LFPNYYYX 010656 METAR LFPG 010656Z 26735KT 9999 FEW030 26/15 Q1053
DD LFPBYYYX LFPGYYYX LFPBYYYX LFPBYYYX 172329 METAR LFPG 172329Z 06758KT 9999 FEW030 12/14 Q1031
FF LFPNYYYX EDDFYYYX LFPNYYYX LFPBYYYX 021618 METAR LFPG 021618Z 22817KT 9999 FEW030 5/5 Q1048
FF LFPNYYYX LFPNYYYX 250233 METAR LFPG 250233Z 19151KT 9999 FEW030 2/0 Q1026
FF LFPNYYYX EDDFYYYX LFPGYYYX EDDFYYYX 080916 METAR LFPG 080916Z 16624KT 9999 FEW030 28/14 Q1024
KK LFPOYYYX LFPNYYYX 042139 METAR LFPG 042139Z 01848KT 9999 FEW030 26/12 Q1070
KK LFPGYYYX LFPNYYYX EDDFYYYX 181510 METAR LFPG 181510Z 10828KT 9999 FEW030 9/8 Q1007
GG LFPNYYYX LFPBYYYX 110951 METAR LFPG 110951Z 14150KT 9999 FEW030 24/16 Q1033
GG LFPNYYYX LFPGYYYX 121759 METAR LFPG 121759Z 27728KT 9999 FEW030 15/8 Q1032
SS LFPNYYYX EGLLYYYX LFPGYYYX 070054 METAR LFPG 070054Z 21333KT 9999 FEW030 23/0 Q1007
FF EDDFYYYX LFPOYYYX LFPGYYYX 171440 METAR LFPG 171440Z 13039KT 9999 FEW030 13/10 Q1043
KK LFPNYYYX LFPNYYYX 130220 METAR LFPG 130220Z 11949KT 9999 FEW030 5/11 Q1026
SS EDDFYYYX EDDFYYYX LFPNYYYX EDDFYYYX 192011 METAR LFPG 192011Z 28119KT 9999 FEW030 0/6 Q1051
DD LFPYYYX LFPNYYYX LFPBYYYX EGLLYYYX 252237 METAR LFPG 252237Z 30725KT 9999 FEW030 1/7 Q1046
GG LFPGYYYX EDDFYYYX EDDFYYYX 131441 METAR LFPG 131441Z 13159KT 9999 FEW030 17/18 Q1030
GG EDDFYYYX LFPGYYYX LFPNYYYX 160143 METAR LFPG 160143Z 02222KT 9999 FEW030 2/16 Q1058
LL EDDFYYYX LFPBYYYX EDDFYYYX 211812 METAR LFPG 211812Z 11111KT 9999 FEW030 6/2 Q1004
LL LFPGYYYX EDDFYYYX LFPNYYYX 041719 METAR LFPG 041719Z 22928KT 9999 FEW030 25/19 Q1054
SS LFPBYYYX EDDFYYYX EDDFYYYX 150115 METAR LFPG 150115Z 28524KT 9999 FEW030 26/15 Q1039
DD EGLLYYYX EDDFYYYX EDDFYYYX 160915 METAR LFPG 160915Z 29434KT 9999 FEW030 8/6 Q1033
GG LFPOYYYX LFPGYYYX 040152 METAR LFPG 040152Z 02220KT 9999 FEW030 19/17 Q1048
DD EGLLYYYX EDDFYYYX LFPBYYYX 150846 METAR LFPG 150846Z 31755KT 9999 FEW030 26/9 Q1029
LL LFPNYYYX LFPBYYYX 152026 METAR LFPG 152026Z 30515KT 9999 FEW030 19/5 Q1043
FF EGLLYYYX LFPOYYYX LFPNYYYX 241344 METAR LFPG 241344Z 08242KT 9999 FEW030 19/7 Q1043
GG LFPYYYX EGLLYYYX LFPGYYYX EGLLYYYX 011113 METAR LFPG 011113Z 34341KT 9999 FEW030 22/9 Q1042
LL LFPBYYYX LFPBYYYX LFPOYYYX 251949 METAR LFPG 251949Z 20718KT 9999 FEW030 11/15 Q1040
FF EGLLYYYX LFPBYYYX 121315 METAR LFPG 121315Z 22654KT 9999 FEW030 12/14 Q1034
DD EGLLYYYX LFPGYYYX 241316 METAR LFPG 241316Z 10644KT 9999 FEW030 16/9 Q1013
KK LFPOYYYX EGLLYYYX LFPBYYYX LFPOYYYX 062305 METAR LFPG 062305Z 28314KT 9999 FEW030 18/17 Q1056
LL LFPGYYYX LFPNYYYX LFPNYYYX 112034 METAR LFPG 112034Z 06445KT 9999 FEW030 22/1 Q1091
DD LFPOYYYX LFPOYYYX EDDFYYYX 161456 METAR LFPG 161456Z 27424KT 9999 FEW030 4/5 Q1012
SS LFPGYYYX LFPBYYYX 221541 METAR LFPG 221541Z 01150KT 9999 FEW030 24/9 Q1042
DD EDDFYYYX LFPBYYYX 011808 METAR LFPG 011808Z 15957KT 9999 FEW030 26/6 Q1074
KK LFPGYYYX LFPBYYYX LFPBYYYX 010317 METAR LFPG 010317Z 16745KT 9999 FEW030 16/11 Q1080
KK EDDFYYYX LFPBYYYX LFPNYYYX LFPBYYYX 111251 METAR LFPG 111251Z 08149KT 9999 FEW030 3/8 Q1054
LL EDDFYYYX LFPOYYYX EGLLYYYX 092305 METAR LFPG 092305Z 16334KT 9999 FEW030 22/3 Q1031
LL EDDFYYYX EGLLYYYX LFPOYYYX LFPOYYYX 200536 METAR LFPG 200536Z 06624KT 9999 FEW030 5/17 Q1072
FF LFPBYYYX EGLLYYYX LFPGYYYX LFPBYYYX 210204 METAR LFPG 210204Z 21533KT 9999 FEW030 8/2 Q1039
DD LFPOYYYX EDDFYYYX LFPOYYYX LFPBYYYX 191755 METAR LFPG 191755Z 08523KT 9999 FEW030 11/15 Q1028
GG LFPOYYYX EDDFYYYX 221610 METAR LFPG 221610Z 10019KT 9999 FEW030 0/15 Q1011
DD EGLLYYYX EDDFYYYX LFPBYYYX LFPNYYYX 190446 METAR LFPG 190446Z 26545KT 9999 FEW030 19/16 Q1048
GG EDDFYYYX LFPGYYYX EDDFYYYX EDDFYYYX 260749 METAR LFPG 260749Z 14758KT 9999 FEW030 4/17 Q1060
FF LFPBYYYX EDDFYYYX LFPOYYYX EGLLYYYX 101654 METAR LFPG 101654Z 20412KT 9999 FEW030 14/4 Q1070
GG LFPOYYYX EDDFYYYX 180858 METAR LFPG 180858Z 14836KT 9999 FEW030 22/8 Q1068
DD EGLLYYYX LFPBYYYX EGLLYYYX 020442 METAR LFPG 020442Z 19251KT 9999 FEW030 19/16 Q1092
KK LFPGYYYX LFPNYYYX LFPNYYYX 022034 METAR LFPG 022034Z 06452KT 9999 FEW030 23/10 Q1077
KK LFPYYYX LFPGYYYX 170305 METAR LFPG 170305Z 09534KT 9999 FEW030 29/19 Q1021
FF LFPOYYYX LFPOYYYX LFPBYYYX 011000 METAR LFPG 011000Z 03149KT 9999 FEW030 6/18 Q1073
DD LFPNYYYX LFPOYYYX LFPOYYYX 260318 METAR LFPG 260318Z 04816KT 9999 FEW030 28/1 Q1022
LL EGLLYYYX LFPBYYYX LFPOYYYX 170657 METAR LFPG 170657Z 02715KT 9999 FEW030 20/11 Q1008
DD EGLLYYYX EDDFYYYX 110838 METAR LFPG 110838Z 31647KT 9999 FEW030 14/1 Q1068
KK LFPBYYYX EGLLYYYX LFPGYYYX 201744 METAR LFPG 201744Z 13424KT 9999 FEW030 24/2 Q1056
KK LFPOYYYX LFPGYYYX 172337 METAR LFPG 172337Z 06756KT 9999 FEW030 21/17 Q1091
LL EDDFYYYX LFPGYYYX EDDFYYYX LFPGYYYX 181921 METAR LFPG 181921Z 35130KT 9999 FEW030 18/7 Q1057
FF LFPOYYYX LFPNYYYX LFPOYYYX 271759 METAR LFPG 271759Z 15718KT 9999 FEW030 8/10 Q1037
DD LFPYYYX EGLLYYYX EGLLYYYX LFPGYYYX 211024 METAR LFPG 211024Z 17543KT 9999 FEW030 8/15 Q1047
SS EDDFYYYX EGLLYYYX EGLLYYYX 140810 METAR LFPG 140810Z 22048KT 9999 FEW030 6/8 Q1018
FF EGLLYYYX EGLLYYYX EDDFYYYX EGLLYYYX 170245 METAR LFPG 170245Z 02313KT 9999 FEW030 23/5 Q1029
SS EDDFYYYX LFPGYYYX LFPOYYYX 102305 METAR LFPG 102305Z 04444KT 9999 FEW030 27/1 Q1068
FF LFPBYYYX LFPBYYYX EDDFYYYX LFPOYYYX 140738 METAR LFPG 140738Z 07626KT 9999 FEW030 4/15 Q1066
GG LFPBYYYX LFPBYYYX 091925 METAR LFPG 091925Z 30343KT 9999 FEW030 3/5 Q1062
FF LFPOYYYX LFPOYYYX EDDFYYYX 241307 METAR LFPG 241307Z 22526KT 9999 FEW030 20/4 Q1018
GG EDDFYYYX LFPNYYYX 160648 METAR LFPG 160648Z 02616KT 9999 FEW030 13/8 Q1028
SS LFPGYYYX EGLLYYYX 131445 METAR LFPG 131445Z 08353KT 9999 FEW030 14/7 Q1014
SS LFPYYYX LFPBYYYX EGLLYYYX 050221 METAR LFPG 050221Z 11959KT 9999 FEW030 3/17 Q1077
DD LFPBYYYX LFPGYYYX EDDFYYYX 191719 METAR LFPG 191719Z 34928KT 9999 FEW030 6/19 Q1094
LL LFPOYYYX LFPNYYYX LFPOYYYX LFPOYYYX 171452 METAR LFPG 171452Z 20331KT 9999 FEW030 14/7 Q1049
FF EDDFYYYX LFPNYYYX EGLLYYYX EGLLYYYX 260038 METAR LFPG 260038Z 18847KT 9999 FEW030 12/12 Q1049
KK LFPBYYYX LFPGYYYX LFPNYYYX 091105 METAR LFPG 091105Z 33543KT 9999 FEW030 21/17 Q1064
LL LFPNYYYX LFPGYYYX LFPOYYYX EGLLYYYX 141957 METAR LFPG 141957Z 32826KT 9999 FEW030 18/1 Q1062
FF EGLLYYYX LFPBYYYX LFPGYYYX EGLLYYYX 162200 METAR LFPG 162200Z 09049KT 9999 FEW030 3/9 Q1047
DD EDDFYYYX EDDFYYYX LFPBYYYX 030803 METAR LFPG 030803Z 34151KT 9999 FEW030 18/12 Q1023
LL LFPYYYX EDDFYYYX EGLLYYYX EGLLYYYX 200947 METAR LFPG 200947Z 19726KT 9999 FEW030 7/5 Q1048
SS LFPBYYYX LFPOYYYX 041328 METAR LFPG 041328Z 05836KT 9999 FEW030 22/9 Q1060
FF EGLLYYYX LFPBYYYX 251825 METAR LFPG 251825Z 30313KT 9999 FEW030 10/3 Q1061
SS LFPNYYYX LFPGYYYX EGLLYYYX 270846 METAR LFPG 270846Z 31725KT 9999 FEW030 6/18 Q1042
SS LFPBYYYX LFPOYYYX 110851 METAR LFPG 110851Z 26919KT 9999 FEW030 22/0 Q1066
LL LFPGYYYX LFPGYYYX EGLLYYYX EDDFYYYX 100014 METAR LFPG 100014Z 28454KT 9999 FEW030 20/15 Q1048
SS EGLLYYYX EDDFYYYX LFPNYYYX 050252 METAR LFPG 050252Z 14321KT 9999 FEW030 11/2 Q1051
KK EDDFYYYX LFPNYYYX LFPBYYYX LFPGYYYX 020422 METAR LFPG 020422Z 12041KT 9999 FEW030 23/17 Q1008
DD LFPGYYYX LFPNYYYX EDDFYYYX LFPGYYYX 180758 METAR LFPG 180758Z 02846KT 9999 FEW030 3/0 Q1095
GG LFPNYYYX LFPGYYYX LFPNYYYX EDDFYYYX 181142 METAR LFPG 181142Z 32020KT 9999 FEW030 0/5 Q1010
GG LFPGYYYX LFPNYYYX EGLLYYYX EGLLYYYX 021510 METAR LFPG 021510Z 34828KT 9999 FEW030 2/14 Q1075
GG LFPOYYYX LFPNYYYX EGLLYYYX LFPOYYYX 141558 METAR LFPG 141558Z 15646KT 9999 FEW030 3/16 Q1050
KK EDDFYYYX LFPGYYYX 221105 METAR LFPG 221105Z 34424KT 9999 FEW030 15/0 Q1045
GG LFPYYYX EGLLYYYX 211440 METAR LFPG 211440Z 01159KT 9999 FEW030 2/7 Q1080
GG LFPYYYX EGLLYYYX LFPNYYYX LFPNYYYX 200144 METAR LFPG 200144Z 26212KT 9999 FEW030 18/10 Q1073
DD LFPBYYYX EDDFYYYX 232002 METAR LFPG 232002Z 16131KT 9999 FEW030 11/15 Q1071
DD LFPGYYYX EGLLYYYX EDDFYYYX 121711 METAR LFPG 121711Z 35040KT 9999 FEW030 3/12 Q1015
GG LFPOYYYX LFPOYYYX LFPGYYYX 120103 METAR LFPG 120103Z 33422KT 9999 FEW030 29/5 Q1016
GG EDDFYYYX LFPBYYYX LFPGYYYX EDDFYYYX 190939 METAR LFPG 190939Z 19758KT 9999 FEW030 17/14 Q1060
LL LFPBYYYX LFPBYYYX 111219 METAR LFPG 111219Z 17757KT 9999 FEW030 1/17 Q1023
FF LFPYYYX EDDFYYYX LFPGYYYX 260746 METAR LFPG 260746Z 19654KT 9999 FEW030 11/2 Q1003
SS LFPNYYYX EDDFYYYX 121800 METAR LFPG 121800Z 03818KT 9999 FEW030 0/11 Q1031
FF EDDFYYYX LFPGYYYX LFPGYYYX EDDFYYYX 130232 METAR LFPG 130232Z 19141KT 9999 FEW030 14/12 Q1027
SS LFPOYYYX LFPOYYYX LFPGYYYX LFPOYYYX 110959 METAR LFPG 110959Z 14928KT 9999 FEW030 16/17 Q1087
FF LFPYYYX LFPOYYYX 190834 METAR LFPG 190834Z 00543KT 9999 FEW030 3/17 Q1070
LL LFPGYYYX LFPBYYYX LFPNYYYX 190139 METAR LFPG 190139Z 30958KT 9999 FEW030 13/4 Q1038
SS LFPBYYYX LFPBYYYX LFPBYYYX 080151 METAR LFPG 080151Z 14110KT 9999 FEW030 7/1 Q1023
KK LFPNYYYX LFPOYYYX 062338 METAR LFPG 062338Z 18836KT 9999 FEW030 28/7 Q1098
LL LFPOYYYX EGLLYYYX LFPBYYYX EGLLYYYX 181957 METAR LFPG 181957Z 20846KT 9999 FEW030 0/17 Q1045
KK LFPBYYYX EDDFYYYX 010345 METAR LFPG 010345Z 02324KT 9999 FEW030 0/11 Q1089
GG LFPBYYYX EGLLYYYX LFPNYYYX 180458 METAR LFPG 180458Z 09657KT 9999 FEW030 26/16 Q1024
LL LFPGYYYX LFPNYYYX 071242 METAR LFPG 071242Z 32121KT 9999 FEW030 15/4 Q1031
LL EDDFYYYX EDDFYYYX EGLLYYYX LFPBYYYX 141642 METAR LFPG 141642Z 01241KT 9999 FEW030 19/16 Q1088
FF LFPYYYX LFPNYYYX EGLLYYYX 280952 METAR LFPG 280952Z 03050KT 9999 FEW030 11/18 Q1029
GG EGLLYYYX LFPNYYYX LFPBYYYX 061902 METAR LFPG 061902Z 04040KT 9999 FEW030 3/6 Q1028
DD LFPYYYX EGLLYYYX EDDFYYYX 141101 METAR LFPG 141101Z 27220KT 9999 FEW030 7/11 Q1025
DD LFPNYYYX LFPGYYYX EGLLYYYX EDDFYYYX 150947 METAR LFPG 150947Z 31726KT 9999 FEW030 6/12 Q1039
KK LFPOYYYX EGLLYYYX 192035 METAR LFPG 192035Z 06543KT 9999 FEW030 28/9 Q1005
KK LFPOYYYX LFPOYYYX LFPOYYYX 160531 METAR LFPG 160531Z 00230KT 9999 FEW030 7/14 Q1086
SS EDDFYYYX LFPNYYYX LFPGYYYX 080139 METAR LFPG 080139Z 31038KT 9999 FEW030 19/7 Q1002
SS LFPOYYYX LFPOYYYX LFPBYYYX 280916 METAR LFPG 280916Z 05414KT 9999 FEW030 8/6 Q1065
KK LFPNYYYX EGLLYYYX LFPNYYYX EGLLYYYX 040547 METAR LFPG 040547Z 14616KT 9999 FEW030 23/17 Q1014
KK LFPOYYYX LFPGYYYX EGLLYYYX LFPGYYYX 082116 METAR LFPG 082116Z 23434KT 9999 FEW030 25/15 Q1016
KK LFPOYYYX LFPNYYYX LFPOYYYX LFPNYYYX 270850 METAR LFPG 270850Z 02139KT 9999 FEW030 12/10 Q1056
KK LFPGYYYX LFPBYYYX LFPGYYYX 270511 METAR LFPG 270511Z 16950KT 9999 FEW030 15/15 Q1072
FF EDDFYYYX EGLLYYYX LFPGYYYX EGLLYYYX 120520 METAR LFPG 120520Z 29058KT 9999 FEW030 28/1 Q1058
GG EGLLYYYX LFPBYYYX EGLLYYYX 092205 METAR LFPG 092205Z 16333KT 9999 FEW030 18/6 Q1075
LL LFPYYYX EGLLYYYX 150838 METAR LFPG 150838Z 19657KT 9999 FEW030 4/7 Q1049
SS LFPYYYX EDDFYYYX 022337 METAR LFPG 022337Z 06846KT 9999 FEW030 8/16 Q1030
SS LFPBYYYX LFPNYYYX EGLLYYYX 270547 METAR LFPG 270547Z 14556KT 9999 FEW030 0/11 Q1070
FF LFPOYYYX LFPGYYYX 080936 METAR LFPG 080936Z 24654KT 9999 FEW030 23/1 Q1019
SS LFPYYYX EDDFYYYX LFPOYYYX LFPGYYYX 141153 METAR LFPG 141153Z 27112KT 9999 FEW030 1/18 Q1050
KK EGLLYYYX LFPBYYYX 200959 METAR LFPG 200959Z 03058KT 9999 FEW030 11/17 Q1019
FF LFPNYYYX EDDFYYYX LFPBYYYX 040935 METAR LFPG 040935Z 00644KT 9999 FEW030 22/19 Q1057
FF LFPGYYYX EGLLYYYX 051809 METAR LFPG 051809Z 03917KT 9999 FEW030 8/7 Q1086
LL EDDFYYYX EDDFYYYX EDDFYYYX 061138 METAR LFPG 061138Z 00826KT 9999 FEW030 11/1 Q1047
DD LFPNYYYX LFPOYYYX EDDFYYYX 060757 METAR LFPG 060757Z 02746KT 9999 FEW030 13/12 Q1081
KK LFPOYYYX LFPNYYYX 051808 METAR LFPG 051808Z 27949KT 9999 FEW030 29/1 Q1087
LL LFPNYYYX LFPBYYYX 061606 METAR LFPG 061606Z 27654KT 9999 FEW030 9/3 Q1094
LL LFPGYYYX EDDFYYYX LFPBYYYX 080531 METAR LFPG 080531Z 12210KT 9999 FEW030 9/15 Q1026
FF LFPBYYYX EGLLYYYX LFPNYYYX 150443 METAR LFPG 150443Z 19351KT 9999 FEW030 3/11 Q1022
FF EDDFYYYX EGLLYYYX LFPNYYYX 100358 METAR LFPG 100358Z 21646KT 9999 FEW030 0/11 Q1055
LL LFPNYYYX LFPNYYYX 282111 METAR LFPG 282111Z 28210KT 9999 FEW030 18/10 Q1083
DD LFPGYYYX LFPBYYYX 070050 METAR LFPG 070050Z 14129KT 9999 FEW030 10/9 Q1068
KK LFPYYYX EGLLYYYX LFPNYYYX 210757 METAR LFPG 210757Z 02746KT 9999 FEW030 29/0 Q1006
KK LFPNYYYX LFPGYYYX 030923 METAR LFPG 030923Z 29312KT 9999 FEW030 29/14 Q1095
DD LFPGYYYX EDDFYYYX 090709 METAR LFPG 090709Z 09938KT 9999 FEW030 28/13 Q1094
LL LFPNYYYX LFPOYYYX EGLLYYYX LFPNYYYX 010353 METAR LFPG 010353Z 26322KT 9999 FEW030 16/15 Q1086
GG LFPYYYX LFPOYYYX LFPNYYYX EDDFYYYX 241724 METAR LFPG 241724Z 18242KT 9999 FEW030 29/18 Q1038
DD EDDFYYYX EGLLYYYX EDDFYYYX LFPGYYYX 071238 METAR LFPG 071238Z 00937KT 9999 FEW030 19/10 Q1075
FF LFPNYYYX EDDFYYYX LFPBYYYX LFPGYYYX 221509 METAR LFPG 221509Z 10758KT 9999 FEW030 2/2 Q1059
GG EGLLYYYX LFPOYYYX 022046 METAR LFPG 022046Z 13635KT 9999 FEW030 13/1 Q1027
KK LFPYYYX LFPGYYYX LFPGYYYX LFPBYYYX 092341 METAR LFPG 092341Z 13940KT 9999 FEW030 28/4 Q1081
FF LFPNYYYX LFPNYYYX 190507 METAR LFPG 190507Z 33726KT 9999 FEW030 21/8 Q1097
GG LFPNYYYX LFPNYYYX EGLLYYYX LFPGYYYX 272034 METAR LFPG 272034Z 18553KT 9999 FEW030 1/17 Q1015
KK LFPOYYYX LFPNYYYX 170624 METAR LFPG 170624Z 00313KT 9999 FEW030 3/7 Q1022
KK LFPYYYX LFPNYYYX 230030 METAR LFPG 230030Z 30949KT 9999 FEW030 22/7 Q1022
DD LFPNYYYX LFPBYYYX EGLLYYYX EGLLYYYX 101533 METAR LFPG 101533Z 13142KT 9999 FEW030 7/3 Q1015
LL LFPNYYYX LFPBYYYX 070859 METAR LFPG 070859Z 26957KT 9999 FEW030 29/10 Q1077
DD LFPYYYX LFPGYYYX 140454 METAR LFPG 140454Z 14453KT 9999 FEW030 7/19 Q1031
SS EGLLYYYX EGLLYYYX LFPGYYYX EGLLYYYX 231239 METAR LFPG 231239Z 12957KT 9999 FEW030 4/19 Q1054
FF LFPGYYYX LFPBYYYX LFPBYYYX 022058 METAR LFPG 022058Z 08817KT 9999 FEW030 28/4 Q1087
DD LFPOYYYX EGLLYYYX LFPOYYYX 022301 METAR LFPG 022301Z 21250KT 9999 FEW030 14/0 Q1009
GG EGLLYYYX LFPNYYYX 241719 METAR LFPG 241719Z 35028KT 9999 FEW030 6/1 Q1002
KK LFPNYYYX EGLLYYYX EDDFYYYX EDDFYYYX 021238 METAR LFPG 021238Z 24847KT 9999 FEW030 7/6 Q1077
FF LFPGYYYX EGLLYYYX 111206 METAR LFPG 111206Z 10455KT 9999 FEW030 18/11 Q1091
DD LFPBYYYX LFPNYYYX EGLLYYYX EGLLYYYX 042139 METAR LFPG 042139Z 13838KT 9999 FEW030 25/14 Q1056
LL LFPYYYX EDDFYYYX 211141 METAR LFPG 211141Z 07940KT 9999 FEW030 9/4 Q1095
DD LFPBYYYX LFPNYYYX 232027 METAR LFPG 232027Z 18515KT 9999 FEW030 8/1 Q1092
SS EDDFYYYX LFPOYYYX LFPOYYYX 261238 METAR LFPG 261238Z 00846KT 9999 FEW030 23/14 Q1074
KK LFPGYYYX LFPNYYYX LFPNYYYX 040151 METAR LFPG 040151Z 26230KT 9999 FEW030 11/6 Q1056
FF LFPGYYYX LFPOYYYX 051836 METAR LFPG 051836Z 01525KT 9999 FEW030 17/8 Q1007
DD LFPOYYYX LFPBYYYX LFPNYYYX 081708 METAR LFPG 081708Z 27856KT 9999 FEW030 15/15 Q1021
LL EGLLYYYX EDDFYYYX LFPOYYYX 231658 METAR LFPG 231658Z 14847KT 9999 FEW030 18/13 Q1008
LL EGLLYYYX LFPOYYYX LFPOYYYX LFPNYYYX 220745 METAR LFPG 220745Z 07554KT 9999 FEW030 17/19 Q1007
LL LFPNYYYX EDDFYYYX LFPBYYYX LFPGYYYX 040912 METAR LFPG 040912Z 22242KT 9999 FEW030 18/19 Q1048
KK LFPYYYX LFPBYYYX 250613 METAR LFPG 250613Z 17121KT 9999 FEW030 1/1 Q1098
FF EGLLYYYX LFPGYYYX 231203 METAR LFPG 231203Z 27351KT 9999 FEW030 26/10 Q1075
GG LFPNYYYX LFPNYYYX EDDFYYYX LFPNYYYX 151215 METAR LFPG 151215Z 22513KT 9999 FEW030 21/6 Q1068
DD LFPOYYYX LFPGYYYX LFPNYYYX 281000 METAR LFPG 281000Z 03029KT 9999 FEW030 10/13 Q1078
DD LFPBYYYX LFPOYYYX 102341 METAR LFPG 102341Z 02050KT 9999 FEW030 12/8 Q1024
FF LFPYYYX LFPGYYYX 250612 METAR LFPG 250612Z 05051KT 9999 FEW030 17/3 Q1029
DD LFPOYYYX LFPOYYYX LFPGYYYX LFPBYYYX 030026 METAR LFPG 030026Z 35635KT 9999 FEW030 6/14 Q1035
LL LFPBYYYX EDDFYYYX 061105 METAR LFPG 061105Z 22444KT 9999 FEW030 27/19 Q1025
GG LFPGYYYX EDDFYYYX 140846 METAR LFPG 140846Z 07645KT 9999 FEW030 13/4 Q1046
FF LFPGYYYX EDDFYYYX EGLLYYYX LFPNYYYX 150927 METAR LFPG 150927Z 00526KT 9999 FEW030 6/14 Q1050
LL LFPOYYYX EDDFYYYX 121759 METAR LFPG 121759Z 03818KT 9999 FEW030 21/2 Q1022
DD LFPBYYYX EDDFYYYX LFPNYYYX LFPNYYYX 010256 METAR LFPG 010256Z 21545KT 9999 FEW030 22/8 Q1060
DD LFPGYYYX LFPGYYYX EGLLYYYX 160543 METAR LFPG 160543Z 31422KT 9999 FEW030 14/9 Q1027
KK EDDFYYYX LFPNYYYX 271747 METAR LFPG 271747Z 20536KT 9999 FEW030 8/5 Q1000
FF LFPOYYYX EGLLYYYX LFPOYYYX LFPOYYYX 131420 METAR LFPG 131420Z 29919KT 9999 FEW030 16/17 Q1043
GG LFPOYYYX EGLLYYYX EDDFYYYX EGLLYYYX 111658 METAR LFPG 111658Z 15747KT 9999 FEW030 6/12 Q1026
KK LFPNYYYX LFPNYYYX EGLLYYYX 122123 METAR LFPG 122123Z 11422KT 9999 FEW030 6/19 Q1017
LL LFPGYYYX LFPGYYYX EDDFYYYX EDDFYYYX 140018 METAR LFPG 140018Z 11646KT 9999 FEW030 13/19 Q1085
DD LFPNYYYX EDDFYYYX LFPBYYYX 070802 METAR LFPG 070802Z 34051KT 9999 FEW030 1/1 Q1014
GG EDDFYYYX LFPGYYYX LFPBYYYX 060018 METAR LFPG 060018Z 23637KT 9999 FEW030 0/17 Q1045
SS LFPOYYYX LFPBYYYX 231610 METAR LFPG 231610Z 22949KT 9999 FEW030 26/14 Q1051
KK LFPBYYYX LFPGYYYX LFPNYYYX LFPBYYYX 221958 METAR LFPG 221958Z 32856KT 9999 FEW030 26/12 Q1053
GG EGLLYYYX LFPBYYYX LFPGYYYX EGLLYYYX 211837 METAR LFPG 211837Z 01535KT 9999 FEW030 18/7 Q1078
SS LFPGYYYX EGLLYYYX EGLLYYYX 150410 METAR LFPG 150410Z 16919KT 9999 FEW030 26/18 Q1043
KK LFPGYYYX LFPNYYYX LFPGYYYX LFPNYYYX 281344 METAR LFPG 281344Z 08252KT 9999 FEW030 12/14 Q1058
DD EGLLYYYX LFPNYYYX LFPOYYYX LFPGYYYX 030543 METAR LFPG 030543Z 19312KT 9999 FEW030 16/3 Q1084
GG LFPNYYYX EDDFYYYX 092200 METAR LFPG 092200Z 33159KT 9999 FEW030 7/19 Q1053
KK LFPYYYX EGLLYYYX LFPGYYYX LFPNYYYX 131153 METAR LFPG 131153Z 03152KT 9999 FEW030 21/18 Q1086
GG LFPGYYYX EDDFYYYX LFPBYYYX 120139 METAR LFPG 120139Z 19018KT 9999 FEW030 11/16 Q1033
LL LFPOYYYX EDDFYYYX LFPBYYYX 110838 METAR LFPG 110838Z 07737KT 9999 FEW030 23/18 Q1073
SS EDDFYYYX LFPGYYYX 192002 METAR LFPG 192002Z 15321KT 9999 FEW030 21/19 Q1067
DD LFPBYYYX LFPOYYYX LFPBYYYX LFPNYYYX 110434 METAR LFPG 110434Z 07223KT 9999 FEW030 5/4 Q1039
KK LFPYYYX LFPBYYYX EGLLYYYX 230455 METAR LFPG 230455Z 02513KT 9999 FEW030 0/16 Q1096
LL LFPNYYYX LFPNYYYX LFPOYYYX EGLLYYYX 162140 METAR LFPG 162140Z 13848KT 9999 FEW030 28/4 Q1050
DD LFPBYYYX LFPOYYYX 042224 METAR LFPG 042224Z 23453KT 9999 FEW030 17/19 Q1053
SS EDDFYYYX LFPOYYYX EDDFYYYX LFPNYYYX 081856 METAR LFPG 081856Z 08624KT 9999 FEW030 23/11 Q1083
GG LFPGYYYX LFPBYYYX LFPBYYYX 241732 METAR LFPG 241732Z 06220KT 9999 FEW030 11/19 Q1069
SS EDDFYYYX EDDFYYYX LFPOYYYX 152014 METAR LFPG 152014Z 11253KT 9999 FEW030 6/19 Q1091
LL LFPYYYX LFPNYYYX 100309 METAR LFPG 100309Z 04858KT 9999 FEW030 14/19 Q1082
GG LFPNYYYX LFPGYYYX LFPNYYYX LFPNYYYX 061554 METAR LFPG 061554Z 08422KT 9999 FEW030 3/14 Q1075
SS EGLLYYYX LFPGYYYX EGLLYYYX EGLLYYYX 190446 METAR LFPG 190446Z 14445KT 9999 FEW030 8/7 Q1036
FF EGLLYYYX EGLLYYYX LFPBYYYX 190422 METAR LFPG 190422Z 00111KT 9999 FEW030 26/17 Q1015
FF EDDFYYYX LFPGYYYX 272002 METAR LFPG 272002Z 28141KT 9999 FEW030 11/16 Q1066
GG LFPYYYX LFPOYYYX 140802 METAR LFPG 140802Z 34021KT 9999 FEW030 23/11 Q1044
FF LFPYYYX LFPNYYYX LFPBYYYX 171001 METAR LFPG 171001Z 15149KT 9999 FEW030 26/17 Q1017
DD LFPYYYX EDDFYYYX LFPBYYYX LFPNYYYX 261533 METAR LFPG 261533Z 25242KT 9999 FEW030 11/5 Q1091
GG LFPYYYX LFPNYYYX LFPGYYYX LFPBYYYX 271254 METAR LFPG 271254Z 15313KT 9999 FEW030 7/11 Q1015
KK LFPBYYYX LFPOYYYX 282148 METAR LFPG 282148Z 25816KT 9999 FEW030 4/5 Q1001
FF LFPNYYYX LFPNYYYX 181934 METAR LFPG 181934Z 18442KT 9999 FEW030 3/0 Q1063
FF LFPNYYYX EDDFYYYX EGLLYYYX EDDFYYYX 101250 METAR LFPG 101250Z 20021KT 9999 FEW030 24/0 Q1001
SS LFPNYYYX LFPNYYYX LFPOYYYX 270423 METAR LFPG 270423Z 12151KT 9999 FEW030 17/11 Q1089
DD LFPNYYYX LFPOYYYX EDDFYYYX EDDFYYYX 270838 METAR LFPG 270838Z 19737KT 9999 FEW030 7/10 Q1000
SS LFPBYYYX EGLLYYYX LFPNYYYX 081308 METAR LFPG 081308Z 10616KT 9999 FEW030 19/3 Q1067
LL EDDFYYYX LFPOYYYX 082111 METAR LFPG 082111Z 28210KT 9999 FEW030 27/3 Q1023
GG LFPBYYYX LFPOYYYX LFPBYYYX 271355 METAR LFPG 271355Z 27313KT 9999 FEW030 23/15 Q1066
GG EGLLYYYX LFPOYYYX LFPGYYYX LFPGYYYX 120959 METAR LFPG 120959Z 27048KT 9999 FEW030 2/15 Q1029
FF LFPOYYYX LFPGYYYX EDDFYYYX 141622 METAR LFPG 141622Z 06031KT 9999 FEW030 7/10 Q1092
KK LFPYYYX EDDFYYYX EGLLYYYX EDDFYYYX 200120 METAR LFPG 200120Z 11828KT 9999 FEW030 17/16 Q1067
GG EGLLYYYX EDDFYYYX LFPBYYYX 240139 METAR LFPG 240139Z 07048KT 9999 FEW030 11/0 Q1006
DD EGLLYYYX EDDFYYYX 230547 METAR LFPG 230547Z 26536KT 9999 FEW030 2/4 Q1078
KK LFPGYYYX LFPOYYYX 112003 METAR LFPG 112003Z 04131KT 9999 FEW030 22/12 Q1091
SS LFPYYYX LFPBYYYX LFPOYYYX 041404 METAR LFPG 041404Z 27452KT 9999 FEW030 27/12 Q1087
DD LFPGYYYX LFPOYYYX EGLLYYYX 280543 METAR LFPG 280543Z 19422KT 9999 FEW030 19/8 Q1019
KK EDDFYYYX EDDFYYYX LFPGYYYX LFPNYYYX 140454 METAR LFPG 140454Z 02432KT 9999 FEW030 4/10 Q1071
DD LFPYYYX LFPNYYYX EGLLYYYX LFPNYYYX 021902 METAR LFPG 021902Z 04050KT 9999 FEW030 3/8 Q1065
DD LFPOYYYX LFPNYYYX 220458 METAR LFPG 220458Z 33646KT 9999 FEW030 3/10 Q1061
GG LFPGYYYX LFPBYYYX LFPGYYYX 021150 METAR LFPG 021150Z 32028KT 9999 FEW030 29/10 Q1085
KK LFPOYYYX LFPBYYYX LFPOYYYX LFPNYYYX 260353 METAR LFPG 260353Z 26452KT 9999 FEW030 16/17 Q1047
KK EGLLYYYX LFPNYYYX LFPBYYYX 141138 METAR LFPG 141138Z 12856KT 9999 FEW030 4/12 Q1043
KK LFPBYYYX LFPOYYYX LFPGYYYX LFPBYYYX 281712 METAR LFPG 281712Z 23030KT 9999 FEW030 29/6 Q1084
FF LFPYYYX LFPOYYYX LFPOYYYX 160128 METAR LFPG 160128Z 23846KT 9999 FEW030 11/8 Q1069
LL LFPNYYYX EDDFYYYX LFPOYYYX LFPNYYYX 262350 METAR LFPG 262350Z 02028KT 9999 FEW030 16/2 Q1006
FF LFPOYYYX LFPOYYYX LFPNYYYX LFPBYYYX 070802 METAR LFPG 070802Z 22151KT 9999 FEW030 11/7 Q1027
SS LFPYYYX LFPOYYYX LFPNYYYX EDDFYYYX 021533 METAR LFPG 021533Z 25222KT 9999 FEW030 24/1 Q1070
SS LFPGYYYX LFPOYYYX LFPBYYYX LFPNYYYX 220757 METAR LFPG 220757Z 02726KT 9999 FEW030 23/8 Q1002
FF LFPBYYYX EGLLYYYX LFPGYYYX LFPGYYYX 030559 METAR LFPG 030559Z 09728KT 9999 FEW030 7/6 Q1090
LL LFPNYYYX LFPBYYYX 200143 METAR LFPG 200143Z 26132KT 9999 FEW030 26/8 Q1002
SS LFPNYYYX EDDFYYYX 220306 METAR LFPG 220306Z 09624KT 9999 FEW030 0/19 Q1040
GG LFPGYYYX LFPGYYYX LFPGYYYX LFPBYYYX 281724 METAR LFPG 281724Z 18232KT 9999 FEW030 23/14 Q1034
KK LFPGYYYX LFPGYYYX 121332 METAR LFPG 121332Z 13030KT 9999 FEW030 14/13 Q1086
KK LFPYYYX LFPBYYYX LFPGYYYX 210252 METAR LFPG 210252Z 02331KT 9999 FEW030 9/9 Q1012
SS LFPNYYYX LFPBYYYX LFPBYYYX LFPOYYYX 080927 METAR LFPG 080927Z 12646KT 9999 FEW030 26/9 Q1011
KK LFPOYYYX EGLLYYYX LFPNYYYX LFPOYYYX 011416 METAR LFPG 011416Z 22725KT 9999 FEW030 20/1 Q1009
FF LFPOYYYX LFPBYYYX 052349 METAR LFPG 052349Z 13910KT 9999 FEW030 5/5 Q1095
FF EGLLYYYX LFPNYYYX 090205 METAR LFPG 090205Z 09553KT 9999 FEW030 3/7 Q1017
DD LFPBYYYX EDDFYYYX LFPGYYYX LFPNYYYX 180054 METAR LFPG 180054Z 33232KT 9999 FEW030 4/0 Q1023
KK LFPYYYX LFPGYYYX EDDFYYYX 092248 METAR LFPG 092248Z 25957KT 9999 FEW030 4/14 Q1044
SS EDDFYYYX EDDFYYYX EDDFYYYX EDDFYYYX 041755 METAR LFPG 041755Z 20524KT 9999 FEW030 15/3 Q1097
GG LFPGYYYX EDDFYYYX 061546 METAR LFPG 061546Z 20454KT 9999 FEW030 18/6 Q1095
FF LFPOYYYX EDDFYYYX LFPBYYYX EDDFYYYX 190858 METAR LFPG 190858Z 26857KT 9999 FEW030 5/8 Q1021
GG LFPNYYYX LFPGYYYX LFPOYYYX 021933 METAR LFPG 021933Z 06452KT 9999 FEW030 22/9 Q1058
SS LFPOYYYX EDDFYYYX 241755 METAR LFPG 241755Z 32524KT 9999 FEW030 19/15 Q1019
FF EDDFYYYX LFPGYYYX EGLLYYYX EDDFYYYX 231206 METAR LFPG 231206Z 09755KT 9999 FEW030 12/7 Q1006
DD LFPGYYYX LFPNYYYX EDDFYYYX LFPOYYYX 211812 METAR LFPG 211812Z 35151KT 9999 FEW030 1/4 Q1059
DD LFPBYYYX LFPOYYYX 211825 METAR LFPG 211825Z 17523KT 9999 FEW030 18/5 Q1009
FF EDDFYYYX LFPOYYYX LFPBYYYX 161315 METAR LFPG 161315Z 10654KT 9999 FEW030 21/1 Q1096
LL LFPNYYYX LFPGYYYX EGLLYYYX EGLLYYYX 261654 METAR LFPG 261654Z 32423KT 9999 FEW030 4/2 Q1087
SS LFPBYYYX LFPNYYYX 070915 METAR LFPG 070915Z 17354KT 9999 FEW030 15/14 Q1025
FF LFPNYYYX LFPBYYYX 092201 METAR LFPG 092201Z 33119KT 9999 FEW030 5/10 Q1008
DD EDDFYYYX LFPBYYYX LFPOYYYX 111707 METAR LFPG 111707Z 03718KT 9999 FEW030 16/13 Q1048
FF EDDFYYYX LFPBYYYX 030042 METAR LFPG 030042Z 02121KT 9999 FEW030 4/3 Q1086
DD LFPYYYX LFPGYYYX EGLLYYYX 170333 METAR LFPG 170333Z 19122KT 9999 FEW030 7/17 Q1046
KK LFPBYYYX LFPOYYYX LFPGYYYX LFPGYYYX 080128 METAR LFPG 080128Z 23836KT 9999 FEW030 6/12 Q1094
FF LFPBYYYX LFPOYYYX 230535 METAR LFPG 230535Z 31323KT 9999 FEW030 26/7 Q1037
LL EGLLYYYX LFPBYYYX 022326 METAR LFPG 022326Z 23654KT 9999 FEW030 21/4 Q1063
LL LFPYYYX LFPGYYYX EDDFYYYX 261654 METAR LFPG 261654Z 08423KT 9999 FEW030 24/7 Q1086
LL LFPOYYYX LFPOYYYX 030847 METAR LFPG 030847Z 31745KT 9999 FEW030 29/1 Q1051
FF LFPGYYYX LFPOYYYX LFPBYYYX LFPGYYYX 270002 METAR LFPG 270002Z 33341KT 9999 FEW030 19/11 Q1061
DD EDDFYYYX LFPBYYYX EDDFYYYX 091444 METAR LFPG 091444Z 19553KT 9999 FEW030 14/14 Q1085
LL LFPGYYYX LFPGYYYX 262353 METAR LFPG 262353Z 33112KT 9999 FEW030 5/5 Q1027
SS LFPYYYX LFPBYYYX LFPNYYYX 261117 METAR LFPG 261117Z 05646KT 9999 FEW030 12/18 Q1098
FF LFPOYYYX EDDFYYYX LFPNYYYX 161440 METAR LFPG 161440Z 25019KT 9999 FEW030 9/14 Q1003
SS EDDFYYYX LFPOYYYX EGLLYYYX LFPGYYYX 031307 METAR LFPG 031307Z 34545KT 9999 FEW030 18/0 Q1064
LL EGLLYYYX LFPGYYYX LFPNYYYX EDDFYYYX 142058 METAR LFPG 142058Z 08816KT 9999 FEW030 14/12 Q1009
LL LFPBYYYX EDDFYYYX EDDFYYYX 190446 METAR LFPG 190446Z 14435KT 9999 FEW030 14/17 Q1017
FF EGLLYYYX LFPOYYYX EDDFYYYX 260357 METAR LFPG 260357Z 21646KT 9999 FEW030 8/8 Q1039
DD LFPGYYYX EGLLYYYX EDDFYYYX LFPOYYYX 132228 METAR LFPG 132228Z 18637KT 9999 FEW030 13/7 Q1007
FF EGLLYYYX EGLLYYYX EGLLYYYX EDDFYYYX 172236 METAR LFPG 172236Z 18735KT 9999 FEW030 26/7 Q1071
GG LFPGYYYX LFPOYYYX LFPNYYYX LFPOYYYX 102313 METAR LFPG 102313Z 16432KT 9999 FEW030 15/12 Q1067
GG EGLLYYYX EGLLYYYX 131820 METAR LFPG 131820Z 23159KT 9999 FEW030 27/10 Q1048
GG LFPNYYYX LFPBYYYX EDDFYYYX LFPOYYYX 280644 METAR LFPG 280644Z 07413KT 9999 FEW030 3/16 Q1062
FF LFPOYYYX EGLLYYYX LFPNYYYX 170252 METAR LFPG 170252Z 26331KT 9999 FEW030 16/5 Q1056
KK EGLLYYYX LFPNYYYX 210233 METAR LFPG 210233Z 18351KT 9999 FEW030 9/4 Q1068
SS LFPBYYYX LFPOYYYX LFPBYYYX LFPGYYYX 230018 METAR LFPG 230018Z 11757KT 9999 FEW030 7/8 Q1098
LL EDDFYYYX LFPBYYYX LFPBYYYX LFPNYYYX 171404 METAR LFPG 171404Z 03533KT 9999 FEW030 27/5 Q1036
DD LFPOYYYX EDDFYYYX LFPOYYYX 242116 METAR LFPG 242116Z 11434KT 9999 FEW030 21/16 Q1056
FF EDDFYYYX EGLLYYYX EDDFYYYX LFPBYYYX 260446 METAR LFPG 260446Z 14445KT 9999 FEW030 4/15 Q1075
SS LFPNYYYX LFPOYYYX 092204 METAR LFPG 092204Z 28243KT 9999 FEW030 4/10 Q1052
DD LFPBYYYX LFPOYYYX LFPNYYYX EGLLYYYX 230803 METAR LFPG 230803Z 09341KT 9999 FEW030 7/18 Q1006
GG LFPGYYYX EDDFYYYX EGLLYYYX LFPGYYYX 100714 METAR LFPG 100714Z 17212KT 9999 FEW030 1/5 Q1003
KK LFPBYYYX LFPOYYYX LFPGYYYX 180838 METAR LFPG 180838Z 31647KT 9999 FEW030 0/3 Q1083
GG EGLLYYYX LFPGYYYX LFPBYYYX 090649 METAR LFPG 090649Z 26757KT 9999 FEW030 23/11 Q1039
LL LFPNYYYX EGLLYYYX LFPGYYYX 271634 METAR LFPG 271634Z 13253KT 9999 FEW030 21/5 Q1063
FF LFPNYYYX EDDFYYYX LFPOYYYX 232003 METAR LFPG 232003Z 16131KT 9999 FEW030 24/10 Q1045
FF EGLLYYYX LFPBYYYX EDDFYYYX LFPNYYYX 130621 METAR LFPG 130621Z 05159KT 9999 FEW030 16/2 Q1046
DD LFPGYYYX LFPOYYYX EDDFYYYX EGLLYYYX 190443 METAR LFPG 190443Z 19341KT 9999 FEW030 21/19 Q1016
LL LFPGYYYX EDDFYYYX 161759 METAR LFPG 161759Z 27818KT 9999 FEW030 12/16 Q1091
GG LFPOYYYX EGLLYYYX EDDFYYYX LFPGYYYX 180722 METAR LFPG 180722Z 29220KT 9999 FEW030 17/2 Q1000
GG EDDFYYYX EGLLYYYX 280144 METAR LFPG 280144Z 14232KT 9999 FEW030 21/16 Q1092
KK EDDFYYYX LFPOYYYX LFPOYYYX 040155 METAR LFPG 040155Z 09424KT 9999 FEW030 7/4 Q1053
KK EDDFYYYX EGLLYYYX 282212 METAR LFPG 282212Z 16240KT 9999 FEW030 28/1 Q1065
GG LFPBYYYX EDDFYYYX LFPGYYYX 181554 METAR LFPG 181554Z 32422KT 9999 FEW030 22/16 Q1093
DD EDDFYYYX LFPGYYYX EDDFYYYX 181946 METAR LFPG 181946Z 01624KT 9999 FEW030 19/10 Q1002
LL LFPBYYYX LFPOYYYX EDDFYYYX LFPNYYYX 021533 METAR LFPG 021533Z 01212KT 9999 FEW030 27/8 Q1011
LL LFPNYYYX LFPBYYYX 190002 METAR LFPG 190002Z 33351KT 9999 FEW030 0/17 Q1014
FF LFPYYYX LFPBYYYX EDDFYYYX LFPOYYYX 181242 METAR LFPG 181242Z 20021KT 9999 FEW030 23/15 Q1050
FF LFPOYYYX EGLLYYYX LFPNYYYX LFPNYYYX 041748 METAR LFPG 041748Z 08616KT 9999 FEW030 3/6 Q1006
SS LFPYYYX LFPOYYYX EGLLYYYX 061101 METAR LFPG 061101Z 27240KT 9999 FEW030 21/4 Q1049
DD EDDFYYYX EDDFYYYX 280936 METAR LFPG 280936Z 12634KT 9999 FEW030 8/17 Q1015
SS LFPGYYYX LFPGYYYX EDDFYYYX 251137 METAR LFPG 251137Z 00716KT 9999 FEW030 21/18 Q1008
SS EDDFYYYX EDDFYYYX LFPGYYYX 081428 METAR LFPG 081428Z 05836KT 9999 FEW030 17/15 Q1002
LL LFPNYYYX EDDFYYYX LFPBYYYX LFPGYYYX 021646 METAR LFPG 021646Z 08445KT 9999 FEW030 18/2 Q1081
LL LFPBYYYX EDDFYYYX LFPOYYYX 140701 METAR LFPG 140701Z 22020KT 9999 FEW030 15/2 Q1041
SS LFPGYYYX EGLLYYYX LFPOYYYX EDDFYYYX 092349 METAR LFPG 092349Z 25958KT 9999 FEW030 8/11 Q1016
FF LFPGYYYX LFPBYYYX 231747 METAR LFPG 231747Z 20546KT 9999 FEW030 18/10 Q1075
FF LFPBYYYX EDDFYYYX LFPBYYYX 122112 METAR LFPG 122112Z 28250KT 9999 FEW030 17/17 Q1002
SS LFPYYYX EGLLYYYX 072139 METAR LFPG 072139Z 01758KT 9999 FEW030 27/9 Q1004
LL LFPOYYYX LFPNYYYX 160256 METAR LFPG 160256Z 09414KT 9999 FEW030 18/3 Q1003
KK LFPBYYYX LFPNYYYX 041747 METAR LFPG 041747Z 08616KT 9999 FEW030 22/9 Q1000
GG LFPBYYYX EDDFYYYX LFPOYYYX 161028 METAR LFPG 161028Z 24637KT 9999 FEW030 15/11 Q1010
KK LFPYYYX LFPBYYYX LFPBYYYX LFPGYYYX 011405 METAR LFPG 011405Z 27545KT 9999 FEW030 26/11 Q1070
GG LFPOYYYX EDDFYYYX EDDFYYYX 090601 METAR LFPG 090601Z 33959KT 9999 FEW030 5/8 Q1017
DD LFPNYYYX LFPGYYYX LFPNYYYX EGLLYYYX 061938 METAR LFPG 061938Z 25636KT 9999 FEW030 16/2 Q1031
KK EGLLYYYX EDDFYYYX 152011 METAR LFPG 152011Z 16119KT 9999 FEW030 24/10 Q1014
GG LFPNYYYX LFPOYYYX LFPGYYYX 262341 METAR LFPG 262341Z 14050KT 9999 FEW030 15/6 Q1094
DD EGLLYYYX LFPOYYYX EDDFYYYX EGLLYYYX 092216 METAR LFPG 092216Z 35455KT 9999 FEW030 24/9 Q1055
GG LFPOYYYX LFPBYYYX EGLLYYYX LFPBYYYX 021910 METAR LFPG 021910Z 28058KT 9999 FEW030 22/13 Q1094
SS LFPOYYYX LFPOYYYX 011052 METAR LFPG 011052Z 02341KT 9999 FEW030 17/9 Q1059
KK LFPOYYYX EGLLYYYX 261658 METAR LFPG 261658Z 15627KT 9999 FEW030 5/14 Q1021
GG LFPBYYYX EGLLYYYX 061149 METAR LFPG 061149Z 08058KT 9999 FEW030 1/1 Q1013
FF LFPNYYYX LFPNYYYX LFPOYYYX 011440 METAR LFPG 011440Z 01139KT 9999 FEW030 5/12 Q1023
GG LFPGYYYX LFPNYYYX 270814 METAR LFPG 270814Z 29333KT 9999 FEW030 21/8 Q1048
LL EDDFYYYX LFPNYYYX 260050 METAR LFPG 260050Z 02039KT 9999 FEW030 23/6 Q1008
DD LFPNYYYX EDDFYYYX LFPGYYYX LFPBYYYX 162123 METAR LFPG 162123Z 11442KT 9999 FEW030 9/17 Q1081
DD LFPYYYX LFPNYYYX LFPGYYYX EGLLYYYX 131420 METAR LFPG 131420Z 05939KT 9999 FEW030 19/15 Q1097
LL LFPYYYX EDDFYYYX LFPNYYYX LFPBYYYX 190039 METAR LFPG 190039Z 30917KT 9999 FEW030 12/4 Q1011
GG LFPYYYX EDDFYYYX LFPGYYYX 100826 METAR LFPG 100826Z 12415KT 9999 FEW030 19/12 Q1053
GG LFPNYYYX EDDFYYYX LFPBYYYX 211013 METAR LFPG 211013Z 22341KT 9999 FEW030 10/14 Q1067
LL LFPGYYYX LFPOYYYX LFPBYYYX 242111 METAR LFPG 242111Z 16240KT 9999 FEW030 13/1 Q1080
GG EDDFYYYX EGLLYYYX 150411 METAR LFPG 150411Z 28949KT 9999 FEW030 25/5 Q1020
GG EGLLYYYX LFPBYYYX 271659 METAR LFPG 271659Z 27757KT 9999 FEW030 26/10 Q1021
KK EGLLYYYX EGLLYYYX EGLLYYYX EGLLYYYX 280543 METAR LFPG 280543Z 19432KT 9999 FEW030 15/6 Q1022
LL LFPYYYX LFPGYYYX LFPBYYYX 141958 METAR LFPG 141958Z 20816KT 9999 FEW030 4/12 Q1087
LL EGLLYYYX EDDFYYYX LFPNYYYX 160939 METAR LFPG 160939Z 07858KT 9999 FEW030 28/0 Q1095
FF EDDFYYYX EDDFYYYX EDDFYYYX 031711 METAR LFPG 031711Z 10920KT 9999 FEW030 12/6 Q1082
KK EGLLYYYX EGLLYYYX 152039 METAR LFPG 152039Z 01717KT 9999 FEW030 14/16 Q1002
FF LFPYYYX LFPGYYYX 250725 METAR LFPG 250725Z 24344KT 9999 FEW030 13/8 Q1065
GG LFPNYYYX LFPOYYYX LFPOYYYX 272051 METAR LFPG 272051Z 20929KT 9999 FEW030 21/9 Q1093
KK LFPGYYYX EDDFYYYX LFPNYYYX LFPNYYYX 120216 METAR LFPG 120216Z 16624KT 9999 FEW030 21/14 Q1035
KK LFPOYYYX LFPBYYYX LFPOYYYX 121408 METAR LFPG 121408Z 22657KT 9999 FEW030 25/19 Q1041
KK LFPOYYYX LFPGYYYX EDDFYYYX LFPOYYYX 171824 METAR LFPG 171824Z 18353KT 9999 FEW030 16/15 Q1073
DD LFPOYYYX LFPBYYYX 212216 METAR LFPG 212216Z 35555KT 9999 FEW030 20/12 Q1071
LL LFPOYYYX LFPGYYYX LFPBYYYX LFPBYYYX 190811 METAR LFPG 190811Z 10159KT 9999 FEW030 11/3 Q1092
FF LFPNYYYX LFPGYYYX LFPBYYYX 142338 METAR LFPG 142338Z 30826KT 9999 FEW030 20/1 Q1071
FF LFPYYYX LFPGYYYX LFPOYYYX 210701 METAR LFPG 210701Z 09929KT 9999 FEW030 26/17 Q1037
FF EGLLYYYX LFPNYYYX LFPNYYYX LFPOYYYX 072111 METAR LFPG 072111Z 04150KT 9999 FEW030 11/13 Q1093
KK LFPGYYYX EDDFYYYX EDDFYYYX LFPGYYYX 021630 METAR LFPG 021630Z 30048KT 9999 FEW030 12/2 Q1093
FF LFPYYYX LFPGYYYX 110838 METAR LFPG 110838Z 19657KT 9999 FEW030 3/15 Q1077
SS EDDFYYYX LFPNYYYX 281707 METAR LFPG 281707Z 15816KT 9999 FEW030 7/18 Q1039
LL EDDFYYYX EDDFYYYX LFPOYYYX LFPOYYYX 111219 METAR LFPG 111219Z 05757KT 9999 FEW030 0/12 Q1094
DD LFPBYYYX LFPGYYYX LFPOYYYX EGLLYYYX 160520 METAR LFPG 160520Z 05028KT 9999 FEW030 6/18 Q1017
LL EDDFYYYX LFPBYYYX 200556 METAR LFPG 200556Z 26654KT 9999 FEW030 24/11 Q1095
FF LFPBYYYX LFPOYYYX EGLLYYYX EDDFYYYX 160535 METAR LFPG 160535Z 07414KT 9999 FEW030 17/0 Q1061
GG LFPYYYX LFPGYYYX LFPNYYYX EGLLYYYX 090620 METAR LFPG 090620Z 17159KT 9999 FEW030 6/8 Q1077
GG EGLLYYYX LFPGYYYX LFPOYYYX 190846 METAR LFPG 190846Z 31725KT 9999 FEW030 6/8 Q1050
DD LFPYYYX LFPNYYYX LFPBYYYX 230422 METAR LFPG 230422Z 12111KT 9999 FEW030 25/12 Q1077
SS LFPYYYX LFPGYYYX LFPOYYYX 202148 METAR LFPG 202148Z 13856KT 9999 FEW030 2/14 Q1014
SS LFPGYYYX LFPBYYYX LFPOYYYX 141958 METAR LFPG 141958Z 32826KT 9999 FEW030 17/1 Q1047
LL LFPBYYYX LFPNYYYX 181909 METAR LFPG 181909Z 04018KT 9999 FEW030 11/9 Q1095
LL EDDFYYYX LFPGYYYX EGLLYYYX 091848 METAR LFPG 091848Z 20647KT 9999 FEW030 2/11 Q1079
SS LFPYYYX LFPBYYYX 131420 METAR LFPG 131420Z 29849KT 9999 FEW030 9/8 Q1044
SS LFPBYYYX LFPOYYYX LFPNYYYX LFPOYYYX 011933 METAR LFPG 011933Z 18342KT 9999 FEW030 26/15 Q1005
DD LFPNYYYX LFPNYYYX LFPGYYYX 061149 METAR LFPG 061149Z 31918KT 9999 FEW030 25/8 Q1090
FF LFPNYYYX LFPBYYYX 030127 METAR LFPG 030127Z 35736KT 9999 FEW030 15/6 Q1049
KK LFPNYYYX LFPOYYYX LFPGYYYX 180850 METAR LFPG 180850Z 26019KT 9999 FEW030 13/13 Q1023
GG LFPOYYYX EGLLYYYX 191331 METAR LFPG 191331Z 24949KT 9999 FEW030 6/16 Q1019
DD LFPOYYYX EDDFYYYX 140422 METAR LFPG 140422Z 12010KT 9999 FEW030 9/7 Q1044
FF EGLLYYYX EDDFYYYX LFPNYYYX 100342 METAR LFPG 100342Z 19220KT 9999 FEW030 4/9 Q1029
FF LFPYYYX LFPNYYYX EDDFYYYX 201820 METAR LFPG 201820Z 35028KT 9999 FEW030 16/9 Q1002
LL LFPNYYYX LFPNYYYX 140737 METAR LFPG 140737Z 19646KT 9999 FEW030 16/13 Q1092
KK LFPNYYYX EDDFYYYX EGLLYYYX 200220 METAR LFPG 200220Z 11819KT 9999 FEW030 11/13 Q1025
KK LFPGYYYX EGLLYYYX LFPBYYYX 071606 METAR LFPG 071606Z 03755KT 9999 FEW030 2/12 Q1012
DD LFPOYYYX LFPGYYYX 072010 METAR LFPG 072010Z 16149KT 9999 FEW030 19/16 Q1084
GG LFPBYYYX LFPBYYYX 090656 METAR LFPG 090656Z 14615KT 9999 FEW030 9/7 Q1080
FF EGLLYYYX LFPGYYYX EGLLYYYX 141238 METAR LFPG 141238Z 24827KT 9999 FEW030 3/13 Q1036
KK LFPYYYX LFPBYYYX LFPOYYYX LFPNYYYX 181913 METAR LFPG 181913Z 35252KT 9999 FEW030 21/16 Q1095
LL LFPNYYYX LFPOYYYX 022034 METAR LFPG 022034Z 06443KT 9999 FEW030 16/3 Q1041
LL EGLLYYYX LFPOYYYX 050656 METAR LFPG 050656Z 14725KT 9999 FEW030 13/19 Q1011
KK EDDFYYYX LFPOYYYX LFPGYYYX EDDFYYYX 062313 METAR LFPG 062313Z 16412KT 9999 FEW030 13/11 Q1056
KK EDDFYYYX LFPBYYYX LFPBYYYX 071254 METAR LFPG 071254Z 15313KT 9999 FEW030 6/15 Q1058
SS LFPBYYYX LFPBYYYX EGLLYYYX LFPGYYYX 200948 METAR LFPG 200948Z 19846KT 9999 FEW030 4/9 Q1034
FF EDDFYYYX LFPBYYYX LFPBYYYX LFPNYYYX 220725 METAR LFPG 220725Z 23644KT 9999 FEW030 24/5 Q1001
SS LFPNYYYX LFPGYYYX LFPBYYYX 051517 METAR LFPG 051517Z 34716KT 9999 FEW030 20/9 Q1017
SS EDDFYYYX EDDFYYYX EDDFYYYX 232147 METAR LFPG 232147Z 25726KT 9999 FEW030 3/12 Q1055
GG LFPBYYYX LFPGYYYX 031755 METAR LFPG 031755Z 20514KT 9999 FEW030 15/8 Q1056
GG EGLLYYYX LFPNYYYX LFPOYYYX 051505 METAR LFPG 051505Z 27554KT 9999 FEW030 7/0 Q1062
LL EGLLYYYX LFPNYYYX LFPBYYYX LFPOYYYX 012224 METAR LFPG 012224Z 11513KT 9999 FEW030 9/11 Q1073
GG EGLLYYYX EGLLYYYX EDDFYYYX EDDFYYYX 020834 METAR LFPG 020834Z 24443KT 9999 FEW030 24/7 Q1026
FF EGLLYYYX LFPGYYYX 190858 METAR LFPG 190858Z 02937KT 9999 FEW030 0/14 Q1093
DD LFPNYYYX EDDFYYYX EDDFYYYX 241711 METAR LFPG 241711Z 11010KT 9999 FEW030 26/14 Q1075
KK LFPYYYX LFPNYYYX LFPGYYYX LFPOYYYX 020305 METAR LFPG 020305Z 09634KT 9999 FEW030 24/17 Q1057
FF LFPBYYYX LFPGYYYX EGLLYYYX 081420 METAR LFPG 081420Z 29839KT 9999 FEW030 21/10 Q1019
SS LFPBYYYX LFPNYYYX EGLLYYYX LFPOYYYX 211844 METAR LFPG 211844Z 13523KT 9999 FEW030 20/1 Q1015
LL LFPOYYYX LFPNYYYX LFPGYYYX LFPBYYYX 091820 METAR LFPG 091820Z 35149KT 9999 FEW030 9/5 Q1084
SS LFPNYYYX EGLLYYYX LFPGYYYX 270418 METAR LFPG 270418Z 28937KT 9999 FEW030 11/19 Q1005
SS EGLLYYYX LFPBYYYX LFPBYYYX LFPBYYYX 080543 METAR LFPG 080543Z 07442KT 9999 FEW030 19/11 Q1025
KK EGLLYYYX EDDFYYYX LFPNYYYX LFPOYYYX 220734 METAR LFPG 220734Z 24412KT 9999 FEW030 13/6 Q1048
SS LFPGYYYX LFPNYYYX EGLLYYYX EGLLYYYX 242147 METAR LFPG 242147Z 01826KT 9999 FEW030 10/8 Q1041
SS LFPGYYYX LFPNYYYX LFPNYYYX LFPGYYYX 050253 METAR LFPG 050253Z 14321KT 9999 FEW030 19/10 Q1055
SS LFPNYYYX LFPNYYYX EGLLYYYX 132201 METAR LFPG 132201Z 09159KT 9999 FEW030 10/2 Q1036
KK LFPGYYYX EGLLYYYX LFPNYYYX 270006 METAR LFPG 270006Z 28555KT 9999 FEW030 28/15 Q1034
FF LFPBYYYX LFPBYYYX 240131 METAR LFPG 240131Z 19020KT 9999 FEW030 5/2 Q1046
KK EGLLYYYX LFPBYYYX LFPBYYYX LFPBYYYX 280935 METAR LFPG 280935Z 00624KT 9999 FEW030 14/9 Q1086
SS LFPOYYYX LFPNYYYX 160531 METAR LFPG 160531Z 12220KT 9999 FEW030 14/15 Q1055
DD LFPBYYYX EDDFYYYX 170648 METAR LFPG 170648Z 26747KT 9999 FEW030 14/1 Q1007
SS EDDFYYYX LFPBYYYX EDDFYYYX LFPGYYYX 212205 METAR LFPG 212205Z 28323KT 9999 FEW030 12/8 Q1039
GG LFPBYYYX EDDFYYYX LFPOYYYX LFPOYYYX 251001 METAR LFPG 251001Z 03159KT 9999 FEW030 13/2 Q1070
KK LFPNYYYX EDDFYYYX LFPBYYYX 122147 METAR LFPG 122147Z 25846KT 9999 FEW030 12/0 Q1070
FF EDDFYYYX LFPOYYYX 210353 METAR LFPG 210353Z 02311KT 9999 FEW030 22/0 Q1043
LL LFPYYYX EDDFYYYX EGLLYYYX 281355 METAR LFPG 281355Z 15454KT 9999 FEW030 7/3 Q1030
GG LFPOYYYX LFPGYYYX LFPBYYYX 141909 METAR LFPG 141909Z 28038KT 9999 FEW030 25/15 Q1072
DD LFPNYYYX EGLLYYYX LFPBYYYX LFPGYYYX 201016 METAR LFPG 201016Z 17414KT 9999 FEW030 15/7 Q1017
LL EGLLYYYX LFPGYYYX LFPBYYYX 142329 METAR LFPG 142329Z 18748KT 9999 FEW030 10/8 Q1057
LL EDDFYYYX LFPGYYYX 161315 METAR LFPG 161315Z 34616KT 9999 FEW030 1/10 Q1004
FF EGLLYYYX LFPNYYYX LFPNYYYX LFPGYYYX 161307 METAR LFPG 161307Z 22656KT 9999 FEW030 5/2 Q1078
LL EDDFYYYX LFPNYYYX LFPGYYYX 211545 METAR LFPG 211545Z 08314KT 9999 FEW030 17/6 Q1016
DD EGLLYYYX LFPBYYYX LFPOYYYX EGLLYYYX 051857 METAR LFPG 051857Z 32715KT 9999 FEW030 12/4 Q1012
KK LFPBYYYX LFPBYYYX 220305 METAR LFPG 220305Z 21644KT 9999 FEW030 25/17 Q1036
SS LFPOYYYX LFPBYYYX 280523 METAR LFPG 280523Z 12252KT 9999 FEW030 25/15 Q1009
DD LFPOYYYX EGLLYYYX LFPOYYYX LFPNYYYX 230455 METAR LFPG 230455Z 14523KT 9999 FEW030 1/15 Q1019
SS EGLLYYYX LFPBYYYX 150511 METAR LFPG 150511Z 28129KT 9999 FEW030 0/17 Q1032
GG LFPBYYYX LFPOYYYX EDDFYYYX 120228 METAR LFPG 120228Z 11827KT 9999 FEW030 29/8 Q1092
DD LFPNYYYX LFPGYYYX EGLLYYYX 241707 METAR LFPG 241707Z 03836KT 9999 FEW030 13/8 Q1018
KK LFPGYYYX EDDFYYYX LFPOYYYX EGLLYYYX 101105 METAR LFPG 101105Z 10354KT 9999 FEW030 23/11 Q1067
FF LFPGYYYX LFPOYYYX LFPOYYYX 091824 METAR LFPG 091824Z 18243KT 9999 FEW030 25/8 Q1033
LL LFPNYYYX LFPBYYYX LFPOYYYX 081440 METAR LFPG 081440Z 01039KT 9999 FEW030 15/11 Q1053
FF EDDFYYYX EGLLYYYX LFPBYYYX 080115 METAR LFPG 080115Z 16644KT 9999 FEW030 25/19 Q1093
