DD LFPGYYYX LFPGYYYX LFPOYYYX EGLLYYYX 260300 TAF LFPG 260300Z 2603/2721 28015KT 9999 FEW030
SS LFPBYYYX EDDFYYYX 192000 TAF LFPG 192000Z 1920/1206 28015KT 9999 FEW030
KK LFPNYYYX LFPOYYYX LFPBYYYX 211900 TAF LFPG 211900Z 2119/1915 28015KT 9999 FEW030
LL LFPOYYYX EDDFYYYX LFPBYYYX 111500 TAF LFPG 111500Z 1115/1708 28015KT 9999 FEW030
KK LFPNYYYX LFPOYYYX 031800 TAF LFPG 031800Z 0318/2622 28015KT 9999 FEW030
LL EDDFYYYX EGLLYYYX LFPBYYYX LFPOYYYX 091000 TAF LFPG 091000Z 0910/0220 28015KT 9999 FEW030
GG LFPBYYYX EDDFYYYX 051800 TAF LFPG 051800Z 0518/0120 28015KT 9999 FEW030
SS LFPNYYYX LFPNYYYX EGLLYYYX LFPGYYYX 081800 TAF LFPG 081800Z 0818/0702 28015KT 9999 FEW030
LL LFPNYYYX LFPGYYYX LFPNYYYX EDDFYYYX 032200 TAF LFPG 032200Z 0322/1819 28015KT 9999 FEW030
SS EDDFYYYX LFPGYYYX LFPNYYYX 271200 TAF LFPG 271200Z 2712/0504 28015KT 9999 FEW030
FF LFPOYYYX LFPNYYYX 101900 TAF LFPG 101900Z 1019/0820 28015KT 9999 FEW030
LL LFPNYYYX LFPNYYYX EDDFYYYX 240300 TAF LFPG 240300Z 2403/2421 28015KT 9999 FEW030
DD LFPBYYYX LFPGYYYX LFPNYYYX EDDFYYYX 240000 TAF LFPG 240000Z 2400/1823 28015KT 9999 FEW030
GG EDDFYYYX LFPOYYYX EDDFYYYX LFPBYYYX 030500 TAF LFPG 030500Z 0305/0203 28015KT 9999 FEW030
GG LFPOYYYX LFPGYYYX 241600 TAF LFPG 241600Z 2416/0708 28015KT 9999 FEW030
GG LFPOYYYX EGLLYYYX 280200 TAF LFPG 280200Z 2802/0916 28015KT 9999 FEW030
LL EGLLYYYX LFPOYYYX 062200 TAF LFPG 062200Z 0622/2216 28015KT 9999 FEW030
KK LFPNYYYX LFPBYYYX 041100 TAF LFPG 041100Z 0411/2521 28015KT 9999 FEW030
DD EGLLYYYX EDDFYYYX LFPOYYYX LFPGYYYX 261600 TAF LFPG 261600Z 2616/0318 28015KT 9999 FEW030
FF LFPGYYYX LFPBYYYX 110300 TAF LFPG 110300Z 1103/0401 28015KT 9999 FEW030
LL LFPGYYYX LFPGYYYX EDDFYYYX 040300 TAF LFPG 040300Z 0403/0619 28015KT 9999 FEW030
LL LFPBYYYX LFPNYYYX LFPOYYYX LFPGYYYX 240500 TAF LFPG 240500Z 2405/0718 28015KT 9999 FEW030
LL LFPGYYYX LFPNYYYX LFPOYYYX 062200 TAF LFPG 062200Z 0622/2009 28015KT 9999 FEW030
SS LFPNYYYX LFPNYYYX LFPOYYYX LFPGYYYX 061200 TAF LFPG 061200Z 0612/0903 28015KT 9999 FEW030
GG LFPGYYYX EGLLYYYX EDDFYYYX LFPGYYYX 170600 TAF LFPG 170600Z 1706/1311 28015KT 9999 FEW030
SS LFPBYYYX LFPNYYYX 051500 TAF LFPG 051500Z 0515/0806 28015KT 9999 FEW030
SS EGLLYYYX LFPBYYYX EDDFYYYX 011100 TAF LFPG 011100Z 0111/0103 28015KT 9999 FEW030
SS LFPOYYYX EDDFYYYX LFPOYYYX 111900 TAF LFPG 111900Z 1119/0519 28015KT 9999 FEW030
DD LFPGYYYX EDDFYYYX LFPGYYYX LFPOYYYX 081800 TAF LFPG 081800Z 0818/1702 28015KT 9999 FEW030
LL LFPOYYYX LFPNYYYX LFPGYYYX 190600 TAF LFPG 190600Z 1906/1015 28015KT 9999 FEW030
SS LFPGYYYX EDDFYYYX LFPOYYYX 131400 TAF LFPG 131400Z 1314/1100 28015KT 9999 FEW030
SS LFPOYYYX LFPOYYYX LFPGYYYX LFPNYYYX 160700 TAF LFPG 160700Z 1607/1311 28015KT 9999 FEW030
GG LFPOYYYX EGLLYYYX 091300 TAF LFPG 091300Z 0913/1310 28015KT 9999 FEW030
DD LFPOYYYX LFPOYYYX 160500 TAF LFPG 160500Z 1605/0706 28015KT 9999 FEW030
DD EDDFYYYX LFPOYYYX LFPGYYYX 220900 TAF LFPG 220900Z 2209/0603 28015KT 9999 FEW030
FF EDDFYYYX EDDFYYYX LFPGYYYX LFPOYYYX 090500 TAF LFPG 090500Z 0905/1421 28015KT 9999 FEW030
GG EDDFYYYX LFPBYYYX LFPNYYYX 121500 TAF LFPG 121500Z 1215/1213 28015KT 9999 FEW030
LL LFPGYYYX EGLLYYYX LFPGYYYX LFPBYYYX 061800 TAF LFPG 061800Z 0618/1300 28015KT 9999 FEW030
LL LFPBYYYX LFPOYYYX 191600 TAF LFPG 191600Z 1916/0800 28015KT 9999 FEW030
GG LFPNYYYX EDDFYYYX LFPOYYYX LFPGYYYX 101600 TAF LFPG 101600Z 1016/2413 28015KT 9999 FEW030
KK LFPOYYYX EDDFYYYX EGLLYYYX 081400 TAF LFPG 081400Z 0814/1302 28015KT 9999 FEW030
SS LFPBYYYX LFPGYYYX 191200 TAF LFPG 191200Z 1912/1214 28015KT 9999 FEW030
SS LFPGYYYX EGLLYYYX LFPNYYYX 261300 TAF LFPG 261300Z 2613/2108 28015KT 9999 FEW030
FF LFPNYYYX LFPOYYYX LFPGYYYX LFPNYYYX 181500 TAF LFPG 181500Z 1815/1017 28015KT 9999 FEW030
DD LFPBYYYX LFPGYYYX LFPOYYYX 130500 TAF LFPG 130500Z 1305/0514 28015KT 9999 FEW030
SS LFPOYYYX LFPBYYYX LFPGYYYX 181400 TAF LFPG 181400Z 1814/1319 28015KT 9999 FEW030
GG LFPNYYYX EDDFYYYX LFPBYYYX LFPNYYYX 171800 TAF LFPG 171800Z 1718/2301 28015KT 9999 FEW030
KK LFPBYYYX LFPBYYYX EGLLYYYX 091500 TAF LFPG 091500Z 0915/0113 28015KT 9999 FEW030
DD LFPOYYYX LFPGYYYX 071000 TAF LFPG 071000Z 0710/0320 28015KT 9999 FEW030
KK EGLLYYYX EDDFYYYX LFPBYYYX 111000 TAF LFPG 111000Z 1110/1703 28015KT 9999 FEW030
LL LFPNYYYX LFPGYYYX 100100 TAF LFPG 100100Z 1001/0315 28015KT 9999 FEW030
KK LFPGYYYX LFPNYYYX 120400 TAF LFPG 120400Z 1204/1400 28015KT 9999 FEW030
DD EGLLYYYX LFPGYYYX 042000 TAF LFPG 042000Z 0420/0918 28015KT 9999 FEW030
LL LFPOYYYX LFPNYYYX EDDFYYYX 251400 TAF LFPG 251400Z 2514/0509 28015KT 9999 FEW030
DD LFPBYYYX LFPOYYYX LFPNYYYX 131800 TAF LFPG 131800Z 1318/1023 28015KT 9999 FEW030
FF EGLLYYYX EGLLYYYX EDDFYYYX LFPGYYYX 010100 TAF LFPG 010100Z 0101/1211 28015KT 9999 FEW030
SS LFPBYYYX EGLLYYYX 210900 TAF LFPG 210900Z 2109/1505 28015KT 9999 FEW030
FF EDDFYYYX EDDFYYYX LFPBYYYX LFPOYYYX 021200 TAF LFPG 021200Z 0212/2420 28015KT 9999 FEW030
GG LFPNYYYX EDDFYYYX EGLLYYYX LFPNYYYX 011800 TAF LFPG 011800Z 0118/0618 28015KT 9999 FEW030
LL LFPGYYYX LFPBYYYX EGLLYYYX LFPNYYYX 082300 TAF LFPG 082300Z 0823/0117 28015KT 9999 FEW030
DD LFPOYYYX LFPGYYYX LFPBYYYX LFPNYYYX 061200 TAF LFPG 061200Z 0612/0510 28015KT 9999 FEW030
SS LFPBYYYX LFPGYYYX 091000 TAF LFPG 091000Z 0910/0203 28015KT 9999 FEW030
DD EDDFYYYX EGLLYYYX LFPNYYYX 202000 TAF LFPG 202000Z 2020/2606 28015KT 9999 FEW030
SS LFPGYYYX LFPNYYYX EGLLYYYX 190800 TAF LFPG 190800Z 1908/1407 28015KT 9999 FEW030
KK EDDFYYYX EDDFYYYX EGLLYYYX LFPOYYYX 081700 TAF LFPG 081700Z 0817/2400 28015KT 9999 FEW030
DD LFPGYYYX EGLLYYYX EDDFYYYX 251700 TAF LFPG 251700Z 2517/2311 28015KT 9999 FEW030
DD LFPGYYYX LFPBYYYX LFPGYYYX EGLLYYYX 050000 TAF LFPG 050000Z 0500/0105 28015KT 9999 FEW030
DD LFPGYYYX EGLLYYYX LFPOYYYX 011000 TAF LFPG 011000Z 0110/1216 28015KT 9999 FEW030
DD LFPNYYYX LFPNYYYX LFPGYYYX EGLLYYYX 101400 TAF LFPG 101400Z 1014/0810 28015KT 9999 FEW030
FF LFPOYYYX LFPBYYYX 160400 TAF LFPG 160400Z 1604/2501 28015KT 9999 FEW030
GG LFPNYYYX LFPBYYYX 141900 TAF LFPG 141900Z 1419/1215 28015KT 9999 FEW030
DD EGLLYYYX LFPGYYYX LFPOYYYX LFPNYYYX 040500 TAF LFPG 040500Z 0405/0601 28015KT 9999 FEW030
DD EDDFYYYX LFPOYYYX 130400 TAF LFPG 130400Z 1304/1617 28015KT 9999 FEW030
KK LFPBYYYX EGLLYYYX LFPNYYYX 111600 TAF LFPG 111600Z 1116/2617 28015KT 9999 FEW030
LL LFPNYYYX EGLLYYYX LFPOYYYX LFPGYYYX 281500 TAF LFPG 281500Z 2815/2016 28015KT 9999 FEW030
LL LFPNYYYX LFPGYYYX LFPNYYYX EGLLYYYX 250800 TAF LFPG 250800Z 2508/1120 28015KT 9999 FEW030
SS EDDFYYYX LFPNYYYX EGLLYYYX LFPBYYYX 021900 TAF LFPG 021900Z 0219/2421 28015KT 9999 FEW030
GG LFPBYYYX EGLLYYYX 190800 TAF LFPG 190800Z 1908/0315 28015KT 9999 FEW030
LL LFPOYYYX LFPOYYYX LFPNYYYX LFPBYYYX 251700 TAF LFPG 251700Z 2517/2204 28015KT 9999 FEW030
SS LFPGYYYX LFPBYYYX LFPOYYYX 030200 TAF LFPG 030200Z 0302/2817 28015KT 9999 FEW030
SS LFPBYYYX LFPOYYYX 131400 TAF LFPG 131400Z 1314/1405 28015KT 9999 FEW030
GG EGLLYYYX EDDFYYYX LFPNYYYX LFPOYYYX 041400 TAF LFPG 041400Z 0414/1705 28015KT 9999 FEW030
GG LFPGYYYX LFPNYYYX LFPBYYYX 220000 TAF LFPG 220000Z 2200/2404 28015KT 9999 FEW030
GG LFPOYYYX LFPGYYYX EDDFYYYX LFPBYYYX 270800 TAF LFPG 270800Z 2708/1409 28015KT 9999 FEW030
KK LFPGYYYX EDDFYYYX LFPOYYYX 190700 TAF LFPG 190700Z 1907/2503 28015KT 9999 FEW030
GG LFPBYYYX EDDFYYYX LFPGYYYX 111900 TAF LFPG 111900Z 1119/2007 28015KT 9999 FEW030
FF LFPGYYYX LFPOYYYX 010000 TAF LFPG 010000Z 0100/1806 28015KT 9999 FEW030
KK LFPBYYYX LFPBYYYX LFPNYYYX 100700 TAF LFPG 100700Z 1007/0112 28015KT 9999 FEW030
FF EDDFYYYX EGLLYYYX 090800 TAF LFPG 090800Z 0908/1502 28015KT 9999 FEW030
FF LFPBYYYX LFPBYYYX LFPNYYYX 161900 TAF LFPG 161900Z 1619/0301 28015KT 9999 FEW030
DD LFPBYYYX EGLLYYYX LFPNYYYX LFPGYYYX 081700 TAF LFPG 081700Z 0817/1606 28015KT 9999 FEW030
SS EDDFYYYX LFPNYYYX LFPBYYYX EGLLYYYX 041500 TAF LFPG 041500Z 0415/2216 28015KT 9999 FEW030
LL LFPBYYYX LFPNYYYX 230900 TAF LFPG 230900Z 2309/0416 28015KT 9999 FEW030
DD LFPOYYYX LFPNYYYX LFPGYYYX 041700 TAF LFPG 041700Z 0417/1904 28015KT 9999 FEW030
LL LFPBYYYX LFPOYYYX 171100 TAF LFPG 171100Z 1711/0223 28015KT 9999 FEW030
KK EDDFYYYX LFPNYYYX 171400 TAF LFPG 171400Z 1714/2410 28015KT 9999 FEW030
SS EGLLYYYX LFPGYYYX EDDFYYYX 111700 TAF LFPG 111700Z 1117/1003 28015KT 9999 FEW030
GG LFPGYYYX EGLLYYYX 210600 TAF LFPG 210600Z 2106/1807 28015KT 9999 FEW030
LL EGLLYYYX LFPOYYYX EDDFYYYX EGLLYYYX 052300 TAF LFPG 052300Z 0523/1506 28015KT 9999 FEW030
LL EDDFYYYX LFPBYYYX 161800 TAF LFPG 161800Z 1618/0311 28015KT 9999 FEW030
LL LFPBYYYX EGLLYYYX LFPGYYYX 082300 TAF LFPG 082300Z 0823/0420 28015KT 9999 FEW030
KK LFPBYYYX LFPOYYYX EDDFYYYX EGLLYYYX 031300 TAF LFPG 031300Z 0313/2713 28015KT 9999 FEW030
LL LFPOYYYX EDDFYYYX 160600 TAF LFPG 160600Z 1606/2403 28015KT 9999 FEW030
GG LFPBYYYX LFPNYYYX LFPBYYYX 250400 TAF LFPG 250400Z 2504/2004 28015KT 9999 FEW030
LL LFPNYYYX LFPGYYYX LFPOYYYX EDDFYYYX 110700 TAF LFPG 110700Z 1107/0207 28015KT 9999 FEW030
SS EGLLYYYX EGLLYYYX 210900 TAF LFPG 210900Z 2109/0104 28015KT 9999 FEW030
DD EDDFYYYX EDDFYYYX 061500 TAF LFPG 061500Z 0615/2820 28015KT 9999 FEW030
LL LFPOYYYX EDDFYYYX 111100 TAF LFPG 111100Z 1111/0113 28015KT 9999 FEW030
DD LFPBYYYX LFPOYYYX EDDFYYYX 252000 TAF LFPG 252000Z 2520/2711 28015KT 9999 FEW030
LL EGLLYYYX LFPGYYYX 192200 TAF LFPG 192200Z 1922/1611 28015KT 9999 FEW030
KK EDDFYYYX EDDFYYYX LFPGYYYX LFPOYYYX 041500 TAF LFPG 041500Z 0415/2411 28015KT 9999 FEW030
KK LFPNYYYX EDDFYYYX 121000 TAF LFPG 121000Z 1210/2002 28015KT 9999 FEW030
KK LFPBYYYX EDDFYYYX LFPNYYYX 161300 TAF LFPG 161300Z 1613/2307 28015KT 9999 FEW030
FF LFPBYYYX LFPNYYYX EGLLYYYX 071200 TAF LFPG 071200Z 0712/0504 28015KT 9999 FEW030
GG LFPBYYYX LFPNYYYX LFPBYYYX LFPOYYYX 120300 TAF LFPG 120300Z 1203/2207 28015KT 9999 FEW030
KK LFPOYYYX LFPOYYYX 122200 TAF LFPG 122200Z 1222/2003 28015KT 9999 FEW030
SS LFPNYYYX LFPBYYYX 130900 TAF LFPG 130900Z 1309/0217 28015KT 9999 FEW030
DD LFPOYYYX EDDFYYYX EGLLYYYX LFPBYYYX 090600 TAF LFPG 090600Z 0906/0218 28015KT 9999 FEW030
LL LFPOYYYX EGLLYYYX 010500 TAF LFPG 010500Z 0105/0609 28015KT 9999 FEW030
DD LFPGYYYX LFPOYYYX LFPNYYYX 170200 TAF LFPG 170200Z 1702/0510 28015KT 9999 FEW030
LL EDDFYYYX LFPBYYYX EDDFYYYX LFPGYYYX 280100 TAF LFPG 280100Z 2801/0216 28015KT 9999 FEW030
LL LFPBYYYX EGLLYYYX EDDFYYYX 241600 TAF LFPG 241600Z 2416/2821 28015KT 9999 FEW030
DD LFPOYYYX LFPNYYYX 141700 TAF LFPG 141700Z 1417/2122 28015KT 9999 FEW030
FF LFPNYYYX LFPBYYYX 270100 TAF LFPG 270100Z 2701/2019 28015KT 9999 FEW030
LL LFPNYYYX EDDFYYYX LFPNYYYX LFPBYYYX 051800 TAF LFPG 051800Z 0518/2003 28015KT 9999 FEW030
FF EDDFYYYX EGLLYYYX LFPBYYYX LFPOYYYX 060100 TAF LFPG 060100Z 0601/2617 28015KT 9999 FEW030
SS EDDFYYYX LFPNYYYX 221100 TAF LFPG 221100Z 2211/2616 28015KT 9999 FEW030
GG LFPGYYYX EGLLYYYX 280000 TAF LFPG 280000Z 2800/1418 28015KT 9999 FEW030
LL LFPGYYYX LFPBYYYX LFPNYYYX 271000 TAF LFPG 271000Z 2710/0406 28015KT 9999 FEW030
LL LFPBYYYX LFPOYYYX 101300 TAF LFPG 101300Z 1013/2510 28015KT 9999 FEW030
LL LFPBYYYX LFPNYYYX 060200 TAF LFPG 060200Z 0602/0721 28015KT 9999 FEW030
DD LFPNYYYX LFPOYYYX 280400 TAF LFPG 280400Z 2804/1406 28015KT 9999 FEW030
FF EDDFYYYX LFPBYYYX EGLLYYYX EDDFYYYX 160000 TAF LFPG 160000Z 1600/1707 28015KT 9999 FEW030
DD LFPNYYYX EDDFYYYX LFPGYYYX 071400 TAF LFPG 071400Z 0714/1101 28015KT 9999 FEW030
SS LFPBYYYX LFPGYYYX LFPBYYYX 131900 TAF LFPG 131900Z 1319/1322 28015KT 9999 FEW030
DD EDDFYYYX LFPNYYYX LFPOYYYX 280200 TAF LFPG 280200Z 2802/2306 28015KT 9999 FEW030
DD LFPGYYYX LFPBYYYX LFPOYYYX 210800 TAF LFPG 210800Z 2108/2301 28015KT 9999 FEW030
FF LFPBYYYX LFPGYYYX EDDFYYYX EGLLYYYX 230500 TAF LFPG 230500Z 2305/2612 28015KT 9999 FEW030
LL LFPOYYYX EGLLYYYX LFPOYYYX EDDFYYYX 281000 TAF LFPG 281000Z 2810/2206 28015KT 9999 FEW030
KK EGLLYYYX LFPOYYYX LFPBYYYX 161300 TAF LFPG 161300Z 1613/0600 28015KT 9999 FEW030
GG LFPBYYYX LFPNYYYX LFPBYYYX 221100 TAF LFPG 221100Z 2211/1001 28015KT 9999 FEW030
SS EDDFYYYX EDDFYYYX EGLLYYYX 032100 TAF LFPG 032100Z 0321/1922 28015KT 9999 FEW030
GG EGLLYYYX LFPBYYYX EGLLYYYX LFPGYYYX 240800 TAF LFPG 240800Z 2408/0123 28015KT 9999 FEW030
GG EGLLYYYX EGLLYYYX LFPGYYYX 261300 TAF LFPG 261300Z 2613/0617 28015KT 9999 FEW030
FF LFPOYYYX LFPBYYYX LFPNYYYX 030100 TAF LFPG 030100Z 0301/2318 28015KT 9999 FEW030
FF LFPBYYYX LFPGYYYX EGLLYYYX LFPNYYYX 191200 TAF LFPG 191200Z 1912/1406 28015KT 9999 FEW030
LL LFPNYYYX LFPBYYYX EDDFYYYX 251600 TAF LFPG 251600Z 2516/2320 28015KT 9999 FEW030
KK LFPNYYYX EGLLYYYX EDDFYYYX LFPOYYYX 081700 TAF LFPG 081700Z 0817/2005 28015KT 9999 FEW030
KK LFPOYYYX EGLLYYYX LFPBYYYX LFPGYYYX 011600 TAF LFPG 011600Z 0116/2122 28015KT 9999 FEW030
SS LFPBYYYX LFPGYYYX LFPOYYYX 071600 TAF LFPG 071600Z 0716/2015 28015KT 9999 FEW030
FF LFPNYYYX EDDFYYYX LFPOYYYX LFPNYYYX 192300 TAF LFPG 192300Z 1923/1403 28015KT 9999 FEW030
LL LFPOYYYX LFPOYYYX 131500 TAF LFPG 131500Z 1315/2107 28015KT 9999 FEW030
FF LFPBYYYX LFPNYYYX LFPBYYYX EDDFYYYX 042300 TAF LFPG 042300Z 0423/2518 28015KT 9999 FEW030
GG EGLLYYYX EDDFYYYX EGLLYYYX LFPNYYYX 080200 TAF LFPG 080200Z 0802/0909 28015KT 9999 FEW030
KK LFPGYYYX LFPOYYYX EGLLYYYX LFPGYYYX 271800 TAF LFPG 271800Z 2718/2009 28015KT 9999 FEW030
KK EGLLYYYX LFPGYYYX LFPBYYYX EDDFYYYX 251500 TAF LFPG 251500Z 2515/1901 28015KT 9999 FEW030
FF LFPNYYYX LFPNYYYX LFPBYYYX LFPOYYYX 130900 TAF LFPG 130900Z 1309/2703 28015KT 9999 FEW030
FF EDDFYYYX LFPOYYYX 201700 TAF LFPG 201700Z 2017/0703 28015KT 9999 FEW030
DD LFPBYYYX LFPNYYYX 050100 TAF LFPG 050100Z 0501/2015 28015KT 9999 FEW030
DD LFPNYYYX LFPGYYYX 191500 TAF LFPG 191500Z 1915/1907 28015KT 9999 FEW030
DD LFPOYYYX EGLLYYYX LFPGYYYX 101400 TAF LFPG 101400Z 1014/1720 28015KT 9999 FEW030
FF LFPBYYYX LFPGYYYX EDDFYYYX 120100 TAF LFPG 120100Z 1201/0702 28015KT 9999 FEW030
GG EGLLYYYX LFPNYYYX LFPBYYYX 281200 TAF LFPG 281200Z 2812/2221 28015KT 9999 FEW030
FF LFPNYYYX LFPNYYYX LFPOYYYX LFPBYYYX 221500 TAF LFPG 221500Z 2215/0119 28015KT 9999 FEW030
GG LFPOYYYX EGLLYYYX 270500 TAF LFPG 270500Z 2705/2401 28015KT 9999 FEW030
KK EGLLYYYX LFPGYYYX 010300 TAF LFPG 010300Z 0103/2008 28015KT 9999 FEW030
GG EDDFYYYX EGLLYYYX LFPOYYYX 181100 TAF LFPG 181100Z 1811/2104 28015KT 9999 FEW030
DD EDDFYYYX LFPOYYYX 111700 TAF LFPG 111700Z 1117/2503 28015KT 9999 FEW030
DD LFPNYYYX LFPGYYYX LFPOYYYX 120700 TAF LFPG 120700Z 1207/0801 28015KT 9999 FEW030
SS LFPBYYYX EGLLYYYX LFPBYYYX 091200 TAF LFPG 091200Z 0912/2005 28015KT 9999 FEW030
DD LFPOYYYX LFPGYYYX LFPOYYYX EDDFYYYX 050800 TAF LFPG 050800Z 0508/1409 28015KT 9999 FEW030
FF EDDFYYYX EDDFYYYX EGLLYYYX 200900 TAF LFPG 200900Z 2009/0610 28015KT 9999 FEW030
KK EGLLYYYX LFPGYYYX LFPBYYYX 211100 TAF LFPG 211100Z 2111/0312 28015KT 9999 FEW030
GG LFPOYYYX LFPBYYYX 192300 TAF LFPG 192300Z 1923/0607 28015KT 9999 FEW030
GG LFPOYYYX LFPGYYYX LFPBYYYX LFPNYYYX 210300 TAF LFPG 210300Z 2103/2508 28015KT 9999 FEW030
DD LFPGYYYX LFPNYYYX 160500 TAF LFPG 160500Z 1605/1403 28015KT 9999 FEW030
FF LFPNYYYX LFPOYYYX LFPNYYYX LFPGYYYX 282100 TAF LFPG 282100Z 2821/0916 28015KT 9999 FEW030
DD LFPGYYYX EDDFYYYX LFPOYYYX EGLLYYYX 261400 TAF LFPG 261400Z 2614/1216 28015KT 9999 FEW030
DD EGLLYYYX LFPOYYYX 012000 TAF LFPG 012000Z 0120/2306 28015KT 9999 FEW030
SS LFPNYYYX EGLLYYYX LFPNYYYX LFPGYYYX 151300 TAF LFPG 151300Z 1513/2300 28015KT 9999 FEW030
FF LFPNYYYX LFPOYYYX EDDFYYYX LFPGYYYX 211200 TAF LFPG 211200Z 2112/1916 28015KT 9999 FEW030
GG EGLLYYYX LFPNYYYX LFPGYYYX EGLLYYYX 161800 TAF LFPG 161800Z 1618/2405 28015KT 9999 FEW030
GG LFPNYYYX EGLLYYYX LFPBYYYX 220800 TAF LFPG 220800Z 2208/0323 28015KT 9999 FEW030
FF LFPBYYYX LFPNYYYX LFPBYYYX 142200 TAF LFPG 142200Z 1422/0917 28015KT 9999 FEW030
LL LFPOYYYX LFPOYYYX EGLLYYYX LFPBYYYX 170300 TAF LFPG 170300Z 1703/2221 28015KT 9999 FEW030
KK EGLLYYYX LFPBYYYX LFPNYYYX EGLLYYYX 242200 TAF LFPG 242200Z 2422/2322 28015KT 9999 FEW030
GG EGLLYYYX LFPGYYYX 020600 TAF LFPG 020600Z 0206/0214 28015KT 9999 FEW030
GG EDDFYYYX EDDFYYYX LFPGYYYX 051300 TAF LFPG 051300Z 0513/0103 28015KT 9999 FEW030
LL EDDFYYYX LFPOYYYX EGLLYYYX EDDFYYYX 171300 TAF LFPG 171300Z 1713/2722 28015KT 9999 FEW030
FF LFPGYYYX EDDFYYYX 030500 TAF LFPG 030500Z 0305/1123 28015KT 9999 FEW030
LL EGLLYYYX EGLLYYYX LFPOYYYX 280700 TAF LFPG 280700Z 2807/0619 28015KT 9999 FEW030
LL LFPGYYYX EGLLYYYX LFPNYYYX 230000 TAF LFPG 230000Z 2300/0605 28015KT 9999 FEW030
DD LFPNYYYX EDDFYYYX LFPGYYYX 190000 TAF LFPG 190000Z 1900/1920 28015KT 9999 FEW030
SS LFPOYYYX EDDFYYYX 141900 TAF LFPG 141900Z 1419/1917 28015KT 9999 FEW030
DD EDDFYYYX EGLLYYYX 051200 TAF LFPG 051200Z 0512/2210 28015KT 9999 FEW030
DD LFPNYYYX LFPGYYYX EDDFYYYX 091100 TAF LFPG 091100Z 0911/1306 28015KT 9999 FEW030
FF LFPOYYYX LFPOYYYX EGLLYYYX 231100 TAF LFPG 231100Z 2311/2303 28015KT 9999 FEW030
DD LFPBYYYX LFPOYYYX 190600 TAF LFPG 190600Z 1906/2721 28015KT 9999 FEW030
SS LFPBYYYX EDDFYYYX 121400 TAF LFPG 121400Z 1214/1211 28015KT 9999 FEW030
LL LFPNYYYX LFPGYYYX 211300 TAF LFPG 211300Z 2113/0112 28015KT 9999 FEW030
FF LFPBYYYX LFPNYYYX LFPGYYYX 080800 TAF LFPG 080800Z 0808/0116 28015KT 9999 FEW030
LL LFPOYYYX LFPGYYYX EGLLYYYX 050200 TAF LFPG 050200Z 0502/0312 28015KT 9999 FEW030
LL LFPOYYYX LFPBYYYX 191100 TAF LFPG 191100Z 1911/2110 28015KT 9999 FEW030
DD LFPBYYYX EGLLYYYX 180300 TAF LFPG 180300Z 1803/0400 28015KT 9999 FEW030
GG EDDFYYYX LFPBYYYX EDDFYYYX LFPOYYYX 271800 TAF LFPG 271800Z 2718/1706 28015KT 9999 FEW030
GG LFPNYYYX LFPOYYYX 032000 TAF LFPG 032000Z 0320/0108 28015KT 9999 FEW030
SS EGLLYYYX LFPGYYYX 171500 TAF LFPG 171500Z 1715/1814 28015KT 9999 FEW030
DD LFPBYYYX LFPNYYYX EGLLYYYX 021700 TAF LFPG 021700Z 0217/0509 28015KT 9999 FEW030
FF EGLLYYYX EGLLYYYX EDDFYYYX 212000 TAF LFPG 212000Z 2120/1921 28015KT 9999 FEW030
SS LFPGYYYX EDDFYYYX LFPBYYYX 180000 TAF LFPG 180000Z 1800/0911 28015KT 9999 FEW030
SS LFPNYYYX LFPBYYYX LFPNYYYX EDDFYYYX 082100 TAF LFPG 082100Z 0821/0800 28015KT 9999 FEW030
LL LFPBYYYX LFPOYYYX EGLLYYYX 241900 TAF LFPG 241900Z 2419/1815 28015KT 9999 FEW030
DD EDDFYYYX LFPNYYYX LFPBYYYX LFPGYYYX 210700 TAF LFPG 210700Z 2107/1023 28015KT 9999 FEW030
SS EGLLYYYX EDDFYYYX 231100 TAF LFPG 231100Z 2311/1502 28015KT 9999 FEW030
FF LFPBYYYX EGLLYYYX LFPGYYYX 020100 TAF LFPG 020100Z 0201/1402 28015KT 9999 FEW030
FF EGLLYYYX LFPBYYYX 270800 TAF LFPG 270800Z 2708/2023 28015KT 9999 FEW030
LL LFPOYYYX EDDFYYYX LFPNYYYX 150000 TAF LFPG 150000Z 1500/2717 28015KT 9999 FEW030
GG LFPGYYYX LFPGYYYX LFPBYYYX 020200 TAF LFPG 020200Z 0202/2123 28015KT 9999 FEW030
GG EDDFYYYX EGLLYYYX 140600 TAF LFPG 140600Z 1406/2703 28015KT 9999 FEW030
LL LFPGYYYX LFPNYYYX LFPGYYYX 171300 TAF LFPG 171300Z 1713/0506 28015KT 9999 FEW030
LL EGLLYYYX EGLLYYYX LFPBYYYX 200000 TAF LFPG 200000Z 2000/0504 28015KT 9999 FEW030
LL EGLLYYYX EGLLYYYX 222300 TAF LFPG 222300Z 2223/1006 28015KT 9999 FEW030
KK LFPBYYYX LFPGYYYX LFPOYYYX LFPBYYYX 242100 TAF LFPG 242100Z 2421/1511 28015KT 9999 FEW030
DD LFPGYYYX EDDFYYYX LFPNYYYX EGLLYYYX 141800 TAF LFPG 141800Z 1418/0115 28015KT 9999 FEW030
GG LFPOYYYX EDDFYYYX LFPBYYYX 241400 TAF LFPG 241400Z 2414/0811 28015KT 9999 FEW030
KK LFPOYYYX EDDFYYYX 122000 TAF LFPG 122000Z 1220/2002 28015KT 9999 FEW030
SS EGLLYYYX LFPBYYYX LFPNYYYX LFPOYYYX 152000 TAF LFPG 152000Z 1520/1314 28015KT 9999 FEW030
GG LFPNYYYX EDDFYYYX 170000 TAF LFPG 170000Z 1700/1306 28015KT 9999 FEW030
SS LFPBYYYX EGLLYYYX 060700 TAF LFPG 060700Z 0607/0404 28015KT 9999 FEW030
SS LFPOYYYX EDDFYYYX LFPNYYYX LFPOYYYX 251900 TAF LFPG 251900Z 2519/2206 28015KT 9999 FEW030
SS LFPNYYYX LFPNYYYX 170400 TAF LFPG 170400Z 1704/1211 28015KT 9999 FEW030
SS LFPNYYYX LFPNYYYX EGLLYYYX 271000 TAF LFPG 271000Z 2710/1219 28015KT 9999 FEW030
SS LFPNYYYX EGLLYYYX LFPGYYYX EDDFYYYX 260800 TAF LFPG 260800Z 2608/1511 28015KT 9999 FEW030
FF LFPOYYYX LFPBYYYX 251400 TAF LFPG 251400Z 2514/0311 28015KT 9999 FEW030
GG LFPGYYYX EGLLYYYX 100500 TAF LFPG 100500Z 1005/1413 28015KT 9999 FEW030
GG LFPNYYYX EGLLYYYX 090000 TAF LFPG 090000Z 0900/0320 28015KT 9999 FEW030
GG LFPBYYYX EGLLYYYX LFPGYYYX LFPBYYYX 230500 TAF LFPG 230500Z 2305/1602 28015KT 9999 FEW030
FF LFPNYYYX LFPBYYYX EGLLYYYX 120400 TAF LFPG 120400Z 1204/2416 28015KT 9999 FEW030
LL LFPNYYYX EDDFYYYX LFPNYYYX EGLLYYYX 260400 TAF LFPG 260400Z 2604/2220 28015KT 9999 FEW030
DD LFPBYYYX LFPBYYYX LFPNYYYX 051900 TAF LFPG 051900Z 0519/2009 28015KT 9999 FEW030
FF EGLLYYYX LFPGYYYX 110000 TAF LFPG 110000Z 1100/1310 28015KT 9999 FEW030
DD EGLLYYYX LFPGYYYX LFPOYYYX EDDFYYYX 160000 TAF LFPG 160000Z 1600/0420 28015KT 9999 FEW030
LL LFPBYYYX LFPGYYYX LFPNYYYX EDDFYYYX 061500 TAF LFPG 061500Z 0615/2612 28015KT 9999 FEW030
GG EDDFYYYX EGLLYYYX LFPGYYYX 140800 TAF LFPG 140800Z 1408/2815 28015KT 9999 FEW030
FF LFPBYYYX LFPOYYYX EDDFYYYX 091700 TAF LFPG 091700Z 0917/1323 28015KT 9999 FEW030
GG LFPNYYYX LFPOYYYX EDDFYYYX LFPBYYYX 121700 TAF LFPG 121700Z 1217/1407 28015KT 9999 FEW030
GG LFPGYYYX LFPGYYYX 271900 TAF LFPG 271900Z 2719/1014 28015KT 9999 FEW030
SS LFPNYYYX LFPGYYYX LFPNYYYX LFPBYYYX 131200 TAF LFPG 131200Z 1312/2515 28015KT 9999 FEW030
FF LFPNYYYX LFPOYYYX EGLLYYYX EDDFYYYX 050000 TAF LFPG 050000Z 0500/2423 28015KT 9999 FEW030
DD LFPOYYYX EDDFYYYX LFPNYYYX 201000 TAF LFPG 201000Z 2010/0804 28015KT 9999 FEW030
DD LFPNYYYX LFPOYYYX EGLLYYYX LFPNYYYX 170100 TAF LFPG 170100Z 1701/1614 28015KT 9999 FEW030
LL EDDFYYYX LFPBYYYX EGLLYYYX 171800 TAF LFPG 171800Z 1718/2619 28015KT 9999 FEW030
SS EDDFYYYX LFPNYYYX 260300 TAF LFPG 260300Z 2603/2518 28015KT 9999 FEW030
FF LFPBYYYX LFPOYYYX 110400 TAF LFPG 110400Z 1104/2120 28015KT 9999 FEW030
KK LFPBYYYX EGLLYYYX LFPGYYYX 050600 TAF LFPG 050600Z 0506/1505 28015KT 9999 FEW030
SS EDDFYYYX LFPOYYYX LFPBYYYX LFPNYYYX 200600 TAF LFPG 200600Z 2006/1905 28015KT 9999 FEW030
FF EDDFYYYX LFPOYYYX 161300 TAF LFPG 161300Z 1613/0218 28015KT 9999 FEW030
SS LFPGYYYX LFPBYYYX LFPOYYYX EDDFYYYX 111200 TAF LFPG 111200Z 1112/2513 28015KT 9999 FEW030
GG LFPBYYYX EGLLYYYX 282300 TAF LFPG 282300Z 2823/0600 28015KT 9999 FEW030
FF LFPBYYYX EDDFYYYX 040000 TAF LFPG 040000Z 0400/0719 28015KT 9999 FEW030
GG LFPNYYYX LFPOYYYX LFPBYYYX 231900 TAF LFPG 231900Z 2319/1816 28015KT 9999 FEW030
FF LFPGYYYX LFPGYYYX EGLLYYYX EDDFYYYX 200200 TAF LFPG 200200Z 2002/0904 28015KT 9999 FEW030
FF LFPOYYYX EGLLYYYX EDDFYYYX LFPOYYYX 020100 TAF LFPG 020100Z 0201/2215 28015KT 9999 FEW030
FF LFPGYYYX LFPBYYYX LFPGYYYX 191900 TAF LFPG 191900Z 1919/1101 28015KT 9999 FEW030
DD LFPNYYYX EGLLYYYX EDDFYYYX 241000 TAF LFPG 241000Z 2410/2419 28015KT 9999 FEW030
LL LFPBYYYX EDDFYYYX LFPNYYYX 150200 TAF LFPG 150200Z 1502/0909 28015KT 9999 FEW030
DD EDDFYYYX LFPOYYYX EGLLYYYX 282100 TAF LFPG 282100Z 2821/0902 28015KT 9999 FEW030
FF LFPGYYYX LFPBYYYX EGLLYYYX 112200 TAF LFPG 112200Z 1122/1422 28015KT 9999 FEW030
KK LFPBYYYX LFPOYYYX LFPNYYYX LFPGYYYX 181100 TAF LFPG 181100Z 1811/2319 28015KT 9999 FEW030
GG EGLLYYYX LFPNYYYX LFPOYYYX 222100 TAF LFPG 222100Z 2221/2215 28015KT 9999 FEW030
GG LFPGYYYX LFPGYYYX EGLLYYYX LFPOYYYX 192000 TAF LFPG 192000Z 1920/2309 28015KT 9999 FEW030
GG LFPNYYYX LFPBYYYX EGLLYYYX 092300 TAF LFPG 092300Z 0923/2201 28015KT 9999 FEW030
DD LFPBYYYX LFPNYYYX EDDFYYYX 112200 TAF LFPG 112200Z 1122/1810 28015KT 9999 FEW030
KK EDDFYYYX LFPNYYYX LFPOYYYX 261000 TAF LFPG 261000Z 2610/1914 28015KT 9999 FEW030
SS LFPNYYYX EGLLYYYX LFPBYYYX 281900 TAF LFPG 281900Z 2819/1402 28015KT 9999 FEW030
KK EDDFYYYX LFPNYYYX 050000 TAF LFPG 050000Z 0500/1922 28015KT 9999 FEW030
GG LFPGYYYX LFPOYYYX LFPNYYYX LFPGYYYX 170400 TAF LFPG 170400Z 1704/1618 28015KT 9999 FEW030
KK LFPGYYYX LFPOYYYX LFPGYYYX LFPBYYYX 160700 TAF LFPG 160700Z 1607/2104 28015KT 9999 FEW030
LL LFPOYYYX EDDFYYYX LFPBYYYX 030900 TAF LFPG 030900Z 0309/1106 28015KT 9999 FEW030
DD LFPNYYYX LFPGYYYX LFPBYYYX LFPOYYYX 210300 TAF LFPG 210300Z 2103/1119 28015KT 9999 FEW030
DD LFPBYYYX LFPOYYYX LFPBYYYX 270900 TAF LFPG 270900Z 2709/2808 28015KT 9999 FEW030
KK LFPOYYYX LFPGYYYX EGLLYYYX 210400 TAF LFPG 210400Z 2104/0820 28015KT 9999 FEW030
DD LFPNYYYX EGLLYYYX LFPOYYYX LFPNYYYX 241500 TAF LFPG 241500Z 2415/1401 28015KT 9999 FEW030
KK LFPGYYYX LFPGYYYX LFPOYYYX 201900 TAF LFPG 201900Z 2019/0808 28015KT 9999 FEW030
DD LFPBYYYX LFPGYYYX LFPNYYYX 262200 TAF LFPG 262200Z 2622/1213 28015KT 9999 FEW030
FF EGLLYYYX EGLLYYYX LFPOYYYX 260000 TAF LFPG 260000Z 2600/0621 28015KT 9999 FEW030
GG EDDFYYYX LFPBYYYX LFPOYYYX LFPNYYYX 170900 TAF LFPG 170900Z 1709/1409 28015KT 9999 FEW030
DD LFPGYYYX EDDFYYYX EGLLYYYX LFPBYYYX 180700 TAF LFPG 180700Z 1807/0322 28015KT 9999 FEW030
DD EGLLYYYX EDDFYYYX LFPGYYYX LFPOYYYX 011300 TAF LFPG 011300Z 0113/1502 28015KT 9999 FEW030
FF LFPOYYYX LFPOYYYX LFPGYYYX 041600 TAF LFPG 041600Z 0416/2307 28015KT 9999 FEW030
GG LFPOYYYX LFPGYYYX 250400 TAF LFPG 250400Z 2504/2312 28015KT 9999 FEW030
LL LFPGYYYX LFPOYYYX LFPGYYYX LFPNYYYX 150000 TAF LFPG 150000Z 1500/0620 28015KT 9999 FEW030
GG LFPBYYYX EDDFYYYX LFPBYYYX LFPGYYYX 021300 TAF LFPG 021300Z 0213/2012 28015KT 9999 FEW030
KK LFPOYYYX LFPGYYYX 210100 TAF LFPG 210100Z 2101/0216 28015KT 9999 FEW030
KK LFPGYYYX LFPBYYYX LFPNYYYX EDDFYYYX 281600 TAF LFPG 281600Z 2816/0603 28015KT 9999 FEW030
SS LFPNYYYX LFPNYYYX 111900 TAF LFPG 111900Z 1119/1607 28015KT 9999 FEW030
DD LFPOYYYX LFPGYYYX EGLLYYYX 102100 TAF LFPG 102100Z 1021/0320 28015KT 9999 FEW030
KK LFPNYYYX EDDFYYYX LFPBYYYX 200100 TAF LFPG 200100Z 2001/1706 28015KT 9999 FEW030
FF EGLLYYYX LFPOYYYX 141000 TAF LFPG 141000Z 1410/2820 28015KT 9999 FEW030
DD EGLLYYYX EGLLYYYX LFPNYYYX 150500 TAF LFPG 150500Z 1505/0802 28015KT 9999 FEW030
GG LFPNYYYX LFPNYYYX LFPGYYYX 151200 TAF LFPG 151200Z 1512/2808 28015KT 9999 FEW030
SS EGLLYYYX EGLLYYYX 261100 TAF LFPG 261100Z 2611/1318 28015KT 9999 FEW030
GG EGLLYYYX LFPOYYYX LFPBYYYX LFPNYYYX 160500 TAF LFPG 160500Z 1605/1508 28015KT 9999 FEW030
DD LFPBYYYX LFPGYYYX LFPOYYYX 260800 TAF LFPG 260800Z 2608/0510 28015KT 9999 FEW030
KK LFPNYYYX LFPGYYYX 100800 TAF LFPG 100800Z 1008/0517 28015KT 9999 FEW030
DD LFPNYYYX EDDFYYYX 031100 TAF LFPG 031100Z 0311/2609 28015KT 9999 FEW030
DD LFPNYYYX EGLLYYYX EDDFYYYX LFPNYYYX 070300 TAF LFPG 070300Z 0703/0308 28015KT 9999 FEW030
KK EGLLYYYX EDDFYYYX 010700 TAF LFPG 010700Z 0107/1616 28015KT 9999 FEW030
DD LFPGYYYX EDDFYYYX LFPGYYYX 121100 TAF LFPG 121100Z 1211/1200 28015KT 9999 FEW030
GG LFPGYYYX EGLLYYYX EDDFYYYX LFPOYYYX 212300 TAF LFPG 212300Z 2123/2319 28015KT 9999 FEW030
KK LFPOYYYX LFPNYYYX EGLLYYYX LFPBYYYX 071000 TAF LFPG 071000Z 0710/0309 28015KT 9999 FEW030
SS LFPOYYYX EGLLYYYX LFPOYYYX 041000 TAF LFPG 041000Z 0410/0610 28015KT 9999 FEW030
GG EDDFYYYX LFPNYYYX EDDFYYYX 111800 TAF LFPG 111800Z 1118/1917 28015KT 9999 FEW030
FF LFPNYYYX LFPBYYYX LFPNYYYX 101700 TAF LFPG 101700Z 1017/1011 28015KT 9999 FEW030
SS LFPNYYYX LFPBYYYX 150000 TAF LFPG 150000Z 1500/1102 28015KT 9999 FEW030
SS LFPBYYYX LFPBYYYX 212300 TAF LFPG 212300Z 2123/1707 28015KT 9999 FEW030
DD LFPNYYYX EGLLYYYX 070300 TAF LFPG 070300Z 0703/2404 28015KT 9999 FEW030
FF LFPGYYYX LFPOYYYX LFPGYYYX 202300 TAF LFPG 202300Z 2023/2602 28015KT 9999 FEW030
KK LFPGYYYX LFPBYYYX LFPNYYYX LFPGYYYX 031700 TAF LFPG 031700Z 0317/0300 28015KT 9999 FEW030
KK EDDFYYYX LFPOYYYX LFPBYYYX EDDFYYYX 200400 TAF LFPG 200400Z 2004/1719 28015KT 9999 FEW030
LL LFPGYYYX LFPOYYYX 121300 TAF LFPG 121300Z 1213/1210 28015KT 9999 FEW030
GG LFPNYYYX EDDFYYYX 112000 TAF LFPG 112000Z 1120/1520 28015KT 9999 FEW030
LL LFPGYYYX EGLLYYYX 130800 TAF LFPG 130800Z 1308/2512 28015KT 9999 FEW030
SS EGLLYYYX EGLLYYYX LFPOYYYX LFPBYYYX 181600 TAF LFPG 181600Z 1816/2513 28015KT 9999 FEW030
GG EDDFYYYX LFPOYYYX EGLLYYYX 191100 TAF LFPG 191100Z 1911/2501 28015KT 9999 FEW030
FF EGLLYYYX LFPNYYYX EGLLYYYX LFPGYYYX 040100 TAF LFPG 040100Z 0401/1408 28015KT 9999 FEW030
GG EGLLYYYX EGLLYYYX EDDFYYYX LFPGYYYX 030700 TAF LFPG 030700Z 0307/2701 28015KT 9999 FEW030
DD LFPBYYYX LFPNYYYX 011400 TAF LFPG 011400Z 0114/2204 28015KT 9999 FEW030
FF LFPNYYYX EDDFYYYX 010200 TAF LFPG 010200Z 0102/1705 28015KT 9999 FEW030
LL EGLLYYYX EGLLYYYX LFPNYYYX 132100 TAF LFPG 132100Z 1321/1218 28015KT 9999 FEW030
GG LFPNYYYX LFPNYYYX EGLLYYYX 030500 TAF LFPG 030500Z 0305/0816 28015KT 9999 FEW030
DD EGLLYYYX EGLLYYYX EDDFYYYX LFPNYYYX 201000 TAF LFPG 201000Z 2010/0803 28015KT 9999 FEW030
KK LFPOYYYX LFPGYYYX EGLLYYYX 080500 TAF LFPG 080500Z 0805/0109 28015KT 9999 FEW030
KK EGLLYYYX EDDFYYYX LFPNYYYX 061100 TAF LFPG 061100Z 0611/2015 28015KT 9999 FEW030
LL LFPGYYYX EDDFYYYX LFPBYYYX LFPGYYYX 071600 TAF LFPG 071600Z 0716/0620 28015KT 9999 FEW030
KK LFPOYYYX EGLLYYYX 271700 TAF LFPG 271700Z 2717/0821 28015KT 9999 FEW030
KK EGLLYYYX EGLLYYYX LFPOYYYX LFPNYYYX 280900 TAF LFPG 280900Z 2809/2403 28015KT 9999 FEW030
SS EGLLYYYX LFPOYYYX 240100 TAF LFPG 240100Z 2401/0312 28015KT 9999 FEW030
SS EDDFYYYX LFPGYYYX 100000 TAF LFPG 100000Z 1000/2405 28015KT 9999 FEW030
SS LFPNYYYX LFPBYYYX EDDFYYYX 251500 TAF LFPG 251500Z 2515/0320 28015KT 9999 FEW030
LL LFPOYYYX EDDFYYYX LFPOYYYX 110900 TAF LFPG 110900Z 1109/0507 28015KT 9999 FEW030
SS EDDFYYYX EGLLYYYX 222000 TAF LFPG 222000Z 2220/2122 28015KT 9999 FEW030
KK LFPBYYYX EGLLYYYX 260500 TAF LFPG 260500Z 2605/1506 28015KT 9999 FEW030
LL LFPNYYYX LFPNYYYX 041600 TAF LFPG 041600Z 0416/0400 28015KT 9999 FEW030
GG EDDFYYYX LFPGYYYX EDDFYYYX 121100 TAF LFPG 121100Z 1211/1612 28015KT 9999 FEW030
DD LFPBYYYX LFPOYYYX 060500 TAF LFPG 060500Z 0605/0922 28015KT 9999 FEW030
SS LFPBYYYX EGLLYYYX LFPNYYYX LFPOYYYX 010900 TAF LFPG 010900Z 0109/1520 28015KT 9999 FEW030
SS LFPBYYYX EGLLYYYX 050400 TAF LFPG 050400Z 0504/0722 28015KT 9999 FEW030
LL EGLLYYYX LFPBYYYX 162200 TAF LFPG 162200Z 1622/0221 28015KT 9999 FEW030
KK EGLLYYYX LFPNYYYX 190700 TAF LFPG 190700Z 1907/1607 28015KT 9999 FEW030
LL LFPOYYYX EDDFYYYX 021100 TAF LFPG 021100Z 0211/1313 28015KT 9999 FEW030
LL EGLLYYYX LFPBYYYX 180000 TAF LFPG 180000Z 1800/0812 28015KT 9999 FEW030
DD EDDFYYYX EDDFYYYX EGLLYYYX LFPNYYYX 080700 TAF LFPG 080700Z 0807/1204 28015KT 9999 FEW030
DD EDDFYYYX EGLLYYYX 101700 TAF LFPG 101700Z 1017/0710 28015KT 9999 FEW030
GG LFPNYYYX EGLLYYYX EDDFYYYX LFPNYYYX 040400 TAF LFPG 040400Z 0404/1113 28015KT 9999 FEW030
DD LFPBYYYX LFPOYYYX EGLLYYYX LFPBYYYX 112200 TAF LFPG 112200Z 1122/1116 28015KT 9999 FEW030
DD LFPOYYYX EDDFYYYX LFPGYYYX LFPNYYYX 021900 TAF LFPG 021900Z 0219/0523 28015KT 9999 FEW030
GG EGLLYYYX LFPBYYYX LFPGYYYX 161300 TAF LFPG 161300Z 1613/0915 28015KT 9999 FEW030
LL EGLLYYYX EDDFYYYX LFPOYYYX 200300 TAF LFPG 200300Z 2003/1714 28015KT 9999 FEW030
KK EGLLYYYX LFPBYYYX EDDFYYYX 011800 TAF LFPG 011800Z 0118/1807 28015KT 9999 FEW030
KK EDDFYYYX EDDFYYYX 140900 TAF LFPG 140900Z 1409/0620 28015KT 9999 FEW030
SS LFPBYYYX LFPGYYYX 010600 TAF LFPG 010600Z 0106/0601 28015KT 9999 FEW030
KK LFPNYYYX LFPOYYYX EGLLYYYX EDDFYYYX 100800 TAF LFPG 100800Z 1008/2323 28015KT 9999 FEW030
FF EGLLYYYX LFPOYYYX 191700 TAF LFPG 191700Z 1917/0523 28015KT 9999 FEW030
KK LFPBYYYX LFPOYYYX EDDFYYYX LFPBYYYX 110400 TAF LFPG 110400Z 1104/2301 28015KT 9999 FEW030
KK LFPOYYYX LFPBYYYX LFPNYYYX EDDFYYYX 170400 TAF LFPG 170400Z 1704/1921 28015KT 9999 FEW030
KK LFPGYYYX LFPOYYYX 111200 TAF LFPG 111200Z 1112/0619 28015KT 9999 FEW030
GG EGLLYYYX LFPOYYYX LFPGYYYX LFPNYYYX 131500 TAF LFPG 131500Z 1315/1405 28015KT 9999 FEW030
GG EGLLYYYX LFPNYYYX 221500 TAF LFPG 221500Z 2215/2618 28015KT 9999 FEW030
SS LFPBYYYX LFPGYYYX EGLLYYYX 160900 TAF LFPG 160900Z 1609/1605 28015KT 9999 FEW030
GG LFPNYYYX LFPGYYYX 111300 TAF LFPG 111300Z 1113/0820 28015KT 9999 FEW030
KK EGLLYYYX LFPBYYYX LFPGYYYX EDDFYYYX 051700 TAF LFPG 051700Z 0517/2612 28015KT 9999 FEW030
FF LFPOYYYX LFPBYYYX 261200 TAF LFPG 261200Z 2612/0807 28015KT 9999 FEW030
LL LFPBYYYX EDDFYYYX LFPBYYYX 140600 TAF LFPG 140600Z 1406/0616 28015KT 9999 FEW030
DD EGLLYYYX LFPNYYYX EDDFYYYX LFPBYYYX 071400 TAF LFPG 071400Z 0714/0602 28015KT 9999 FEW030
SS LFPBYYYX LFPBYYYX EDDFYYYX LFPNYYYX 110000 TAF LFPG 110000Z 1100/1018 28015KT 9999 FEW030
LL LFPNYYYX LFPNYYYX 120100 TAF LFPG 120100Z 1201/1919 28015KT 9999 FEW030
GG EGLLYYYX EGLLYYYX 191600 TAF LFPG 191600Z 1916/0114 28015KT 9999 FEW030
LL LFPBYYYX LFPGYYYX LFPOYYYX 220100 TAF LFPG 220100Z 2201/1421 28015KT 9999 FEW030
GG EGLLYYYX EDDFYYYX EGLLYYYX 192100 TAF LFPG 192100Z 1921/0707 28015KT 9999 FEW030
KK EGLLYYYX EGLLYYYX 211600 TAF LFPG 211600Z 2116/0923 28015KT 9999 FEW030
FF EDDFYYYX LFPOYYYX 122100 TAF LFPG 122100Z 1221/2514 28015KT 9999 FEW030
KK LFPNYYYX LFPNYYYX 270300 TAF LFPG 270300Z 2703/2512 28015KT 9999 FEW030
GG LFPNYYYX LFPNYYYX EGLLYYYX 282100 TAF LFPG 282100Z 2821/0322 28015KT 9999 FEW030
GG EDDFYYYX EGLLYYYX 140500 TAF LFPG 140500Z 1405/2223 28015KT 9999 FEW030
DD EGLLYYYX LFPGYYYX LFPOYYYX 110900 TAF LFPG 110900Z 1109/1610 28015KT 9999 FEW030
DD LFPBYYYX EGLLYYYX 190200 TAF LFPG 190200Z 1902/1605 28015KT 9999 FEW030
GG LFPGYYYX LFPBYYYX 231200 TAF LFPG 231200Z 2312/2722 28015KT 9999 FEW030
DD LFPGYYYX EGLLYYYX LFPNYYYX LFPOYYYX 132300 TAF LFPG 132300Z 1323/0710 28015KT 9999 FEW030
DD EDDFYYYX LFPOYYYX EDDFYYYX 161300 TAF LFPG 161300Z 1613/2520 28015KT 9999 FEW030
DD LFPNYYYX EDDFYYYX LFPOYYYX 252200 TAF LFPG 252200Z 2522/1509 28015KT 9999 FEW030
DD LFPBYYYX LFPBYYYX LFPNYYYX EGLLYYYX 060300 TAF LFPG 060300Z 0603/1514 28015KT 9999 FEW030
DD EDDFYYYX LFPNYYYX LFPGYYYX 182000 TAF LFPG 182000Z 1820/0906 28015KT 9999 FEW030
SS LFPNYYYX LFPGYYYX 080500 TAF LFPG 080500Z 0805/1114 28015KT 9999 FEW030
DD LFPGYYYX LFPBYYYX EDDFYYYX LFPNYYYX 240800 TAF LFPG 240800Z 2408/0621 28015KT 9999 FEW030
SS LFPOYYYX LFPBYYYX LFPOYYYX EDDFYYYX 081100 TAF LFPG 081100Z 0811/1901 28015KT 9999 FEW030
FF LFPBYYYX LFPNYYYX 090100 TAF LFPG 090100Z 0901/0720 28015KT 9999 FEW030
SS LFPNYYYX LFPBYYYX 130300 TAF LFPG 130300Z 1303/1513 28015KT 9999 FEW030
FF EDDFYYYX LFPNYYYX EDDFYYYX 252100 TAF LFPG 252100Z 2521/0711 28015KT 9999 FEW030
DD EDDFYYYX LFPOYYYX LFPBYYYX 161200 TAF LFPG 161200Z 1612/0116 28015KT 9999 FEW030
KK LFPNYYYX EGLLYYYX EDDFYYYX LFPNYYYX 201900 TAF LFPG 201900Z 2019/1904 28015KT 9999 FEW030
DD EDDFYYYX LFPNYYYX 271300 TAF LFPG 271300Z 2713/0107 28015KT 9999 FEW030
GG LFPNYYYX LFPOYYYX 010600 TAF LFPG 010600Z 0106/0201 28015KT 9999 FEW030
KK EDDFYYYX LFPNYYYX EGLLYYYX 192100 TAF LFPG 192100Z 1921/2001 28015KT 9999 FEW030
KK LFPBYYYX LFPNYYYX 181300 TAF LFPG 181300Z 1813/2416 28015KT 9999 FEW030
FF EDDFYYYX EGLLYYYX LFPBYYYX EDDFYYYX 011200 TAF LFPG 011200Z 0112/2410 28015KT 9999 FEW030
GG EDDFYYYX LFPBYYYX LFPOYYYX EGLLYYYX 151100 TAF LFPG 151100Z 1511/2706 28015KT 9999 FEW030
LL LFPOYYYX EGLLYYYX LFPBYYYX LFPGYYYX 271900 TAF LFPG 271900Z 2719/2817 28015KT 9999 FEW030
FF LFPOYYYX LFPBYYYX EGLLYYYX 191600 TAF LFPG 191600Z 1916/0511 28015KT 9999 FEW030
DD EDDFYYYX LFPBYYYX 080700 TAF LFPG 080700Z 0807/2204 28015KT 9999 FEW030
SS LFPGYYYX EGLLYYYX 181200 TAF LFPG 181200Z 1812/1916 28015KT 9999 FEW030
KK LFPNYYYX EDDFYYYX 020800 TAF LFPG 020800Z 0208/1817 28015KT 9999 FEW030
LL EGLLYYYX LFPOYYYX 271900 TAF LFPG 271900Z 2719/2222 28015KT 9999 FEW030
LL LFPOYYYX EGLLYYYX LFPNYYYX 242000 TAF LFPG 242000Z 2420/0902 28015KT 9999 FEW030
GG EDDFYYYX LFPGYYYX 161500 TAF LFPG 161500Z 1615/1320 28015KT 9999 FEW030
FF EDDFYYYX EGLLYYYX LFPBYYYX LFPNYYYX 160800 TAF LFPG 160800Z 1608/1805 28015KT 9999 FEW030
SS LFPBYYYX LFPGYYYX 270100 TAF LFPG 270100Z 2701/1707 28015KT 9999 FEW030
FF EGLLYYYX LFPBYYYX 110600 TAF LFPG 110600Z 1106/1004 28015KT 9999 FEW030
KK LFPOYYYX EGLLYYYX LFPBYYYX 051800 TAF LFPG 051800Z 0518/2123 28015KT 9999 FEW030
LL LFPBYYYX LFPGYYYX EDDFYYYX 160600 TAF LFPG 160600Z 1606/0214 28015KT 9999 FEW030
FF LFPOYYYX LFPNYYYX 221700 TAF LFPG 221700Z 2217/0911 28015KT 9999 FEW030
DD LFPOYYYX LFPNYYYX LFPOYYYX EGLLYYYX 251100 TAF LFPG 251100Z 2511/0202 28015KT 9999 FEW030
GG LFPBYYYX EGLLYYYX LFPOYYYX 222200 TAF LFPG 222200Z 2222/0201 28015KT 9999 FEW030
FF LFPBYYYX EDDFYYYX EGLLYYYX LFPGYYYX 251800 TAF LFPG 251800Z 2518/1116 28015KT 9999 FEW030
FF LFPGYYYX LFPGYYYX EDDFYYYX LFPNYYYX 121800 TAF LFPG 121800Z 1218/0512 28015KT 9999 FEW030
SS LFPOYYYX LFPNYYYX 100300 TAF LFPG 100300Z 1003/2019 28015KT 9999 FEW030
LL LFPOYYYX EGLLYYYX 130100 TAF LFPG 130100Z 1301/2518 28015KT 9999 FEW030
KK LFPGYYYX EDDFYYYX LFPGYYYX LFPOYYYX 241000 TAF LFPG 241000Z 2410/2613 28015KT 9999 FEW030
DD LFPOYYYX EGLLYYYX 070500 TAF LFPG 070500Z 0705/1800 28015KT 9999 FEW030
KK LFPNYYYX LFPNYYYX LFPOYYYX EDDFYYYX 240100 TAF LFPG 240100Z 2401/1112 28015KT 9999 FEW030
DD EGLLYYYX LFPGYYYX 220800 TAF LFPG 220800Z 2208/0715 28015KT 9999 FEW030
LL LFPNYYYX LFPBYYYX LFPNYYYX LFPGYYYX 120700 TAF LFPG 120700Z 1207/2601 28015KT 9999 FEW030
FF LFPGYYYX LFPBYYYX 200300 TAF LFPG 200300Z 2003/2211 28015KT 9999 FEW030
DD EDDFYYYX EDDFYYYX EGLLYYYX 061700 TAF LFPG 061700Z 0617/1113 28015KT 9999 FEW030
KK LFPGYYYX LFPNYYYX 031700 TAF LFPG 031700Z 0317/2318 28015KT 9999 FEW030
FF LFPNYYYX LFPOYYYX LFPGYYYX 090700 TAF LFPG 090700Z 0907/0201 28015KT 9999 FEW030
SS LFPBYYYX LFPOYYYX LFPBYYYX LFPGYYYX 020700 TAF LFPG 020700Z 0207/2622 28015KT 9999 FEW030
SS EGLLYYYX LFPBYYYX 270200 TAF LFPG 270200Z 2702/2219 28015KT 9999 FEW030
SS LFPNYYYX LFPGYYYX 260800 TAF LFPG 260800Z 2608/2000 28015KT 9999 FEW030
GG EDDFYYYX LFPBYYYX 170800 TAF LFPG 170800Z 1708/1417 28015KT 9999 FEW030
FF LFPBYYYX LFPBYYYX LFPNYYYX EGLLYYYX 080700 TAF LFPG 080700Z 0807/0818 28015KT 9999 FEW030
SS LFPBYYYX LFPNYYYX 070500 TAF LFPG 070500Z 0705/0122 28015KT 9999 FEW030
FF LFPBYYYX EDDFYYYX LFPNYYYX EGLLYYYX 090400 TAF LFPG 090400Z 0904/0307 28015KT 9999 FEW030
GG EGLLYYYX EGLLYYYX LFPGYYYX 131900 TAF LFPG 131900Z 1319/2817 28015KT 9999 FEW030
FF LFPBYYYX EGLLYYYX LFPGYYYX 201200 TAF LFPG 201200Z 2012/1614 28015KT 9999 FEW030
FF LFPNYYYX LFPBYYYX LFPGYYYX LFPNYYYX 060100 TAF LFPG 060100Z 0601/1009 28015KT 9999 FEW030
GG LFPGYYYX LFPGYYYX LFPBYYYX EGLLYYYX 160300 TAF LFPG 160300Z 1603/2502 28015KT 9999 FEW030
SS LFPGYYYX LFPOYYYX EDDFYYYX LFPNYYYX 071800 TAF LFPG 071800Z 0718/0409 28015KT 9999 FEW030
LL EGLLYYYX LFPOYYYX EGLLYYYX 230300 TAF LFPG 230300Z 2303/2421 28015KT 9999 FEW030
LL LFPGYYYX LFPNYYYX 162300 TAF LFPG 162300Z 1623/1906 28015KT 9999 FEW030
LL LFPBYYYX LFPOYYYX EGLLYYYX LFPBYYYX 092300 TAF LFPG 092300Z 0923/0208 28015KT 9999 FEW030
DD EDDFYYYX LFPGYYYX EDDFYYYX 210200 TAF LFPG 210200Z 2102/2322 28015KT 9999 FEW030
LL LFPBYYYX LFPOYYYX 271300 TAF LFPG 271300Z 2713/1904 28015KT 9999 FEW030
LL LFPBYYYX LFPOYYYX 141800 TAF LFPG 141800Z 1418/1511 28015KT 9999 FEW030
LL EDDFYYYX EGLLYYYX LFPNYYYX LFPOYYYX 280600 TAF LFPG 280600Z 2806/1008 28015KT 9999 FEW030
FF EDDFYYYX LFPGYYYX 190600 TAF LFPG 190600Z 1906/2218 28015KT 9999 FEW030
GG LFPNYYYX LFPGYYYX 031300 TAF LFPG 031300Z 0313/2806 28015KT 9999 FEW030
FF EDDFYYYX LFPBYYYX LFPNYYYX 020000 TAF LFPG 020000Z 0200/1517 28015KT 9999 FEW030
FF EGLLYYYX LFPNYYYX LFPGYYYX LFPBYYYX 081200 TAF LFPG 081200Z 0812/0102 28015KT 9999 FEW030
FF LFPOYYYX LFPNYYYX LFPBYYYX LFPOYYYX 020200 TAF LFPG 020200Z 0202/0121 28015KT 9999 FEW030
SS EGLLYYYX LFPGYYYX LFPOYYYX EDDFYYYX 271200 TAF LFPG 271200Z 2712/2819 28015KT 9999 FEW030
GG LFPGYYYX LFPGYYYX EDDFYYYX 212100 TAF LFPG 212100Z 2121/2302 28015KT 9999 FEW030
DD LFPBYYYX LFPOYYYX 071400 TAF LFPG 071400Z 0714/1611 28015KT 9999 FEW030
FF LFPOYYYX LFPGYYYX EDDFYYYX EGLLYYYX 220600 TAF LFPG 220600Z 2206/1301 28015KT 9999 FEW030
LL EDDFYYYX LFPGYYYX 081500 TAF LFPG 081500Z 0815/2500 28015KT 9999 FEW030
SS EDDFYYYX LFPOYYYX LFPBYYYX 070500 TAF LFPG 070500Z 0705/2316 28015KT 9999 FEW030
LL LFPOYYYX LFPNYYYX 240100 TAF LFPG 240100Z 2401/0605 28015KT 9999 FEW030
GG LFPBYYYX LFPNYYYX EGLLYYYX LFPOYYYX 281800 TAF LFPG 281800Z 2818/0706 28015KT 9999 FEW030
SS LFPNYYYX LFPBYYYX LFPGYYYX 211100 TAF LFPG 211100Z 2111/0916 28015KT 9999 FEW030
LL LFPBYYYX LFPOYYYX LFPBYYYX 100000 TAF LFPG 100000Z 1000/1012 28015KT 9999 FEW030
DD LFPOYYYX LFPNYYYX EDDFYYYX 212000 TAF LFPG 212000Z 2120/0411 28015KT 9999 FEW030
SS LFPOYYYX LFPGYYYX 240400 TAF LFPG 240400Z 2404/0702 28015KT 9999 FEW030
SS EDDFYYYX EDDFYYYX LFPOYYYX 051400 TAF LFPG 051400Z 0514/1406 28015KT 9999 FEW030
SS LFPBYYYX EGLLYYYX LFPBYYYX LFPNYYYX 271900 TAF LFPG 271900Z 2719/1413 28015KT 9999 FEW030
GG LFPBYYYX LFPGYYYX 230500 TAF LFPG 230500Z 2305/0517 28015KT 9999 FEW030
FF LFPNYYYX EDDFYYYX LFPBYYYX LFPOYYYX 182100 TAF LFPG 182100Z 1821/0611 28015KT 9999 FEW030
GG EDDFYYYX LFPOYYYX EDDFYYYX LFPBYYYX 172200 TAF LFPG 172200Z 1722/1102 28015KT 9999 FEW030
LL LFPNYYYX LFPGYYYX EGLLYYYX LFPBYYYX 132300 TAF LFPG 132300Z 1323/2122 28015KT 9999 FEW030
LL EDDFYYYX LFPGYYYX EGLLYYYX 031500 TAF LFPG 031500Z 0315/1320 28015KT 9999 FEW030
DD LFPOYYYX LFPOYYYX 091000 TAF LFPG 091000Z 0910/2710 28015KT 9999 FEW030
LL EDDFYYYX EDDFYYYX LFPOYYYX 120600 TAF LFPG 120600Z 1206/0909 28015KT 9999 FEW030
FF EDDFYYYX LFPOYYYX LFPGYYYX 271700 TAF LFPG 271700Z 2717/1115 28015KT 9999 FEW030
SS LFPNYYYX EDDFYYYX 131900 TAF LFPG 131900Z 1319/1012 28015KT 9999 FEW030
DD EDDFYYYX EDDFYYYX LFPOYYYX 151400 TAF LFPG 151400Z 1514/2709 28015KT 9999 FEW030
FF EDDFYYYX LFPGYYYX LFPBYYYX 121800 TAF LFPG 121800Z 1218/2606 28015KT 9999 FEW030
KK EGLLYYYX LFPBYYYX 231500 TAF LFPG 231500Z 2315/0714 28015KT 9999 FEW030
LL LFPOYYYX LFPNYYYX LFPOYYYX 250100 TAF LFPG 250100Z 2501/1608 28015KT 9999 FEW030
LL LFPOYYYX EGLLYYYX LFPNYYYX LFPBYYYX 011100 TAF LFPG 011100Z 0111/2002 28015KT 9999 FEW030
SS LFPOYYYX LFPNYYYX 050900 TAF LFPG 050900Z 0509/2300 28015KT 9999 FEW030
DD LFPOYYYX LFPOYYYX LFPGYYYX 051900 TAF LFPG 051900Z 0519/2219 28015KT 9999 FEW030
KK EGLLYYYX LFPBYYYX 061300 TAF LFPG 061300Z 0613/0921 28015KT 9999 FEW030
DD EGLLYYYX LFPOYYYX LFPBYYYX LFPGYYYX 052100 TAF LFPG 052100Z 0521/2723 28015KT 9999 FEW030
KK LFPGYYYX EDDFYYYX EGLLYYYX LFPGYYYX 111600 TAF LFPG 111600Z 1116/1203 28015KT 9999 FEW030
SS EDDFYYYX LFPOYYYX 131800 TAF LFPG 131800Z 1318/1904 28015KT 9999 FEW030
DD LFPBYYYX EDDFYYYX LFPNYYYX 020400 TAF LFPG 020400Z 0204/2301 28015KT 9999 FEW030
LL LFPBYYYX EDDFYYYX EGLLYYYX LFPOYYYX 111000 TAF LFPG 111000Z 1110/2601 28015KT 9999 FEW030
DD LFPBYYYX LFPBYYYX 232200 TAF LFPG 232200Z 2322/2321 28015KT 9999 FEW030
SS EDDFYYYX LFPGYYYX LFPOYYYX EDDFYYYX 050700 TAF LFPG 050700Z 0507/0719 28015KT 9999 FEW030
SS LFPGYYYX EDDFYYYX 071600 TAF LFPG 071600Z 0716/1108 28015KT 9999 FEW030
SS EDDFYYYX EGLLYYYX EDDFYYYX LFPBYYYX 281800 TAF LFPG 281800Z 2818/0307 28015KT 9999 FEW030
LL EGLLYYYX LFPBYYYX EDDFYYYX 160500 TAF LFPG 160500Z 1605/0322 28015KT 9999 FEW030
FF LFPNYYYX EGLLYYYX 110600 TAF LFPG 110600Z 1106/2609 28015KT 9999 FEW030
LL LFPBYYYX EDDFYYYX LFPNYYYX 182300 TAF LFPG 182300Z 1823/1607 28015KT 9999 FEW030
FF LFPBYYYX EGLLYYYX 050000 TAF LFPG 050000Z 0500/0616 28015KT 9999 FEW030
LL LFPGYYYX LFPBYYYX LFPGYYYX EDDFYYYX 071700 TAF LFPG 071700Z 0717/1714 28015KT 9999 FEW030
DD EDDFYYYX LFPBYYYX 212200 TAF LFPG 212200Z 2122/0513 28015KT 9999 FEW030
KK LFPBYYYX LFPNYYYX EGLLYYYX 050700 TAF LFPG 050700Z 0507/2200 28015KT 9999 FEW030
GG EGLLYYYX EDDFYYYX LFPBYYYX LFPGYYYX 020300 TAF LFPG 020300Z 0203/2308 28015KT 9999 FEW030
KK LFPNYYYX LFPOYYYX LFPGYYYX 251400 TAF LFPG 251400Z 2514/2314 28015KT 9999 FEW030
SS LFPGYYYX LFPNYYYX 151300 TAF LFPG 151300Z 1513/1807 28015KT 9999 FEW030
FF EGLLYYYX LFPBYYYX EGLLYYYX 191400 TAF LFPG 191400Z 1914/0108 28015KT 9999 FEW030
DD LFPOYYYX LFPNYYYX LFPBYYYX 060200 TAF LFPG 060200Z 0602/2611 28015KT 9999 FEW030
LL EGLLYYYX LFPNYYYX LFPOYYYX 282100 TAF LFPG 282100Z 2821/1009 28015KT 9999 FEW030
SS EGLLYYYX LFPGYYYX LFPOYYYX LFPBYYYX 200600 TAF LFPG 200600Z 2006/0716 28015KT 9999 FEW030
LL LFPNYYYX LFPOYYYX LFPBYYYX LFPNYYYX 261600 TAF LFPG 261600Z 2616/1712 28015KT 9999 FEW030
SS EGLLYYYX EDDFYYYX LFPBYYYX EGLLYYYX 260600 TAF LFPG 260600Z 2606/1607 28015KT 9999 FEW030
SS LFPOYYYX LFPOYYYX LFPBYYYX LFPGYYYX 231600 TAF LFPG 231600Z 2316/0323 28015KT 9999 FEW030
LL LFPOYYYX EGLLYYYX 112300 TAF LFPG 112300Z 1123/1722 28015KT 9999 FEW030
FF LFPBYYYX LFPOYYYX LFPGYYYX 161700 TAF LFPG 161700Z 1617/1002 28015KT 9999 FEW030
LL LFPBYYYX LFPBYYYX EDDFYYYX EGLLYYYX 240300 TAF LFPG 240300Z 2403/0621 28015KT 9999 FEW030
DD LFPBYYYX LFPBYYYX 031100 TAF LFPG 031100Z 0311/0605 28015KT 9999 FEW030
SS LFPGYYYX LFPNYYYX LFPOYYYX 220400 TAF LFPG 220400Z 2204/1521 28015KT 9999 FEW030
FF LFPOYYYX LFPBYYYX LFPNYYYX EGLLYYYX 012200 TAF LFPG 012200Z 0122/0715 28015KT 9999 FEW030
SS EDDFYYYX LFPBYYYX 101200 TAF LFPG 101200Z 1012/1520 28015KT 9999 FEW030
DD EDDFYYYX LFPOYYYX LFPGYYYX 050900 TAF LFPG 050900Z 0509/1810 28015KT 9999 FEW030
FF EDDFYYYX EGLLYYYX LFPGYYYX LFPNYYYX 230100 TAF LFPG 230100Z 2301/1401 28015KT 9999 FEW030
SS EDDFYYYX EGLLYYYX LFPOYYYX LFPGYYYX 121100 TAF LFPG 121100Z 1211/2620 28015KT 9999 FEW030
SS LFPOYYYX EDDFYYYX 141400 TAF LFPG 141400Z 1414/2520 28015KT 9999 FEW030
FF LFPBYYYX LFPOYYYX 200600 TAF LFPG 200600Z 2006/2318 28015KT 9999 FEW030
LL LFPGYYYX LFPGYYYX LFPOYYYX 151000 TAF LFPG 151000Z 1510/0800 28015KT 9999 FEW030
KK LFPBYYYX LFPBYYYX EDDFYYYX 240300 TAF LFPG 240300Z 2403/1013 28015KT 9999 FEW030
SS EGLLYYYX LFPGYYYX 160200 TAF LFPG 160200Z 1602/0219 28015KT 9999 FEW030
KK EDDFYYYX EDDFYYYX LFPOYYYX LFPNYYYX 031000 TAF LFPG 031000Z 0310/0923 28015KT 9999 FEW030
GG LFPBYYYX LFPOYYYX 281100 TAF LFPG 281100Z 2811/0916 28015KT 9999 FEW030
KK LFPOYYYX LFPOYYYX LFPNYYYX 180900 TAF LFPG 180900Z 1809/1220 28015KT 9999 FEW030
DD LFPGYYYX LFPGYYYX LFPBYYYX 230500 TAF LFPG 230500Z 2305/1912 28015KT 9999 FEW030
LL LFPNYYYX EDDFYYYX EGLLYYYX LFPOYYYX 271800 TAF LFPG 271800Z 2718/1608 28015KT 9999 FEW030
KK LFPOYYYX EGLLYYYX LFPOYYYX LFPGYYYX 152200 TAF LFPG 152200Z 1522/0610 28015KT 9999 FEW030
GG LFPNYYYX EGLLYYYX EDDFYYYX LFPGYYYX 081100 TAF LFPG 081100Z 0811/0100 28015KT 9999 FEW030
GG EDDFYYYX LFPBYYYX LFPGYYYX 111400 TAF LFPG 111400Z 1114/1510 28015KT 9999 FEW030
SS LFPGYYYX EDDFYYYX LFPNYYYX EGLLYYYX 060800 TAF LFPG 060800Z 0608/2201 28015KT 9999 FEW030
LL LFPNYYYX LFPGYYYX 070200 TAF LFPG 070200Z 0702/1717 28015KT 9999 FEW030
GG LFPNYYYX LFPOYYYX 020400 TAF LFPG 020400Z 0204/2819 28015KT 9999 FEW030
SS LFPOYYYX LFPOYYYX LFPNYYYX LFPGYYYX 130500 TAF LFPG 130500Z 1305/0623 28015KT 9999 FEW030
FF LFPBYYYX EGLLYYYX EDDFYYYX LFPBYYYX 160100 TAF LFPG 160100Z 1601/2020 28015KT 9999 FEW030
DD EGLLYYYX EDDFYYYX LFPOYYYX 032300 TAF LFPG 032300Z 0323/1306 28015KT 9999 FEW030
SS LFPOYYYX EGLLYYYX LFPNYYYX LFPBYYYX 150800 TAF LFPG 150800Z 1508/2816 28015KT 9999 FEW030
GG EGLLYYYX EDDFYYYX EGLLYYYX 202300 TAF LFPG 202300Z 2023/0304 28015KT 9999 FEW030
LL EDDFYYYX LFPGYYYX LFPNYYYX LFPBYYYX 262200 TAF LFPG 262200Z 2622/0318 28015KT 9999 FEW030
GG LFPNYYYX LFPBYYYX EDDFYYYX EGLLYYYX 232100 TAF LFPG 232100Z 2321/1501 28015KT 9999 FEW030
KK LFPBYYYX EDDFYYYX EGLLYYYX LFPOYYYX 201100 TAF LFPG 201100Z 2011/2620 28015KT 9999 FEW030
DD LFPOYYYX EDDFYYYX LFPBYYYX 081900 TAF LFPG 081900Z 0819/1407 28015KT 9999 FEW030
FF LFPNYYYX LFPBYYYX EDDFYYYX LFPNYYYX 281200 TAF LFPG 281200Z 2812/1520 28015KT 9999 FEW030
SS EGLLYYYX EDDFYYYX 052100 TAF LFPG 052100Z 0521/1121 28015KT 9999 FEW030
LL LFPBYYYX LFPBYYYX EDDFYYYX 040500 TAF LFPG 040500Z 0405/2120 28015KT 9999 FEW030
LL LFPBYYYX EDDFYYYX LFPBYYYX 150800 TAF LFPG 150800Z 1508/1911 28015KT 9999 FEW030
SS EDDFYYYX LFPGYYYX LFPOYYYX 032300 TAF LFPG 032300Z 0323/0916 28015KT 9999 FEW030
KK LFPBYYYX EGLLYYYX LFPOYYYX LFPNYYYX 170900 TAF LFPG 170900Z 1709/2508 28015KT 9999 FEW030
KK LFPBYYYX LFPOYYYX EDDFYYYX LFPBYYYX 272000 TAF LFPG 272000Z 2720/2814 28015KT 9999 FEW030
LL LFPOYYYX LFPOYYYX 140900 TAF LFPG 140900Z 1409/2022 28015KT 9999 FEW030
GG EDDFYYYX LFPBYYYX EDDFYYYX 040400 TAF LFPG 040400Z 0404/2000 28015KT 9999 FEW030
GG EGLLYYYX EGLLYYYX LFPNYYYX 051900 TAF LFPG 051900Z 0519/0411 28015KT 9999 FEW030
DD LFPOYYYX LFPOYYYX LFPBYYYX EDDFYYYX 101600 TAF LFPG 101600Z 1016/1302 28015KT 9999 FEW030
DD LFPNYYYX LFPOYYYX EGLLYYYX LFPBYYYX 010400 TAF LFPG 010400Z 0104/2206 28015KT 9999 FEW030
DD EGLLYYYX LFPGYYYX 152300 TAF LFPG 152300Z 1523/1812 28015KT 9999 FEW030
FF LFPOYYYX EDDFYYYX LFPNYYYX EGLLYYYX 202100 TAF LFPG 202100Z 2021/1319 28015KT 9999 FEW030
LL EDDFYYYX LFPNYYYX LFPGYYYX LFPBYYYX 270500 TAF LFPG 270500Z 2705/2118 28015KT 9999 FEW030
KK LFPBYYYX LFPGYYYX LFPNYYYX 071900 TAF LFPG 071900Z 0719/2311 28015KT 9999 FEW030
DD LFPOYYYX EDDFYYYX 200700 TAF LFPG 200700Z 2007/0411 28015KT 9999 FEW030
LL LFPGYYYX EGLLYYYX LFPNYYYX 221400 TAF LFPG 221400Z 2214/0113 28015KT 9999 FEW030
GG LFPGYYYX LFPGYYYX LFPBYYYX LFPNYYYX 011800 TAF LFPG 011800Z 0118/1808 28015KT 9999 FEW030
DD LFPOYYYX EDDFYYYX LFPOYYYX LFPGYYYX 152200 TAF LFPG 152200Z 1522/2013 28015KT 9999 FEW030
SS EDDFYYYX LFPOYYYX 151300 TAF LFPG 151300Z 1513/0516 28015KT 9999 FEW030
LL EDDFYYYX LFPOYYYX 170200 TAF LFPG 170200Z 1702/1711 28015KT 9999 FEW030
FF EGLLYYYX LFPNYYYX 070800 TAF LFPG 070800Z 0708/1113 28015KT 9999 FEW030
LL EGLLYYYX LFPNYYYX LFPBYYYX LFPOYYYX 151100 TAF LFPG 151100Z 1511/0317 28015KT 9999 FEW030
DD EDDFYYYX LFPGYYYX 240800 TAF LFPG 240800Z 2408/2103 28015KT 9999 FEW030
SS LFPGYYYX LFPBYYYX 180700 TAF LFPG 180700Z 1807/2817 28015KT 9999 FEW030
LL EGLLYYYX EDDFYYYX LFPNYYYX 131800 TAF LFPG 131800Z 1318/2023 28015KT 9999 FEW030
KK LFPGYYYX LFPOYYYX LFPGYYYX LFPBYYYX 060800 TAF LFPG 060800Z 0608/1701 28015KT 9999 FEW030
SS LFPBYYYX EDDFYYYX 281000 TAF LFPG 281000Z 2810/2310 28015KT 9999 FEW030
DD LFPGYYYX LFPGYYYX LFPOYYYX 271200 TAF LFPG 271200Z 2712/2316 28015KT 9999 FEW030
LL LFPGYYYX LFPOYYYX EDDFYYYX LFPNYYYX 120300 TAF LFPG 120300Z 1203/2112 28015KT 9999 FEW030
SS LFPOYYYX EGLLYYYX LFPOYYYX LFPBYYYX 210600 TAF LFPG 210600Z 2106/2314 28015KT 9999 FEW030
DD LFPOYYYX EDDFYYYX EGLLYYYX LFPGYYYX 240400 TAF LFPG 240400Z 2404/1400 28015KT 9999 FEW030
SS LFPBYYYX EGLLYYYX EDDFYYYX LFPNYYYX 030600 TAF LFPG 030600Z 0306/1016 28015KT 9999 FEW030
GG EDDFYYYX LFPBYYYX 190600 TAF LFPG 190600Z 1906/1217 28015KT 9999 FEW030
KK EGLLYYYX EDDFYYYX 071100 TAF LFPG 071100Z 0711/0315 28015KT 9999 FEW030
SS LFPBYYYX LFPNYYYX LFPBYYYX 091100 TAF LFPG 091100Z 0911/2407 28015KT 9999 FEW030
GG LFPGYYYX EGLLYYYX EDDFYYYX LFPBYYYX 230300 TAF LFPG 230300Z 2303/1502 28015KT 9999 FEW030
DD LFPGYYYX LFPNYYYX EGLLYYYX LFPGYYYX 230500 TAF LFPG 230500Z 2305/2702 28015KT 9999 FEW030
GG EGLLYYYX EDDFYYYX 150600 TAF LFPG 150600Z 1506/2505 28015KT 9999 FEW030
GG LFPOYYYX LFPNYYYX EDDFYYYX LFPOYYYX 252000 TAF LFPG 252000Z 2520/0417 28015KT 9999 FEW030
LL LFPGYYYX LFPBYYYX LFPNYYYX 010400 TAF LFPG 010400Z 0104/0206 28015KT 9999 FEW030
DD LFPNYYYX LFPNYYYX EGLLYYYX LFPGYYYX 042000 TAF LFPG 042000Z 0420/1110 28015KT 9999 FEW030
GG EGLLYYYX LFPOYYYX LFPGYYYX 210800 TAF LFPG 210800Z 2108/0909 28015KT 9999 FEW030
SS LFPOYYYX LFPGYYYX LFPOYYYX 211000 TAF LFPG 211000Z 2110/2506 28015KT 9999 FEW030
KK LFPBYYYX LFPBYYYX EDDFYYYX 270200 TAF LFPG 270200Z 2702/1810 28015KT 9999 FEW030
FF EGLLYYYX LFPOYYYX LFPBYYYX 140500 TAF LFPG 140500Z 1405/1708 28015KT 9999 FEW030
SS EDDFYYYX LFPGYYYX 240200 TAF LFPG 240200Z 2402/1710 28015KT 9999 FEW030
KK EGLLYYYX EDDFYYYX EGLLYYYX 240400 TAF LFPG 240400Z 2404/2006 28015KT 9999 FEW030
DD LFPBYYYX EDDFYYYX LFPNYYYX 191100 TAF LFPG 191100Z 1911/2700 28015KT 9999 FEW030
GG EGLLYYYX EGLLYYYX 090900 TAF LFPG 090900Z 0909/1519 28015KT 9999 FEW030
SS LFPOYYYX LFPGYYYX 202000 TAF LFPG 202000Z 2020/0714 28015KT 9999 FEW030
KK LFPOYYYX LFPOYYYX LFPBYYYX 231000 TAF LFPG 231000Z 2310/0319 28015KT 9999 FEW030
LL LFPBYYYX LFPBYYYX 261900 TAF LFPG 261900Z 2619/2604 28015KT 9999 FEW030
GG LFPNYYYX EGLLYYYX LFPNYYYX LFPGYYYX 121400 TAF LFPG 121400Z 1214/1310 28015KT 9999 FEW030
SS EDDFYYYX LFPBYYYX LFPGYYYX LFPOYYYX 191200 TAF LFPG 191200Z 1912/2615 28015KT 9999 FEW030
LL LFPBYYYX LFPOYYYX LFPNYYYX LFPBYYYX 201000 TAF LFPG 201000Z 2010/1422 28015KT 9999 FEW030
DD LFPBYYYX LFPGYYYX LFPBYYYX EDDFYYYX 080000 TAF LFPG 080000Z 0800/0214 28015KT 9999 FEW030
KK EDDFYYYX LFPOYYYX 200100 TAF LFPG 200100Z 2001/2521 28015KT 9999 FEW030
FF LFPGYYYX EDDFYYYX LFPOYYYX LFPGYYYX 020200 TAF LFPG 020200Z 0202/2822 28015KT 9999 FEW030
GG EGLLYYYX LFPOYYYX 280600 TAF LFPG 280600Z 2806/2615 28015KT 9999 FEW030
FF LFPNYYYX LFPBYYYX EGLLYYYX 270100 TAF LFPG 270100Z 2701/1219 28015KT 9999 FEW030
DD LFPBYYYX LFPGYYYX LFPOYYYX LFPNYYYX 251700 TAF LFPG 251700Z 2517/2410 28015KT 9999 FEW030
LL EDDFYYYX LFPBYYYX LFPNYYYX 231000 TAF LFPG 231000Z 2310/0123 28015KT 9999 FEW030
SS LFPGYYYX LFPBYYYX EDDFYYYX 060900 TAF LFPG 060900Z 0609/2612 28015KT 9999 FEW030
DD EGLLYYYX LFPGYYYX LFPBYYYX LFPNYYYX 161100 TAF LFPG 161100Z 1611/1009 28015KT 9999 FEW030
GG EGLLYYYX EGLLYYYX LFPGYYYX LFPBYYYX 162300 TAF LFPG 162300Z 1623/1506 28015KT 9999 FEW030
FF LFPGYYYX LFPGYYYX 262300 TAF LFPG 262300Z 2623/0310 28015KT 9999 FEW030
SS LFPGYYYX LFPOYYYX LFPGYYYX 061900 TAF LFPG 061900Z 0619/1808 28015KT 9999 FEW030
LL LFPOYYYX LFPBYYYX EGLLYYYX LFPNYYYX 121700 TAF LFPG 121700Z 1217/2709 28015KT 9999 FEW030
KK LFPGYYYX EDDFYYYX LFPOYYYX 141900 TAF LFPG 141900Z 1419/1414 28015KT 9999 FEW030
LL LFPNYYYX LFPNYYYX EGLLYYYX LFPGYYYX 280600 TAF LFPG 280600Z 2806/1900 28015KT 9999 FEW030
DD LFPNYYYX LFPNYYYX 281400 TAF LFPG 281400Z 2814/0503 28015KT 9999 FEW030
DD EDDFYYYX LFPGYYYX EGLLYYYX 031700 TAF LFPG 031700Z 0317/1222 28015KT 9999 FEW030
FF LFPGYYYX LFPNYYYX EGLLYYYX LFPOYYYX 101600 TAF LFPG 101600Z 1016/2312 28015KT 9999 FEW030
GG LFPGYYYX EDDFYYYX LFPGYYYX EGLLYYYX 260600 TAF LFPG 260600Z 2606/2102 28015KT 9999 FEW030
KK LFPGYYYX EGLLYYYX LFPGYYYX 240100 TAF LFPG 240100Z 2401/0920 28015KT 9999 FEW030
KK EDDFYYYX LFPGYYYX LFPBYYYX 130300 TAF LFPG 130300Z 1303/0609 28015KT 9999 FEW030
GG EDDFYYYX LFPGYYYX 192300 TAF LFPG 192300Z 1923/1705 28015KT 9999 FEW030
GG LFPOYYYX LFPNYYYX LFPOYYYX 280900 TAF LFPG 280900Z 2809/0905 28015KT 9999 FEW030
SS LFPBYYYX LFPOYYYX EDDFYYYX LFPBYYYX 061400 TAF LFPG 061400Z 0614/0601 28015KT 9999 FEW030
SS LFPBYYYX LFPNYYYX EGLLYYYX 221600 TAF LFPG 221600Z 2216/2311 28015KT 9999 FEW030
SS LFPNYYYX LFPGYYYX EGLLYYYX 022200 TAF LFPG 022200Z 0222/1906 28015KT 9999 FEW030
LL LFPGYYYX LFPBYYYX 181500 TAF LFPG 181500Z 1815/1502 28015KT 9999 FEW030
DD LFPOYYYX LFPNYYYX 150600 TAF LFPG 150600Z 1506/1520 28015KT 9999 FEW030
GG EDDFYYYX LFPNYYYX EGLLYYYX 260200 TAF LFPG 260200Z 2602/2320 28015KT 9999 FEW030
FF LFPGYYYX LFPBYYYX LFPOYYYX 070800 TAF LFPG 070800Z 0708/1517 28015KT 9999 FEW030
GG EGLLYYYX LFPGYYYX EGLLYYYX 270600 TAF LFPG 270600Z 2706/0704 28015KT 9999 FEW030
KK EDDFYYYX EDDFYYYX LFPOYYYX 210200 TAF LFPG 210200Z 2102/1202 28015KT 9999 FEW030
KK LFPOYYYX LFPNYYYX EDDFYYYX EGLLYYYX 251800 TAF LFPG 251800Z 2518/0405 28015KT 9999 FEW030
GG LFPNYYYX LFPBYYYX EGLLYYYX 181300 TAF LFPG 181300Z 1813/0908 28015KT 9999 FEW030
GG LFPNYYYX LFPBYYYX EDDFYYYX LFPGYYYX 202000 TAF LFPG 202000Z 2020/0709 28015KT 9999 FEW030
LL LFPGYYYX EGLLYYYX LFPOYYYX LFPBYYYX 110800 TAF LFPG 110800Z 1108/2710 28015KT 9999 FEW030
KK LFPOYYYX LFPGYYYX EGLLYYYX 250400 TAF LFPG 250400Z 2504/2519 28015KT 9999 FEW030
SS LFPNYYYX EDDFYYYX LFPNYYYX LFPOYYYX 021900 TAF LFPG 021900Z 0219/2420 28015KT 9999 FEW030
FF LFPGYYYX LFPNYYYX 270000 TAF LFPG 270000Z 2700/2605 28015KT 9999 FEW030
KK EGLLYYYX EDDFYYYX 071800 TAF LFPG 071800Z 0718/2717 28015KT 9999 FEW030
GG LFPOYYYX EDDFYYYX LFPGYYYX 260700 TAF LFPG 260700Z 2607/2412 28015KT 9999 FEW030
LL EDDFYYYX LFPGYYYX LFPBYYYX 201600 TAF LFPG 201600Z 2016/2708 28015KT 9999 FEW030
GG LFPGYYYX EDDFYYYX 142100 TAF LFPG 142100Z 1421/1711 28015KT 9999 FEW030
FF LFPOYYYX EGLLYYYX LFPNYYYX 181400 TAF LFPG 181400Z 1814/2713 28015KT 9999 FEW030
DD EGLLYYYX EDDFYYYX 151800 TAF LFPG 151800Z 1518/0210 28015KT 9999 FEW030
DD LFPNYYYX LFPOYYYX LFPGYYYX LFPBYYYX 280400 TAF LFPG 280400Z 2804/0501 28015KT 9999 FEW030
DD LFPGYYYX EDDFYYYX LFPOYYYX 101100 TAF LFPG 101100Z 1011/1805 28015KT 9999 FEW030
KK LFPBYYYX EDDFYYYX 220300 TAF LFPG 220300Z 2203/0120 28015KT 9999 FEW030
KK LFPNYYYX LFPOYYYX EGLLYYYX 150200 TAF LFPG 150200Z 1502/1920 28015KT 9999 FEW030
LL LFPGYYYX LFPBYYYX EDDFYYYX 021000 TAF LFPG 021000Z 0210/2501 28015KT 9999 FEW030
GG LFPBYYYX LFPNYYYX 142300 TAF LFPG 142300Z 1423/1508 28015KT 9999 FEW030
DD LFPNYYYX LFPOYYYX EGLLYYYX LFPNYYYX 271600 TAF LFPG 271600Z 2716/1421 28015KT 9999 FEW030
LL LFPGYYYX EGLLYYYX LFPGYYYX EDDFYYYX 280000 TAF LFPG 280000Z 2800/1818 28015KT 9999 FEW030
LL EDDFYYYX LFPNYYYX LFPGYYYX 121700 TAF LFPG 121700Z 1217/1915 28015KT 9999 FEW030
GG LFPOYYYX LFPBYYYX EDDFYYYX 210600 TAF LFPG 210600Z 2106/1304 28015KT 9999 FEW030
SS LFPBYYYX LFPGYYYX LFPOYYYX 200700 TAF LFPG 200700Z 2007/1905 28015KT 9999 FEW030
SS LFPGYYYX LFPOYYYX EGLLYYYX LFPBYYYX 130000 TAF LFPG 130000Z 1300/0621 28015KT 9999 FEW030
DD LFPOYYYX LFPNYYYX LFPOYYYX 111000 TAF LFPG 111000Z 1110/1516 28015KT 9999 FEW030
SS EGLLYYYX LFPOYYYX EGLLYYYX LFPBYYYX 260900 TAF LFPG 260900Z 2609/2104 28015KT 9999 FEW030
SS LFPBYYYX EGLLYYYX LFPNYYYX EDDFYYYX 210400 TAF LFPG 210400Z 2104/0621 28015KT 9999 FEW030
SS EDDFYYYX EGLLYYYX LFPNYYYX LFPOYYYX 160900 TAF LFPG 160900Z 1609/1223 28015KT 9999 FEW030
SS LFPGYYYX EGLLYYYX LFPNYYYX LFPOYYYX 161500 TAF LFPG 161500Z 1615/2514 28015KT 9999 FEW030
SS LFPBYYYX LFPBYYYX LFPGYYYX EGLLYYYX 281400 TAF LFPG 281400Z 2814/0118 28015KT 9999 FEW030
LL LFPGYYYX LFPGYYYX LFPOYYYX LFPNYYYX 020700 TAF LFPG 020700Z 0207/1900 28015KT 9999 FEW030
DD LFPBYYYX LFPNYYYX 092300 TAF LFPG 092300Z 0923/1420 28015KT 9999 FEW030
DD EDDFYYYX LFPNYYYX EGLLYYYX 271700 TAF LFPG 271700Z 2717/0700 28015KT 9999 FEW030
KK EDDFYYYX EGLLYYYX 081200 TAF LFPG 081200Z 0812/2001 28015KT 9999 FEW030
LL LFPNYYYX LFPOYYYX EDDFYYYX 010300 TAF LFPG 010300Z 0103/0600 28015KT 9999 FEW030
DD LFPNYYYX LFPOYYYX 072100 TAF LFPG 072100Z 0721/2209 28015KT 9999 FEW030
LL LFPOYYYX LFPNYYYX 170700 TAF LFPG 170700Z 1707/1621 28015KT 9999 FEW030
LL LFPBYYYX EGLLYYYX LFPOYYYX EDDFYYYX 082300 TAF LFPG 082300Z 0823/2011 28015KT 9999 FEW030
DD EGLLYYYX LFPBYYYX LFPGYYYX 192000 TAF LFPG 192000Z 1920/0501 28015KT 9999 FEW030
LL LFPBYYYX LFPBYYYX LFPNYYYX EGLLYYYX 152000 TAF LFPG 152000Z 1520/2209 28015KT 9999 FEW030
FF EDDFYYYX LFPNYYYX 212000 TAF LFPG 212000Z 2120/2222 28015KT 9999 FEW030
KK LFPBYYYX LFPNYYYX 132000 TAF LFPG 132000Z 1320/2821 28015KT 9999 FEW030
SS LFPOYYYX EGLLYYYX LFPNYYYX 281500 TAF LFPG 281500Z 2815/1903 28015KT 9999 FEW030
DD LFPBYYYX LFPBYYYX LFPGYYYX 082200 TAF LFPG 082200Z 0822/2015 28015KT 9999 FEW030
SS LFPBYYYX EDDFYYYX 212100 TAF LFPG 212100Z 2121/1921 28015KT 9999 FEW030
SS LFPOYYYX LFPNYYYX EGLLYYYX LFPOYYYX 070900 TAF LFPG 070900Z 0709/2601 28015KT 9999 FEW030
GG EDDFYYYX LFPNYYYX LFPBYYYX 161700 TAF LFPG 161700Z 1617/1617 28015KT 9999 FEW030
LL LFPOYYYX LFPNYYYX EGLLYYYX 070000 TAF LFPG 070000Z 0700/0505 28015KT 9999 FEW030
LL LFPBYYYX LFPGYYYX LFPNYYYX 090400 TAF LFPG 090400Z 0904/2020 28015KT 9999 FEW030
KK EDDFYYYX LFPNYYYX 072100 TAF LFPG 072100Z 0721/0501 28015KT 9999 FEW030
FF EGLLYYYX EGLLYYYX LFPBYYYX 161800 TAF LFPG 161800Z 1618/1303 28015KT 9999 FEW030
KK LFPNYYYX LFPNYYYX 232300 TAF LFPG 232300Z 2323/0421 28015KT 9999 FEW030
KK EDDFYYYX LFPBYYYX LFPGYYYX EGLLYYYX 141000 TAF LFPG 141000Z 1410/0210 28015KT 9999 FEW030
FF LFPNYYYX LFPOYYYX LFPGYYYX LFPNYYYX 120300 TAF LFPG 120300Z 1203/1218 28015KT 9999 FEW030
GG EDDFYYYX LFPGYYYX LFPNYYYX 080400 TAF LFPG 080400Z 0804/2723 28015KT 9999 FEW030
GG LFPNYYYX LFPOYYYX 120700 TAF LFPG 120700Z 1207/0603 28015KT 9999 FEW030
LL LFPGYYYX LFPOYYYX LFPGYYYX 190100 TAF LFPG 190100Z 1901/1019 28015KT 9999 FEW030
GG EDDFYYYX LFPBYYYX LFPOYYYX 110900 TAF LFPG 110900Z 1109/1514 28015KT 9999 FEW030
SS LFPBYYYX EGLLYYYX 171900 TAF LFPG 171900Z 1719/1112 28015KT 9999 FEW030
DD LFPOYYYX EGLLYYYX LFPNYYYX 060500 TAF LFPG 060500Z 0605/0309 28015KT 9999 FEW030
DD LFPBYYYX LFPGYYYX EDDFYYYX EGLLYYYX 222300 TAF LFPG 222300Z 2223/2022 28015KT 9999 FEW030
GG LFPNYYYX LFPBYYYX 250300 TAF LFPG 250300Z 2503/2701 28015KT 9999 FEW030
KK EGLLYYYX LFPBYYYX 132300 TAF LFPG 132300Z 1323/2614 28015KT 9999 FEW030
GG LFPOYYYX EDDFYYYX LFPOYYYX LFPGYYYX 081500 TAF LFPG 081500Z 0815/2421 28015KT 9999 FEW030
GG LFPOYYYX LFPOYYYX 200800 TAF LFPG 200800Z 2008/2708 28015KT 9999 FEW030
LL EGLLYYYX EDDFYYYX LFPGYYYX 221400 TAF LFPG 221400Z 2214/1513 28015KT 9999 FEW030
DD LFPOYYYX LFPNYYYX EGLLYYYX LFPOYYYX 250600 TAF LFPG 250600Z 2506/0400 28015KT 9999 FEW030
SS LFPOYYYX LFPBYYYX 160600 TAF LFPG 160600Z 1606/0607 28015KT 9999 FEW030
DD EGLLYYYX LFPBYYYX 190800 TAF LFPG 190800Z 1908/0809 28015KT 9999 FEW030
KK EDDFYYYX LFPBYYYX 071100 TAF LFPG 071100Z 0711/1120 28015KT 9999 FEW030
SS LFPBYYYX LFPBYYYX 031800 TAF LFPG 031800Z 0318/0722 28015KT 9999 FEW030
SS EDDFYYYX LFPNYYYX EDDFYYYX LFPBYYYX 130300 TAF LFPG 130300Z 1303/0713 28015KT 9999 FEW030
FF EDDFYYYX LFPBYYYX EGLLYYYX 221900 TAF LFPG 221900Z 2219/0110 28015KT 9999 FEW030
FF LFPBYYYX EDDFYYYX LFPGYYYX LFPNYYYX 060400 TAF LFPG 060400Z 0604/1221 28015KT 9999 FEW030
KK LFPOYYYX LFPGYYYX LFPNYYYX LFPBYYYX 130400 TAF LFPG 130400Z 1304/2417 28015KT 9999 FEW030
SS LFPBYYYX LFPOYYYX 010600 TAF LFPG 010600Z 0106/1818 28015KT 9999 FEW030
LL LFPNYYYX EGLLYYYX EDDFYYYX LFPNYYYX 202200 TAF LFPG 202200Z 2022/1108 28015KT 9999 FEW030
DD LFPOYYYX EGLLYYYX LFPBYYYX 081600 TAF LFPG 081600Z 0816/0913 28015KT 9999 FEW030
KK LFPBYYYX LFPGYYYX LFPBYYYX EDDFYYYX 070300 TAF LFPG 070300Z 0703/1703 28015KT 9999 FEW030
KK LFPBYYYX LFPGYYYX 140500 TAF LFPG 140500Z 1405/1603 28015KT 9999 FEW030
KK EGLLYYYX LFPGYYYX EDDFYYYX 182100 TAF LFPG 182100Z 1821/1301 28015KT 9999 FEW030
GG LFPBYYYX LFPGYYYX LFPBYYYX EDDFYYYX 122300 TAF LFPG 122300Z 1223/1515 28015KT 9999 FEW030
SS LFPGYYYX LFPGYYYX EDDFYYYX 261400 TAF LFPG 261400Z 2614/0308 28015KT 9999 FEW030
FF EGLLYYYX EDDFYYYX 090200 TAF LFPG 090200Z 0902/1813 28015KT 9999 FEW030
DD EGLLYYYX LFPBYYYX LFPNYYYX LFPGYYYX 111300 TAF LFPG 111300Z 1113/2219 28015KT 9999 FEW030
FF LFPNYYYX LFPBYYYX 280800 TAF LFPG 280800Z 2808/1918 28015KT 9999 FEW030
SS LFPGYYYX EDDFYYYX LFPBYYYX 231200 TAF LFPG 231200Z 2312/0707 28015KT 9999 FEW030
KK LFPNYYYX LFPGYYYX EGLLYYYX 120800 TAF LFPG 120800Z 1208/1210 28015KT 9999 FEW030
GG EDDFYYYX EDDFYYYX 180100 TAF LFPG 180100Z 1801/2619 28015KT 9999 FEW030
DD EDDFYYYX LFPBYYYX LFPGYYYX EDDFYYYX 171100 TAF LFPG 171100Z 1711/0512 28015KT 9999 FEW030
SS LFPGYYYX LFPOYYYX EGLLYYYX LFPBYYYX 220100 TAF LFPG 220100Z 2201/0810 28015KT 9999 FEW030
LL LFPNYYYX EDDFYYYX 161500 TAF LFPG 161500Z 1615/0319 28015KT 9999 FEW030
DD LFPNYYYX LFPNYYYX LFPBYYYX 130500 TAF LFPG 130500Z 1305/0201 28015KT 9999 FEW030
DD EGLLYYYX EDDFYYYX LFPNYYYX 252100 TAF LFPG 252100Z 2521/0909 28015KT 9999 FEW030
DD LFPNYYYX LFPOYYYX LFPGYYYX 140500 TAF LFPG 140500Z 1405/0704 28015KT 9999 FEW030
GG LFPGYYYX LFPBYYYX 230900 TAF LFPG 230900Z 2309/1502 28015KT 9999 FEW030
LL LFPBYYYX LFPNYYYX 071500 TAF LFPG 071500Z 0715/1017 28015KT 9999 FEW030
KK LFPOYYYX EGLLYYYX LFPBYYYX 231700 TAF LFPG 231700Z 2317/1106 28015KT 9999 FEW030
SS LFPOYYYX LFPBYYYX 131800 TAF LFPG 131800Z 1318/2222 28015KT 9999 FEW030
FF LFPGYYYX EDDFYYYX 230400 TAF LFPG 230400Z 2304/0211 28015KT 9999 FEW030
GG LFPNYYYX LFPGYYYX 211300 TAF LFPG 211300Z 2113/0108 28015KT 9999 FEW030
SS LFPGYYYX LFPOYYYX LFPBYYYX LFPNYYYX 140800 TAF LFPG 140800Z 1408/0906 28015KT 9999 FEW030
DD EGLLYYYX EDDFYYYX LFPOYYYX EGLLYYYX 060900 TAF LFPG 060900Z 0609/1105 28015KT 9999 FEW030
LL EGLLYYYX LFPNYYYX EGLLYYYX LFPGYYYX 250500 TAF LFPG 250500Z 2505/0120 28015KT 9999 FEW030
SS LFPOYYYX EGLLYYYX 041700 TAF LFPG 041700Z 0417/2412 28015KT 9999 FEW030
GG EDDFYYYX LFPBYYYX 260500 TAF LFPG 260500Z 2605/1603 28015KT 9999 FEW030
FF LFPGYYYX LFPGYYYX LFPBYYYX 162200 TAF LFPG 162200Z 1622/0509 28015KT 9999 FEW030
SS LFPNYYYX LFPNYYYX LFPGYYYX EDDFYYYX 112300 TAF LFPG 112300Z 1123/2402 28015KT 9999 FEW030
SS EDDFYYYX LFPOYYYX LFPGYYYX LFPBYYYX 140200 TAF LFPG 140200Z 1402/2113 28015KT 9999 FEW030
FF LFPGYYYX LFPGYYYX LFPBYYYX EDDFYYYX 212200 TAF LFPG 212200Z 2122/1718 28015KT 9999 FEW030
FF LFPOYYYX LFPNYYYX EDDFYYYX 171400 TAF LFPG 171400Z 1714/2812 28015KT 9999 FEW030
GG EGLLYYYX LFPOYYYX LFPNYYYX LFPGYYYX 280500 TAF LFPG 280500Z 2805/1721 28015KT 9999 FEW030
LL LFPGYYYX LFPBYYYX 192100 TAF LFPG 192100Z 1921/1315 28015KT 9999 FEW030
DD LFPBYYYX LFPOYYYX EDDFYYYX LFPBYYYX 261100 TAF LFPG 261100Z 2611/2717 28015KT 9999 FEW030
SS LFPGYYYX LFPNYYYX LFPGYYYX 061800 TAF LFPG 061800Z 0618/1819 28015KT 9999 FEW030
KK EGLLYYYX EDDFYYYX LFPGYYYX 151900 TAF LFPG 151900Z 1519/0303 28015KT 9999 FEW030
FF EGLLYYYX EDDFYYYX LFPGYYYX 252100 TAF LFPG 252100Z 2521/2807 28015KT 9999 FEW030
SS LFPOYYYX LFPNYYYX LFPGYYYX 070900 TAF LFPG 070900Z 0709/1616 28015KT 9999 FEW030
DD LFPGYYYX LFPOYYYX LFPGYYYX 102000 TAF LFPG 102000Z 1020/1319 28015KT 9999 FEW030
SS EDDFYYYX LFPGYYYX 192000 TAF LFPG 192000Z 1920/2809 28015KT 9999 FEW030
FF EDDFYYYX EGLLYYYX 060700 TAF LFPG 060700Z 0607/2723 28015KT 9999 FEW030
FF EGLLYYYX LFPBYYYX 140100 TAF LFPG 140100Z 1401/1017 28015KT 9999 FEW030
KK LFPNYYYX LFPBYYYX 140600 TAF LFPG 140600Z 1406/0617 28015KT 9999 FEW030
SS EDDFYYYX LFPOYYYX LFPGYYYX 022300 TAF LFPG 022300Z 0223/1105 28015KT 9999 FEW030
FF LFPGYYYX LFPGYYYX 070300 TAF LFPG 070300Z 0703/2208 28015KT 9999 FEW030
FF EGLLYYYX EDDFYYYX LFPNYYYX LFPGYYYX 171000 TAF LFPG 171000Z 1710/2407 28015KT 9999 FEW030
DD LFPBYYYX EGLLYYYX LFPGYYYX LFPNYYYX 241000 TAF LFPG 241000Z 2410/1622 28015KT 9999 FEW030
DD EDDFYYYX LFPOYYYX 261100 TAF LFPG 261100Z 2611/1404 28015KT 9999 FEW030
GG EGLLYYYX LFPGYYYX LFPNYYYX 271000 TAF LFPG 271000Z 2710/2113 28015KT 9999 FEW030
KK LFPBYYYX LFPOYYYX 021900 TAF LFPG 021900Z 0219/1812 28015KT 9999 FEW030
SS EDDFYYYX LFPBYYYX 181100 TAF LFPG 181100Z 1811/2222 28015KT 9999 FEW030
DD EDDFYYYX EDDFYYYX 020500 TAF LFPG 020500Z 0205/0901 28015KT 9999 FEW030
LL LFPGYYYX LFPOYYYX LFPNYYYX 020400 TAF LFPG 020400Z 0204/0216 28015KT 9999 FEW030
SS EGLLYYYX EGLLYYYX 020300 TAF LFPG 020300Z 0203/0201 28015KT 9999 FEW030
GG LFPOYYYX EDDFYYYX LFPGYYYX 271100 TAF LFPG 271100Z 2711/2808 28015KT 9999 FEW030
LL LFPGYYYX LFPOYYYX 030000 TAF LFPG 030000Z 0300/2017 28015KT 9999 FEW030
SS EDDFYYYX LFPGYYYX EGLLYYYX EDDFYYYX 160500 TAF LFPG 160500Z 1605/2618 28015KT 9999 FEW030
KK LFPNYYYX EGLLYYYX LFPGYYYX 122000 TAF LFPG 122000Z 1220/1122 28015KT 9999 FEW030
KK EDDFYYYX LFPGYYYX 040300 TAF LFPG 040300Z 0403/1508 28015KT 9999 FEW030
LL LFPNYYYX EDDFYYYX LFPOYYYX 141700 TAF LFPG 141700Z 1417/2806 28015KT 9999 FEW030
LL LFPOYYYX EGLLYYYX LFPNYYYX 280500 TAF LFPG 280500Z 2805/2103 28015KT 9999 FEW030
KK EDDFYYYX EDDFYYYX LFPBYYYX EGLLYYYX 040600 TAF LFPG 040600Z 0406/2805 28015KT 9999 FEW030
FF LFPBYYYX EGLLYYYX LFPOYYYX 282200 TAF LFPG 282200Z 2822/0910 28015KT 9999 FEW030
FF LFPGYYYX LFPGYYYX LFPOYYYX 030600 TAF LFPG 030600Z 0306/1410 28015KT 9999 FEW030
KK LFPNYYYX LFPBYYYX LFPNYYYX 150800 TAF LFPG 150800Z 1508/0604 28015KT 9999 FEW030
SS EGLLYYYX LFPNYYYX EGLLYYYX 110400 TAF LFPG 110400Z 1104/2503 28015KT 9999 FEW030
DD LFPNYYYX LFPNYYYX EGLLYYYX 240300 TAF LFPG 240300Z 2403/1322 28015KT 9999 FEW030
GG LFPOYYYX LFPGYYYX 120600 TAF LFPG 120600Z 1206/0805 28015KT 9999 FEW030
DD LFPOYYYX EDDFYYYX 131500 TAF LFPG 131500Z 1315/0504 28015KT 9999 FEW030
SS LFPBYYYX LFPBYYYX LFPOYYYX 270500 TAF LFPG 270500Z 2705/1908 28015KT 9999 FEW030
DD LFPNYYYX LFPBYYYX EDDFYYYX 011900 TAF LFPG 011900Z 0119/1011 28015KT 9999 FEW030
DD LFPOYYYX EGLLYYYX EDDFYYYX LFPNYYYX 060800 TAF LFPG 060800Z 0608/0402 28015KT 9999 FEW030
GG LFPNYYYX LFPOYYYX 022100 TAF LFPG 022100Z 0221/1000 28015KT 9999 FEW030
FF EDDFYYYX LFPOYYYX 140400 TAF LFPG 140400Z 1404/0714 28015KT 9999 FEW030
KK EGLLYYYX LFPGYYYX EDDFYYYX LFPBYYYX 011800 TAF LFPG 011800Z 0118/2807 28015KT 9999 FEW030
FF LFPNYYYX LFPNYYYX 042300 TAF LFPG 042300Z 0423/2305 28015KT 9999 FEW030
GG EDDFYYYX LFPGYYYX 072100 TAF LFPG 072100Z 0721/1706 28015KT 9999 FEW030
KK LFPGYYYX LFPGYYYX 250200 TAF LFPG 250200Z 2502/1121 28015KT 9999 FEW030
FF EGLLYYYX EGLLYYYX LFPOYYYX LFPNYYYX 170300 TAF LFPG 170300Z 1703/1215 28015KT 9999 FEW030
LL EDDFYYYX EDDFYYYX LFPOYYYX 060500 TAF LFPG 060500Z 0605/2616 28015KT 9999 FEW030
GG EGLLYYYX EGLLYYYX LFPBYYYX 280700 TAF LFPG 280700Z 2807/1702 28015KT 9999 FEW030
SS LFPGYYYX LFPOYYYX EGLLYYYX 121400 TAF LFPG 121400Z 1214/2621 28015KT 9999 FEW030
LL LFPBYYYX LFPBYYYX EDDFYYYX 160400 TAF LFPG 160400Z 1604/2714 28015KT 9999 FEW030
GG LFPGYYYX LFPNYYYX 071200 TAF LFPG 071200Z 0712/2022 28015KT 9999 FEW030
LL LFPOYYYX LFPNYYYX LFPOYYYX LFPGYYYX 060500 TAF LFPG 060500Z 0605/0209 28015KT 9999 FEW030
FF LFPOYYYX LFPOYYYX 210000 TAF LFPG 210000Z 2100/0708 28015KT 9999 FEW030
DD LFPOYYYX EDDFYYYX LFPNYYYX EGLLYYYX 070900 TAF LFPG 070900Z 0709/1118 28015KT 9999 FEW030
DD LFPBYYYX EDDFYYYX 230700 TAF LFPG 230700Z 2307/1907 28015KT 9999 FEW030
KK LFPBYYYX LFPGYYYX 260500 TAF LFPG 260500Z 2605/2021 28015KT 9999 FEW030
DD LFPGYYYX LFPGYYYX LFPOYYYX 111300 TAF LFPG 111300Z 1113/1003 28015KT 9999 FEW030
KK LFPGYYYX EDDFYYYX LFPBYYYX LFPGYYYX 150400 TAF LFPG 150400Z 1504/2407 28015KT 9999 FEW030
KK LFPNYYYX LFPNYYYX 120500 TAF LFPG 120500Z 1205/1610 28015KT 9999 FEW030
SS LFPOYYYX EDDFYYYX LFPNYYYX 052100 TAF LFPG 052100Z 0521/0522 28015KT 9999 FEW030
SS LFPOYYYX LFPGYYYX 111000 TAF LFPG 111000Z 1110/1000 28015KT 9999 FEW030
FF EDDFYYYX LFPNYYYX 200600 TAF LFPG 200600Z 2006/2802 28015KT 9999 FEW030
KK LFPBYYYX EGLLYYYX LFPBYYYX 200900 TAF LFPG 200900Z 2009/0215 28015KT 9999 FEW030
LL EGLLYYYX LFPNYYYX EGLLYYYX 030500 TAF LFPG 030500Z 0305/0905 28015KT 9999 FEW030
GG LFPBYYYX LFPGYYYX LFPNYYYX 062100 TAF LFPG 062100Z 0621/1503 28015KT 9999 FEW030
GG LFPBYYYX LFPOYYYX LFPNYYYX 201800 TAF LFPG 201800Z 2018/2616 28015KT 9999 FEW030
DD LFPGYYYX LFPOYYYX EGLLYYYX 271900 TAF LFPG 271900Z 2719/0720 28015KT 9999 FEW030
LL LFPNYYYX LFPOYYYX LFPGYYYX 102200 TAF LFPG 102200Z 1022/1803 28015KT 9999 FEW030
SS LFPBYYYX LFPGYYYX LFPOYYYX 230400 TAF LFPG 230400Z 2304/1011 28015KT 9999 FEW030
FF LFPNYYYX LFPBYYYX 161500 TAF LFPG 161500Z 1615/1010 28015KT 9999 FEW030
FF EDDFYYYX LFPGYYYX LFPOYYYX 270000 TAF LFPG 270000Z 2700/2221 28015KT 9999 FEW030
LL LFPGYYYX LFPOYYYX EGLLYYYX EDDFYYYX 160700 TAF LFPG 160700Z 1607/2516 28015KT 9999 FEW030
FF LFPGYYYX EDDFYYYX LFPNYYYX LFPGYYYX 082200 TAF LFPG 082200Z 0822/2821 28015KT 9999 FEW030
FF EGLLYYYX EGLLYYYX 280800 TAF LFPG 280800Z 2808/0500 28015KT 9999 FEW030
KK LFPNYYYX EGLLYYYX LFPOYYYX EDDFYYYX 030500 TAF LFPG 030500Z 0305/1414 28015KT 9999 FEW030
LL LFPGYYYX EGLLYYYX LFPNYYYX 022300 TAF LFPG 022300Z 0223/0320 28015KT 9999 FEW030
DD LFPOYYYX LFPOYYYX 111200 TAF LFPG 111200Z 1112/1410 28015KT 9999 FEW030
LL EGLLYYYX LFPGYYYX LFPNYYYX 020000 TAF LFPG 020000Z 0200/1204 28015KT 9999 FEW030
KK EDDFYYYX LFPBYYYX EGLLYYYX 021300 TAF LFPG 021300Z 0213/2718 28015KT 9999 FEW030
DD LFPGYYYX LFPBYYYX 180000 TAF LFPG 180000Z 1800/2709 28015KT 9999 FEW030
FF LFPBYYYX LFPGYYYX 181000 TAF LFPG 181000Z 1810/2210 28015KT 9999 FEW030
LL EDDFYYYX EDDFYYYX LFPGYYYX 070500 TAF LFPG 070500Z 0705/0317 28015KT 9999 FEW030
GG LFPOYYYX LFPNYYYX LFPBYYYX 100200 TAF LFPG 100200Z 1002/0117 28015KT 9999 FEW030
GG LFPNYYYX EDDFYYYX 040500 TAF LFPG 040500Z 0405/1520 28015KT 9999 FEW030
GG LFPGYYYX LFPGYYYX LFPOYYYX 122000 TAF LFPG 122000Z 1220/0810 28015KT 9999 FEW030
LL EDDFYYYX LFPOYYYX LFPBYYYX 201400 TAF LFPG 201400Z 2014/0905 28015KT 9999 FEW030
FF LFPBYYYX LFPGYYYX EDDFYYYX LFPBYYYX 250300 TAF LFPG 250300Z 2503/1011 28015KT 9999 FEW030
SS LFPGYYYX LFPOYYYX EDDFYYYX EGLLYYYX 080700 TAF LFPG 080700Z 0807/2120 28015KT 9999 FEW030
FF EGLLYYYX LFPGYYYX EDDFYYYX 152000 TAF LFPG 152000Z 1520/0710 28015KT 9999 FEW030
KK LFPOYYYX LFPBYYYX LFPNYYYX 041500 TAF LFPG 041500Z 0415/1614 28015KT 9999 FEW030
DD LFPGYYYX LFPNYYYX 172100 TAF LFPG 172100Z 1721/1320 28015KT 9999 FEW030
SS LFPNYYYX LFPBYYYX LFPOYYYX 221800 TAF LFPG 221800Z 2218/0409 28015KT 9999 FEW030
SS LFPNYYYX LFPBYYYX 160600 TAF LFPG 160600Z 1606/1806 28015KT 9999 FEW030
GG LFPBYYYX EDDFYYYX 191700 TAF LFPG 191700Z 1917/1318 28015KT 9999 FEW030
DD LFPOYYYX LFPBYYYX LFPOYYYX 150200 TAF LFPG 150200Z 1502/2312 28015KT 9999 FEW030
KK LFPBYYYX LFPGYYYX LFPOYYYX 100800 TAF LFPG 100800Z 1008/2203 28015KT 9999 FEW030
SS EDDFYYYX LFPNYYYX EGLLYYYX LFPOYYYX 152100 TAF LFPG 152100Z 1521/1523 28015KT 9999 FEW030
KK LFPBYYYX LFPGYYYX LFPNYYYX 080200 TAF LFPG 080200Z 0802/0507 28015KT 9999 FEW030
FF LFPOYYYX LFPBYYYX EDDFYYYX LFPNYYYX 010100 TAF LFPG 010100Z 0101/2102 28015KT 9999 FEW030
LL LFPNYYYX LFPGYYYX 120200 TAF LFPG 120200Z 1202/0818 28015KT 9999 FEW030
SS LFPBYYYX LFPGYYYX LFPOYYYX 231400 TAF LFPG 231400Z 2314/2118 28015KT 9999 FEW030
DD LFPGYYYX LFPOYYYX LFPBYYYX 061000 TAF LFPG 061000Z 0610/1806 28015KT 9999 FEW030
GG LFPOYYYX LFPGYYYX 131300 TAF LFPG 131300Z 1313/2805 28015KT 9999 FEW030
SS LFPOYYYX LFPGYYYX 170100 TAF LFPG 170100Z 1701/1412 28015KT 9999 FEW030
KK LFPBYYYX EDDFYYYX LFPOYYYX LFPGYYYX 211500 TAF LFPG 211500Z 2115/2420 28015KT 9999 FEW030
LL LFPOYYYX LFPBYYYX 160900 TAF LFPG 160900Z 1609/0823 28015KT 9999 FEW030
LL LFPGYYYX LFPBYYYX EGLLYYYX 191900 TAF LFPG 191900Z 1919/2315 28015KT 9999 FEW030
DD EGLLYYYX EGLLYYYX LFPNYYYX 061900 TAF LFPG 061900Z 0619/0422 28015KT 9999 FEW030
LL LFPOYYYX LFPOYYYX EDDFYYYX LFPBYYYX 170400 TAF LFPG 170400Z 1704/1403 28015KT 9999 FEW030
KK EDDFYYYX LFPOYYYX LFPNYYYX EGLLYYYX 280400 TAF LFPG 280400Z 2804/0620 28015KT 9999 FEW030
SS LFPBYYYX EDDFYYYX LFPOYYYX 270400 TAF LFPG 270400Z 2704/2705 28015KT 9999 FEW030
FF LFPBYYYX EDDFYYYX 281700 TAF LFPG 281700Z 2817/2818 28015KT 9999 FEW030
LL EDDFYYYX LFPGYYYX 011400 TAF LFPG 011400Z 0114/1512 28015KT 9999 FEW030
GG EGLLYYYX LFPGYYYX EGLLYYYX LFPOYYYX 211800 TAF LFPG 211800Z 2118/1506 28015KT 9999 FEW030
LL LFPNYYYX EDDFYYYX LFPOYYYX 260400 TAF LFPG 260400Z 2604/1820 28015KT 9999 FEW030
GG EDDFYYYX LFPGYYYX LFPNYYYX LFPBYYYX 021500 TAF LFPG 021500Z 0215/0213 28015KT 9999 FEW030
DD EDDFYYYX EGLLYYYX 160200 TAF LFPG 160200Z 1602/1311 28015KT 9999 FEW030
FF EGLLYYYX LFPGYYYX EGLLYYYX LFPNYYYX 081200 TAF LFPG 081200Z 0812/0108 28015KT 9999 FEW030
GG LFPOYYYX EGLLYYYX LFPOYYYX EDDFYYYX 091600 TAF LFPG 091600Z 0916/2715 28015KT 9999 FEW030
DD EGLLYYYX EDDFYYYX LFPBYYYX LFPOYYYX 161400 TAF LFPG 161400Z 1614/0500 28015KT 9999 FEW030
FF LFPGYYYX LFPOYYYX LFPGYYYX 020800 TAF LFPG 020800Z 0208/0119 28015KT 9999 FEW030
KK LFPNYYYX EGLLYYYX LFPBYYYX LFPOYYYX 151600 TAF LFPG 151600Z 1516/1113 28015KT 9999 FEW030
FF LFPNYYYX LFPBYYYX EDDFYYYX EGLLYYYX 191000 TAF LFPG 191000Z 1910/0709 28015KT 9999 FEW030
DD EGLLYYYX LFPNYYYX EGLLYYYX LFPOYYYX 091500 TAF LFPG 091500Z 0915/0419 28015KT 9999 FEW030
GG LFPNYYYX LFPNYYYX EDDFYYYX EGLLYYYX 150400 TAF LFPG 150400Z 1504/2803 28015KT 9999 FEW030
DD EDDFYYYX LFPGYYYX LFPBYYYX LFPNYYYX 170000 TAF LFPG 170000Z 1700/1904 28015KT 9999 FEW030
DD LFPOYYYX EGLLYYYX LFPGYYYX 232100 TAF LFPG 232100Z 2321/1112 28015KT 9999 FEW030
DD LFPOYYYX LFPBYYYX EDDFYYYX 211300 TAF LFPG 211300Z 2113/0320 28015KT 9999 FEW030
GG EDDFYYYX LFPNYYYX 141900 TAF LFPG 141900Z 1419/1603 28015KT 9999 FEW030
KK EGLLYYYX LFPNYYYX EDDFYYYX LFPGYYYX 260700 TAF LFPG 260700Z 2607/2821 28015KT 9999 FEW030
LL EDDFYYYX EGLLYYYX LFPBYYYX LFPOYYYX 200500 TAF LFPG 200500Z 2005/2807 28015KT 9999 FEW030
DD LFPNYYYX LFPGYYYX LFPOYYYX EGLLYYYX 231700 TAF LFPG 231700Z 2317/1406 28015KT 9999 FEW030
FF EDDFYYYX LFPNYYYX 091900 TAF LFPG 091900Z 0919/1119 28015KT 9999 FEW030
KK LFPOYYYX LFPNYYYX EGLLYYYX LFPOYYYX 250800 TAF LFPG 250800Z 2508/0202 28015KT 9999 FEW030
FF LFPOYYYX EDDFYYYX LFPGYYYX LFPNYYYX 110400 TAF LFPG 110400Z 1104/2800 28015KT 9999 FEW030
DD LFPNYYYX LFPBYYYX LFPGYYYX EGLLYYYX 270900 TAF LFPG 270900Z 2709/2011 28015KT 9999 FEW030
DD LFPGYYYX EGLLYYYX 151800 TAF LFPG 151800Z 1518/2310 28015KT 9999 FEW030
KK LFPGYYYX EGLLYYYX LFPOYYYX 152100 TAF LFPG 152100Z 1521/0208 28015KT 9999 FEW030
KK EGLLYYYX LFPNYYYX EDDFYYYX 250900 TAF LFPG 250900Z 2509/2814 28015KT 9999 FEW030
SS LFPGYYYX EGLLYYYX LFPOYYYX LFPBYYYX 151900 TAF LFPG 151900Z 1519/1802 28015KT 9999 FEW030
KK LFPNYYYX LFPBYYYX 020300 TAF LFPG 020300Z 0203/2506 28015KT 9999 FEW030
SS LFPBYYYX LFPOYYYX 262000 TAF LFPG 262000Z 2620/0704 28015KT 9999 FEW030
KK EDDFYYYX LFPGYYYX EGLLYYYX LFPBYYYX 120600 TAF LFPG 120600Z 1206/1911 28015KT 9999 FEW030
DD LFPNYYYX LFPNYYYX LFPGYYYX 162300 TAF LFPG 162300Z 1623/0506 28015KT 9999 FEW030
LL LFPGYYYX LFPBYYYX 251800 TAF LFPG 251800Z 2518/2808 28015KT 9999 FEW030
KK EGLLYYYX LFPNYYYX LFPOYYYX 282000 TAF LFPG 282000Z 2820/1603 28015KT 9999 FEW030
LL LFPNYYYX LFPGYYYX 081400 TAF LFPG 081400Z 0814/0115 28015KT 9999 FEW030
LL EGLLYYYX LFPBYYYX LFPOYYYX LFPGYYYX 100600 TAF LFPG 100600Z 1006/2301 28015KT 9999 FEW030
LL LFPGYYYX LFPBYYYX 270100 TAF LFPG 270100Z 2701/1123 28015KT 9999 FEW030
LL LFPGYYYX LFPBYYYX LFPGYYYX 160700 TAF LFPG 160700Z 1607/1923 28015KT 9999 FEW030
SS EDDFYYYX EDDFYYYX LFPOYYYX LFPNYYYX 030100 TAF LFPG 030100Z 0301/1317 28015KT 9999 FEW030
DD EGLLYYYX LFPBYYYX 042200 TAF LFPG 042200Z 0422/1117 28015KT 9999 FEW030
KK LFPOYYYX EGLLYYYX 160400 TAF LFPG 160400Z 1604/1518 28015KT 9999 FEW030
KK LFPOYYYX LFPBYYYX 091300 TAF LFPG 091300Z 0913/2514 28015KT 9999 FEW030
GG LFPGYYYX EDDFYYYX 150900 TAF LFPG 150900Z 1509/1821 28015KT 9999 FEW030
GG LFPNYYYX LFPOYYYX EDDFYYYX LFPNYYYX 260300 TAF LFPG 260300Z 2603/2300 28015KT 9999 FEW030
FF EGLLYYYX LFPBYYYX 111700 TAF LFPG 111700Z 1117/0103 28015KT 9999 FEW030
LL LFPNYYYX LFPOYYYX EDDFYYYX LFPBYYYX 181500 TAF LFPG 181500Z 1815/2416 28015KT 9999 FEW030
DD LFPGYYYX LFPGYYYX LFPNYYYX LFPBYYYX 220300 TAF LFPG 220300Z 2203/1812 28015KT 9999 FEW030
LL EGLLYYYX LFPOYYYX 010600 TAF LFPG 010600Z 0106/2117 28015KT 9999 FEW030
FF LFPBYYYX LFPGYYYX LFPBYYYX 221000 TAF LFPG 221000Z 2210/2021 28015KT 9999 FEW030
LL EDDFYYYX LFPGYYYX LFPOYYYX 030700 TAF LFPG 030700Z 0307/1104 28015KT 9999 FEW030
SS EGLLYYYX EGLLYYYX LFPBYYYX LFPOYYYX 182300 TAF LFPG 182300Z 1823/0703 28015KT 9999 FEW030
LL EGLLYYYX LFPNYYYX LFPGYYYX LFPOYYYX 172100 TAF LFPG 172100Z 1721/2709 28015KT 9999 FEW030
KK EGLLYYYX LFPNYYYX EDDFYYYX LFPOYYYX 230500 TAF LFPG 230500Z 2305/1302 28015KT 9999 FEW030
FF LFPNYYYX LFPOYYYX LFPNYYYX 111500 TAF LFPG 111500Z 1115/0105 28015KT 9999 FEW030
LL LFPGYYYX LFPOYYYX LFPBYYYX 192200 TAF LFPG 192200Z 1922/2001 28015KT 9999 FEW030
LL EGLLYYYX LFPOYYYX LFPGYYYX 012200 TAF LFPG 012200Z 0122/0214 28015KT 9999 FEW030
SS LFPNYYYX EGLLYYYX LFPNYYYX 261500 TAF LFPG 261500Z 2615/0217 28015KT 9999 FEW030
LL LFPBYYYX EDDFYYYX LFPNYYYX 241200 TAF LFPG 241200Z 2412/0310 28015KT 9999 FEW030
DD LFPGYYYX LFPBYYYX EDDFYYYX LFPOYYYX 180100 TAF LFPG 180100Z 1801/0123 28015KT 9999 FEW030
KK EDDFYYYX LFPNYYYX 092100 TAF LFPG 092100Z 0921/1321 28015KT 9999 FEW030
KK EGLLYYYX LFPOYYYX EDDFYYYX LFPBYYYX 060000 TAF LFPG 060000Z 0600/0414 28015KT 9999 FEW030
FF LFPGYYYX EGLLYYYX LFPOYYYX LFPBYYYX 141800 TAF LFPG 141800Z 1418/2104 28015KT 9999 FEW030
GG LFPBYYYX LFPOYYYX LFPNYYYX EDDFYYYX 060300 TAF LFPG 060300Z 0603/1106 28015KT 9999 FEW030
DD LFPBYYYX LFPGYYYX 280800 TAF LFPG 280800Z 2808/0806 28015KT 9999 FEW030
DD LFPGYYYX EDDFYYYX EGLLYYYX LFPNYYYX 141300 TAF LFPG 141300Z 1413/0405 28015KT 9999 FEW030
LL LFPNYYYX LFPNYYYX 101200 TAF LFPG 101200Z 1012/1102 28015KT 9999 FEW030
LL EDDFYYYX LFPGYYYX 071100 TAF LFPG 071100Z 0711/2215 28015KT 9999 FEW030
SS LFPGYYYX EDDFYYYX LFPNYYYX LFPOYYYX 180100 TAF LFPG 180100Z 1801/1509 28015KT 9999 FEW030
LL LFPOYYYX LFPOYYYX 231500 TAF LFPG 231500Z 2315/1521 28015KT 9999 FEW030
SS LFPBYYYX EDDFYYYX 091200 TAF LFPG 091200Z 0912/1701 28015KT 9999 FEW030
LL LFPGYYYX EGLLYYYX LFPBYYYX EDDFYYYX 110600 TAF LFPG 110600Z 1106/2120 28015KT 9999 FEW030
LL LFPNYYYX EDDFYYYX EGLLYYYX LFPNYYYX 020300 TAF LFPG 020300Z 0203/0902 28015KT 9999 FEW030
DD LFPOYYYX LFPOYYYX EGLLYYYX EDDFYYYX 091000 TAF LFPG 091000Z 0910/2223 28015KT 9999 FEW030
DD LFPOYYYX LFPGYYYX LFPNYYYX 031900 TAF LFPG 031900Z 0319/1704 28015KT 9999 FEW030
LL EDDFYYYX EDDFYYYX LFPOYYYX LFPNYYYX 151700 TAF LFPG 151700Z 1517/2802 28015KT 9999 FEW030
GG LFPOYYYX LFPNYYYX 091700 TAF LFPG 091700Z 0917/0202 28015KT 9999 FEW030
LL EDDFYYYX LFPOYYYX LFPNYYYX 260200 TAF LFPG 260200Z 2602/2422 28015KT 9999 FEW030
FF LFPGYYYX EGLLYYYX LFPGYYYX 200400 TAF LFPG 200400Z 2004/1518 28015KT 9999 FEW030
DD EGLLYYYX LFPGYYYX 031500 TAF LFPG 031500Z 0315/1909 28015KT 9999 FEW030
GG LFPNYYYX EDDFYYYX EGLLYYYX 130700 TAF LFPG 130700Z 1307/1815 28015KT 9999 FEW030
FF LFPBYYYX EGLLYYYX LFPNYYYX LFPBYYYX 140300 TAF LFPG 140300Z 1403/2719 28015KT 9999 FEW030
LL LFPNYYYX LFPGYYYX 031600 TAF LFPG 031600Z 0316/1515 28015KT 9999 FEW030
GG LFPBYYYX LFPOYYYX EDDFYYYX LFPNYYYX 091800 TAF LFPG 091800Z 0918/2813 28015KT 9999 FEW030
GG EGLLYYYX LFPOYYYX LFPGYYYX EGLLYYYX 130000 TAF LFPG 130000Z 1300/1601 28015KT 9999 FEW030
DD LFPOYYYX LFPNYYYX EDDFYYYX LFPGYYYX 221000 TAF LFPG 221000Z 2210/2104 28015KT 9999 FEW030
DD LFPOYYYX LFPNYYYX LFPGYYYX 060400 TAF LFPG 060400Z 0604/1204 28015KT 9999 FEW030
DD EGLLYYYX LFPBYYYX LFPGYYYX LFPNYYYX 222100 TAF LFPG 222100Z 2221/2020 28015KT 9999 FEW030
FF LFPGYYYX EDDFYYYX LFPGYYYX EGLLYYYX 221500 TAF LFPG 221500Z 2215/2105 28015KT 9999 FEW030
KK LFPGYYYX EGLLYYYX LFPBYYYX 240700 TAF LFPG 240700Z 2407/1102 28015KT 9999 FEW030
FF LFPBYYYX LFPNYYYX LFPOYYYX EDDFYYYX 280900 TAF LFPG 280900Z 2809/2015 28015KT 9999 FEW030
SS LFPBYYYX LFPNYYYX LFPBYYYX 151000 TAF LFPG 151000Z 1510/0517 28015KT 9999 FEW030
LL EDDFYYYX LFPOYYYX EGLLYYYX LFPNYYYX 060300 TAF LFPG 060300Z 0603/2723 28015KT 9999 FEW030
DD LFPGYYYX LFPBYYYX EGLLYYYX LFPGYYYX 081400 TAF LFPG 081400Z 0814/2422 28015KT 9999 FEW030
FF LFPNYYYX LFPOYYYX LFPGYYYX LFPBYYYX 251900 TAF LFPG 251900Z 2519/1720 28015KT 9999 FEW030
LL LFPGYYYX LFPBYYYX 111400 TAF LFPG 111400Z 1114/0102 28015KT 9999 FEW030
DD LFPBYYYX LFPGYYYX EDDFYYYX 261500 TAF LFPG 261500Z 2615/1316 28015KT 9999 FEW030
SS EDDFYYYX LFPOYYYX LFPGYYYX EDDFYYYX 071900 TAF LFPG 071900Z 0719/0501 28015KT 9999 FEW030
FF EDDFYYYX LFPBYYYX 200100 TAF LFPG 200100Z 2001/1911 28015KT 9999 FEW030
DD LFPOYYYX LFPOYYYX EDDFYYYX 111700 TAF LFPG 111700Z 1117/1007 28015KT 9999 FEW030
KK EGLLYYYX LFPNYYYX EDDFYYYX LFPGYYYX 271700 TAF LFPG 271700Z 2717/2214 28015KT 9999 FEW030
KK LFPOYYYX LFPOYYYX LFPNYYYX 251600 TAF LFPG 251600Z 2516/2223 28015KT 9999 FEW030
KK LFPNYYYX LFPOYYYX LFPGYYYX LFPNYYYX 021700 TAF LFPG 021700Z 0217/1812 28015KT 9999 FEW030
LL LFPBYYYX LFPGYYYX LFPOYYYX 141300 TAF LFPG 141300Z 1413/1723 28015KT 9999 FEW030
SS LFPGYYYX LFPGYYYX LFPOYYYX 201400 TAF LFPG 201400Z 2014/0619 28015KT 9999 FEW030
LL LFPBYYYX LFPNYYYX 131000 TAF LFPG 131000Z 1310/2204 28015KT 9999 FEW030
GG LFPOYYYX LFPBYYYX EGLLYYYX 251500 TAF LFPG 251500Z 2515/1605 28015KT 9999 FEW030
SS LFPGYYYX LFPNYYYX LFPGYYYX 101200 TAF LFPG 101200Z 1012/0514 28015KT 9999 FEW030
DD EDDFYYYX LFPNYYYX LFPOYYYX 171600 TAF LFPG 171600Z 1716/2808 28015KT 9999 FEW030
KK LFPOYYYX EDDFYYYX EGLLYYYX LFPBYYYX 210800 TAF LFPG 210800Z 2108/1217 28015KT 9999 FEW030
LL EGLLYYYX LFPBYYYX EGLLYYYX 070000 TAF LFPG 070000Z 0700/2618 28015KT 9999 FEW030
DD EDDFYYYX EDDFYYYX EGLLYYYX 121800 TAF LFPG 121800Z 1218/1113 28015KT 9999 FEW030
DD LFPBYYYX LFPNYYYX 201300 TAF LFPG 201300Z 2013/0108 28015KT 9999 FEW030
FF LFPOYYYX EGLLYYYX LFPBYYYX EDDFYYYX 071900 TAF LFPG 071900Z 0719/1721 28015KT 9999 FEW030
DD EDDFYYYX LFPBYYYX EDDFYYYX 122200 TAF LFPG 122200Z 1222/0512 28015KT 9999 FEW030
FF LFPOYYYX EDDFYYYX EGLLYYYX 030900 TAF LFPG 030900Z 0309/1423 28015KT 9999 FEW030
DD EDDFYYYX LFPGYYYX LFPBYYYX LFPOYYYX 030000 TAF LFPG 030000Z 0300/0919 28015KT 9999 FEW030
LL LFPGYYYX LFPOYYYX 180800 TAF LFPG 180800Z 1808/2616 28015KT 9999 FEW030
GG LFPOYYYX LFPGYYYX 191900 TAF LFPG 191900Z 1919/1407 28015KT 9999 FEW030
KK LFPGYYYX LFPBYYYX LFPGYYYX EGLLYYYX 191500 TAF LFPG 191500Z 1915/1512 28015KT 9999 FEW030
LL LFPOYYYX LFPOYYYX EDDFYYYX LFPNYYYX 241100 TAF LFPG 241100Z 2411/0607 28015KT 9999 FEW030
FF LFPOYYYX LFPNYYYX EGLLYYYX LFPBYYYX 060400 TAF LFPG 060400Z 0604/0913 28015KT 9999 FEW030
DD LFPGYYYX LFPOYYYX 241500 TAF LFPG 241500Z 2415/0213 28015KT 9999 FEW030
LL LFPOYYYX LFPBYYYX 010300 TAF LFPG 010300Z 0103/1800 28015KT 9999 FEW030
FF LFPGYYYX EGLLYYYX LFPGYYYX LFPNYYYX 060400 TAF LFPG 060400Z 0604/2709 28015KT 9999 FEW030
DD LFPNYYYX LFPNYYYX LFPOYYYX 280800 TAF LFPG 280800Z 2808/1103 28015KT 9999 FEW030
DD LFPBYYYX LFPBYYYX 130000 TAF LFPG 130000Z 1300/2007 28015KT 9999 FEW030
DD LFPGYYYX LFPNYYYX LFPGYYYX 200500 TAF LFPG 200500Z 2005/2016 28015KT 9999 FEW030
SS EDDFYYYX EDDFYYYX LFPGYYYX 042300 TAF LFPG 042300Z 0423/2713 28015KT 9999 FEW030
FF LFPBYYYX LFPBYYYX EGLLYYYX 102100 TAF LFPG 102100Z 1021/0819 28015KT 9999 FEW030
SS LFPNYYYX EDDFYYYX LFPOYYYX LFPGYYYX 181200 TAF LFPG 181200Z 1812/1913 28015KT 9999 FEW030
LL LFPOYYYX LFPGYYYX LFPNYYYX EDDFYYYX 172100 TAF LFPG 172100Z 1721/1409 28015KT 9999 FEW030
GG LFPOYYYX LFPOYYYX EDDFYYYX 241600 TAF LFPG 241600Z 2416/2618 28015KT 9999 FEW030
GG EDDFYYYX EDDFYYYX 052200 TAF LFPG 052200Z 0522/0506 28015KT 9999 FEW030
SS LFPNYYYX EGLLYYYX EDDFYYYX 021000 TAF LFPG 021000Z 0210/2407 28015KT 9999 FEW030
DD LFPBYYYX EGLLYYYX 120300 TAF LFPG 120300Z 1203/2618 28015KT 9999 FEW030
KK LFPOYYYX EDDFYYYX LFPBYYYX LFPGYYYX 251300 TAF LFPG 251300Z 2513/2810 28015KT 9999 FEW030
SS EDDFYYYX LFPNYYYX EGLLYYYX 042300 TAF LFPG 042300Z 0423/1817 28015KT 9999 FEW030
SS EGLLYYYX EGLLYYYX LFPNYYYX 071200 TAF LFPG 071200Z 0712/1408 28015KT 9999 FEW030
KK EGLLYYYX EGLLYYYX 060900 TAF LFPG 060900Z 0609/2218 28015KT 9999 FEW030
SS LFPGYYYX LFPOYYYX EGLLYYYX 270800 TAF LFPG 270800Z 2708/1804 28015KT 9999 FEW030
KK EDDFYYYX LFPOYYYX 282000 TAF LFPG 282000Z 2820/0109 28015KT 9999 FEW030
DD EGLLYYYX EDDFYYYX 090100 TAF LFPG 090100Z 0901/0806 28015KT 9999 FEW030
GG LFPGYYYX EDDFYYYX 151000 TAF LFPG 151000Z 1510/2411 28015KT 9999 FEW030
LL EGLLYYYX EDDFYYYX LFPNYYYX 240500 TAF LFPG 240500Z 2405/1316 28015KT 9999 FEW030
FF LFPGYYYX LFPGYYYX EDDFYYYX EGLLYYYX 090300 TAF LFPG 090300Z 0903/1012 28015KT 9999 FEW030
LL LFPBYYYX LFPOYYYX 121100 TAF LFPG 121100Z 1211/0511 28015KT 9999 FEW030
DD LFPNYYYX EGLLYYYX LFPOYYYX 281700 TAF LFPG 281700Z 2817/2722 28015KT 9999 FEW030
DD LFPNYYYX LFPOYYYX LFPBYYYX LFPNYYYX 141700 TAF LFPG 141700Z 1417/2816 28015KT 9999 FEW030
FF LFPNYYYX EGLLYYYX LFPOYYYX LFPNYYYX 221500 TAF LFPG 221500Z 2215/1403 28015KT 9999 FEW030
FF EGLLYYYX LFPOYYYX EDDFYYYX LFPGYYYX 122000 TAF LFPG 122000Z 1220/1405 28015KT 9999 FEW030
DD EDDFYYYX LFPBYYYX EDDFYYYX 180900 TAF LFPG 180900Z 1809/1913 28015KT 9999 FEW030
KK EGLLYYYX EDDFYYYX LFPBYYYX 101200 TAF LFPG 101200Z 1012/2609 28015KT 9999 FEW030
DD LFPGYYYX EDDFYYYX 051800 TAF LFPG 051800Z 0518/0111 28015KT 9999 FEW030
LL EGLLYYYX LFPNYYYX LFPOYYYX LFPGYYYX 170500 TAF LFPG 170500Z 1705/1914 28015KT 9999 FEW030
FF LFPNYYYX LFPOYYYX LFPBYYYX 201200 TAF LFPG 201200Z 2012/2603 28015KT 9999 FEW030
FF LFPGYYYX EGLLYYYX LFPGYYYX LFPOYYYX 181300 TAF LFPG 181300Z 1813/0615 28015KT 9999 FEW030
SS EDDFYYYX LFPBYYYX EGLLYYYX 141100 TAF LFPG 141100Z 1411/1815 28015KT 9999 FEW030
FF LFPBYYYX LFPGYYYX EDDFYYYX LFPOYYYX 272200 TAF LFPG 272200Z 2722/1316 28015KT 9999 FEW030
SS LFPOYYYX LFPGYYYX LFPBYYYX EDDFYYYX 110100 TAF LFPG 110100Z 1101/0309 28015KT 9999 FEW030
LL LFPOYYYX EGLLYYYX EDDFYYYX LFPOYYYX 260100 TAF LFPG 260100Z 2601/2303 28015KT 9999 FEW030
LL LFPBYYYX EGLLYYYX EDDFYYYX 032200 TAF LFPG 032200Z 0322/1122 28015KT 9999 FEW030
FF LFPBYYYX EGLLYYYX 210100 TAF LFPG 210100Z 2101/2302 28015KT 9999 FEW030
KK EGLLYYYX LFPOYYYX LFPGYYYX EDDFYYYX 140700 TAF LFPG 140700Z 1407/1504 28015KT 9999 FEW030
DD EGLLYYYX LFPOYYYX 140300 TAF LFPG 140300Z 1403/0419 28015KT 9999 FEW030
DD LFPOYYYX LFPBYYYX 210700 TAF LFPG 210700Z 2107/2115 28015KT 9999 FEW030
GG LFPOYYYX EGLLYYYX 021600 TAF LFPG 021600Z 0216/1208 28015KT 9999 FEW030
LL LFPBYYYX EDDFYYYX LFPNYYYX LFPGYYYX 051500 TAF LFPG 051500Z 0515/1221 28015KT 9999 FEW030
SS LFPGYYYX LFPBYYYX LFPGYYYX 102300 TAF LFPG 102300Z 1023/0806 28015KT 9999 FEW030
FF LFPGYYYX LFPNYYYX LFPOYYYX 210100 TAF LFPG 210100Z 2101/1009 28015KT 9999 FEW030
KK LFPBYYYX LFPGYYYX 220100 TAF LFPG 220100Z 2201/0517 28015KT 9999 FEW030
DD LFPNYYYX EGLLYYYX LFPBYYYX 260000 TAF LFPG 260000Z 2600/2715 28015KT 9999 FEW030
FF EDDFYYYX EDDFYYYX 032000 TAF LFPG 032000Z 0320/2604 28015KT 9999 FEW030
LL LFPGYYYX LFPNYYYX 050100 TAF LFPG 050100Z 0501/1304 28015KT 9999 FEW030
DD LFPBYYYX LFPGYYYX 071800 TAF LFPG 071800Z 0718/0207 28015KT 9999 FEW030
GG LFPGYYYX LFPNYYYX LFPOYYYX LFPBYYYX 240300 TAF LFPG 240300Z 2403/1008 28015KT 9999 FEW030
KK LFPGYYYX EDDFYYYX LFPNYYYX 060600 TAF LFPG 060600Z 0606/0723 28015KT 9999 FEW030
KK EGLLYYYX LFPBYYYX LFPGYYYX 171800 TAF LFPG 171800Z 1718/1804 28015KT 9999 FEW030
DD EGLLYYYX LFPOYYYX LFPGYYYX LFPBYYYX 242200 TAF LFPG 242200Z 2422/0221 28015KT 9999 FEW030
SS LFPOYYYX LFPGYYYX EGLLYYYX 160900 TAF LFPG 160900Z 1609/2602 28015KT 9999 FEW030
SS LFPGYYYX EGLLYYYX LFPOYYYX 072200 TAF LFPG 072200Z 0722/0102 28015KT 9999 FEW030
LL LFPNYYYX LFPOYYYX LFPNYYYX 081900 TAF LFPG 081900Z 0819/0423 28015KT 9999 FEW030
GG LFPNYYYX LFPOYYYX 220500 TAF LFPG 220500Z 2205/1312 28015KT 9999 FEW030
SS LFPNYYYX EGLLYYYX LFPGYYYX 062200 TAF LFPG 062200Z 0622/0207 28015KT 9999 FEW030
LL LFPOYYYX LFPNYYYX LFPOYYYX 170900 TAF LFPG 170900Z 1709/1722 28015KT 9999 FEW030
LL LFPBYYYX EDDFYYYX LFPOYYYX LFPNYYYX 060300 TAF LFPG 060300Z 0603/1111 28015KT 9999 FEW030
KK EDDFYYYX LFPNYYYX LFPOYYYX EDDFYYYX 061300 TAF LFPG 061300Z 0613/1908 28015KT 9999 FEW030
LL LFPGYYYX LFPBYYYX LFPOYYYX LFPNYYYX 090600 TAF LFPG 090600Z 0906/2503 28015KT 9999 FEW030
DD LFPNYYYX LFPGYYYX EGLLYYYX 041200 TAF LFPG 041200Z 0412/0406 28015KT 9999 FEW030
FF EDDFYYYX EGLLYYYX 072100 TAF LFPG 072100Z 0721/2807 28015KT 9999 FEW030
SS LFPBYYYX LFPNYYYX 151300 TAF LFPG 151300Z 1513/0315 28015KT 9999 FEW030
LL LFPGYYYX EGLLYYYX LFPOYYYX LFPGYYYX 251400 TAF LFPG 251400Z 2514/2019 28015KT 9999 FEW030
LL LFPNYYYX LFPOYYYX LFPNYYYX EGLLYYYX 130000 TAF LFPG 130000Z 1300/1012 28015KT 9999 FEW030
SS LFPBYYYX LFPGYYYX EDDFYYYX 150600 TAF LFPG 150600Z 1506/1307 28015KT 9999 FEW030
KK LFPBYYYX EGLLYYYX 031000 TAF LFPG 031000Z 0310/0211 28015KT 9999 FEW030
FF LFPGYYYX LFPOYYYX LFPNYYYX LFPGYYYX 160600 TAF LFPG 160600Z 1606/0508 28015KT 9999 FEW030
SS EDDFYYYX LFPNYYYX 171600 TAF LFPG 171600Z 1716/0716 28015KT 9999 FEW030
DD LFPOYYYX LFPGYYYX 171900 TAF LFPG 171900Z 1719/2310 28015KT 9999 FEW030
DD EDDFYYYX LFPGYYYX EDDFYYYX 162200 TAF LFPG 162200Z 1622/1422 28015KT 9999 FEW030
DD EDDFYYYX LFPGYYYX LFPOYYYX LFPNYYYX 250700 TAF LFPG 250700Z 2507/1114 28015KT 9999 FEW030
KK LFPBYYYX LFPBYYYX LFPOYYYX EGLLYYYX 131500 TAF LFPG 131500Z 1315/1713 28015KT 9999 FEW030
GG EGLLYYYX LFPOYYYX LFPNYYYX LFPBYYYX 120300 TAF LFPG 120300Z 1203/1306 28015KT 9999 FEW030
LL LFPOYYYX EDDFYYYX EGLLYYYX 061200 TAF LFPG 061200Z 0612/0422 28015KT 9999 FEW030
LL LFPNYYYX LFPOYYYX LFPBYYYX 151300 TAF LFPG 151300Z 1513/0206 28015KT 9999 FEW030
DD LFPGYYYX LFPBYYYX LFPOYYYX 062200 TAF LFPG 062200Z 0622/2607 28015KT 9999 FEW030
KK EGLLYYYX LFPNYYYX EDDFYYYX 231700 TAF LFPG 231700Z 2317/1604 28015KT 9999 FEW030
DD LFPBYYYX EGLLYYYX 172100 TAF LFPG 172100Z 1721/1015 28015KT 9999 FEW030
SS LFPOYYYX LFPBYYYX LFPOYYYX 130300 TAF LFPG 130300Z 1303/2106 28015KT 9999 FEW030
KK EDDFYYYX LFPBYYYX LFPNYYYX 051500 TAF LFPG 051500Z 0515/0710 28015KT 9999 FEW030
GG EDDFYYYX EDDFYYYX LFPBYYYX 280000 TAF LFPG 280000Z 2800/1016 28015KT 9999 FEW030
FF LFPGYYYX LFPOYYYX 151800 TAF LFPG 151800Z 1518/0120 28015KT 9999 FEW030
LL LFPNYYYX LFPBYYYX EDDFYYYX LFPGYYYX 201200 TAF LFPG 201200Z 2012/0512 28015KT 9999 FEW030
FF LFPGYYYX LFPGYYYX EDDFYYYX 071600 TAF LFPG 071600Z 0716/0711 28015KT 9999 FEW030
LL LFPGYYYX LFPOYYYX LFPNYYYX 061600 TAF LFPG 061600Z 0616/1616 28015KT 9999 FEW030
DD LFPGYYYX EDDFYYYX 012300 TAF LFPG 012300Z 0123/2511 28015KT 9999 FEW030
FF LFPNYYYX LFPGYYYX EDDFYYYX 050000 TAF LFPG 050000Z 0500/0702 28015KT 9999 FEW030
DD LFPGYYYX LFPOYYYX LFPGYYYX LFPNYYYX 141200 TAF LFPG 141200Z 1412/1723 28015KT 9999 FEW030
LL LFPBYYYX EGLLYYYX LFPBYYYX 281800 TAF LFPG 281800Z 2818/2213 28015KT 9999 FEW030
LL EDDFYYYX LFPNYYYX LFPOYYYX 031300 TAF LFPG 031300Z 0313/1009 28015KT 9999 FEW030
FF EGLLYYYX EDDFYYYX LFPGYYYX EGLLYYYX 271000 TAF LFPG 271000Z 2710/1522 28015KT 9999 FEW030
KK EDDFYYYX LFPNYYYX EGLLYYYX LFPOYYYX 011900 TAF LFPG 011900Z 0119/2512 28015KT 9999 FEW030
KK LFPBYYYX LFPGYYYX EGLLYYYX 091900 TAF LFPG 091900Z 0919/0623 28015KT 9999 FEW030
SS LFPGYYYX LFPBYYYX LFPNYYYX 091300 TAF LFPG 091300Z 0913/1809 28015KT 9999 FEW030
LL LFPOYYYX EGLLYYYX 260400 TAF LFPG 260400Z 2604/0715 28015KT 9999 FEW030
GG LFPNYYYX EGLLYYYX LFPNYYYX 040200 TAF LFPG 040200Z 0402/0702 28015KT 9999 FEW030
DD LFPNYYYX LFPGYYYX EDDFYYYX LFPOYYYX 210800 TAF LFPG 210800Z 2108/1522 28015KT 9999 FEW030
FF LFPNYYYX LFPNYYYX 250100 TAF LFPG 250100Z 2501/2017 28015KT 9999 FEW030
DD LFPOYYYX LFPOYYYX 200700 TAF LFPG 200700Z 2007/1314 28015KT 9999 FEW030
LL LFPNYYYX LFPBYYYX EGLLYYYX 050300 TAF LFPG 050300Z 0503/2106 28015KT 9999 FEW030
DD LFPOYYYX EGLLYYYX LFPOYYYX 260800 TAF LFPG 260800Z 2608/0802 28015KT 9999 FEW030
GG LFPBYYYX LFPGYYYX LFPBYYYX 201200 TAF LFPG 201200Z 2012/0513 28015KT 9999 FEW030
DD LFPGYYYX LFPNYYYX 230600 TAF LFPG 230600Z 2306/1709 28015KT 9999 FEW030
FF EDDFYYYX LFPOYYYX LFPBYYYX 101400 TAF LFPG 101400Z 1014/2319 28015KT 9999 FEW030
DD LFPOYYYX EDDFYYYX 021100 TAF LFPG 021100Z 0211/0618 28015KT 9999 FEW030
SS LFPNYYYX LFPOYYYX EDDFYYYX 200000 TAF LFPG 200000Z 2000/1904 28015KT 9999 FEW030
LL LFPBYYYX LFPBYYYX LFPGYYYX LFPNYYYX 281700 TAF LFPG 281700Z 2817/0705 28015KT 9999 FEW030
GG EGLLYYYX EGLLYYYX LFPBYYYX LFPNYYYX 170500 TAF LFPG 170500Z 1705/1908 28015KT 9999 FEW030
DD LFPNYYYX LFPBYYYX LFPNYYYX 051400 TAF LFPG 051400Z 0514/0614 28015KT 9999 FEW030
FF EDDFYYYX LFPBYYYX 142300 TAF LFPG 142300Z 1423/0610 28015KT 9999 FEW030
GG EDDFYYYX EDDFYYYX EGLLYYYX LFPGYYYX 151500 TAF LFPG 151500Z 1515/1213 28015KT 9999 FEW030
KK LFPGYYYX LFPBYYYX 211400 TAF LFPG 211400Z 2114/0301 28015KT 9999 FEW030
GG LFPOYYYX EGLLYYYX 030600 TAF LFPG 030600Z 0306/0119 28015KT 9999 FEW030
KK LFPOYYYX LFPNYYYX LFPGYYYX EDDFYYYX 230600 TAF LFPG 230600Z 2306/1807 28015KT 9999 FEW030
GG EDDFYYYX LFPBYYYX LFPOYYYX LFPNYYYX 110300 TAF LFPG 110300Z 1103/0902 28015KT 9999 FEW030
KK LFPNYYYX LFPOYYYX LFPGYYYX 131700 TAF LFPG 131700Z 1317/0417 28015KT 9999 FEW030
DD LFPBYYYX LFPBYYYX 221100 TAF LFPG 221100Z 2211/0601 28015KT 9999 FEW030
DD LFPNYYYX LFPNYYYX LFPOYYYX 100900 TAF LFPG 100900Z 1009/0302 28015KT 9999 FEW030
GG LFPGYYYX EDDFYYYX LFPOYYYX LFPGYYYX 061300 TAF LFPG 061300Z 0613/0215 28015KT 9999 FEW030
FF LFPGYYYX EDDFYYYX LFPBYYYX LFPNYYYX 270000 TAF LFPG 270000Z 2700/0505 28015KT 9999 FEW030
GG LFPNYYYX EDDFYYYX 161700 TAF LFPG 161700Z 1617/2623 28015KT 9999 FEW030
FF LFPBYYYX LFPOYYYX LFPBYYYX 161700 TAF LFPG 161700Z 1617/2214 28015KT 9999 FEW030
SS EGLLYYYX LFPOYYYX 222300 TAF LFPG 222300Z 2223/1509 28015KT 9999 FEW030
LL EDDFYYYX EDDFYYYX LFPOYYYX 112100 TAF LFPG 112100Z 1121/0216 28015KT 9999 FEW030
LL LFPOYYYX EGLLYYYX 011300 TAF LFPG 011300Z 0113/0923 28015KT 9999 FEW030
GG LFPGYYYX LFPNYYYX EDDFYYYX EGLLYYYX 142300 TAF LFPG 142300Z 1423/0104 28015KT 9999 FEW030
GG LFPOYYYX LFPBYYYX LFPOYYYX EGLLYYYX 230000 TAF LFPG 230000Z 2300/2703 28015KT 9999 FEW030
SS LFPNYYYX EDDFYYYX 120600 TAF LFPG 120600Z 1206/1512 28015KT 9999 FEW030
KK LFPGYYYX EGLLYYYX LFPGYYYX 072100 TAF LFPG 072100Z 0721/0315 28015KT 9999 FEW030
SS LFPBYYYX LFPOYYYX EGLLYYYX 121700 TAF LFPG 121700Z 1217/0303 28015KT 9999 FEW030
FF LFPNYYYX LFPBYYYX 020900 TAF LFPG 020900Z 0209/1706 28015KT 9999 FEW030
SS EGLLYYYX EGLLYYYX LFPOYYYX 022000 TAF LFPG 022000Z 0220/2208 28015KT 9999 FEW030
SS LFPBYYYX EDDFYYYX 260100 TAF LFPG 260100Z 2601/2610 28015KT 9999 FEW030
GG EGLLYYYX LFPBYYYX LFPOYYYX EGLLYYYX 272100 TAF LFPG 272100Z 2721/1122 28015KT 9999 FEW030
FF LFPOYYYX LFPGYYYX 181800 TAF LFPG 181800Z 1818/1717 28015KT 9999 FEW030
LL LFPBYYYX EDDFYYYX 080100 TAF LFPG 080100Z 0801/1004 28015KT 9999 FEW030
SS LFPGYYYX EGLLYYYX EDDFYYYX LFPGYYYX 010200 TAF LFPG 010200Z 0102/0505 28015KT 9999 FEW030
SS LFPNYYYX LFPBYYYX LFPGYYYX EGLLYYYX 161200 TAF LFPG 161200Z 1612/2319 28015KT 9999 FEW030
SS EDDFYYYX LFPOYYYX 271300 TAF LFPG 271300Z 2713/2811 28015KT 9999 FEW030
FF LFPGYYYX LFPGYYYX 080900 TAF LFPG 080900Z 0809/0308 28015KT 9999 FEW030
FF LFPBYYYX LFPNYYYX LFPOYYYX EGLLYYYX 021800 TAF LFPG 021800Z 0218/0508 28015KT 9999 FEW030
DD EDDFYYYX LFPNYYYX LFPBYYYX 131800 TAF LFPG 131800Z 1318/0110 28015KT 9999 FEW030
DD EGLLYYYX EDDFYYYX LFPBYYYX LFPNYYYX 201600 TAF LFPG 201600Z 2016/0112 28015KT 9999 FEW030
KK LFPNYYYX LFPOYYYX LFPBYYYX EDDFYYYX 141700 TAF LFPG 141700Z 1417/0400 28015KT 9999 FEW030
DD LFPGYYYX LFPBYYYX EGLLYYYX 042300 TAF LFPG 042300Z 0423/1313 28015KT 9999 FEW030
SS EGLLYYYX EDDFYYYX 121700 TAF LFPG 121700Z 1217/1419 28015KT 9999 FEW030
GG EGLLYYYX LFPOYYYX EDDFYYYX 210100 TAF LFPG 210100Z 2101/0223 28015KT 9999 FEW030
KK EGLLYYYX LFPNYYYX 230700 TAF LFPG 230700Z 2307/0221 28015KT 9999 FEW030
LL EDDFYYYX EGLLYYYX 260200 TAF LFPG 260200Z 2602/0704 28015KT 9999 FEW030
LL LFPBYYYX EGLLYYYX 190300 TAF LFPG 190300Z 1903/1813 28015KT 9999 FEW030
FF LFPBYYYX LFPBYYYX EDDFYYYX 180600 TAF LFPG 180600Z 1806/2511 28015KT 9999 FEW030
KK EDDFYYYX LFPOYYYX LFPBYYYX EDDFYYYX 100600 TAF LFPG 100600Z 1006/1213 28015KT 9999 FEW030
GG EDDFYYYX EGLLYYYX 102100 TAF LFPG 102100Z 1021/2403 28015KT 9999 FEW030
DD LFPNYYYX LFPBYYYX 220300 TAF LFPG 220300Z 2203/2515 28015KT 9999 FEW030
LL EGLLYYYX LFPBYYYX EGLLYYYX LFPNYYYX 201900 TAF LFPG 201900Z 2019/1021 28015KT 9999 FEW030
KK LFPNYYYX EDDFYYYX 261400 TAF LFPG 261400Z 2614/1206 28015KT 9999 FEW030
KK LFPGYYYX LFPOYYYX LFPNYYYX LFPBYYYX 071600 TAF LFPG 071600Z 0716/1603 28015KT 9999 FEW030
SS LFPNYYYX LFPOYYYX LFPNYYYX EGLLYYYX 092300 TAF LFPG 092300Z 0923/1718 28015KT 9999 FEW030
GG LFPBYYYX LFPOYYYX EGLLYYYX LFPGYYYX 122100 TAF LFPG 122100Z 1221/1614 28015KT 9999 FEW030
DD LFPBYYYX LFPOYYYX LFPGYYYX LFPBYYYX 210300 TAF LFPG 210300Z 2103/0206 28015KT 9999 FEW030
SS LFPBYYYX LFPBYYYX LFPGYYYX 182300 TAF LFPG 182300Z 1823/0601 28015KT 9999 FEW030
GG LFPNYYYX LFPBYYYX 282300 TAF LFPG 282300Z 2823/0119 28015KT 9999 FEW030
KK LFPOYYYX EDDFYYYX LFPGYYYX 070200 TAF LFPG 070200Z 0702/1705 28015KT 9999 FEW030
DD EGLLYYYX LFPGYYYX 110100 TAF LFPG 110100Z 1101/1811 28015KT 9999 FEW030
FF LFPNYYYX EGLLYYYX LFPGYYYX 021600 TAF LFPG 021600Z 0216/2705 28015KT 9999 FEW030
FF EDDFYYYX LFPOYYYX 230300 TAF LFPG 230300Z 2303/0907 28015KT 9999 FEW030
GG LFPGYYYX LFPGYYYX 090100 TAF LFPG 090100Z 0901/2801 28015KT 9999 FEW030
SS EGLLYYYX EGLLYYYX LFPBYYYX 090100 TAF LFPG 090100Z 0901/2623 28015KT 9999 FEW030
SS EDDFYYYX LFPNYYYX LFPGYYYX LFPBYYYX 031000 TAF LFPG 031000Z 0310/2122 28015KT 9999 FEW030
FF LFPGYYYX EGLLYYYX EDDFYYYX LFPNYYYX 142000 TAF LFPG 142000Z 1420/1506 28015KT 9999 FEW030
KK EDDFYYYX LFPBYYYX EDDFYYYX LFPGYYYX 031900 TAF LFPG 031900Z 0319/1721 28015KT 9999 FEW030
DD EGLLYYYX LFPOYYYX EDDFYYYX LFPBYYYX 050800 TAF LFPG 050800Z 0508/0807 28015KT 9999 FEW030
GG LFPGYYYX LFPOYYYX LFPGYYYX LFPBYYYX 202100 TAF LFPG 202100Z 2021/2422 28015KT 9999 FEW030
DD LFPNYYYX LFPGYYYX LFPBYYYX 210600 TAF LFPG 210600Z 2106/1016 28015KT 9999 FEW030
DD LFPGYYYX LFPGYYYX LFPBYYYX LFPOYYYX 231500 TAF LFPG 231500Z 2315/0108 28015KT 9999 FEW030
KK EDDFYYYX LFPNYYYX LFPBYYYX EGLLYYYX 232100 TAF LFPG 232100Z 2321/0605 28015KT 9999 FEW030
KK EGLLYYYX EDDFYYYX 032000 TAF LFPG 032000Z 0320/2006 28015KT 9999 FEW030
LL LFPNYYYX LFPOYYYX LFPBYYYX LFPGYYYX 261900 TAF LFPG 261900Z 2619/1308 28015KT 9999 FEW030
DD EDDFYYYX EGLLYYYX LFPBYYYX LFPOYYYX 032000 TAF LFPG 032000Z 0320/2216 28015KT 9999 FEW030
FF EDDFYYYX LFPBYYYX LFPNYYYX 031600 TAF LFPG 031600Z 0316/0418 28015KT 9999 FEW030
SS LFPOYYYX LFPOYYYX EGLLYYYX EDDFYYYX 041500 TAF LFPG 041500Z 0415/0201 28015KT 9999 FEW030
LL LFPBYYYX LFPGYYYX LFPBYYYX EDDFYYYX 150500 TAF LFPG 150500Z 1505/1904 28015KT 9999 FEW030
GG LFPGYYYX LFPOYYYX LFPGYYYX EGLLYYYX 051600 TAF LFPG 051600Z 0516/0518 28015KT 9999 FEW030
KK LFPOYYYX LFPOYYYX LFPGYYYX 121200 TAF LFPG 121200Z 1212/1519 28015KT 9999 FEW030
DD EGLLYYYX LFPGYYYX LFPNYYYX LFPOYYYX 160100 TAF LFPG 160100Z 1601/2709 28015KT 9999 FEW030
FF LFPGYYYX EGLLYYYX LFPNYYYX LFPGYYYX 081200 TAF LFPG 081200Z 0812/2218 28015KT 9999 FEW030
GG LFPNYYYX LFPGYYYX 111300 TAF LFPG 111300Z 1113/2808 28015KT 9999 FEW030
DD LFPGYYYX LFPBYYYX EGLLYYYX 020200 TAF LFPG 020200Z 0202/0516 28015KT 9999 FEW030
SS EGLLYYYX LFPGYYYX LFPOYYYX 172000 TAF LFPG 172000Z 1720/1319 28015KT 9999 FEW030
KK EDDFYYYX LFPGYYYX LFPOYYYX 281000 TAF LFPG 281000Z 2810/2316 28015KT 9999 FEW030
SS LFPGYYYX EGLLYYYX LFPGYYYX LFPBYYYX 230100 TAF LFPG 230100Z 2301/0619 28015KT 9999 FEW030
GG EDDFYYYX LFPBYYYX LFPOYYYX LFPGYYYX 012100 TAF LFPG 012100Z 0121/0405 28015KT 9999 FEW030
SS LFPOYYYX LFPGYYYX 071800 TAF LFPG 071800Z 0718/0814 28015KT 9999 FEW030
SS LFPNYYYX LFPBYYYX LFPNYYYX 190400 TAF LFPG 190400Z 1904/0911 28015KT 9999 FEW030
SS EGLLYYYX LFPGYYYX LFPBYYYX LFPNYYYX 190900 TAF LFPG 190900Z 1909/0504 28015KT 9999 FEW030
KK LFPGYYYX LFPGYYYX LFPBYYYX EDDFYYYX 271400 TAF LFPG 271400Z 2714/1905 28015KT 9999 FEW030
LL EGLLYYYX LFPOYYYX 141700 TAF LFPG 141700Z 1417/2518 28015KT 9999 FEW030
DD LFPOYYYX LFPGYYYX LFPBYYYX 111600 TAF LFPG 111600Z 1116/2022 28015KT 9999 FEW030
FF LFPNYYYX LFPGYYYX 112300 TAF LFPG 112300Z 1123/1922 28015KT 9999 FEW030
FF LFPBYYYX LFPBYYYX 211300 TAF LFPG 211300Z 2113/1008 28015KT 9999 FEW030
LL LFPGYYYX LFPOYYYX LFPGYYYX EDDFYYYX 171700 TAF LFPG 171700Z 1717/1205 28015KT 9999 FEW030
GG EGLLYYYX LFPGYYYX 020700 TAF LFPG 020700Z 0207/0309 28015KT 9999 FEW030
DD EDDFYYYX EDDFYYYX 080900 TAF LFPG 080900Z 0809/1222 28015KT 9999 FEW030
DD LFPBYYYX LFPNYYYX 110800 TAF LFPG 110800Z 1108/0117 28015KT 9999 FEW030
KK LFPOYYYX EDDFYYYX LFPBYYYX LFPOYYYX 280600 TAF LFPG 280600Z 2806/1209 28015KT 9999 FEW030
LL LFPOYYYX EGLLYYYX 261600 TAF LFPG 261600Z 2616/1719 28015KT 9999 FEW030
KK EDDFYYYX LFPBYYYX EDDFYYYX EGLLYYYX 190500 TAF LFPG 190500Z 1905/2819 28015KT 9999 FEW030
GG LFPBYYYX LFPNYYYX 070700 TAF LFPG 070700Z 0707/1107 28015KT 9999 FEW030
LL EGLLYYYX LFPGYYYX LFPOYYYX EDDFYYYX 121000 TAF LFPG 121000Z 1210/1409 28015KT 9999 FEW030
LL LFPBYYYX LFPGYYYX EDDFYYYX 090800 TAF LFPG 090800Z 0908/0911 28015KT 9999 FEW030
LL EDDFYYYX EDDFYYYX LFPGYYYX LFPOYYYX 170500 TAF LFPG 170500Z 1705/0508 28015KT 9999 FEW030
SS LFPNYYYX LFPGYYYX EGLLYYYX LFPOYYYX 151100 TAF LFPG 151100Z 1511/0106 28015KT 9999 FEW030
SS EDDFYYYX LFPBYYYX LFPGYYYX 050900 TAF LFPG 050900Z 0509/2000 28015KT 9999 FEW030
SS LFPBYYYX LFPNYYYX LFPOYYYX EDDFYYYX 020400 TAF LFPG 020400Z 0204/0809 28015KT 9999 FEW030
FF LFPGYYYX LFPGYYYX LFPBYYYX EDDFYYYX 131600 TAF LFPG 131600Z 1316/2503 28015KT 9999 FEW030
KK LFPGYYYX LFPNYYYX EDDFYYYX EGLLYYYX 040400 TAF LFPG 040400Z 0404/0902 28015KT 9999 FEW030
KK LFPBYYYX LFPOYYYX 072100 TAF LFPG 072100Z 0721/2212 28015KT 9999 FEW030
LL EDDFYYYX LFPBYYYX 070200 TAF LFPG 070200Z 0702/0507 28015KT 9999 FEW030
KK LFPGYYYX EGLLYYYX 161800 TAF LFPG 161800Z 1618/2217 28015KT 9999 FEW030
DD EDDFYYYX LFPNYYYX 220100 TAF LFPG 220100Z 2201/0702 28015KT 9999 FEW030
GG LFPNYYYX EGLLYYYX 231500 TAF LFPG 231500Z 2315/2304 28015KT 9999 FEW030
KK LFPGYYYX EDDFYYYX LFPNYYYX LFPBYYYX 270400 TAF LFPG 270400Z 2704/2404 28015KT 9999 FEW030
GG EDDFYYYX LFPGYYYX LFPBYYYX 222300 TAF LFPG 222300Z 2223/0822 28015KT 9999 FEW030
DD LFPBYYYX LFPGYYYX 112200 TAF LFPG 112200Z 1122/1912 28015KT 9999 FEW030
DD LFPGYYYX EDDFYYYX 081900 TAF LFPG 081900Z 0819/1800 28015KT 9999 FEW030
SS EGLLYYYX EDDFYYYX LFPGYYYX 212200 TAF LFPG 212200Z 2122/1913 28015KT 9999 FEW030
SS LFPBYYYX EDDFYYYX LFPOYYYX 211900 TAF LFPG 211900Z 2119/2612 28015KT 9999 FEW030
GG LFPOYYYX LFPNYYYX LFPOYYYX 201600 TAF LFPG 201600Z 2016/2710 28015KT 9999 FEW030
FF LFPGYYYX LFPGYYYX LFPOYYYX EGLLYYYX 082200 TAF LFPG 082200Z 0822/1005 28015KT 9999 FEW030
KK EGLLYYYX EDDFYYYX LFPGYYYX 101000 TAF LFPG 101000Z 1010/1209 28015KT 9999 FEW030
KK LFPOYYYX EGLLYYYX LFPBYYYX 132000 TAF LFPG 132000Z 1320/0914 28015KT 9999 FEW030
SS EDDFYYYX LFPNYYYX 201800 TAF LFPG 201800Z 2018/1907 28015KT 9999 FEW030
LL LFPNYYYX LFPNYYYX EDDFYYYX LFPBYYYX 121100 TAF LFPG 121100Z 1211/0702 28015KT 9999 FEW030
DD LFPOYYYX EDDFYYYX LFPOYYYX 122100 TAF LFPG 122100Z 1221/1006 28015KT 9999 FEW030
KK LFPOYYYX EDDFYYYX LFPBYYYX LFPGYYYX 061200 TAF LFPG 061200Z 0612/1004 28015KT 9999 FEW030
LL LFPOYYYX LFPBYYYX EDDFYYYX 201900 TAF LFPG 201900Z 2019/1614 28015KT 9999 FEW030
KK LFPNYYYX EGLLYYYX EDDFYYYX 071000 TAF LFPG 071000Z 0710/0810 28015KT 9999 FEW030
FF EGLLYYYX EGLLYYYX LFPBYYYX 110900 TAF LFPG 110900Z 1109/0107 28015KT 9999 FEW030
SS EDDFYYYX EDDFYYYX LFPBYYYX 180200 TAF LFPG 180200Z 1802/0710 28015KT 9999 FEW030
DD EGLLYYYX LFPOYYYX LFPNYYYX 130700 TAF LFPG 130700Z 1307/1409 28015KT 9999 FEW030
SS LFPOYYYX LFPGYYYX 152100 TAF LFPG 152100Z 1521/0807 28015KT 9999 FEW030
LL LFPGYYYX LFPNYYYX LFPBYYYX 200100 TAF LFPG 200100Z 2001/2821 28015KT 9999 FEW030
KK LFPBYYYX LFPBYYYX EGLLYYYX LFPNYYYX 121500 TAF LFPG 121500Z 1215/1413 28015KT 9999 FEW030
LL EDDFYYYX EDDFYYYX LFPGYYYX 282100 TAF LFPG 282100Z 2821/1401 28015KT 9999 FEW030
KK EDDFYYYX EDDFYYYX LFPBYYYX LFPNYYYX 011300 TAF LFPG 011300Z 0113/1609 28015KT 9999 FEW030
DD EGLLYYYX LFPGYYYX LFPNYYYX 172200 TAF LFPG 172200Z 1722/1404 28015KT 9999 FEW030
LL LFPNYYYX LFPOYYYX EGLLYYYX 232100 TAF LFPG 232100Z 2321/0606 28015KT 9999 FEW030
LL LFPOYYYX LFPOYYYX 192200 TAF LFPG 192200Z 1922/2623 28015KT 9999 FEW030
KK LFPOYYYX LFPOYYYX 081700 TAF LFPG 081700Z 0817/1017 28015KT 9999 FEW030
KK EDDFYYYX LFPBYYYX LFPGYYYX 102200 TAF LFPG 102200Z 1022/0718 28015KT 9999 FEW030
SS EGLLYYYX LFPGYYYX 142200 TAF LFPG 142200Z 1422/1614 28015KT 9999 FEW030
FF EDDFYYYX EDDFYYYX LFPBYYYX LFPNYYYX 130000 TAF LFPG 130000Z 1300/0505 28015KT 9999 FEW030
FF LFPBYYYX LFPNYYYX LFPOYYYX 110200 TAF LFPG 110200Z 1102/1402 28015KT 9999 FEW030
LL LFPNYYYX LFPNYYYX EDDFYYYX EGLLYYYX 090900 TAF LFPG 090900Z 0909/0122 28015KT 9999 FEW030
LL LFPOYYYX EDDFYYYX 131400 TAF LFPG 131400Z 1314/1022 28015KT 9999 FEW030
FF LFPGYYYX EGLLYYYX 212100 TAF LFPG 212100Z 2121/1923 28015KT 9999 FEW030
FF EGLLYYYX LFPOYYYX LFPGYYYX EGLLYYYX 070900 TAF LFPG 070900Z 0709/2308 28015KT 9999 FEW030
DD EGLLYYYX LFPGYYYX EDDFYYYX EGLLYYYX 160000 TAF LFPG 160000Z 1600/2502 28015KT 9999 FEW030
GG LFPGYYYX EGLLYYYX 132000 TAF LFPG 132000Z 1320/1701 28015KT 9999 FEW030
KK LFPGYYYX LFPOYYYX 230700 TAF LFPG 230700Z 2307/2709 28015KT 9999 FEW030
FF EDDFYYYX EDDFYYYX LFPOYYYX 281900 TAF LFPG 281900Z 2819/2621 28015KT 9999 FEW030
LL LFPGYYYX EGLLYYYX LFPGYYYX 281200 TAF LFPG 281200Z 2812/2423 28015KT 9999 FEW030
KK LFPGYYYX EGLLYYYX 210200 TAF LFPG 210200Z 2102/0315 28015KT 9999 FEW030
FF EGLLYYYX LFPNYYYX 112100 TAF LFPG 112100Z 1121/1316 28015KT 9999 FEW030
GG LFPNYYYX LFPNYYYX 162100 TAF LFPG 162100Z 1621/1622 28015KT 9999 FEW030
KK LFPGYYYX LFPOYYYX LFPGYYYX 260500 TAF LFPG 260500Z 2605/1721 28015KT 9999 FEW030
LL LFPBYYYX LFPBYYYX EGLLYYYX 060100 TAF LFPG 060100Z 0601/2305 28015KT 9999 FEW030
LL EDDFYYYX EGLLYYYX 011300 TAF LFPG 011300Z 0113/2700 28015KT 9999 FEW030
SS LFPBYYYX EGLLYYYX LFPNYYYX LFPBYYYX 230500 TAF LFPG 230500Z 2305/0717 28015KT 9999 FEW030
GG EGLLYYYX EDDFYYYX 100900 TAF LFPG 100900Z 1009/1613 28015KT 9999 FEW030
DD LFPGYYYX EDDFYYYX LFPGYYYX 190000 TAF LFPG 190000Z 1900/1212 28015KT 9999 FEW030
FF LFPOYYYX EGLLYYYX LFPGYYYX EDDFYYYX 021700 TAF LFPG 021700Z 0217/1320 28015KT 9999 FEW030
FF LFPGYYYX LFPGYYYX EGLLYYYX LFPBYYYX 260500 TAF LFPG 260500Z 2605/2008 28015KT 9999 FEW030
GG LFPNYYYX EDDFYYYX LFPBYYYX LFPGYYYX 091300 TAF LFPG 091300Z 0913/2619 28015KT 9999 FEW030
SS LFPBYYYX LFPGYYYX EDDFYYYX 091900 TAF LFPG 091900Z 0919/1322 28015KT 9999 FEW030
SS LFPNYYYX EDDFYYYX 152100 TAF LFPG 152100Z 1521/1200 28015KT 9999 FEW030
KK LFPGYYYX LFPOYYYX EGLLYYYX 251900 TAF LFPG 251900Z 2519/2512 28015KT 9999 FEW030
SS LFPBYYYX LFPBYYYX EDDFYYYX 120200 TAF LFPG 120200Z 1202/0707 28015KT 9999 FEW030
LL LFPGYYYX LFPGYYYX EGLLYYYX 171300 TAF LFPG 171300Z 1713/0809 28015KT 9999 FEW030
SS LFPGYYYX LFPGYYYX LFPBYYYX LFPNYYYX 031500 TAF LFPG 031500Z 0315/2121 28015KT 9999 FEW030
KK EDDFYYYX LFPGYYYX 012200 TAF LFPG 012200Z 0122/1519 28015KT 9999 FEW030
SS LFPGYYYX LFPGYYYX LFPBYYYX LFPOYYYX 271600 TAF LFPG 271600Z 2716/1511 28015KT 9999 FEW030
LL LFPNYYYX LFPOYYYX EGLLYYYX LFPBYYYX 190300 TAF LFPG 190300Z 1903/1801 28015KT 9999 FEW030
KK LFPGYYYX LFPGYYYX LFPNYYYX EGLLYYYX 030400 TAF LFPG 030400Z 0304/2500 28015KT 9999 FEW030
FF LFPGYYYX LFPOYYYX 022000 TAF LFPG 022000Z 0220/0510 28015KT 9999 FEW030
DD LFPBYYYX EDDFYYYX LFPBYYYX LFPNYYYX 021400 TAF LFPG 021400Z 0214/1704 28015KT 9999 FEW030
DD LFPGYYYX EDDFYYYX LFPNYYYX 041200 TAF LFPG 041200Z 0412/2216 28015KT 9999 FEW030
LL LFPOYYYX EGLLYYYX 070700 TAF LFPG 070700Z 0707/0306 28015KT 9999 FEW030
DD LFPBYYYX LFPOYYYX EDDFYYYX LFPNYYYX 101000 TAF LFPG 101000Z 1010/0321 28015KT 9999 FEW030
DD LFPBYYYX LFPBYYYX LFPGYYYX EGLLYYYX 210600 TAF LFPG 210600Z 2106/0102 28015KT 9999 FEW030
FF EGLLYYYX EDDFYYYX LFPNYYYX 010900 TAF LFPG 010900Z 0109/0100 28015KT 9999 FEW030
GG EDDFYYYX EGLLYYYX EDDFYYYX LFPNYYYX 222200 TAF LFPG 222200Z 2222/0403 28015KT 9999 FEW030
FF LFPOYYYX LFPBYYYX EGLLYYYX LFPNYYYX 131700 TAF LFPG 131700Z 1317/0911 28015KT 9999 FEW030
KK LFPBYYYX LFPGYYYX LFPNYYYX EGLLYYYX 132100 TAF LFPG 132100Z 1321/1904 28015KT 9999 FEW030
SS LFPGYYYX LFPOYYYX LFPGYYYX 222000 TAF LFPG 222000Z 2220/0900 28015KT 9999 FEW030
FF LFPBYYYX LFPOYYYX EDDFYYYX 251400 TAF LFPG 251400Z 2514/0122 28015KT 9999 FEW030
KK LFPOYYYX LFPBYYYX LFPOYYYX LFPGYYYX 042100 TAF LFPG 042100Z 0421/0723 28015KT 9999 FEW030
FF EDDFYYYX LFPBYYYX 121800 TAF LFPG 121800Z 1218/1800 28015KT 9999 FEW030
LL LFPOYYYX LFPGYYYX LFPOYYYX 171300 TAF LFPG 171300Z 1713/1113 28015KT 9999 FEW030
SS EDDFYYYX LFPNYYYX 091000 TAF LFPG 091000Z 0910/2208 28015KT 9999 FEW030
LL EDDFYYYX LFPGYYYX EDDFYYYX 141100 TAF LFPG 141100Z 1411/2721 28015KT 9999 FEW030
KK LFPGYYYX EGLLYYYX LFPBYYYX 090600 TAF LFPG 090600Z 0906/2107 28015KT 9999 FEW030
LL LFPBYYYX LFPBYYYX EGLLYYYX LFPGYYYX 080200 TAF LFPG 080200Z 0802/0415 28015KT 9999 FEW030
DD LFPBYYYX LFPNYYYX EGLLYYYX EDDFYYYX 281800 TAF LFPG 281800Z 2818/0705 28015KT 9999 FEW030
GG LFPNYYYX EDDFYYYX 190300 TAF LFPG 190300Z 1903/1522 28015KT 9999 FEW030
FF LFPBYYYX EDDFYYYX 080000 TAF LFPG 080000Z 0800/1116 28015KT 9999 FEW030
KK EDDFYYYX EGLLYYYX LFPNYYYX 281000 TAF LFPG 281000Z 2810/0422 28015KT 9999 FEW030
DD LFPBYYYX EGLLYYYX 182300 TAF LFPG 182300Z 1823/2503 28015KT 9999 FEW030
FF EGLLYYYX LFPOYYYX EGLLYYYX LFPGYYYX 200400 TAF LFPG 200400Z 2004/2000 28015KT 9999 FEW030
FF LFPNYYYX LFPBYYYX 090700 TAF LFPG 090700Z 0907/2613 28015KT 9999 FEW030
FF EGLLYYYX LFPOYYYX LFPGYYYX LFPNYYYX 091300 TAF LFPG 091300Z 0913/0813 28015KT 9999 FEW030
GG EGLLYYYX LFPOYYYX 160100 TAF LFPG 160100Z 1601/2622 28015KT 9999 FEW030
LL EDDFYYYX LFPBYYYX LFPOYYYX LFPGYYYX 202200 TAF LFPG 202200Z 2022/0605 28015KT 9999 FEW030
LL LFPGYYYX LFPOYYYX EGLLYYYX LFPBYYYX 110300 TAF LFPG 110300Z 1103/2721 28015KT 9999 FEW030
LL EGLLYYYX EDDFYYYX LFPOYYYX LFPGYYYX 131700 TAF LFPG 131700Z 1317/1611 28015KT 9999 FEW030
DD LFPBYYYX LFPGYYYX 252000 TAF LFPG 252000Z 2520/2515 28015KT 9999 FEW030
GG LFPOYYYX LFPGYYYX 250700 TAF LFPG 250700Z 2507/2604 28015KT 9999 FEW030
FF EGLLYYYX EDDFYYYX LFPBYYYX LFPGYYYX 152200 TAF LFPG 152200Z 1522/2802 28015KT 9999 FEW030
FF LFPOYYYX LFPOYYYX 171600 TAF LFPG 171600Z 1716/0122 28015KT 9999 FEW030
DD LFPOYYYX LFPBYYYX LFPOYYYX LFPGYYYX 082300 TAF LFPG 082300Z 0823/1323 28015KT 9999 FEW030
DD LFPGYYYX LFPOYYYX 161500 TAF LFPG 161500Z 1615/1114 28015KT 9999 FEW030
FF LFPNYYYX LFPOYYYX EGLLYYYX LFPNYYYX 221600 TAF LFPG 221600Z 2216/2108 28015KT 9999 FEW030
LL LFPBYYYX LFPGYYYX 130800 TAF LFPG 130800Z 1308/0207 28015KT 9999 FEW030
DD LFPGYYYX LFPGYYYX 070800 TAF LFPG 070800Z 0708/1904 28015KT 9999 FEW030
GG EDDFYYYX LFPBYYYX 110400 TAF LFPG 110400Z 1104/2204 28015KT 9999 FEW030
LL LFPNYYYX EGLLYYYX LFPNYYYX 261400 TAF LFPG 261400Z 2614/0419 28015KT 9999 FEW030
DD LFPOYYYX EGLLYYYX LFPOYYYX 050400 TAF LFPG 050400Z 0504/0403 28015KT 9999 FEW030
LL EDDFYYYX LFPBYYYX 192300 TAF LFPG 192300Z 1923/0816 28015KT 9999 FEW030
LL LFPBYYYX EGLLYYYX LFPGYYYX 140300 TAF LFPG 140300Z 1403/2802 28015KT 9999 FEW030
KK EDDFYYYX EDDFYYYX 042200 TAF LFPG 042200Z 0422/2104 28015KT 9999 FEW030
SS LFPBYYYX LFPNYYYX LFPBYYYX 252200 TAF LFPG 252200Z 2522/0205 28015KT 9999 FEW030
SS LFPBYYYX LFPNYYYX EGLLYYYX 122000 TAF LFPG 122000Z 1220/1407 28015KT 9999 FEW030
FF EGLLYYYX EDDFYYYX LFPBYYYX 270500 TAF LFPG 270500Z 2705/0615 28015KT 9999 FEW030
SS LFPGYYYX LFPNYYYX EGLLYYYX 140200 TAF LFPG 140200Z 1402/2019 28015KT 9999 FEW030
DD EGLLYYYX EDDFYYYX EGLLYYYX LFPNYYYX 140000 TAF LFPG 140000Z 1400/2001 28015KT 9999 FEW030
DD EDDFYYYX EGLLYYYX LFPBYYYX 210100 TAF LFPG 210100Z 2101/1404 28015KT 9999 FEW030
SS LFPNYYYX EGLLYYYX 231700 TAF LFPG 231700Z 2317/2609 28015KT 9999 FEW030
FF LFPOYYYX LFPOYYYX EDDFYYYX 232100 TAF LFPG 232100Z 2321/1114 28015KT 9999 FEW030
SS EDDFYYYX EDDFYYYX LFPGYYYX 252100 TAF LFPG 252100Z 2521/0123 28015KT 9999 FEW030
DD LFPOYYYX EGLLYYYX 210000 TAF LFPG 210000Z 2100/2316 28015KT 9999 FEW030
GG LFPOYYYX LFPBYYYX LFPOYYYX 252300 TAF LFPG 252300Z 2523/0510 28015KT 9999 FEW030
LL LFPOYYYX EGLLYYYX EDDFYYYX 221000 TAF LFPG 221000Z 2210/1404 28015KT 9999 FEW030
FF LFPGYYYX LFPNYYYX 070500 TAF LFPG 070500Z 0705/1316 28015KT 9999 FEW030
GG EGLLYYYX LFPBYYYX 261200 TAF LFPG 261200Z 2612/2205 28015KT 9999 FEW030
GG LFPGYYYX EDDFYYYX EGLLYYYX 210000 TAF LFPG 210000Z 2100/2218 28015KT 9999 FEW030
LL LFPBYYYX EGLLYYYX 250900 TAF LFPG 250900Z 2509/2013 28015KT 9999 FEW030
FF LFPGYYYX LFPOYYYX LFPBYYYX EGLLYYYX 250600 TAF LFPG 250600Z 2506/0301 28015KT 9999 FEW030
KK LFPGYYYX LFPGYYYX LFPBYYYX LFPNYYYX 131100 TAF LFPG 131100Z 1311/2101 28015KT 9999 FEW030
KK LFPBYYYX EGLLYYYX EDDFYYYX 261500 TAF LFPG 261500Z 2615/0416 28015KT 9999 FEW030
FF LFPNYYYX LFPNYYYX 070900 TAF LFPG 070900Z 0709/2814 28015KT 9999 FEW030
DD LFPGYYYX LFPOYYYX EGLLYYYX 270800 TAF LFPG 270800Z 2708/0318 28015KT 9999 FEW030
SS LFPGYYYX LFPBYYYX EDDFYYYX 122200 TAF LFPG 122200Z 1222/1313 28015KT 9999 FEW030
FF LFPGYYYX LFPNYYYX LFPOYYYX EDDFYYYX 250300 TAF LFPG 250300Z 2503/0719 28015KT 9999 FEW030
LL EGLLYYYX LFPBYYYX LFPOYYYX 140700 TAF LFPG 140700Z 1407/2613 28015KT 9999 FEW030
DD EDDFYYYX EGLLYYYX LFPGYYYX 141500 TAF LFPG 141500Z 1415/2717 28015KT 9999 FEW030
DD LFPBYYYX LFPOYYYX LFPGYYYX LFPNYYYX 181900 TAF LFPG 181900Z 1819/0811 28015KT 9999 FEW030
DD EDDFYYYX LFPBYYYX LFPGYYYX 091600 TAF LFPG 091600Z 0916/2409 28015KT 9999 FEW030
KK LFPNYYYX LFPOYYYX 151500 TAF LFPG 151500Z 1515/2223 28015KT 9999 FEW030
KK LFPGYYYX EDDFYYYX LFPOYYYX EGLLYYYX 140000 TAF LFPG 140000Z 1400/2210 28015KT 9999 FEW030
KK LFPBYYYX EDDFYYYX EGLLYYYX LFPNYYYX 180500 TAF LFPG 180500Z 1805/2121 28015KT 9999 FEW030
DD LFPNYYYX LFPGYYYX 020900 TAF LFPG 020900Z 0209/2018 28015KT 9999 FEW030
FF LFPOYYYX EGLLYYYX 141100 TAF LFPG 141100Z 1411/2504 28015KT 9999 FEW030
DD LFPNYYYX EDDFYYYX LFPBYYYX LFPGYYYX 090900 TAF LFPG 090900Z 0909/0400 28015KT 9999 FEW030
GG EDDFYYYX LFPOYYYX 231200 TAF LFPG 231200Z 2312/2510 28015KT 9999 FEW030
GG EDDFYYYX EGLLYYYX LFPBYYYX 050700 TAF LFPG 050700Z 0507/2815 28015KT 9999 FEW030
LL LFPNYYYX LFPGYYYX LFPBYYYX 270300 TAF LFPG 270300Z 2703/1520 28015KT 9999 FEW030
GG EGLLYYYX EGLLYYYX EDDFYYYX 211500 TAF LFPG 211500Z 2115/1811 28015KT 9999 FEW030
LL LFPOYYYX LFPOYYYX EDDFYYYX LFPGYYYX 031500 TAF LFPG 031500Z 0315/1211 28015KT 9999 FEW030
KK LFPOYYYX EDDFYYYX LFPBYYYX LFPNYYYX 221400 TAF LFPG 221400Z 2214/1103 28015KT 9999 FEW030
KK EGLLYYYX LFPNYYYX LFPGYYYX 231400 TAF LFPG 231400Z 2314/2809 28015KT 9999 FEW030
SS LFPBYYYX EGLLYYYX LFPBYYYX LFPGYYYX 260700 TAF LFPG 260700Z 2607/2223 28015KT 9999 FEW030
GG EDDFYYYX EDDFYYYX LFPGYYYX 200400 TAF LFPG 200400Z 2004/1208 28015KT 9999 FEW030
SS LFPBYYYX LFPGYYYX LFPNYYYX EDDFYYYX 161000 TAF LFPG 161000Z 1610/1706 28015KT 9999 FEW030
LL LFPGYYYX EGLLYYYX EDDFYYYX 130500 TAF LFPG 130500Z 1305/0705 28015KT 9999 FEW030
GG EGLLYYYX LFPGYYYX 171300 TAF LFPG 171300Z 1713/0616 28015KT 9999 FEW030
KK LFPNYYYX EGLLYYYX 080400 TAF LFPG 080400Z 0804/2513 28015KT 9999 FEW030
LL EDDFYYYX EGLLYYYX 171500 TAF LFPG 171500Z 1715/1408 28015KT 9999 FEW030
DD LFPOYYYX LFPOYYYX EGLLYYYX LFPGYYYX 060900 TAF LFPG 060900Z 0609/0619 28015KT 9999 FEW030
SS LFPOYYYX LFPNYYYX LFPOYYYX EGLLYYYX 130200 TAF LFPG 130200Z 1302/1311 28015KT 9999 FEW030
DD LFPBYYYX LFPOYYYX LFPBYYYX 031400 TAF LFPG 031400Z 0314/2521 28015KT 9999 FEW030
DD EDDFYYYX EDDFYYYX LFPOYYYX 171100 TAF LFPG 171100Z 1711/2706 28015KT 9999 FEW030
SS LFPBYYYX LFPBYYYX 041600 TAF LFPG 041600Z 0416/1514 28015KT 9999 FEW030
FF LFPOYYYX EGLLYYYX EDDFYYYX LFPNYYYX 121800 TAF LFPG 121800Z 1218/0621 28015KT 9999 FEW030
SS LFPBYYYX LFPBYYYX LFPOYYYX 010700 TAF LFPG 010700Z 0107/0307 28015KT 9999 FEW030
KK LFPBYYYX EDDFYYYX 020800 TAF LFPG 020800Z 0208/1012 28015KT 9999 FEW030
FF LFPOYYYX LFPGYYYX LFPNYYYX LFPOYYYX 180500 TAF LFPG 180500Z 1805/0418 28015KT 9999 FEW030
GG EDDFYYYX LFPGYYYX 160500 TAF LFPG 160500Z 1605/0900 28015KT 9999 FEW030
KK LFPGYYYX LFPNYYYX EDDFYYYX LFPGYYYX 150300 TAF LFPG 150300Z 1503/0503 28015KT 9999 FEW030
GG LFPOYYYX LFPNYYYX EGLLYYYX 121600 TAF LFPG 121600Z 1216/0915 28015KT 9999 FEW030
FF EGLLYYYX EDDFYYYX 100200 TAF LFPG 100200Z 1002/2212 28015KT 9999 FEW030
SS LFPNYYYX LFPNYYYX LFPOYYYX LFPGYYYX 100900 TAF LFPG 100900Z 1009/0704 28015KT 9999 FEW030
LL EGLLYYYX LFPGYYYX 140700 TAF LFPG 140700Z 1407/1001 28015KT 9999 FEW030
KK LFPOYYYX LFPBYYYX EGLLYYYX 031900 TAF LFPG 031900Z 0319/0918 28015KT 9999 FEW030
DD LFPBYYYX LFPOYYYX LFPGYYYX 121800 TAF LFPG 121800Z 1218/2104 28015KT 9999 FEW030
FF LFPOYYYX LFPNYYYX 092000 TAF LFPG 092000Z 0920/0906 28015KT 9999 FEW030
GG LFPBYYYX LFPOYYYX LFPGYYYX 171000 TAF LFPG 171000Z 1710/0806 28015KT 9999 FEW030
FF LFPGYYYX LFPBYYYX LFPOYYYX LFPGYYYX 131000 TAF LFPG 131000Z 1310/2217 28015KT 9999 FEW030
DD EGLLYYYX LFPGYYYX LFPNYYYX EDDFYYYX 232000 TAF LFPG 232000Z 2320/0623 28015KT 9999 FEW030
FF LFPOYYYX EDDFYYYX LFPNYYYX 271300 TAF LFPG 271300Z 2713/1320 28015KT 9999 FEW030
KK LFPNYYYX EDDFYYYX LFPNYYYX LFPBYYYX 080000 TAF LFPG 080000Z 0800/1304 28015KT 9999 FEW030
DD LFPNYYYX LFPGYYYX EGLLYYYX LFPBYYYX 140600 TAF LFPG 140600Z 1406/0714 28015KT 9999 FEW030
GG EGLLYYYX EDDFYYYX EGLLYYYX LFPOYYYX 250400 TAF LFPG 250400Z 2504/1108 28015KT 9999 FEW030
SS LFPNYYYX LFPNYYYX LFPGYYYX LFPOYYYX 120000 TAF LFPG 120000Z 1200/1713 28015KT 9999 FEW030
FF LFPNYYYX LFPOYYYX EDDFYYYX 022200 TAF LFPG 022200Z 0222/2515 28015KT 9999 FEW030
GG LFPGYYYX EDDFYYYX 110300 TAF LFPG 110300Z 1103/2304 28015KT 9999 FEW030
SS LFPBYYYX EDDFYYYX LFPGYYYX 160100 TAF LFPG 160100Z 1601/1002 28015KT 9999 FEW030
DD LFPOYYYX LFPNYYYX 141300 TAF LFPG 141300Z 1413/2805 28015KT 9999 FEW030
GG LFPGYYYX EGLLYYYX EDDFYYYX LFPNYYYX 031500 TAF LFPG 031500Z 0315/2009 28015KT 9999 FEW030
FF LFPNYYYX LFPGYYYX LFPNYYYX EDDFYYYX 051600 TAF LFPG 051600Z 0516/2602 28015KT 9999 FEW030
GG LFPNYYYX LFPBYYYX 192200 TAF LFPG 192200Z 1922/0220 28015KT 9999 FEW030
DD LFPOYYYX EDDFYYYX 161900 TAF LFPG 161900Z 1619/0210 28015KT 9999 FEW030
GG EDDFYYYX LFPBYYYX LFPNYYYX 252200 TAF LFPG 252200Z 2522/1416 28015KT 9999 FEW030
SS LFPBYYYX LFPOYYYX 011900 TAF LFPG 011900Z 0119/0521 28015KT 9999 FEW030
SS EDDFYYYX LFPOYYYX EDDFYYYX 092200 TAF LFPG 092200Z 0922/0500 28015KT 9999 FEW030
KK LFPNYYYX LFPGYYYX LFPBYYYX LFPOYYYX 110900 TAF LFPG 110900Z 1109/2511 28015KT 9999 FEW030
DD LFPNYYYX LFPNYYYX LFPBYYYX EDDFYYYX 031900 TAF LFPG 031900Z 0319/2309 28015KT 9999 FEW030
FF EDDFYYYX LFPBYYYX LFPOYYYX LFPGYYYX 091400 TAF LFPG 091400Z 0914/1619 28015KT 9999 FEW030
DD LFPOYYYX EGLLYYYX 082100 TAF LFPG 082100Z 0821/2818 28015KT 9999 FEW030
SS LFPNYYYX LFPBYYYX LFPGYYYX 251200 TAF LFPG 251200Z 2512/1215 28015KT 9999 FEW030
LL EDDFYYYX LFPNYYYX 242100 TAF LFPG 242100Z 2421/1510 28015KT 9999 FEW030
GG LFPOYYYX EDDFYYYX EGLLYYYX 262100 TAF LFPG 262100Z 2621/1500 28015KT 9999 FEW030
GG LFPOYYYX LFPBYYYX LFPOYYYX 271400 TAF LFPG 271400Z 2714/1008 28015KT 9999 FEW030
SS EGLLYYYX LFPGYYYX EGLLYYYX LFPNYYYX 190100 TAF LFPG 190100Z 1901/0617 28015KT 9999 FEW030
KK LFPNYYYX LFPBYYYX 251900 TAF LFPG 251900Z 2519/1909 28015KT 9999 FEW030
LL LFPNYYYX LFPGYYYX 250100 TAF LFPG 250100Z 2501/1518 28015KT 9999 FEW030
DD LFPOYYYX LFPBYYYX LFPGYYYX 270000 TAF LFPG 270000Z 2700/2712 28015KT 9999 FEW030
SS EGLLYYYX EDDFYYYX EGLLYYYX LFPNYYYX 070100 TAF LFPG 070100Z 0701/2821 28015KT 9999 FEW030
DD LFPOYYYX LFPBYYYX LFPOYYYX 011800 TAF LFPG 011800Z 0118/1318 28015KT 9999 FEW030
DD EDDFYYYX LFPBYYYX LFPOYYYX EGLLYYYX 020600 TAF LFPG 020600Z 0206/0304 28015KT 9999 FEW030
GG LFPGYYYX LFPNYYYX EDDFYYYX LFPBYYYX 261400 TAF LFPG 261400Z 2614/1205 28015KT 9999 FEW030
GG EDDFYYYX LFPNYYYX 121400 TAF LFPG 121400Z 1214/1923 28015KT 9999 FEW030
FF LFPGYYYX LFPGYYYX LFPOYYYX EDDFYYYX 061200 TAF LFPG 061200Z 0612/0922 28015KT 9999 FEW030
SS LFPBYYYX LFPOYYYX LFPBYYYX EGLLYYYX 100300 TAF LFPG 100300Z 1003/0420 28015KT 9999 FEW030
KK EGLLYYYX EDDFYYYX EGLLYYYX 271900 TAF LFPG 271900Z 2719/1910 28015KT 9999 FEW030
FF LFPOYYYX LFPNYYYX LFPOYYYX 272200 TAF LFPG 272200Z 2722/1603 28015KT 9999 FEW030
GG LFPOYYYX LFPGYYYX 161100 TAF LFPG 161100Z 1611/2419 28015KT 9999 FEW030
GG EDDFYYYX LFPGYYYX 111100 TAF LFPG 111100Z 1111/2211 28015KT 9999 FEW030
DD EDDFYYYX LFPOYYYX 222000 TAF LFPG 222000Z 2220/0509 28015KT 9999 FEW030
DD LFPNYYYX LFPOYYYX LFPNYYYX 071200 TAF LFPG 071200Z 0712/1121 28015KT 9999 FEW030
FF LFPBYYYX LFPGYYYX EGLLYYYX 251800 TAF LFPG 251800Z 2518/2022 28015KT 9999 FEW030
LL LFPNYYYX LFPGYYYX LFPNYYYX LFPOYYYX 100300 TAF LFPG 100300Z 1003/2021 28015KT 9999 FEW030
KK EDDFYYYX LFPGYYYX 031900 TAF LFPG 031900Z 0319/2707 28015KT 9999 FEW030
FF LFPOYYYX LFPBYYYX LFPGYYYX 200100 TAF LFPG 200100Z 2001/2503 28015KT 9999 FEW030
LL LFPNYYYX LFPBYYYX 221300 TAF LFPG 221300Z 2213/0922 28015KT 9999 FEW030
GG LFPBYYYX LFPGYYYX EGLLYYYX 200800 TAF LFPG 200800Z 2008/2615 28015KT 9999 FEW030
DD LFPNYYYX EDDFYYYX LFPGYYYX 120900 TAF LFPG 120900Z 1209/1122 28015KT 9999 FEW030
FF LFPGYYYX EDDFYYYX EGLLYYYX 100000 TAF LFPG 100000Z 1000/2707 28015KT 9999 FEW030
DD EGLLYYYX LFPOYYYX 160300 TAF LFPG 160300Z 1603/0210 28015KT 9999 FEW030
GG EGLLYYYX LFPOYYYX 190900 TAF LFPG 190900Z 1909/1821 28015KT 9999 FEW030
SS EDDFYYYX EDDFYYYX LFPOYYYX LFPGYYYX 101700 TAF LFPG 101700Z 1017/1602 28015KT 9999 FEW030
FF LFPOYYYX EDDFYYYX 242000 TAF LFPG 242000Z 2420/1220 28015KT 9999 FEW030
SS EGLLYYYX EGLLYYYX EDDFYYYX 030200 TAF LFPG 030200Z 0302/2014 28015KT 9999 FEW030
FF LFPNYYYX LFPBYYYX EGLLYYYX 190500 TAF LFPG 190500Z 1905/1806 28015KT 9999 FEW030
DD EGLLYYYX LFPNYYYX LFPGYYYX LFPBYYYX 170800 TAF LFPG 170800Z 1708/2202 28015KT 9999 FEW030
SS LFPOYYYX LFPBYYYX LFPOYYYX 030400 TAF LFPG 030400Z 0304/0419 28015KT 9999 FEW030
FF LFPBYYYX LFPGYYYX EDDFYYYX 281200 TAF LFPG 281200Z 2812/2316 28015KT 9999 FEW030
LL LFPOYYYX EGLLYYYX 121400 TAF LFPG 121400Z 1214/2722 28015KT 9999 FEW030
SS EGLLYYYX EDDFYYYX 151500 TAF LFPG 151500Z 1515/0707 28015KT 9999 FEW030
GG LFPBYYYX LFPOYYYX LFPBYYYX 241200 TAF LFPG 241200Z 2412/0801 28015KT 9999 FEW030
KK LFPBYYYX LFPOYYYX LFPGYYYX 280600 TAF LFPG 280600Z 2806/2110 28015KT 9999 FEW030
LL LFPBYYYX LFPGYYYX EDDFYYYX 181300 TAF LFPG 181300Z 1813/2001 28015KT 9999 FEW030
SS LFPBYYYX EGLLYYYX LFPOYYYX 271100 TAF LFPG 271100Z 2711/1211 28015KT 9999 FEW030
FF LFPBYYYX LFPBYYYX 120200 TAF LFPG 120200Z 1202/1014 28015KT 9999 FEW030
KK EGLLYYYX EDDFYYYX LFPNYYYX LFPOYYYX 270100 TAF LFPG 270100Z 2701/2007 28015KT 9999 FEW030
GG EGLLYYYX LFPOYYYX EDDFYYYX LFPGYYYX 281800 TAF LFPG 281800Z 2818/2516 28015KT 9999 FEW030
GG LFPBYYYX EGLLYYYX EDDFYYYX 080100 TAF LFPG 080100Z 0801/1020 28015KT 9999 FEW030
LL EDDFYYYX EDDFYYYX 231300 TAF LFPG 231300Z 2313/0914 28015KT 9999 FEW030
SS LFPGYYYX EGLLYYYX LFPBYYYX LFPOYYYX 101500 TAF LFPG 101500Z 1015/2221 28015KT 9999 FEW030
SS LFPNYYYX EDDFYYYX LFPOYYYX EGLLYYYX 270900 TAF LFPG 270900Z 2709/0423 28015KT 9999 FEW030
FF LFPOYYYX LFPGYYYX EGLLYYYX LFPNYYYX 161200 TAF LFPG 161200Z 1612/2202 28015KT 9999 FEW030
FF LFPOYYYX LFPOYYYX 261600 TAF LFPG 261600Z 2616/0110 28015KT 9999 FEW030
DD LFPBYYYX LFPGYYYX LFPBYYYX 032200 TAF LFPG 032200Z 0322/1816 28015KT 9999 FEW030
KK LFPBYYYX LFPBYYYX LFPOYYYX EGLLYYYX 041500 TAF LFPG 041500Z 0415/1010 28015KT 9999 FEW030
SS LFPGYYYX LFPOYYYX LFPGYYYX EDDFYYYX 030100 TAF LFPG 030100Z 0301/1317 28015KT 9999 FEW030
FF EGLLYYYX EGLLYYYX LFPGYYYX LFPOYYYX 180400 TAF LFPG 180400Z 1804/2616 28015KT 9999 FEW030
DD LFPGYYYX EDDFYYYX 251200 TAF LFPG 251200Z 2512/2719 28015KT 9999 FEW030
FF EDDFYYYX LFPGYYYX 032200 TAF LFPG 032200Z 0322/2107 28015KT 9999 FEW030
LL LFPGYYYX LFPBYYYX LFPNYYYX EDDFYYYX 060800 TAF LFPG 060800Z 0608/2613 28015KT 9999 FEW030
GG LFPBYYYX LFPBYYYX EDDFYYYX EGLLYYYX 020200 TAF LFPG 020200Z 0202/0304 28015KT 9999 FEW030
DD EDDFYYYX EDDFYYYX LFPNYYYX 281600 TAF LFPG 281600Z 2816/2323 28015KT 9999 FEW030
FF EDDFYYYX LFPBYYYX EGLLYYYX 260600 TAF LFPG 260600Z 2606/0314 28015KT 9999 FEW030
FF EDDFYYYX EGLLYYYX EDDFYYYX LFPGYYYX 281400 TAF LFPG 281400Z 2814/1606 28015KT 9999 FEW030
FF LFPNYYYX LFPGYYYX LFPNYYYX EDDFYYYX 022000 TAF LFPG 022000Z 0220/1807 28015KT 9999 FEW030
KK LFPBYYYX EGLLYYYX LFPNYYYX EDDFYYYX 111800 TAF LFPG 111800Z 1118/2315 28015KT 9999 FEW030
FF EGLLYYYX LFPOYYYX LFPNYYYX LFPBYYYX 240300 TAF LFPG 240300Z 2403/0117 28015KT 9999 FEW030
SS LFPOYYYX LFPOYYYX 270200 TAF LFPG 270200Z 2702/0809 28015KT 9999 FEW030
GG EDDFYYYX LFPNYYYX LFPOYYYX LFPGYYYX 100800 TAF LFPG 100800Z 1008/2623 28015KT 9999 FEW030
GG LFPNYYYX LFPGYYYX LFPBYYYX 240400 TAF LFPG 240400Z 2404/0719 28015KT 9999 FEW030
DD EGLLYYYX EGLLYYYX EDDFYYYX 140500 TAF LFPG 140500Z 1405/1122 28015KT 9999 FEW030
FF LFPNYYYX EGLLYYYX EDDFYYYX LFPOYYYX 091100 TAF LFPG 091100Z 0911/0409 28015KT 9999 FEW030
LL LFPNYYYX EDDFYYYX LFPBYYYX 051200 TAF LFPG 051200Z 0512/1222 28015KT 9999 FEW030
DD LFPOYYYX EDDFYYYX 091400 TAF LFPG 091400Z 0914/0521 28015KT 9999 FEW030
GG EDDFYYYX LFPBYYYX 142100 TAF LFPG 142100Z 1421/0414 28015KT 9999 FEW030
LL EGLLYYYX LFPBYYYX 011900 TAF LFPG 011900Z 0119/1300 28015KT 9999 FEW030
LL LFPBYYYX LFPGYYYX 062300 TAF LFPG 062300Z 0623/1704 28015KT 9999 FEW030
DD EGLLYYYX LFPBYYYX EDDFYYYX 241900 TAF LFPG 241900Z 2419/0920 28015KT 9999 FEW030
LL EDDFYYYX LFPOYYYX LFPBYYYX 201900 TAF LFPG 201900Z 2019/2021 28015KT 9999 FEW030
LL LFPOYYYX EDDFYYYX 130300 TAF LFPG 130300Z 1303/2206 28015KT 9999 FEW030
FF LFPNYYYX EGLLYYYX LFPNYYYX 182100 TAF LFPG 182100Z 1821/0612 28015KT 9999 FEW030
FF LFPGYYYX LFPGYYYX 271900 TAF LFPG 271900Z 2719/1913 28015KT 9999 FEW030
DD EGLLYYYX EGLLYYYX LFPNYYYX EDDFYYYX 100500 TAF LFPG 100500Z 1005/0119 28015KT 9999 FEW030
DD LFPOYYYX LFPBYYYX EGLLYYYX 240800 TAF LFPG 240800Z 2408/1705 28015KT 9999 FEW030
FF LFPOYYYX EGLLYYYX EDDFYYYX 271600 TAF LFPG 271600Z 2716/1808 28015KT 9999 FEW030
DD EGLLYYYX LFPNYYYX LFPBYYYX 250700 TAF LFPG 250700Z 2507/2821 28015KT 9999 FEW030
FF EGLLYYYX LFPOYYYX EGLLYYYX LFPGYYYX 211300 TAF LFPG 211300Z 2113/2610 28015KT 9999 FEW030
FF LFPNYYYX LFPNYYYX EDDFYYYX 141600 TAF LFPG 141600Z 1416/1123 28015KT 9999 FEW030
FF LFPOYYYX EDDFYYYX LFPNYYYX LFPOYYYX 030600 TAF LFPG 030600Z 0306/0403 28015KT 9999 FEW030
SS EGLLYYYX EGLLYYYX EDDFYYYX 050400 TAF LFPG 050400Z 0504/1321 28015KT 9999 FEW030
GG LFPNYYYX LFPNYYYX LFPBYYYX LFPOYYYX 121000 TAF LFPG 121000Z 1210/1221 28015KT 9999 FEW030
LL LFPNYYYX LFPGYYYX LFPNYYYX LFPOYYYX 181000 TAF LFPG 181000Z 1810/0122 28015KT 9999 FEW030
SS LFPGYYYX LFPGYYYX EDDFYYYX 051300 TAF LFPG 051300Z 0513/0203 28015KT 9999 FEW030
DD EDDFYYYX LFPNYYYX LFPBYYYX 041000 TAF LFPG 041000Z 0410/2018 28015KT 9999 FEW030
SS LFPOYYYX LFPOYYYX EDDFYYYX LFPGYYYX 240200 TAF LFPG 240200Z 2402/1309 28015KT 9999 FEW030
SS LFPGYYYX LFPOYYYX LFPGYYYX 280800 TAF LFPG 280800Z 2808/2607 28015KT 9999 FEW030
DD EGLLYYYX LFPOYYYX EGLLYYYX EDDFYYYX 220900 TAF LFPG 220900Z 2209/2810 28015KT 9999 FEW030
GG LFPOYYYX LFPGYYYX LFPOYYYX LFPNYYYX 280000 TAF LFPG 280000Z 2800/2208 28015KT 9999 FEW030
DD LFPBYYYX LFPNYYYX 171700 TAF LFPG 171700Z 1717/2110 28015KT 9999 FEW030
FF EDDFYYYX LFPGYYYX LFPBYYYX LFPOYYYX 042000 TAF LFPG 042000Z 0420/0310 28015KT 9999 FEW030
GG LFPNYYYX LFPOYYYX 041500 TAF LFPG 041500Z 0415/1818 28015KT 9999 FEW030
FF LFPOYYYX LFPOYYYX 162100 TAF LFPG 162100Z 1621/0515 28015KT 9999 FEW030
DD LFPNYYYX LFPBYYYX LFPGYYYX 010900 TAF LFPG 010900Z 0109/0805 28015KT 9999 FEW030
FF LFPGYYYX EDDFYYYX LFPBYYYX 281300 TAF LFPG 281300Z 2813/2708 28015KT 9999 FEW030
LL EGLLYYYX EDDFYYYX 040600 TAF LFPG 040600Z 0406/2005 28015KT 9999 FEW030
FF LFPGYYYX LFPBYYYX 170700 TAF LFPG 170700Z 1707/1912 28015KT 9999 FEW030
SS LFPOYYYX LFPGYYYX EGLLYYYX 241900 TAF LFPG 241900Z 2419/2412 28015KT 9999 FEW030
LL EGLLYYYX EGLLYYYX LFPGYYYX LFPNYYYX 260700 TAF LFPG 260700Z 2607/0911 28015KT 9999 FEW030
FF LFPNYYYX LFPBYYYX 121900 TAF LFPG 121900Z 1219/0800 28015KT 9999 FEW030
LL LFPNYYYX LFPBYYYX LFPOYYYX 221900 TAF LFPG 221900Z 2219/2413 28015KT 9999 FEW030
SS LFPBYYYX LFPOYYYX EDDFYYYX LFPNYYYX 102100 TAF LFPG 102100Z 1021/0723 28015KT 9999 FEW030
LL LFPOYYYX LFPNYYYX LFPBYYYX 170800 TAF LFPG 170800Z 1708/2506 28015KT 9999 FEW030
GG LFPGYYYX LFPNYYYX LFPBYYYX EDDFYYYX 151900 TAF LFPG 151900Z 1519/2307 28015KT 9999 FEW030
KK EGLLYYYX EDDFYYYX 160700 TAF LFPG 160700Z 1607/1206 28015KT 9999 FEW030
LL EDDFYYYX EGLLYYYX EDDFYYYX LFPGYYYX 271000 TAF LFPG 271000Z 2710/2516 28015KT 9999 FEW030
KK LFPOYYYX LFPOYYYX EGLLYYYX LFPGYYYX 060800 TAF LFPG 060800Z 0608/0823 28015KT 9999 FEW030
LL LFPBYYYX LFPGYYYX EGLLYYYX EDDFYYYX 212300 TAF LFPG 212300Z 2123/2408 28015KT 9999 FEW030
LL EGLLYYYX EDDFYYYX EGLLYYYX 060000 TAF LFPG 060000Z 0600/0306 28015KT 9999 FEW030
SS LFPGYYYX EGLLYYYX EDDFYYYX LFPOYYYX 131000 TAF LFPG 131000Z 1310/0103 28015KT 9999 FEW030
FF EGLLYYYX LFPOYYYX LFPBYYYX EGLLYYYX 231400 TAF LFPG 231400Z 2314/1001 28015KT 9999 FEW030
LL EGLLYYYX LFPGYYYX 021100 TAF LFPG 021100Z 0211/1118 28015KT 9999 FEW030
LL EGLLYYYX LFPGYYYX EDDFYYYX 121100 TAF LFPG 121100Z 1211/2011 28015KT 9999 FEW030
KK LFPGYYYX EGLLYYYX 201200 TAF LFPG 201200Z 2012/1019 28015KT 9999 FEW030
GG LFPOYYYX LFPGYYYX EDDFYYYX LFPBYYYX 270000 TAF LFPG 270000Z 2700/2605 28015KT 9999 FEW030
KK LFPNYYYX EDDFYYYX LFPBYYYX LFPNYYYX 100400 TAF LFPG 100400Z 1004/0322 28015KT 9999 FEW030
DD LFPOYYYX EGLLYYYX LFPBYYYX 200500 TAF LFPG 200500Z 2005/2204 28015KT 9999 FEW030
LL EDDFYYYX LFPGYYYX 230500 TAF LFPG 230500Z 2305/2701 28015KT 9999 FEW030
GG EDDFYYYX LFPNYYYX 110900 TAF LFPG 110900Z 1109/2509 28015KT 9999 FEW030
SS EDDFYYYX LFPNYYYX EGLLYYYX 081700 TAF LFPG 081700Z 0817/2507 28015KT 9999 FEW030
KK EGLLYYYX LFPBYYYX 201500 TAF LFPG 201500Z 2015/0215 28015KT 9999 FEW030
SS LFPBYYYX LFPBYYYX 211500 TAF LFPG 211500Z 2115/2311 28015KT 9999 FEW030
LL EDDFYYYX LFPBYYYX LFPGYYYX EDDFYYYX 241400 TAF LFPG 241400Z 2414/0919 28015KT 9999 FEW030
FF LFPGYYYX LFPNYYYX 280500 TAF LFPG 280500Z 2805/2719 28015KT 9999 FEW030
SS LFPGYYYX EDDFYYYX 240800 TAF LFPG 240800Z 2408/0211 28015KT 9999 FEW030
SS LFPBYYYX LFPBYYYX 052000 TAF LFPG 052000Z 0520/1200 28015KT 9999 FEW030
GG LFPBYYYX LFPOYYYX 251200 TAF LFPG 251200Z 2512/1018 28015KT 9999 FEW030
FF LFPGYYYX EGLLYYYX LFPNYYYX EDDFYYYX 282300 TAF LFPG 282300Z 2823/1919 28015KT 9999 FEW030
SS LFPNYYYX LFPGYYYX 121700 TAF LFPG 121700Z 1217/1904 28015KT 9999 FEW030
GG EGLLYYYX EDDFYYYX 202200 TAF LFPG 202200Z 2022/1502 28015KT 9999 FEW030
LL EGLLYYYX LFPNYYYX LFPGYYYX 212300 TAF LFPG 212300Z 2123/1312 28015KT 9999 FEW030
SS LFPNYYYX LFPGYYYX 100800 TAF LFPG 100800Z 1008/2421 28015KT 9999 FEW030
FF EDDFYYYX LFPNYYYX LFPOYYYX EDDFYYYX 030000 TAF LFPG 030000Z 0300/2420 28015KT 9999 FEW030
SS EGLLYYYX LFPBYYYX 061100 TAF LFPG 061100Z 0611/2021 28015KT 9999 FEW030
LL LFPNYYYX EDDFYYYX LFPGYYYX LFPOYYYX 121700 TAF LFPG 121700Z 1217/0804 28015KT 9999 FEW030
LL EDDFYYYX LFPNYYYX LFPGYYYX 051100 TAF LFPG 051100Z 0511/1620 28015KT 9999 FEW030
KK LFPBYYYX EDDFYYYX LFPBYYYX LFPOYYYX 180100 TAF LFPG 180100Z 1801/1307 28015KT 9999 FEW030
FF LFPGYYYX LFPNYYYX 151600 TAF LFPG 151600Z 1516/2510 28015KT 9999 FEW030
LL EDDFYYYX LFPBYYYX LFPNYYYX 102100 TAF LFPG 102100Z 1021/2611 28015KT 9999 FEW030
KK LFPGYYYX LFPBYYYX 070300 TAF LFPG 070300Z 0703/1914 28015KT 9999 FEW030
KK LFPGYYYX EDDFYYYX LFPBYYYX LFPNYYYX 271600 TAF LFPG 271600Z 2716/2304 28015KT 9999 FEW030
KK LFPBYYYX EGLLYYYX LFPNYYYX 222300 TAF LFPG 222300Z 2223/0223 28015KT 9999 FEW030
DD EGLLYYYX EDDFYYYX LFPBYYYX EGLLYYYX 071000 TAF LFPG 071000Z 0710/2016 28015KT 9999 FEW030
KK LFPBYYYX LFPBYYYX LFPNYYYX 252200 TAF LFPG 252200Z 2522/2411 28015KT 9999 FEW030
LL LFPBYYYX LFPBYYYX LFPGYYYX 071000 TAF LFPG 071000Z 0710/2701 28015KT 9999 FEW030
FF LFPGYYYX LFPBYYYX 072300 TAF LFPG 072300Z 0723/0301 28015KT 9999 FEW030
FF LFPBYYYX LFPOYYYX LFPBYYYX 111900 TAF LFPG 111900Z 1119/0613 28015KT 9999 FEW030
LL LFPBYYYX EDDFYYYX LFPNYYYX EGLLYYYX 040800 TAF LFPG 040800Z 0408/1608 28015KT 9999 FEW030
GG LFPGYYYX LFPBYYYX 020800 TAF LFPG 020800Z 0208/2822 28015KT 9999 FEW030
DD LFPOYYYX LFPBYYYX 251300 TAF LFPG 251300Z 2513/1807 28015KT 9999 FEW030
LL LFPNYYYX EDDFYYYX 032300 TAF LFPG 032300Z 0323/1007 28015KT 9999 FEW030
KK LFPOYYYX EGLLYYYX LFPNYYYX LFPOYYYX 240200 TAF LFPG 240200Z 2402/1000 28015KT 9999 FEW030
GG LFPNYYYX LFPBYYYX LFPOYYYX 221600 TAF LFPG 221600Z 2216/0810 28015KT 9999 FEW030
DD EDDFYYYX LFPOYYYX LFPBYYYX LFPNYYYX 031800 TAF LFPG 031800Z 0318/1302 28015KT 9999 FEW030
LL LFPNYYYX EGLLYYYX LFPOYYYX 260500 TAF LFPG 260500Z 2605/2806 28015KT 9999 FEW030
DD EDDFYYYX LFPOYYYX 070700 TAF LFPG 070700Z 0707/1107 28015KT 9999 FEW030
SS LFPBYYYX EDDFYYYX 250200 TAF LFPG 250200Z 2502/2101 28015KT 9999 FEW030
DD EGLLYYYX EGLLYYYX LFPGYYYX LFPOYYYX 030800 TAF LFPG 030800Z 0308/2701 28015KT 9999 FEW030
KK LFPGYYYX LFPNYYYX 270200 TAF LFPG 270200Z 2702/0910 28015KT 9999 FEW030
KK LFPOYYYX EGLLYYYX LFPOYYYX 180200 TAF LFPG 180200Z 1802/2114 28015KT 9999 FEW030
SS EDDFYYYX EGLLYYYX 050000 TAF LFPG 050000Z 0500/0915 28015KT 9999 FEW030
DD LFPBYYYX LFPNYYYX EGLLYYYX LFPBYYYX 211500 TAF LFPG 211500Z 2115/2613 28015KT 9999 FEW030
SS LFPBYYYX EDDFYYYX LFPOYYYX LFPGYYYX 211600 TAF LFPG 211600Z 2116/2114 28015KT 9999 FEW030
GG LFPNYYYX EGLLYYYX EDDFYYYX 160100 TAF LFPG 160100Z 1601/2022 28015KT 9999 FEW030
SS LFPOYYYX LFPGYYYX EGLLYYYX 190000 TAF LFPG 190000Z 1900/1216 28015KT 9999 FEW030
FF LFPBYYYX EDDFYYYX EGLLYYYX 150800 TAF LFPG 150800Z 1508/0209 28015KT 9999 FEW030
FF LFPOYYYX LFPGYYYX LFPNYYYX EGLLYYYX 101800 TAF LFPG 101800Z 1018/0423 28015KT 9999 FEW030
FF EGLLYYYX LFPOYYYX LFPGYYYX 022100 TAF LFPG 022100Z 0221/1107 28015KT 9999 FEW030
SS EDDFYYYX LFPBYYYX LFPGYYYX 210500 TAF LFPG 210500Z 2105/1414 28015KT 9999 FEW030
DD LFPOYYYX EGLLYYYX LFPGYYYX 231600 TAF LFPG 231600Z 2316/2512 28015KT 9999 FEW030
FF LFPOYYYX LFPOYYYX EDDFYYYX EGLLYYYX 120800 TAF LFPG 120800Z 1208/0523 28015KT 9999 FEW030
LL EGLLYYYX LFPNYYYX LFPBYYYX EGLLYYYX 180500 TAF LFPG 180500Z 1805/0122 28015KT 9999 FEW030
GG LFPOYYYX EDDFYYYX 030800 TAF LFPG 030800Z 0308/2601 28015KT 9999 FEW030
SS EGLLYYYX EDDFYYYX 211800 TAF LFPG 211800Z 2118/1919 28015KT 9999 FEW030
DD EGLLYYYX LFPNYYYX 060500 TAF LFPG 060500Z 0605/1913 28015KT 9999 FEW030
DD EGLLYYYX EGLLYYYX LFPBYYYX LFPOYYYX 121100 TAF LFPG 121100Z 1211/0307 28015KT 9999 FEW030
FF LFPOYYYX LFPGYYYX LFPOYYYX EGLLYYYX 280100 TAF LFPG 280100Z 2801/1218 28015KT 9999 FEW030
LL EGLLYYYX LFPOYYYX 050100 TAF LFPG 050100Z 0501/2207 28015KT 9999 FEW030
LL EDDFYYYX LFPGYYYX 141500 TAF LFPG 141500Z 1415/2117 28015KT 9999 FEW030
KK LFPBYYYX EGLLYYYX EDDFYYYX 110600 TAF LFPG 110600Z 1106/1609 28015KT 9999 FEW030
LL LFPGYYYX LFPGYYYX LFPNYYYX EGLLYYYX 080200 TAF LFPG 080200Z 0802/0310 28015KT 9999 FEW030
LL LFPOYYYX EGLLYYYX LFPGYYYX 252100 TAF LFPG 252100Z 2521/0209 28015KT 9999 FEW030
DD LFPOYYYX LFPNYYYX EDDFYYYX LFPOYYYX 120800 TAF LFPG 120800Z 1208/0801 28015KT 9999 FEW030
KK EGLLYYYX LFPBYYYX 112200 TAF LFPG 112200Z 1122/0120 28015KT 9999 FEW030
DD LFPGYYYX LFPGYYYX LFPOYYYX EGLLYYYX 100500 TAF LFPG 100500Z 1005/2105 28015KT 9999 FEW030
FF EDDFYYYX LFPOYYYX 280000 TAF LFPG 280000Z 2800/0206 28015KT 9999 FEW030
LL LFPOYYYX EDDFYYYX LFPBYYYX 011000 TAF LFPG 011000Z 0110/0211 28015KT 9999 FEW030
GG EDDFYYYX EDDFYYYX 210500 TAF LFPG 210500Z 2105/2814 28015KT 9999 FEW030
KK LFPBYYYX LFPOYYYX LFPNYYYX 150500 TAF LFPG 150500Z 1505/0117 28015KT 9999 FEW030
SS LFPNYYYX EDDFYYYX 132300 TAF LFPG 132300Z 1323/1902 28015KT 9999 FEW030
SS EGLLYYYX LFPNYYYX 090100 TAF LFPG 090100Z 0901/0805 28015KT 9999 FEW030
KK LFPGYYYX EGLLYYYX EDDFYYYX 210100 TAF LFPG 210100Z 2101/2504 28015KT 9999 FEW030
SS LFPBYYYX EGLLYYYX 052200 TAF LFPG 052200Z 0522/2201 28015KT 9999 FEW030
DD EDDFYYYX LFPBYYYX 241500 TAF LFPG 241500Z 2415/0504 28015KT 9999 FEW030
KK EGLLYYYX EGLLYYYX LFPNYYYX LFPBYYYX 160400 TAF LFPG 160400Z 1604/1702 28015KT 9999 FEW030
GG EGLLYYYX LFPBYYYX 141600 TAF LFPG 141600Z 1416/2816 28015KT 9999 FEW030
DD LFPNYYYX LFPNYYYX 250700 TAF LFPG 250700Z 2507/0817 28015KT 9999 FEW030
KK LFPOYYYX EDDFYYYX 071200 TAF LFPG 071200Z 0712/2722 28015KT 9999 FEW030
LL LFPBYYYX LFPNYYYX LFPBYYYX EGLLYYYX 280000 TAF LFPG 280000Z 2800/2210 28015KT 9999 FEW030
GG EDDFYYYX EGLLYYYX EDDFYYYX 020000 TAF LFPG 020000Z 0200/0319 28015KT 9999 FEW030
GG EDDFYYYX LFPNYYYX LFPBYYYX 141900 TAF LFPG 141900Z 1419/1215 28015KT 9999 FEW030
FF LFPNYYYX EDDFYYYX LFPNYYYX LFPGYYYX 220400 TAF LFPG 220400Z 2204/1413 28015KT 9999 FEW030
SS LFPNYYYX LFPNYYYX LFPBYYYX LFPOYYYX 170100 TAF LFPG 170100Z 1701/1812 28015KT 9999 FEW030
DD EGLLYYYX LFPOYYYX EGLLYYYX LFPGYYYX 091100 TAF LFPG 091100Z 0911/0513 28015KT 9999 FEW030
FF LFPNYYYX LFPBYYYX LFPNYYYX 230200 TAF LFPG 230200Z 2302/0608 28015KT 9999 FEW030
GG EDDFYYYX LFPBYYYX LFPOYYYX 221400 TAF LFPG 221400Z 2214/1720 28015KT 9999 FEW030
FF EGLLYYYX LFPOYYYX LFPBYYYX EDDFYYYX 050900 TAF LFPG 050900Z 0509/2213 28015KT 9999 FEW030
DD LFPOYYYX LFPGYYYX EGLLYYYX LFPNYYYX 240400 TAF LFPG 240400Z 2404/0610 28015KT 9999 FEW030
KK EGLLYYYX EGLLYYYX 100800 TAF LFPG 100800Z 1008/2408 28015KT 9999 FEW030
LL LFPOYYYX EDDFYYYX LFPGYYYX 050400 TAF LFPG 050400Z 0504/2522 28015KT 9999 FEW030
FF LFPOYYYX LFPOYYYX 281100 TAF LFPG 281100Z 2811/0312 28015KT 9999 FEW030
FF LFPNYYYX EGLLYYYX LFPGYYYX 170500 TAF LFPG 170500Z 1705/0823 28015KT 9999 FEW030
SS LFPOYYYX LFPGYYYX EDDFYYYX 042000 TAF LFPG 042000Z 0420/1609 28015KT 9999 FEW030
FF EDDFYYYX LFPGYYYX LFPOYYYX EGLLYYYX 200400 TAF LFPG 200400Z 2004/0703 28015KT 9999 FEW030
DD EDDFYYYX LFPGYYYX LFPOYYYX 130200 TAF LFPG 130200Z 1302/1000 28015KT 9999 FEW030
KK LFPGYYYX LFPOYYYX 130400 TAF LFPG 130400Z 1304/0211 28015KT 9999 FEW030
LL EDDFYYYX EGLLYYYX LFPOYYYX LFPNYYYX 032200 TAF LFPG 032200Z 0322/1203 28015KT 9999 FEW030
SS LFPGYYYX EGLLYYYX 240500 TAF LFPG 240500Z 2405/0321 28015KT 9999 FEW030
KK EDDFYYYX LFPNYYYX 061000 TAF LFPG 061000Z 0610/0416 28015KT 9999 FEW030
FF EGLLYYYX LFPGYYYX 220800 TAF LFPG 220800Z 2208/2700 28015KT 9999 FEW030
SS LFPGYYYX LFPOYYYX 141500 TAF LFPG 141500Z 1415/2611 28015KT 9999 FEW030
SS LFPBYYYX LFPGYYYX 120900 TAF LFPG 120900Z 1209/1813 28015KT 9999 FEW030
LL EDDFYYYX LFPOYYYX 270200 TAF LFPG 270200Z 2702/1620 28015KT 9999 FEW030
SS LFPOYYYX LFPNYYYX EDDFYYYX LFPBYYYX 280900 TAF LFPG 280900Z 2809/0708 28015KT 9999 FEW030
GG LFPNYYYX LFPNYYYX 210000 TAF LFPG 210000Z 2100/2318 28015KT 9999 FEW030
FF LFPGYYYX LFPGYYYX EDDFYYYX 181600 TAF LFPG 181600Z 1816/2622 28015KT 9999 FEW030
GG EGLLYYYX LFPNYYYX EDDFYYYX LFPOYYYX 191000 TAF LFPG 191000Z 1910/0107 28015KT 9999 FEW030
DD LFPBYYYX LFPNYYYX LFPOYYYX EDDFYYYX 101800 TAF LFPG 101800Z 1018/2701 28015KT 9999 FEW030
DD LFPNYYYX EDDFYYYX 250700 TAF LFPG 250700Z 2507/0200 28015KT 9999 FEW030
KK LFPOYYYX LFPOYYYX LFPBYYYX LFPNYYYX 190100 TAF LFPG 190100Z 1901/2017 28015KT 9999 FEW030
KK LFPNYYYX LFPNYYYX EDDFYYYX LFPGYYYX 190600 TAF LFPG 190600Z 1906/2200 28015KT 9999 FEW030
DD EDDFYYYX LFPBYYYX LFPGYYYX 231800 TAF LFPG 231800Z 2318/1905 28015KT 9999 FEW030
GG LFPOYYYX LFPBYYYX 050900 TAF LFPG 050900Z 0509/1818 28015KT 9999 FEW030
GG LFPOYYYX LFPGYYYX 180200 TAF LFPG 180200Z 1802/2301 28015KT 9999 FEW030
KK EDDFYYYX EDDFYYYX 092100 TAF LFPG 092100Z 0921/1221 28015KT 9999 FEW030
KK LFPOYYYX EGLLYYYX EDDFYYYX 151400 TAF LFPG 151400Z 1514/0606 28015KT 9999 FEW030
KK LFPGYYYX LFPOYYYX LFPNYYYX 151500 TAF LFPG 151500Z 1515/1121 28015KT 9999 FEW030
DD EDDFYYYX LFPBYYYX EGLLYYYX EDDFYYYX 101800 TAF LFPG 101800Z 1018/1704 28015KT 9999 FEW030
GG LFPOYYYX EDDFYYYX EGLLYYYX LFPBYYYX 100400 TAF LFPG 100400Z 1004/1107 28015KT 9999 FEW030
DD LFPBYYYX LFPOYYYX EGLLYYYX LFPBYYYX 222000 TAF LFPG 222000Z 2220/2622 28015KT 9999 FEW030
LL LFPNYYYX LFPOYYYX LFPBYYYX 071700 TAF LFPG 071700Z 0717/0407 28015KT 9999 FEW030
SS EGLLYYYX LFPGYYYX 100200 TAF LFPG 100200Z 1002/2706 28015KT 9999 FEW030
DD EDDFYYYX LFPOYYYX 182200 TAF LFPG 182200Z 1822/0905 28015KT 9999 FEW030
KK LFPOYYYX LFPBYYYX EGLLYYYX 190800 TAF LFPG 190800Z 1908/2501 28015KT 9999 FEW030
DD LFPOYYYX EDDFYYYX LFPNYYYX LFPOYYYX 130600 TAF LFPG 130600Z 1306/2811 28015KT 9999 FEW030
GG LFPNYYYX LFPBYYYX 082100 TAF LFPG 082100Z 0821/0902 28015KT 9999 FEW030
DD LFPNYYYX LFPOYYYX 090700 TAF LFPG 090700Z 0907/2017 28015KT 9999 FEW030
LL LFPOYYYX LFPOYYYX 091200 TAF LFPG 091200Z 0912/1413 28015KT 9999 FEW030
LL LFPGYYYX LFPGYYYX 221600 TAF LFPG 221600Z 2216/2417 28015KT 9999 FEW030
LL LFPGYYYX LFPBYYYX LFPNYYYX 222300 TAF LFPG 222300Z 2223/0615 28015KT 9999 FEW030
GG EDDFYYYX EDDFYYYX LFPBYYYX LFPGYYYX 012000 TAF LFPG 012000Z 0120/1122 28015KT 9999 FEW030
FF EDDFYYYX LFPBYYYX 101300 TAF LFPG 101300Z 1013/0421 28015KT 9999 FEW030
SS LFPGYYYX LFPNYYYX 050700 TAF LFPG 050700Z 0507/1010 28015KT 9999 FEW030
FF LFPGYYYX LFPNYYYX LFPGYYYX 261600 TAF LFPG 261600Z 2616/1505 28015KT 9999 FEW030
FF LFPBYYYX LFPGYYYX 080700 TAF LFPG 080700Z 0807/0607 28015KT 9999 FEW030
SS LFPOYYYX EGLLYYYX LFPNYYYX EDDFYYYX 221100 TAF LFPG 221100Z 2211/2003 28015KT 9999 FEW030
DD LFPGYYYX LFPBYYYX 270300 TAF LFPG 270300Z 2703/1011 28015KT 9999 FEW030
GG LFPOYYYX LFPNYYYX 111600 TAF LFPG 111600Z 1116/0910 28015KT 9999 FEW030
DD LFPBYYYX EGLLYYYX 231900 TAF LFPG 231900Z 2319/0109 28015KT 9999 FEW030
DD LFPNYYYX LFPGYYYX LFPOYYYX LFPNYYYX 270100 TAF LFPG 270100Z 2701/2503 28015KT 9999 FEW030
GG LFPNYYYX LFPBYYYX EDDFYYYX 030100 TAF LFPG 030100Z 0301/2520 28015KT 9999 FEW030
GG LFPGYYYX LFPNYYYX EGLLYYYX 231600 TAF LFPG 231600Z 2316/1606 28015KT 9999 FEW030
FF LFPBYYYX LFPBYYYX LFPNYYYX 122200 TAF LFPG 122200Z 1222/0521 28015KT 9999 FEW030
SS EDDFYYYX EGLLYYYX LFPOYYYX LFPGYYYX 261800 TAF LFPG 261800Z 2618/0421 28015KT 9999 FEW030
SS LFPOYYYX EDDFYYYX 131100 TAF LFPG 131100Z 1311/1423 28015KT 9999 FEW030
FF LFPOYYYX EGLLYYYX LFPBYYYX EDDFYYYX 140200 TAF LFPG 140200Z 1402/2000 28015KT 9999 FEW030
FF EDDFYYYX EDDFYYYX 261400 TAF LFPG 261400Z 2614/0409 28015KT 9999 FEW030
KK LFPGYYYX LFPNYYYX EDDFYYYX 161800 TAF LFPG 161800Z 1618/1214 28015KT 9999 FEW030
DD LFPGYYYX LFPGYYYX LFPNYYYX LFPOYYYX 012300 TAF LFPG 012300Z 0123/1712 28015KT 9999 FEW030
LL LFPGYYYX LFPNYYYX LFPOYYYX EDDFYYYX 011500 TAF LFPG 011500Z 0115/2505 28015KT 9999 FEW030
FF LFPOYYYX LFPBYYYX 260400 TAF LFPG 260400Z 2604/0216 28015KT 9999 FEW030
SS LFPGYYYX EGLLYYYX EDDFYYYX 141300 TAF LFPG 141300Z 1413/2723 28015KT 9999 FEW030
FF EGLLYYYX LFPGYYYX EGLLYYYX 220800 TAF LFPG 220800Z 2208/2109 28015KT 9999 FEW030
KK LFPNYYYX LFPNYYYX LFPBYYYX LFPOYYYX 171900 TAF LFPG 171900Z 1719/0207 28015KT 9999 FEW030
FF LFPGYYYX LFPNYYYX 020500 TAF LFPG 020500Z 0205/0914 28015KT 9999 FEW030
GG LFPGYYYX LFPNYYYX EGLLYYYX 221900 TAF LFPG 221900Z 2219/0616 28015KT 9999 FEW030
KK LFPNYYYX LFPBYYYX 061200 TAF LFPG 061200Z 0612/0909 28015KT 9999 FEW030
DD LFPGYYYX LFPBYYYX LFPOYYYX 071900 TAF LFPG 071900Z 0719/1709 28015KT 9999 FEW030
SS LFPGYYYX LFPGYYYX 151300 TAF LFPG 151300Z 1513/0809 28015KT 9999 FEW030
DD LFPNYYYX LFPGYYYX LFPBYYYX LFPNYYYX 212300 TAF LFPG 212300Z 2123/2101 28015KT 9999 FEW030
SS LFPNYYYX LFPGYYYX 111700 TAF LFPG 111700Z 1117/1705 28015KT 9999 FEW030
FF EDDFYYYX LFPBYYYX EDDFYYYX 241800 TAF LFPG 241800Z 2418/0500 28015KT 9999 FEW030
DD LFPBYYYX LFPOYYYX EDDFYYYX 151200 TAF LFPG 151200Z 1512/1408 28015KT 9999 FEW030
KK EGLLYYYX LFPGYYYX LFPBYYYX 240100 TAF LFPG 240100Z 2401/2502 28015KT 9999 FEW030
FF LFPGYYYX EGLLYYYX LFPGYYYX LFPNYYYX 231300 TAF LFPG 231300Z 2313/1408 28015KT 9999 FEW030
FF EGLLYYYX LFPOYYYX EDDFYYYX 052300 TAF LFPG 052300Z 0523/0615 28015KT 9999 FEW030
LL LFPGYYYX LFPBYYYX EGLLYYYX LFPOYYYX 092100 TAF LFPG 092100Z 0921/1104 28015KT 9999 FEW030
KK EDDFYYYX LFPOYYYX LFPBYYYX 180300 TAF LFPG 180300Z 1803/2806 28015KT 9999 FEW030
KK EGLLYYYX LFPNYYYX 252100 TAF LFPG 252100Z 2521/0113 28015KT 9999 FEW030
FF LFPNYYYX LFPNYYYX EGLLYYYX LFPOYYYX 110000 TAF LFPG 110000Z 1100/0305 28015KT 9999 FEW030
FF EDDFYYYX EGLLYYYX EDDFYYYX LFPBYYYX 041200 TAF LFPG 041200Z 0412/2314 28015KT 9999 FEW030
GG LFPOYYYX LFPNYYYX LFPOYYYX 141700 TAF LFPG 141700Z 1417/1416 28015KT 9999 FEW030
FF LFPNYYYX LFPOYYYX LFPGYYYX 230000 TAF LFPG 230000Z 2300/0606 28015KT 9999 FEW030
KK EDDFYYYX LFPOYYYX LFPNYYYX LFPBYYYX 241600 TAF LFPG 241600Z 2416/0221 28015KT 9999 FEW030
FF LFPBYYYX EDDFYYYX 071800 TAF LFPG 071800Z 0718/1014 28015KT 9999 FEW030
SS EGLLYYYX LFPBYYYX LFPOYYYX 200400 TAF LFPG 200400Z 2004/1601 28015KT 9999 FEW030
SS LFPNYYYX LFPBYYYX 171700 TAF LFPG 171700Z 1717/0610 28015KT 9999 FEW030
LL LFPGYYYX LFPGYYYX 251800 TAF LFPG 251800Z 2518/1012 28015KT 9999 FEW030
SS LFPOYYYX LFPNYYYX EGLLYYYX 080400 TAF LFPG 080400Z 0804/2322 28015KT 9999 FEW030
FF LFPNYYYX LFPBYYYX EDDFYYYX 082300 TAF LFPG 082300Z 0823/0409 28015KT 9999 FEW030
DD LFPOYYYX LFPBYYYX 270600 TAF LFPG 270600Z 2706/1115 28015KT 9999 FEW030
DD LFPNYYYX EDDFYYYX LFPBYYYX LFPNYYYX 070900 TAF LFPG 070900Z 0709/1818 28015KT 9999 FEW030
KK LFPGYYYX LFPOYYYX 130900 TAF LFPG 130900Z 1309/0810 28015KT 9999 FEW030
KK LFPOYYYX LFPOYYYX 150400 TAF LFPG 150400Z 1504/2308 28015KT 9999 FEW030
GG LFPNYYYX LFPNYYYX 170100 TAF LFPG 170100Z 1701/0816 28015KT 9999 FEW030
DD LFPBYYYX LFPBYYYX 140100 TAF LFPG 140100Z 1401/0705 28015KT 9999 FEW030
GG EDDFYYYX EGLLYYYX LFPGYYYX LFPNYYYX 220800 TAF LFPG 220800Z 2208/1207 28015KT 9999 FEW030
KK LFPOYYYX EGLLYYYX LFPBYYYX 110300 TAF LFPG 110300Z 1103/2423 28015KT 9999 FEW030
SS LFPGYYYX LFPBYYYX LFPOYYYX 141500 TAF LFPG 141500Z 1415/2020 28015KT 9999 FEW030
FF LFPNYYYX LFPOYYYX LFPGYYYX 071000 TAF LFPG 071000Z 0710/2010 28015KT 9999 FEW030
LL EDDFYYYX LFPBYYYX LFPGYYYX EDDFYYYX 251700 TAF LFPG 251700Z 2517/0413 28015KT 9999 FEW030
DD EGLLYYYX EDDFYYYX LFPBYYYX 081200 TAF LFPG 081200Z 0812/1804 28015KT 9999 FEW030
GG LFPOYYYX EDDFYYYX 030400 TAF LFPG 030400Z 0304/1003 28015KT 9999 FEW030
LL EDDFYYYX LFPOYYYX EGLLYYYX 242000 TAF LFPG 242000Z 2420/0519 28015KT 9999 FEW030
KK LFPGYYYX LFPGYYYX 260300 TAF LFPG 260300Z 2603/2200 28015KT 9999 FEW030
DD LFPGYYYX LFPNYYYX 161100 TAF LFPG 161100Z 1611/1201 28015KT 9999 FEW030
GG LFPBYYYX EDDFYYYX EGLLYYYX 051300 TAF LFPG 051300Z 0513/1715 28015KT 9999 FEW030
DD EGLLYYYX LFPNYYYX EDDFYYYX LFPOYYYX 170300 TAF LFPG 170300Z 1703/0820 28015KT 9999 FEW030
DD LFPBYYYX LFPOYYYX LFPGYYYX 252000 TAF LFPG 252000Z 2520/1607 28015KT 9999 FEW030
SS LFPOYYYX EGLLYYYX 240900 TAF LFPG 240900Z 2409/2303 28015KT 9999 FEW030
GG LFPOYYYX EGLLYYYX EDDFYYYX 190400 TAF LFPG 190400Z 1904/1921 28015KT 9999 FEW030
GG LFPGYYYX LFPOYYYX LFPGYYYX 081600 TAF LFPG 081600Z 0816/2022 28015KT 9999 FEW030
LL LFPGYYYX LFPNYYYX EDDFYYYX 141400 TAF LFPG 141400Z 1414/1315 28015KT 9999 FEW030
DD EDDFYYYX LFPNYYYX EGLLYYYX LFPGYYYX 021800 TAF LFPG 021800Z 0218/0319 28015KT 9999 FEW030
GG EGLLYYYX LFPNYYYX LFPGYYYX 201700 TAF LFPG 201700Z 2017/1421 28015KT 9999 FEW030
KK EDDFYYYX LFPBYYYX 262200 TAF LFPG 262200Z 2622/1912 28015KT 9999 FEW030
SS LFPOYYYX LFPBYYYX LFPOYYYX 231600 TAF LFPG 231600Z 2316/0104 28015KT 9999 FEW030
LL LFPOYYYX LFPNYYYX 240500 TAF LFPG 240500Z 2405/1211 28015KT 9999 FEW030
KK EGLLYYYX LFPOYYYX LFPNYYYX LFPGYYYX 110100 TAF LFPG 110100Z 1101/1314 28015KT 9999 FEW030
LL EDDFYYYX EGLLYYYX LFPOYYYX EDDFYYYX 210800 TAF LFPG 210800Z 2108/0309 28015KT 9999 FEW030
DD LFPGYYYX LFPGYYYX LFPNYYYX EDDFYYYX 152300 TAF LFPG 152300Z 1523/1404 28015KT 9999 FEW030
DD EGLLYYYX LFPOYYYX 210800 TAF LFPG 210800Z 2108/1121 28015KT 9999 FEW030
FF LFPNYYYX LFPOYYYX EGLLYYYX LFPGYYYX 131400 TAF LFPG 131400Z 1314/1221 28015KT 9999 FEW030
KK EDDFYYYX LFPGYYYX LFPBYYYX 210800 TAF LFPG 210800Z 2108/2005 28015KT 9999 FEW030
DD LFPOYYYX EDDFYYYX LFPGYYYX 112200 TAF LFPG 112200Z 1122/0719 28015KT 9999 FEW030
LL LFPNYYYX EDDFYYYX EGLLYYYX LFPOYYYX 090300 TAF LFPG 090300Z 0903/0203 28015KT 9999 FEW030
SS EGLLYYYX LFPNYYYX 091400 TAF LFPG 091400Z 0914/1118 28015KT 9999 FEW030
SS EDDFYYYX EGLLYYYX 082000 TAF LFPG 082000Z 0820/0823 28015KT 9999 FEW030
SS LFPOYYYX LFPBYYYX LFPNYYYX LFPOYYYX 110700 TAF LFPG 110700Z 1107/2706 28015KT 9999 FEW030
KK LFPNYYYX EGLLYYYX LFPNYYYX 180800 TAF LFPG 180800Z 1808/2618 28015KT 9999 FEW030
LL LFPOYYYX LFPBYYYX EDDFYYYX 240200 TAF LFPG 240200Z 2402/2317 28015KT 9999 FEW030
LL EGLLYYYX LFPBYYYX 040700 TAF LFPG 040700Z 0407/1410 28015KT 9999 FEW030
FF LFPGYYYX EGLLYYYX LFPGYYYX LFPBYYYX 152300 TAF LFPG 152300Z 1523/0720 28015KT 9999 FEW030
DD EDDFYYYX EGLLYYYX LFPBYYYX 251000 TAF LFPG 251000Z 2510/2423 28015KT 9999 FEW030
DD EGLLYYYX EDDFYYYX LFPOYYYX 252000 TAF LFPG 252000Z 2520/0717 28015KT 9999 FEW030
GG EDDFYYYX LFPOYYYX 190600 TAF LFPG 190600Z 1906/2203 28015KT 9999 FEW030
DD LFPOYYYX LFPGYYYX LFPOYYYX 090000 TAF LFPG 090000Z 0900/0218 28015KT 9999 FEW030
DD LFPGYYYX LFPOYYYX 101700 TAF LFPG 101700Z 1017/0919 28015KT 9999 FEW030
KK EDDFYYYX LFPGYYYX EDDFYYYX 131300 TAF LFPG 131300Z 1313/0910 28015KT 9999 FEW030
GG LFPGYYYX LFPNYYYX 231900 TAF LFPG 231900Z 2319/0520 28015KT 9999 FEW030
SS EGLLYYYX LFPNYYYX LFPOYYYX LFPBYYYX 130500 TAF LFPG 130500Z 1305/1519 28015KT 9999 FEW030
GG LFPOYYYX LFPGYYYX 090900 TAF LFPG 090900Z 0909/0315 28015KT 9999 FEW030
DD LFPGYYYX EGLLYYYX LFPNYYYX 210800 TAF LFPG 210800Z 2108/0414 28015KT 9999 FEW030
KK LFPNYYYX EDDFYYYX LFPOYYYX LFPGYYYX 112100 TAF LFPG 112100Z 1121/2317 28015KT 9999 FEW030
DD LFPOYYYX LFPOYYYX EDDFYYYX LFPGYYYX 100400 TAF LFPG 100400Z 1004/0418 28015KT 9999 FEW030
DD EDDFYYYX LFPOYYYX 041900 TAF LFPG 041900Z 0419/2119 28015KT 9999 FEW030
LL LFPGYYYX EDDFYYYX 191100 TAF LFPG 191100Z 1911/2605 28015KT 9999 FEW030
FF EDDFYYYX EGLLYYYX LFPNYYYX 130600 TAF LFPG 130600Z 1306/0923 28015KT 9999 FEW030
FF LFPBYYYX EDDFYYYX LFPBYYYX EGLLYYYX 030200 TAF LFPG 030200Z 0302/0114 28015KT 9999 FEW030
DD LFPBYYYX LFPOYYYX LFPGYYYX 071400 TAF LFPG 071400Z 0714/1000 28015KT 9999 FEW030
DD LFPNYYYX LFPOYYYX LFPGYYYX EGLLYYYX 130200 TAF LFPG 130200Z 1302/1921 28015KT 9999 FEW030
FF LFPNYYYX EGLLYYYX LFPOYYYX EDDFYYYX 111200 TAF LFPG 111200Z 1112/2103 28015KT 9999 FEW030
KK EGLLYYYX LFPOYYYX 052200 TAF LFPG 052200Z 0522/1116 28015KT 9999 FEW030
KK EGLLYYYX LFPOYYYX 200900 TAF LFPG 200900Z 2009/0221 28015KT 9999 FEW030
SS LFPGYYYX EGLLYYYX LFPOYYYX 251700 TAF LFPG 251700Z 2517/2005 28015KT 9999 FEW030
DD EGLLYYYX EDDFYYYX 070100 TAF LFPG 070100Z 0701/1903 28015KT 9999 FEW030
FF LFPNYYYX EGLLYYYX 171600 TAF LFPG 171600Z 1716/1412 28015KT 9999 FEW030
DD LFPBYYYX LFPGYYYX LFPBYYYX LFPNYYYX 220700 TAF LFPG 220700Z 2207/0713 28015KT 9999 FEW030
SS LFPGYYYX LFPNYYYX 261700 TAF LFPG 261700Z 2617/2011 28015KT 9999 FEW030
GG LFPBYYYX LFPOYYYX 161300 TAF LFPG 161300Z 1613/1704 28015KT 9999 FEW030
LL EGLLYYYX LFPOYYYX EDDFYYYX 230400 TAF LFPG 230400Z 2304/2810 28015KT 9999 FEW030
DD LFPGYYYX LFPGYYYX LFPOYYYX EGLLYYYX 201500 TAF LFPG 201500Z 2015/1216 28015KT 9999 FEW030
DD EDDFYYYX LFPGYYYX LFPOYYYX 020800 TAF LFPG 020800Z 0208/2803 28015KT 9999 FEW030
LL LFPOYYYX EGLLYYYX LFPGYYYX EDDFYYYX 101500 TAF LFPG 101500Z 1015/2011 28015KT 9999 FEW030
FF LFPNYYYX EGLLYYYX LFPNYYYX 181300 TAF LFPG 181300Z 1813/1309 28015KT 9999 FEW030
FF EDDFYYYX LFPGYYYX 032300 TAF LFPG 032300Z 0323/2501 28015KT 9999 FEW030
GG LFPBYYYX LFPOYYYX LFPGYYYX LFPNYYYX 050900 TAF LFPG 050900Z 0509/1801 28015KT 9999 FEW030
SS LFPOYYYX EGLLYYYX EDDFYYYX 232300 TAF LFPG 232300Z 2323/2614 28015KT 9999 FEW030
GG LFPOYYYX EGLLYYYX 210300 TAF LFPG 210300Z 2103/2420 28015KT 9999 FEW030
LL LFPNYYYX EDDFYYYX LFPOYYYX EGLLYYYX 180100 TAF LFPG 180100Z 1801/2301 28015KT 9999 FEW030
FF LFPOYYYX EDDFYYYX LFPBYYYX 131800 TAF LFPG 131800Z 1318/0600 28015KT 9999 FEW030
SS LFPGYYYX LFPNYYYX 240600 TAF LFPG 240600Z 2406/1614 28015KT 9999 FEW030
KK LFPNYYYX LFPOYYYX LFPBYYYX EGLLYYYX 021400 TAF LFPG 021400Z 0214/2309 28015KT 9999 FEW030
GG LFPNYYYX LFPNYYYX 180200 TAF LFPG 180200Z 1802/2018 28015KT 9999 FEW030
GG LFPNYYYX LFPBYYYX LFPNYYYX 261700 TAF LFPG 261700Z 2617/2518 28015KT 9999 FEW030
FF LFPOYYYX EDDFYYYX 091200 TAF LFPG 091200Z 0912/1120 28015KT 9999 FEW030
LL LFPOYYYX LFPBYYYX 080500 TAF LFPG 080500Z 0805/2521 28015KT 9999 FEW030
GG LFPGYYYX LFPNYYYX LFPOYYYX 111600 TAF LFPG 111600Z 1116/0314 28015KT 9999 FEW030
FF EDDFYYYX EDDFYYYX LFPOYYYX LFPGYYYX 102000 TAF LFPG 102000Z 1020/0617 28015KT 9999 FEW030
DD LFPNYYYX LFPGYYYX EGLLYYYX 111500 TAF LFPG 111500Z 1115/2005 28015KT 9999 FEW030
DD EDDFYYYX LFPBYYYX EGLLYYYX LFPOYYYX 242100 TAF LFPG 242100Z 2421/2109 28015KT 9999 FEW030
FF LFPNYYYX LFPBYYYX LFPNYYYX EGLLYYYX 081100 TAF LFPG 081100Z 0811/2519 28015KT 9999 FEW030
LL LFPGYYYX LFPBYYYX LFPOYYYX LFPGYYYX 091900 TAF LFPG 091900Z 0919/2421 28015KT 9999 FEW030
GG EDDFYYYX EDDFYYYX LFPNYYYX LFPOYYYX 100100 TAF LFPG 100100Z 1001/1313 28015KT 9999 FEW030
SS LFPNYYYX LFPGYYYX 181100 TAF LFPG 181100Z 1811/1413 28015KT 9999 FEW030
SS LFPOYYYX LFPNYYYX 141800 TAF LFPG 141800Z 1418/1014 28015KT 9999 FEW030
KK EGLLYYYX LFPOYYYX LFPNYYYX 241300 TAF LFPG 241300Z 2413/2207 28015KT 9999 FEW030
GG EDDFYYYX LFPGYYYX LFPBYYYX 080300 TAF LFPG 080300Z 0803/2714 28015KT 9999 FEW030
SS LFPOYYYX EGLLYYYX LFPGYYYX 210900 TAF LFPG 210900Z 2109/1716 28015KT 9999 FEW030
GG LFPNYYYX EGLLYYYX LFPNYYYX 170500 TAF LFPG 170500Z 1705/0712 28015KT 9999 FEW030
KK EDDFYYYX EGLLYYYX EDDFYYYX LFPBYYYX 010000 TAF LFPG 010000Z 0100/0608 28015KT 9999 FEW030
FF EDDFYYYX LFPGYYYX 131000 TAF LFPG 131000Z 1310/2313 28015KT 9999 FEW030
DD LFPBYYYX LFPGYYYX 031900 TAF LFPG 031900Z 0319/1819 28015KT 9999 FEW030
SS LFPBYYYX LFPBYYYX LFPNYYYX EGLLYYYX 051900 TAF LFPG 051900Z 0519/0915 28015KT 9999 FEW030
GG LFPNYYYX LFPBYYYX LFPGYYYX 200100 TAF LFPG 200100Z 2001/0202 28015KT 9999 FEW030
FF LFPNYYYX LFPGYYYX 071100 TAF LFPG 071100Z 0711/1407 28015KT 9999 FEW030
LL EGLLYYYX EDDFYYYX LFPOYYYX 050600 TAF LFPG 050600Z 0506/1808 28015KT 9999 FEW030
LL LFPOYYYX LFPGYYYX LFPNYYYX LFPBYYYX 220700 TAF LFPG 220700Z 2207/0309 28015KT 9999 FEW030
LL LFPNYYYX EGLLYYYX EDDFYYYX LFPGYYYX 050800 TAF LFPG 050800Z 0508/2013 28015KT 9999 FEW030
KK EGLLYYYX EDDFYYYX LFPOYYYX 080300 TAF LFPG 080300Z 0803/1112 28015KT 9999 FEW030
LL EDDFYYYX LFPBYYYX EDDFYYYX 222000 TAF LFPG 222000Z 2220/2604 28015KT 9999 FEW030
LL LFPOYYYX LFPNYYYX LFPBYYYX EGLLYYYX 152000 TAF LFPG 152000Z 1520/2107 28015KT 9999 FEW030
LL LFPBYYYX LFPNYYYX LFPGYYYX LFPOYYYX 212300 TAF LFPG 212300Z 2123/2020 28015KT 9999 FEW030
SS LFPGYYYX LFPNYYYX 201300 TAF LFPG 201300Z 2013/1001 28015KT 9999 FEW030
GG EGLLYYYX EGLLYYYX LFPNYYYX 051100 TAF LFPG 051100Z 0511/2814 28015KT 9999 FEW030
FF LFPNYYYX LFPGYYYX LFPBYYYX EDDFYYYX 020300 TAF LFPG 020300Z 0203/0817 28015KT 9999 FEW030
SS EDDFYYYX EDDFYYYX LFPBYYYX 210300 TAF LFPG 210300Z 2103/1319 28015KT 9999 FEW030
LL EDDFYYYX LFPNYYYX LFPOYYYX 261100 TAF LFPG 261100Z 2611/0413 28015KT 9999 FEW030
FF LFPNYYYX LFPGYYYX 280500 TAF LFPG 280500Z 2805/0504 28015KT 9999 FEW030
SS LFPBYYYX EGLLYYYX 112200 TAF LFPG 112200Z 1122/1611 28015KT 9999 FEW030
DD EDDFYYYX LFPGYYYX LFPBYYYX 191200 TAF LFPG 191200Z 1912/0302 28015KT 9999 FEW030
FF EDDFYYYX EDDFYYYX LFPNYYYX LFPGYYYX 232000 TAF LFPG 232000Z 2320/2311 28015KT 9999 FEW030
KK LFPGYYYX LFPBYYYX EGLLYYYX LFPGYYYX 231100 TAF LFPG 231100Z 2311/0804 28015KT 9999 FEW030
FF EGLLYYYX LFPGYYYX LFPBYYYX EGLLYYYX 251200 TAF LFPG 251200Z 2512/0202 28015KT 9999 FEW030
KK LFPBYYYX LFPNYYYX EDDFYYYX EGLLYYYX 160300 TAF LFPG 160300Z 1603/1318 28015KT 9999 FEW030
LL EGLLYYYX LFPNYYYX 160400 TAF LFPG 160400Z 1604/1605 28015KT 9999 FEW030
SS LFPOYYYX EDDFYYYX LFPGYYYX LFPOYYYX 171100 TAF LFPG 171100Z 1711/0500 28015KT 9999 FEW030
LL LFPNYYYX EGLLYYYX LFPNYYYX LFPBYYYX 050700 TAF LFPG 050700Z 0507/0211 28015KT 9999 FEW030
KK LFPBYYYX LFPBYYYX LFPNYYYX 140700 TAF LFPG 140700Z 1407/1122 28015KT 9999 FEW030
GG LFPNYYYX LFPGYYYX EGLLYYYX LFPOYYYX 150900 TAF LFPG 150900Z 1509/1806 28015KT 9999 FEW030
KK LFPOYYYX LFPBYYYX LFPOYYYX 271000 TAF LFPG 271000Z 2710/0113 28015KT 9999 FEW030
FF LFPOYYYX LFPOYYYX EGLLYYYX LFPNYYYX 061900 TAF LFPG 061900Z 0619/2609 28015KT 9999 FEW030
GG EGLLYYYX LFPBYYYX 120100 TAF LFPG 120100Z 1201/2117 28015KT 9999 FEW030
FF EGLLYYYX LFPGYYYX LFPBYYYX LFPOYYYX 250900 TAF LFPG 250900Z 2509/2603 28015KT 9999 FEW030
FF EGLLYYYX LFPBYYYX LFPGYYYX EDDFYYYX 072200 TAF LFPG 072200Z 0722/1223 28015KT 9999 FEW030
FF EGLLYYYX EDDFYYYX LFPOYYYX 241600 TAF LFPG 241600Z 2416/0721 28015KT 9999 FEW030
KK EGLLYYYX LFPGYYYX 170600 TAF LFPG 170600Z 1706/2707 28015KT 9999 FEW030
KK EDDFYYYX LFPGYYYX LFPOYYYX 251900 TAF LFPG 251900Z 2519/1619 28015KT 9999 FEW030
GG EDDFYYYX LFPOYYYX LFPBYYYX LFPNYYYX 181200 TAF LFPG 181200Z 1812/1902 28015KT 9999 FEW030
DD LFPNYYYX LFPOYYYX LFPNYYYX 152100 TAF LFPG 152100Z 1521/0919 28015KT 9999 FEW030
DD LFPGYYYX EDDFYYYX LFPGYYYX 142100 TAF LFPG 142100Z 1421/1001 28015KT 9999 FEW030
DD LFPGYYYX EGLLYYYX 210700 TAF LFPG 210700Z 2107/0911 28015KT 9999 FEW030
GG LFPGYYYX EDDFYYYX LFPOYYYX EGLLYYYX 161900 TAF LFPG 161900Z 1619/1116 28015KT 9999 FEW030
GG LFPBYYYX LFPBYYYX LFPOYYYX 231200 TAF LFPG 231200Z 2312/0518 28015KT 9999 FEW030
LL LFPNYYYX LFPNYYYX LFPBYYYX LFPGYYYX 050500 TAF LFPG 050500Z 0505/0511 28015KT 9999 FEW030
SS LFPOYYYX LFPOYYYX EGLLYYYX 141700 TAF LFPG 141700Z 1417/2213 28015KT 9999 FEW030
GG LFPNYYYX EDDFYYYX EGLLYYYX LFPGYYYX 240400 TAF LFPG 240400Z 2404/2812 28015KT 9999 FEW030
KK LFPOYYYX EDDFYYYX LFPBYYYX 100800 TAF LFPG 100800Z 1008/0514 28015KT 9999 FEW030
LL LFPBYYYX EDDFYYYX LFPBYYYX LFPNYYYX 201200 TAF LFPG 201200Z 2012/0323 28015KT 9999 FEW030
SS EDDFYYYX LFPNYYYX LFPOYYYX 222200 TAF LFPG 222200Z 2222/1114 28015KT 9999 FEW030
DD EGLLYYYX LFPGYYYX LFPBYYYX 040600 TAF LFPG 040600Z 0406/0422 28015KT 9999 FEW030
FF LFPNYYYX LFPNYYYX 091100 TAF LFPG 091100Z 0911/0116 28015KT 9999 FEW030
GG LFPOYYYX EDDFYYYX 071500 TAF LFPG 071500Z 0715/1802 28015KT 9999 FEW030
LL LFPBYYYX LFPGYYYX LFPOYYYX 100400 TAF LFPG 100400Z 1004/0113 28015KT 9999 FEW030
LL EGLLYYYX LFPGYYYX EGLLYYYX 230700 TAF LFPG 230700Z 2307/2411 28015KT 9999 FEW030
KK LFPBYYYX EGLLYYYX 210200 TAF LFPG 210200Z 2102/2006 28015KT 9999 FEW030
SS LFPNYYYX LFPBYYYX EDDFYYYX 160600 TAF LFPG 160600Z 1606/1003 28015KT 9999 FEW030
GG LFPGYYYX LFPNYYYX 011400 TAF LFPG 011400Z 0114/2017 28015KT 9999 FEW030
KK EGLLYYYX LFPNYYYX EGLLYYYX 111500 TAF LFPG 111500Z 1115/0518 28015KT 9999 FEW030
KK LFPNYYYX EDDFYYYX EGLLYYYX LFPBYYYX 201400 TAF LFPG 201400Z 2014/0502 28015KT 9999 FEW030
KK LFPOYYYX LFPOYYYX LFPGYYYX 230800 TAF LFPG 230800Z 2308/2223 28015KT 9999 FEW030
LL EGLLYYYX LFPOYYYX 190400 TAF LFPG 190400Z 1904/0313 28015KT 9999 FEW030
GG EDDFYYYX LFPNYYYX 061500 TAF LFPG 061500Z 0615/0707 28015KT 9999 FEW030
LL EDDFYYYX LFPGYYYX 121300 TAF LFPG 121300Z 1213/1208 28015KT 9999 FEW030
DD EDDFYYYX EGLLYYYX LFPBYYYX LFPOYYYX 071600 TAF LFPG 071600Z 0716/0900 28015KT 9999 FEW030
GG LFPNYYYX EDDFYYYX EGLLYYYX 071500 TAF LFPG 071500Z 0715/2713 28015KT 9999 FEW030
SS LFPOYYYX LFPOYYYX LFPNYYYX 031400 TAF LFPG 031400Z 0314/2508 28015KT 9999 FEW030
LL EGLLYYYX LFPNYYYX 162000 TAF LFPG 162000Z 1620/0313 28015KT 9999 FEW030
LL LFPBYYYX LFPOYYYX LFPBYYYX LFPGYYYX 280100 TAF LFPG 280100Z 2801/2612 28015KT 9999 FEW030
LL EDDFYYYX LFPGYYYX 162200 TAF LFPG 162200Z 1622/1320 28015KT 9999 FEW030
SS LFPBYYYX LFPOYYYX 112300 TAF LFPG 112300Z 1123/2621 28015KT 9999 FEW030
GG LFPGYYYX EGLLYYYX LFPOYYYX LFPNYYYX 152000 TAF LFPG 152000Z 1520/1913 28015KT 9999 FEW030
LL LFPGYYYX EDDFYYYX LFPNYYYX 271100 TAF LFPG 271100Z 2711/0908 28015KT 9999 FEW030
DD LFPOYYYX EDDFYYYX EGLLYYYX 101900 TAF LFPG 101900Z 1019/0622 28015KT 9999 FEW030
SS LFPBYYYX EGLLYYYX LFPBYYYX 201500 TAF LFPG 201500Z 2015/0922 28015KT 9999 FEW030
GG EDDFYYYX EDDFYYYX 041000 TAF LFPG 041000Z 0410/2717 28015KT 9999 FEW030
GG LFPNYYYX LFPGYYYX LFPOYYYX LFPNYYYX 051100 TAF LFPG 051100Z 0511/0823 28015KT 9999 FEW030
SS LFPBYYYX LFPGYYYX EGLLYYYX 231800 TAF LFPG 231800Z 2318/1018 28015KT 9999 FEW030
GG LFPGYYYX EDDFYYYX 161800 TAF LFPG 161800Z 1618/2108 28015KT 9999 FEW030
SS LFPGYYYX EGLLYYYX LFPNYYYX LFPOYYYX 051300 TAF LFPG 051300Z 0513/0414 28015KT 9999 FEW030
DD LFPOYYYX LFPBYYYX 181900 TAF LFPG 181900Z 1819/0411 28015KT 9999 FEW030
KK LFPBYYYX LFPBYYYX LFPGYYYX 032300 TAF LFPG 032300Z 0323/2518 28015KT 9999 FEW030
KK EGLLYYYX LFPBYYYX EGLLYYYX 200000 TAF LFPG 200000Z 2000/1900 28015KT 9999 FEW030
DD LFPBYYYX EGLLYYYX 010400 TAF LFPG 010400Z 0104/0701 28015KT 9999 FEW030
LL LFPNYYYX LFPBYYYX EGLLYYYX LFPGYYYX 150100 TAF LFPG 150100Z 1501/0215 28015KT 9999 FEW030
DD EGLLYYYX LFPNYYYX EGLLYYYX 251400 TAF LFPG 251400Z 2514/2003 28015KT 9999 FEW030
DD LFPNYYYX LFPGYYYX LFPOYYYX EGLLYYYX 161300 TAF LFPG 161300Z 1613/2209 28015KT 9999 FEW030
KK LFPGYYYX LFPNYYYX LFPGYYYX 222100 TAF LFPG 222100Z 2221/2709 28015KT 9999 FEW030
DD EDDFYYYX EDDFYYYX LFPGYYYX 081800 TAF LFPG 081800Z 0818/0901 28015KT 9999 FEW030
KK EDDFYYYX LFPBYYYX 201700 TAF LFPG 201700Z 2017/0508 28015KT 9999 FEW030
DD LFPBYYYX LFPOYYYX EDDFYYYX EGLLYYYX 010100 TAF LFPG 010100Z 0101/1820 28015KT 9999 FEW030
SS LFPNYYYX EDDFYYYX LFPGYYYX LFPNYYYX 171600 TAF LFPG 171600Z 1716/2321 28015KT 9999 FEW030
SS EGLLYYYX EDDFYYYX LFPBYYYX 271800 TAF LFPG 271800Z 2718/1717 28015KT 9999 FEW030
FF LFPNYYYX EDDFYYYX 061800 TAF LFPG 061800Z 0618/0806 28015KT 9999 FEW030
DD EGLLYYYX LFPNYYYX LFPGYYYX EDDFYYYX 130500 TAF LFPG 130500Z 1305/1802 28015KT 9999 FEW030
GG EGLLYYYX EGLLYYYX LFPGYYYX LFPNYYYX 220400 TAF LFPG 220400Z 2204/0319 28015KT 9999 FEW030
LL LFPNYYYX EGLLYYYX LFPOYYYX 202200 TAF LFPG 202200Z 2022/1911 28015KT 9999 FEW030
LL LFPGYYYX LFPGYYYX EGLLYYYX LFPNYYYX 090000 TAF LFPG 090000Z 0900/0406 28015KT 9999 FEW030
KK LFPBYYYX LFPNYYYX 041700 TAF LFPG 041700Z 0417/2713 28015KT 9999 FEW030
FF EGLLYYYX EGLLYYYX LFPOYYYX 191100 TAF LFPG 191100Z 1911/0116 28015KT 9999 FEW030
FF EGLLYYYX LFPGYYYX 120400 TAF LFPG 120400Z 1204/2508 28015KT 9999 FEW030
KK LFPBYYYX LFPOYYYX LFPGYYYX 172000 TAF LFPG 172000Z 1720/0105 28015KT 9999 FEW030
KK EGLLYYYX LFPNYYYX LFPBYYYX LFPOYYYX 041400 TAF LFPG 041400Z 0414/1417 28015KT 9999 FEW030
KK LFPOYYYX EDDFYYYX 171200 TAF LFPG 171200Z 1712/1712 28015KT 9999 FEW030
DD LFPNYYYX EDDFYYYX EGLLYYYX LFPOYYYX 092200 TAF LFPG 092200Z 0922/0700 28015KT 9999 FEW030
FF LFPGYYYX LFPBYYYX LFPOYYYX EGLLYYYX 182200 TAF LFPG 182200Z 1822/1502 28015KT 9999 FEW030
LL EGLLYYYX EDDFYYYX LFPNYYYX LFPOYYYX 132200 TAF LFPG 132200Z 1322/2607 28015KT 9999 FEW030
GG LFPGYYYX LFPBYYYX LFPNYYYX 241400 TAF LFPG 241400Z 2414/0518 28015KT 9999 FEW030
FF LFPOYYYX LFPOYYYX 151800 TAF LFPG 151800Z 1518/1201 28015KT 9999 FEW030
SS LFPNYYYX LFPGYYYX 220500 TAF LFPG 220500Z 2205/0411 28015KT 9999 FEW030
LL LFPOYYYX EDDFYYYX 210300 TAF LFPG 210300Z 2103/1311 28015KT 9999 FEW030
LL LFPOYYYX LFPOYYYX LFPGYYYX LFPBYYYX 151600 TAF LFPG 151600Z 1516/0523 28015KT 9999 FEW030
KK EGLLYYYX LFPOYYYX 271500 TAF LFPG 271500Z 2715/1702 28015KT 9999 FEW030
FF LFPBYYYX EDDFYYYX 060600 TAF LFPG 060600Z 0606/1304 28015KT 9999 FEW030
KK EDDFYYYX EGLLYYYX LFPGYYYX 022000 TAF LFPG 022000Z 0220/2307 28015KT 9999 FEW030
FF LFPGYYYX LFPBYYYX LFPOYYYX 221600 TAF LFPG 221600Z 2216/0908 28015KT 9999 FEW030
FF LFPGYYYX EGLLYYYX LFPNYYYX 270400 TAF LFPG 270400Z 2704/2420 28015KT 9999 FEW030
GG LFPOYYYX LFPOYYYX 220000 TAF LFPG 220000Z 2200/2514 28015KT 9999 FEW030
SS LFPBYYYX LFPGYYYX LFPBYYYX LFPOYYYX 112100 TAF LFPG 112100Z 1121/2309 28015KT 9999 FEW030
SS EGLLYYYX LFPGYYYX 240000 TAF LFPG 240000Z 2400/2510 28015KT 9999 FEW030
KK EDDFYYYX LFPGYYYX LFPBYYYX 091900 TAF LFPG 091900Z 0919/0914 28015KT 9999 FEW030
DD EDDFYYYX LFPNYYYX 051500 TAF LFPG 051500Z 0515/2304 28015KT 9999 FEW030
FF EGLLYYYX EGLLYYYX EDDFYYYX LFPOYYYX 100500 TAF LFPG 100500Z 1005/1021 28015KT 9999 FEW030
FF EGLLYYYX LFPNYYYX 232300 TAF LFPG 232300Z 2323/0420 28015KT 9999 FEW030
KK LFPOYYYX LFPGYYYX EGLLYYYX LFPBYYYX 211900 TAF LFPG 211900Z 2119/2118 28015KT 9999 FEW030
LL LFPNYYYX LFPGYYYX 201200 TAF LFPG 201200Z 2012/2120 28015KT 9999 FEW030
KK LFPOYYYX EDDFYYYX LFPNYYYX 051400 TAF LFPG 051400Z 0514/2715 28015KT 9999 FEW030
FF LFPOYYYX LFPBYYYX LFPNYYYX 190300 TAF LFPG 190300Z 1903/0819 28015KT 9999 FEW030
DD LFPBYYYX LFPOYYYX LFPNYYYX 270800 TAF LFPG 270800Z 2708/2523 28015KT 9999 FEW030
GG LFPOYYYX LFPOYYYX 071900 TAF LFPG 071900Z 0719/1212 28015KT 9999 FEW030
LL EDDFYYYX EGLLYYYX LFPBYYYX LFPGYYYX 232300 TAF LFPG 232300Z 2323/0400 28015KT 9999 FEW030
KK LFPBYYYX LFPOYYYX LFPBYYYX EGLLYYYX 262000 TAF LFPG 262000Z 2620/2509 28015KT 9999 FEW030
FF LFPOYYYX LFPBYYYX EGLLYYYX 061600 TAF LFPG 061600Z 0616/1417 28015KT 9999 FEW030
FF EGLLYYYX LFPNYYYX EDDFYYYX EGLLYYYX 080400 TAF LFPG 080400Z 0804/2721 28015KT 9999 FEW030
LL LFPBYYYX EGLLYYYX LFPOYYYX 260800 TAF LFPG 260800Z 2608/0406 28015KT 9999 FEW030
SS LFPGYYYX EGLLYYYX LFPGYYYX LFPOYYYX 140500 TAF LFPG 140500Z 1405/1013 28015KT 9999 FEW030
LL EDDFYYYX EGLLYYYX LFPBYYYX LFPOYYYX 261300 TAF LFPG 261300Z 2613/2107 28015KT 9999 FEW030
FF LFPNYYYX LFPOYYYX EGLLYYYX LFPBYYYX 160100 TAF LFPG 160100Z 1601/1400 28015KT 9999 FEW030
DD EGLLYYYX LFPOYYYX LFPBYYYX 090500 TAF LFPG 090500Z 0905/2103 28015KT 9999 FEW030
DD LFPOYYYX EDDFYYYX LFPNYYYX 151900 TAF LFPG 151900Z 1519/2218 28015KT 9999 FEW030
SS LFPNYYYX EGLLYYYX LFPBYYYX EDDFYYYX 110200 TAF LFPG 110200Z 1102/1419 28015KT 9999 FEW030
KK LFPGYYYX EGLLYYYX 091700 TAF LFPG 091700Z 0917/0622 28015KT 9999 FEW030
SS EDDFYYYX EDDFYYYX EGLLYYYX 172100 TAF LFPG 172100Z 1721/1420 28015KT 9999 FEW030
GG LFPNYYYX LFPGYYYX LFPNYYYX 102000 TAF LFPG 102000Z 1020/1616 28015KT 9999 FEW030
GG LFPOYYYX LFPOYYYX 240600 TAF LFPG 240600Z 2406/0923 28015KT 9999 FEW030
DD LFPBYYYX LFPBYYYX 090300 TAF LFPG 090300Z 0903/0320 28015KT 9999 FEW030
LL EGLLYYYX EGLLYYYX LFPOYYYX LFPGYYYX 081800 TAF LFPG 081800Z 0818/0112 28015KT 9999 FEW030
DD LFPOYYYX LFPNYYYX 201100 TAF LFPG 201100Z 2011/1710 28015KT 9999 FEW030
SS EDDFYYYX LFPNYYYX LFPGYYYX EGLLYYYX 250200 TAF LFPG 250200Z 2502/1801 28015KT 9999 FEW030
FF EGLLYYYX LFPNYYYX EDDFYYYX LFPBYYYX 051400 TAF LFPG 051400Z 0514/2821 28015KT 9999 FEW030
GG LFPOYYYX LFPGYYYX LFPNYYYX 160800 TAF LFPG 160800Z 1608/1115 28015KT 9999 FEW030
SS LFPOYYYX LFPGYYYX EGLLYYYX LFPOYYYX 012300 TAF LFPG 012300Z 0123/1002 28015KT 9999 FEW030
SS EGLLYYYX LFPOYYYX LFPNYYYX LFPBYYYX 220500 TAF LFPG 220500Z 2205/2301 28015KT 9999 FEW030
SS EDDFYYYX LFPGYYYX LFPNYYYX 100300 TAF LFPG 100300Z 1003/0709 28015KT 9999 FEW030
DD LFPOYYYX EGLLYYYX LFPNYYYX 210100 TAF LFPG 210100Z 2101/0719 28015KT 9999 FEW030
DD LFPOYYYX EDDFYYYX LFPBYYYX EGLLYYYX 070200 TAF LFPG 070200Z 0702/2301 28015KT 9999 FEW030
LL LFPNYYYX EGLLYYYX 201800 TAF LFPG 201800Z 2018/2315 28015KT 9999 FEW030
GG LFPNYYYX LFPOYYYX 202200 TAF LFPG 202200Z 2022/0905 28015KT 9999 FEW030
SS LFPNYYYX LFPNYYYX 170800 TAF LFPG 170800Z 1708/0118 28015KT 9999 FEW030
SS LFPNYYYX LFPOYYYX EDDFYYYX 150800 TAF LFPG 150800Z 1508/1822 28015KT 9999 FEW030
FF EGLLYYYX LFPGYYYX EGLLYYYX 132200 TAF LFPG 132200Z 1322/1305 28015KT 9999 FEW030
FF LFPGYYYX LFPBYYYX EDDFYYYX LFPGYYYX 230300 TAF LFPG 230300Z 2303/0716 28015KT 9999 FEW030
DD LFPNYYYX EGLLYYYX LFPBYYYX 131000 TAF LFPG 131000Z 1310/2401 28015KT 9999 FEW030
GG LFPGYYYX EGLLYYYX 090000 TAF LFPG 090000Z 0900/1304 28015KT 9999 FEW030
LL EDDFYYYX LFPBYYYX LFPGYYYX 040700 TAF LFPG 040700Z 0407/0123 28015KT 9999 FEW030
FF LFPBYYYX LFPOYYYX LFPGYYYX EGLLYYYX 221700 TAF LFPG 221700Z 2217/0101 28015KT 9999 FEW030
DD LFPNYYYX LFPGYYYX LFPNYYYX 052200 TAF LFPG 052200Z 0522/0817 28015KT 9999 FEW030
GG EDDFYYYX LFPNYYYX EGLLYYYX 221700 TAF LFPG 221700Z 2217/1000 28015KT 9999 FEW030
FF LFPBYYYX LFPNYYYX LFPGYYYX EDDFYYYX 150900 TAF LFPG 150900Z 1509/1119 28015KT 9999 FEW030
KK EDDFYYYX EDDFYYYX LFPBYYYX 271700 TAF LFPG 271700Z 2717/2415 28015KT 9999 FEW030
DD LFPGYYYX LFPNYYYX LFPGYYYX 241600 TAF LFPG 241600Z 2416/2810 28015KT 9999 FEW030
KK LFPGYYYX LFPOYYYX EDDFYYYX EGLLYYYX 150000 TAF LFPG 150000Z 1500/1421 28015KT 9999 FEW030
DD LFPOYYYX LFPNYYYX 141100 TAF LFPG 141100Z 1411/1221 28015KT 9999 FEW030
GG LFPOYYYX EDDFYYYX 101400 TAF LFPG 101400Z 1014/1810 28015KT 9999 FEW030
SS LFPNYYYX LFPGYYYX LFPNYYYX LFPBYYYX 052300 TAF LFPG 052300Z 0523/2209 28015KT 9999 FEW030
KK LFPOYYYX EGLLYYYX 152100 TAF LFPG 152100Z 1521/2016 28015KT 9999 FEW030
FF LFPBYYYX LFPGYYYX EDDFYYYX 211400 TAF LFPG 211400Z 2114/2609 28015KT 9999 FEW030
DD LFPOYYYX EDDFYYYX EGLLYYYX LFPBYYYX 190200 TAF LFPG 190200Z 1902/1204 28015KT 9999 FEW030
