DD LFPGYYYX LFPOYYYX 201530 METAR LFPG 201530Z AUTO 28015G25KT 8000 -RA BKN015 OVC025 10/09 Q1012 TEMPO 3000 RA
