FF LFPGYYYX LFPOYYYX 151200 TAF AMD LFPG 151200Z 1512/1612 28015KT 9999 FEW030 TEMPO 1518/1520 30020G35KT 4000 SHRA
